 2019 1231 2359 59.7 L  33.841  52.399 13.1  New  7 0.9 4.1LNew                1
 GAP=217        2.16       6.2     6.9  9.0  0.2505E+02 -0.1315E+02 -0.7748E+01E
 Action:ARG 23-12-09 18:57 OP:OBSP STATUS:               ID:20200101000000     I
 STAT SP IPHASW D HRMM SECON CODA AMPLIT PERI AZIMU VELO AIN AR TRES W  DIS CAZ7
 XBVK    IP   0A  24 0 14.88                              56    0.2110 60.3  26 
 XBVK     IAML A  24 0 14.88     13415.6                               60.3  26 
 XBVK    ES   0A  24 0 26.04                              56    0.6110 60.3  26 
 DQYH    IP   0A  24 0 20.68                              45    0.7710 88.5 327 
 DQYH     IAML A  24 0 20.68      7353.0                               88.5 327 
 DQYH    ES   0A  24 0 36.19                              45    1.7510 88.5 327 
 MGUS    IP   0A  24 0 25.83                              38    0.0310  126  92 
 MGUS     IAML A  24 0 25.83      4168.3                                126  92 
 MGUS    ES   0A  24 0 45.21                              38    0.6310  126  92 
 RAWC     IAML A  24 0 26.82      3689.5                                135 110 
 RAWC    IP   0A  24 0 26.82                              38   -0.2410  135 110 
 RAWC    ES   0A  24 0 46.94                              38    0.1910  135 110 
 VOCA    IP   0A  24 0 26.95                              38   -0.4910  137  47 
 VOCA     IAML A  24 0 26.95      3701.4                                137  47 
 VOCA    ES   0A  24 0 47.16                              38   -0.2310  137  47 
 QYDI    IP   0A  24 0 31.77                              38   -1.07 8  174 358 
 QYDI    ES   0A  24 0 54.97                              38   -1.71 8  174 358 
 HLUH    IP   0A  24 0 32.03                              38   -0.88 8  174 332 
 HLUH    ES   0A  24 0 55.51                              38   -1.29 8  174 332 
 QYDI     IAML A  24 0 31.77      2415.1                                174 358 
 HLUH     IAML A  24 0 32.03      2375.1                                174 332 
                                                                                
 2020  1 1 0002  2.2 L  33.573  52.407 17.3  New  7 1.0 2.2LNew                1
 GAP=177        2.23      15.7    10.0 20.4  0.1350E+03 -0.1842E+03 -0.2757E+03E
 Action:ARG 23-12-09 18:57 OP:OBSP STATUS:               ID:20200101000203     I
 STAT SP IPHASW D HRMM SECON CODA AMPLIT PERI AZIMU VELO AIN AR TRES W  DIS CAZ7
 CBZA    IP   0A   0 2 16.21                              92   -0.0610 58.0 274 
 CBZA     IAML A   0 2 16.21       186.2                               58.0 274 
 CBZA    ES   0A   0 2 26.11                              92   -0.3110 58.0 274 
 AVTK    IP   0A   0 2 19.14                              58    0.2010 72.0 317 
 AVTK     IAML A   0 2 19.14       134.4                               72.0 317 
 AVTK    ES   0A   0 2 31.24                              58    0.2210 72.0 317 
 DQYH    IP   0A   0 2 26.54                              49    0.7410  115 335 
 DQYH     IAML A   0 2 26.54        66.5                                115 335 
 DQYH    ES   0A   0 2 44.19                              49    1.3810  115 335 
 RAWC    IP   0A   0 2 27.52                              49   -0.1310  127  97 
 RAWC     IAML A   0 2 27.52        56.8                                127  97 
 RAWC    ES   0A   0 2 45.92                              49   -0.0910  127  97 
 MGUS     IAML A   0 2 27.99        56.0                                128  79 
 MGUS    IP   0A   0 2 27.99                              49    0.2410  128  79 
 MGUS    ES   0A   0 2 46.72                              49    0.5510  128  79 
 APSL     IAML A   0 2 29.43        47.6                                140  63 
 APSL    IP   0A   0 2 29.43                              49   -0.1910  140  63 
 APSL    ES   0A   0 2 49.12                              49   -0.2810  140  63 
 HLUH     IAML A   0 2 37.06        24.6                                201 336 
 HLUH    IP   0A   0 2 37.06                              49   -1.60 7  201 336 
 HLUH    ES   0A   0 3  1.50                              49   -3.44 7  201 336 
                                                                                
 2020  1 1 0004  5.1 L  33.460  52.395 28.0  New  7 1.1 4.3LNew                1
 GAP=264        2.39      21.5    12.9 43.4  0.2167E+03 -0.4034E+03 -0.7704E+03E
 Action:ARG 23-12-09 18:57 OP:OBSP STATUS:               ID:20200101000406     I
 STAT SP IPHASW D HRMM SECON CODA AMPLIT PERI AZIMU VELO AIN AR TRES W  DIS CAZ7
 RHPW    IP   0A   0 4 23.97                              62    0.4310 87.8  30 
 RHPW     IAML A   0 4 23.97     12968.5                               87.8  30 
 RHPW    ES   0A   0 4 37.45                              62    0.6410 87.8  30 
 DQYH     IAML A   0 4 29.87      6808.1                                126 338 
 DQYH    IP   0A   0 4 29.87                              62    0.6710  126 338 
 DQYH    ES   0A   0 4 47.77                              62    1.2310  126 338 
 MGUS    IP   0A   0 4 30.40                              62    0.3010  132  74 
 MGUS     IAML A   0 4 30.40      6092.3                                132  74 
 MGUS    ES   0A   0 4 48.69                              62    0.6110  132  74 
 DNOA     IAML A   0 4 30.04      6243.6                                134  44 
 DNOA    IP   0A   0 4 30.04                              62   -0.3510  134  44 
 DNOA    ES   0A   0 4 48.01                              62   -0.5810  134  44 
 APSL    IP   0A   0 4 31.93                              62   -0.50 9  148  59 
 APSL     IAML A   0 4 31.93      5135.6                                148  59 
 APSL    ES   0A   0 4 51.32                              62   -0.78 9  148  59 
 FOUH     IAML A   0 4 32.87      5161.7                                150  13 
 FOUH    IP   0A   0 4 32.87                              62    0.09 9  150  13 
 FOUH    ES   0A   0 4 53.01                              62    0.31 9  150  13 
 HLUH     IAML A   0 4 40.29      2540.1                                212 338 
 HLUH    IP   0A   0 4 40.29                              62   -1.79 6  212 338 
 HLUH    ES   0A   0 5  4.87                              62   -3.83 6  212 338 
                                                                                
 2020  1 1 0006  8.1 L  34.038  52.827 21.6  New  7 0.3 1.1LNew                1
 GAP=116        0.88       2.4     1.5  5.0  0.1873E+00 -0.1236E+01 -0.2228E+00E
 Action:ARG 23-12-09 18:57 OP:OBSP STATUS:               ID:20200101000609     I
 STAT SP IPHASW D HRMM SECON CODA AMPLIT PERI AZIMU VELO AIN AR TRES W  DIS CAZ7
 LUEX    IP   0A   0 6 26.02                              58    0.0110 81.3 257 
 LUEX     IAML A   0 6 26.02         7.2                               81.3 257 
 LUEX    ES   0A   0 6 38.79                              58   -0.1010 81.3 257 
 AVTK    IP   0A   0 6 27.01                              58   -0.0610 87.6 271 
 AVTK     IAML A   0 6 27.01         6.5                               87.6 271 
 AVTK    ES   0A   0 6 40.52                              58   -0.2010 87.6 271 
 MGUS    IP   0A   0 6 27.90                              49    0.2810 90.9 108 
 MGUS     IAML A   0 6 27.90         6.1                               90.9 108 
 MGUS    ES   0A   0 6 42.07                              49    0.3910 90.9 108 
 VOCA    IP   0A   0 6 27.82                              49   -0.2710 94.1  41 
 VOCA     IAML A   0 6 27.82         6.0                               94.1  41 
 VOCA    ES   0A   0 6 41.93                              49   -0.5610 94.1  41 
 DQYH     IAML A   0 6 29.72         5.3                                102 301 
 DQYH    IP   0A   0 6 29.72                              49    0.4110  102 301 
 DQYH    ES   0A   0 6 45.26                              49    0.6810  102 301 
 CBZA     IAML A   0 6 29.94         4.7                                108 244 
 CBZA    IP   0A   0 6 29.94                              49   -0.1810  108 244 
 CBZA    ES   0A   0 6 45.64                              49   -0.3310  108 244 
 RAWC     IAML A   0 6 30.49         4.5                                110 128 
 RAWC    IP   0A   0 6 30.49                              49   -0.0210  110 128 
 RAWC    ES   0A   0 6 46.61                              49   -0.0410  110 128 
                                                                                
 2020  1 1 0008 10.4 L  33.950  52.560  3.0  New  7 0.4 1.7LNew                1
 GAP=130        0.96       2.0     2.2  2.5 -0.1919E+01 -0.2347E+01  0.3218E+01E
 Action:ARG 23-12-09 18:57 OP:OBSP STATUS:               ID:20200101000812     I
 STAT SP IPHASW D HRMM SECON CODA AMPLIT PERI AZIMU VELO AIN AR TRES W  DIS CAZ7
 XBVK    IP   0A   0 8 22.43                              94    0.1410 43.6  16 
 XBVK     IAML A   0 8 22.43        98.1                               43.6  16 
 XBVK    ES   0A   0 8 30.25                              94   -0.5810 43.6  16 
 CBZA    IP   0A   0 8 31.26                              47    0.1110 81.3 242 
 CBZA     IAML A   0 8 31.26        35.0                               81.3 242 
 CBZA    ES   0A   0 8 45.70                              47   -0.3810 81.3 242 
 DNOA     IAML A   0 8 32.87        31.8                               88.3  62 
 DNOA    IP   0A   0 8 32.87                              38    0.3610 88.3  62 
 DNOA    ES   0A   0 8 48.53                              38    0.1110 88.3  62 
 FOUH     IAML A   0 8 33.83        31.6                               93.4  12 
 FOUH    IP   0A   0 8 33.83                              38    0.4510 93.4  12 
 FOUH    ES   0A   0 8 50.22                              38    0.3010 93.4  12 
 MGUS     IAML A   0 8 36.94        20.6                                113  99 
 APSL     IAML A   0 8 36.44        21.1                                113  79 
 MGUS    IP   0A   0 8 36.94                              33    0.3710  113  99 
 MGUS    ES   0A   0 8 55.64                              33    0.2410  113  99 
 APSL    IP   0A   0 8 36.44                              33   -0.1710  113  79 
 APSL    ES   0A   0 8 54.77                              33   -0.7110  113  79 
 RAWC     IAML A   0 8 38.58        16.9                                126 117 
 RAWC    IP   0A   0 8 38.58                              33    0.0410  126 117 
 RAWC    ES   0A   0 8 58.51                              33   -0.2810  126 117 
                                                                                
 2020  1 1 0010 14.7 L  33.945  52.727 51.3  New  7 0.3 2.3LNew                1
 GAP=191        0.76       2.9     2.4  4.4 -0.4432E+01  0.3226E+01 -0.3138E+01E
 Action:ARG 23-12-09 18:57 OP:OBSP STATUS:               ID:20200101001015     I
 STAT SP IPHASW D HRMM SECON CODA AMPLIT PERI AZIMU VELO AIN AR TRES W  DIS CAZ7
 RHPW    IP   0A   010 25.59                             147   -0.1810 25.9  30 
 RHPW     IAML A   010 25.59       330.7                               25.9  30 
 RHPW    ES   0A   010 33.54                             147   -0.1710 25.9  30 
 LUEX    IP   0A   010 31.11                             115    0.1810 70.5 264 
 LUEX     IAML A   010 31.11       125.2                               70.5 264 
 LUEX    ES   0A   010 43.19                             115    0.6010 70.5 264 
 DNOA    IP   0A   010 31.40                             113   -0.1910 75.3  56 
 DNOA     IAML A   010 31.40       121.7                               75.3  56 
 DNOA    ES   0A   010 43.70                             113   -0.0310 75.3  56 
 CBZA    IP   0A   010 34.04                             107   -0.3110 95.0 247 
 CBZA     IAML A   010 34.04        89.7                               95.0 247 
 CBZA    ES   0A   010 48.33                             107   -0.1510 95.0 247 
 VOCA     IAML A   010 36.22        68.6                                108  41 
 VOCA    IP   0A   010 36.22                             104    0.0210  108  41 
 VOCA    ES   0A   010 52.14                             104    0.4810  108  41 
 QYDI     IAML A   010 44.94        30.9                                166 347 
 QYDI    IP   0A   010 44.94                              98    0.23 8  166 347 
 QYDI    ES   0A   011  6.24                              98   -0.05 8  166 347 
 HLUH     IAML A   010 46.74        26.6                                181 322 
 HLUH    IP   0A   010 46.74                              98   -0.13 8  181 322 
 HLUH    ES   0A   011  9.48                              98   -0.53 8  181 322 
                                                                                
 2020  1 1 0012 17.3 L  33.639  52.554 11.8  New  7 0.7 2.6LNew                1
 GAP=214        1.70      12.8     5.1 10.5  0.5053E+02 -0.3887E+02 -0.9853E+02E
 Action:ARG 23-12-09 18:57 OP:OBSP STATUS:               ID:20200101001218     I
 STAT SP IPHASW D HRMM SECON CODA AMPLIT PERI AZIMU VELO AIN AR TRES W  DIS CAZ7
 LUEX    IP   0A   012 32.22                              56   -0.1910 60.1 296 
 LUEX     IAML A   012 32.22       390.4                               60.1 296 
 LUEX    ES   0A   012 42.88                              56   -0.4010 60.1 296 
 AVTK    IP   0A   012 36.07                              56    0.2210 77.4 306 
 AVTK     IAML A   012 36.07       267.9                               77.4 306 
 AVTK    ES   0A   012 49.63                              56    0.4510 77.4 306 
 MGUS    IP   0A   012 41.45                              38   -0.2410  113  81 
 MGUS     IAML A   012 41.45       154.4                                113  81 
 MGUS    ES   0A   012 59.03                              38   -0.2110  113  81 
 DQYH    IP   0A   012 42.45                              38    0.4710  115 327 
 DQYH     IAML A   012 42.45       142.1                                115 327 
 DQYH    ES   0A   013  0.77                              38    1.0410  115 327 
 APSL     IAML A   012 43.58       124.2                                125  63 
 APSL    IP   0A   012 43.58                              38    0.1210  125  63 
 APSL    ES   0A   013  2.73                              38    0.4610  125  63 
 VOCA     IAML A   012 46.50        93.6                                144  37 
 VOCA    IP   0A   012 46.50                              38    0.1410  144  37 
 VOCA    ES   0A   013  7.23                              38   -0.0410  144  37 
 RPKV     IAML A   012 51.98        61.2                                189 338 
 RPKV    IP   0A   012 51.98                              38   -1.03 7  189 338 
 RPKV    ES   0A   013 16.37                              38   -2.33 7  189 338 
                                                                                
 2020  1 1 0014 20.2 L  33.946  52.775 45.4  New  7 0.8 2.1LNew                1
 GAP=142        1.94       7.4     4.6 13.0  0.1599E+02  0.1837E+02  0.5907E+02E
 Action:ARG 23-12-09 18:57 OP:OBSP STATUS:               ID:20200101001421     I
 STAT SP IPHASW D HRMM SECON CODA AMPLIT PERI AZIMU VELO AIN AR TRES W  DIS CAZ7
 RHPW    IP   0A   014 29.91                             144   -0.4610 23.9  20 
 RHPW     IAML A   014 29.91       225.0                               23.9  20 
 RHPW    ES   0A   014 36.60                             144   -1.0810 23.9  20 
 XBVK    IP   0A   014 33.19                             124    0.7610 43.1 349 
 XBVK     IAML A   014 33.19       119.7                               43.1 349 
 XBVK    ES   0A   014 42.33                             124    1.1210 43.1 349 
 LUEX    IP   0A   014 36.56                             107   -0.1710 74.9 264 
 LUEX     IAML A   014 36.56        67.7                               74.9 264 
 LUEX    ES   0A   014 48.23                             107   -0.3810 74.9 264 
 AVTK    IP   0A   014 38.50                             105    0.5210 83.6 278 
 AVTK     IAML A   014 38.50        56.2                               83.6 278 
 AVTK    ES   0A   014 51.62                             105    0.8610 83.6 278 
 MGUS     IAML A   014 39.72        47.8                               93.1 101 
 MGUS    IP   0A   014 39.72                             103    0.3710 93.1 101 
 MGUS    ES   0A   014 53.75                             103    0.6410 93.1 101 
 RAWC     IAML A   014 41.31        38.9                                108 122 
 RAWC    IP   0A   014 41.31                             100   -0.2810  108 122 
 RAWC    ES   0A   014 56.53                             100   -0.4410  108 122 
 HLUH     IAML A   014 51.94        14.6                                183 321 
 HLUH    IP   0A   014 51.94                              95   -0.73 8  183 321 
 HLUH    ES   0A   015 14.25                              95   -1.78 8  183 321 
                                                                                
 2020  1 1 0016 23.8 L  33.982  52.679 22.6  New  7 0.8 2.3LNew                1
 GAP=180        1.97       5.7     4.4  6.2 -0.7621E+01 -0.7415E+01  0.1504E+02E
 Action:ARG 23-12-09 18:57 OP:OBSP STATUS:               ID:20200101001624     I
 STAT SP IPHASW D HRMM SECON CODA AMPLIT PERI AZIMU VELO AIN AR TRES W  DIS CAZ7
 XBVK    IP   0A   016 34.03                             108   -0.1410 38.3   1 
 XBVK     IAML A   016 34.03       397.0                               38.3   1 
 XBVK    ES   0A   016 41.55                             108   -0.1110 38.3   1 
 LUEX    IP   0A   016 39.35                              58    0.2710 66.7 260 
 LUEX     IAML A   016 39.35       164.6                               66.7 260 
 LUEX    ES   0A   016 50.85                              58    0.7310 66.7 260 
 DNOA    IP   0A   016 40.76                              58   -0.0510 76.9  60 
 DNOA     IAML A   016 40.76       145.0                               76.9  60 
 DNOA    ES   0A   016 53.34                              58    0.2510 76.9  60 
 FOUH    IP   0A   016 43.35                              58    0.6410 88.2   6 
 FOUH     IAML A   016 43.35       120.1                               88.2   6 
 FOUH    ES   0A   016 57.89                              58    1.5410 88.2   6 
 APSL     IAML A   016 44.49        93.6                                102  80 
 APSL    IP   0A   016 44.49                              49   -0.2410  102  80 
 APSL    ES   0A   016 59.85                              49    0.0210  102  80 
 VOCA     IAML A   016 45.21        87.0                                108  44 
 VOCA    IP   0A   016 45.21                              49   -0.4610  108  44 
 VOCA    ES   0A   017  1.12                              49   -0.3210  108  44 
 HLUH     IAML A   016 54.37        37.2                                175 323 
 HLUH    IP   0A   016 54.37                              49   -1.26 8  175 323 
 HLUH    ES   0A   017 16.56                              49   -2.02 8  175 323 
                                                                                
