 2020  1 1 0036 54.0 L  33.983  52.697 29.5  New  7 0.5 1.2LNew                1
 GAP=201        1.27       3.8     4.5  3.9 -0.9679E+01  0.7101E+01  0.8494E+00E
 Action:ARG 23-12-09 18:57 OP:OBSP STATUS:               ID:20200101003654     I
 STAT SP IPHASW D HRMM SECON CODA AMPLIT PERI AZIMU VELO AIN AR TRES W  DIS CAZ7
 RHPW    IP   0A   037  2.01                             128   -0.4010 24.0  40 
 RHPW     IAML A   037  2.01        40.4                               24.0  40 
 RHPW    ES   0A   037  8.02                             128   -0.4710 24.0  40 
 XBVK    IP   0A   037  4.90                             110    0.3710 38.3 359 
 XBVK     IAML A   037  4.90        22.0                               38.3 359 
 XBVK    ES   0A   037 13.07                             110    0.9410 38.3 359 
 LUEX    IP   0A   037  9.07                              62   -0.3110 68.4 260 
 LUEX     IAML A   037  9.07        10.5                               68.4 260 
 LUEX    ES   0A   037 20.38                              62   -0.0910 68.4 260 
 CBZA    IP   0A   037 13.25                              62    0.0210 94.2 244 
 CBZA     IAML A   037 13.25         6.7                               94.2 244 
 CBZA    ES   0A   037 27.69                              62    0.5910 94.2 244 
 VOCA     IAML A   037 15.09         5.5                                107  43 
 VOCA    IP   0A   037 15.09                              62    0.0110  107  43 
 VOCA    ES   0A   037 30.91                              62    0.6310  107  43 
 QYDI    IP   0A   037 22.66                              62   -0.58 9  161 348 
 QYDI    ES   0A   037 43.45                              62   -0.86 9  161 348 
 RPKV     IAML A   037 22.94         2.7                                161 329 
 RPKV    IP   0A   037 22.94                              62   -0.19 9  161 329 
 RPKV    ES   0A   037 44.07                              62   -0.06 9  161 329 
 QYDI     IAML A   037 22.66         2.7                                161 348 
                                                                                
 2020  1 1 0038 56.1 L  33.596  52.348 14.8  New  7 0.8 0.5LNew                1
 GAP=174        1.99       6.1     4.0  9.0  0.4662E+01 -0.1560E+02 -0.1891E+02E
 Action:ARG 23-12-09 18:57 OP:OBSP STATUS:               ID:20200101003857     I
 STAT SP IPHASW D HRMM SECON CODA AMPLIT PERI AZIMU VELO AIN AR TRES W  DIS CAZ7
 CBZA    IP   0A   039  9.44                              56    0.1510 52.5 272 
 CBZA     IAML A   039  9.44         3.9                               52.5 272 
 CBZA    ES   0A   039 18.77                              56   -0.0010 52.5 272 
 AVTK    IP   0A   039 11.85                              56   -0.2510 66.6 319 
 AVTK     IAML A   039 11.85         3.1                               66.6 319 
 AVTK    ES   0A   039 22.99                              56   -0.6010 66.6 319 
 RHPW    IP   0A   039 15.02                              45    0.8110 77.7  38 
 RHPW     IAML A   039 15.02         2.4                               77.7  38 
 RHPW    ES   0A   039 28.53                              45    1.3010 77.7  38 
 DQYH    IP   0A   039 19.90                              38    0.4010  110 337 
 DQYH     IAML A   039 19.90         1.4                                110 337 
 DQYH    ES   0A   039 37.07                              38    0.7510  110 337 
 DNOA     IAML A   039 21.79         1.1                                127  50 
 DNOA    IP   0A   039 21.79                              38   -0.1610  127  50 
 DNOA    ES   0A   039 40.35                              38   -0.1910  127  50 
 RAWC     IAML A   039 22.89         1.0                                133  98 
 RAWC    IP   0A   039 22.89                              38    0.0210  133  98 
 RAWC    ES   0A   039 42.31                              38    0.1910  133  98 
 VOCA     IAML A   039 25.72         0.7                                160  41 
 VOCA    IP   0A   039 25.72                              38   -1.21 9  160  41 
 VOCA    ES   0A   039 47.15                              38   -1.96 9  160  41 
                                                                                
