 2020  1 1 0018 25.8 L  33.682  52.597 53.9  New  7 0.9 2.3LNew                1
 GAP=200        2.22       9.3     6.3 25.2 -0.1887E+02 -0.7989E+02 -0.1889E+02E
 Action:ARG 23-12-09 18:57 OP:OBSP STATUS:               ID:20200101001827     I
 STAT SP IPHASW D HRMM SECON CODA AMPLIT PERI AZIMU VELO AIN AR TRES W  DIS CAZ7
 LUEX    IP   0A   018 40.72                             121   -0.3410 61.9 290 
 LUEX     IAML A   018 40.72       135.7                               61.9 290 
 LUEX    ES   0A   018 51.01                             121   -1.0310 61.9 290 
 CBZA    IP   0A   018 43.39                             115    0.4810 75.9 264 
 CBZA     IAML A   018 43.39        99.8                               75.9 264 
 CBZA    ES   0A   018 55.69                             115    0.4710 75.9 264 
 AVTK    IP   0A   018 43.67                             114    0.4710 78.1 302 
 AVTK     IAML A   018 43.67       100.3                               78.1 302 
 AVTK    ES   0A   018 56.17                             114    0.4610 78.1 302 
 DNOA    IP   0A   018 46.78                             107    0.0710  103  46 
 DNOA     IAML A   018 46.78        72.8                                103  46 
 DNOA    ES   0A   019  1.62                             107   -0.1310  103  46 
 APSL     IAML A   018 48.74        57.2                                119  64 
 APSL    IP   0A   018 48.74                             104   -0.2810  119  64 
 APSL    ES   0A   019  5.05                             104   -0.6710  119  64 
 FOUH     IAML A   018 50.34        54.2                                122   8 
 FOUH    IP   0A   018 50.34                             104    0.9010  122   8 
 FOUH    ES   0A   019  7.86                             104    1.4210  122   8 
 HLUH     IAML A   018 59.49        21.9                                198 330 
 HLUH    IP   0A   018 59.49                              98   -1.12 7  198 330 
 HLUH    ES   0A   019 22.92                              98   -2.74 7  198 330 
                                                                                
 2020  1 1 0020 30.6 L  33.823  52.499 30.1  New  7 0.5 3.7LNew                1
 GAP=178        1.35       4.6     3.1  4.8 -0.6862E+01 -0.2749E+01  0.2145E+01E
 Action:ARG 23-12-09 18:57 OP:OBSP STATUS:               ID:20200101002030     I
 STAT SP IPHASW D HRMM SECON CODA AMPLIT PERI AZIMU VELO AIN AR TRES W  DIS CAZ7
 RHPW    IP   0A   020 42.77                             104   -0.2210 49.4  43 
 LUEX     IAML A   020 42.74      5367.4                               49.4 277 
 RHPW     IAML A   020 42.77      6257.6                               49.4  43 
 LUEX    IP   0A   020 42.74                             104   -0.2510 49.4 277 
 LUEX    ES   0A   020 52.30                             104    0.3910 49.4 277 
 RHPW    ES   0A   020 52.35                             104    0.4410 49.4  43 
 CBZA    IP   0A   020 46.01                              62   -0.2610 70.5 251 
 CBZA     IAML A   020 46.01      3483.3                               70.5 251 
 CBZA    ES   0A   020 58.03                              62    0.4810 70.5 251 
 DNOA    IP   0A   020 50.70                              62   -0.0210  100  56 
 DNOA     IAML A   020 50.70      2297.6                                100  56 
 DNOA    ES   0A   021  6.23                              62    1.0210  100  56 
 APSL     IAML A   020 53.24      1706.5                                122  73 
 APSL    IP   0A   020 53.24                              62   -0.7010  122  73 
 APSL    ES   0A   021 10.68                              62   -0.0610  122  73 
 RPKV     IAML A   021  0.70       889.6                                168 337 
 RPKV    IP   0A   021  0.70                              62   -0.14 8  168 337 
 RPKV    ES   0A   021 23.17                              62    0.56 8  168 337 
 QYDI     IAML A   021  1.19       827.8                                176 355 
 QYDI    IP   0A   021  1.19                              62   -0.82 8  176 355 
 QYDI    ES   0A   021 23.68                              62   -0.95 8  176 355 
                                                                                
 2020  1 1 0022 33.6 L  33.706  52.364 27.0  New  7 0.7 1.7LNew                1
 GAP=156        1.77       5.0     4.0  7.3 -0.4101E+00 -0.1845E+02  0.5627E+01E
 Action:ARG 23-12-09 18:57 OP:OBSP STATUS:               ID:20200101002233     I
 STAT SP IPHASW D HRMM SECON CODA AMPLIT PERI AZIMU VELO AIN AR TRES W  DIS CAZ7
 LUEX    IP   0A   022 43.89                             101   -0.5910 41.0 297 
 LUEX     IAML A   022 43.89        66.6                               41.0 297 
 LUEX    ES   0A   022 52.06                             101   -0.2610 41.0 297 
 CBZA    IP   0A   022 46.99                              96    0.1810 54.9 259 
 CBZA     IAML A   022 46.99        43.9                               54.9 259 
 CBZA    ES   0A   022 57.49                              96    1.1710 54.9 259 
 XBVK    IP   0A   022 50.47                              62    0.2610 75.2  23 
 XBVK     IAML A   022 50.47        35.3                               75.2  23 
 XBVK    ES   0A   023  3.58                              62    1.4010 75.2  23 
 MGUS    IP   0A   022 57.97                              62   -0.3810  130  86 
 MGUS     IAML A   022 57.97        14.8                                130  86 
 MGUS    ES   0A   023 16.69                              62    0.5110  130  86 
 RAWC     IAML A   022 58.34        13.9                                134 103 
 RAWC    IP   0A   022 58.34                              62   -0.5910  134 103 
 RAWC    ES   0A   023 17.35                              62    0.1710  134 103 
 APSL     IAML A   022 58.83        13.4                                138  69 
 APSL    IP   0A   022 58.83                              62   -0.7510  138  69 
 APSL    ES   0A   023 18.15                              62   -0.1410  138  69 
 HLUH     IAML A   023  5.81         7.3                                186 335 
 HLUH    IP   0A   023  5.81                              62   -0.91 7  186 335 
 HLUH    ES   0A   023 29.71                              62   -0.87 7  186 335 
                                                                                
 2020  1 1 0024 34.6 L  33.631  52.498 60.1  New  7 0.4 0.4LNew                1
 GAP=187        1.13       5.5     3.4 11.3 -0.8574E+01 -0.2296E+02  0.2112E+02E
 Action:ARG 23-12-09 18:57 OP:OBSP STATUS:               ID:20200101002436     I
 STAT SP IPHASW D HRMM SECON CODA AMPLIT PERI AZIMU VELO AIN AR TRES W  DIS CAZ7
 CBZA     IAML A   024 50.85         1.7                               66.4 268 
 CBZA    IP   0A   024 50.85                             124   -0.0510 66.4 268 
 CBZA    ES   0A   025  1.98                             124   -0.6610 66.4 268 
 RHPW    IP   0A   024 51.37                             123    0.4510 66.6  31 
 RHPW     IAML A   024 51.37         1.9                               66.6  31 
 RHPW    ES   0A   025  2.90                             123    0.2210 66.6  31 
 AVTK    IP   0A   024 52.29                             120    0.4510 73.9 309 
 AVTK     IAML A   024 52.29         1.5                               73.9 309 
 AVTK    ES   0A   025  4.50                             120    0.2410 73.9 309 
 DNOA    IP   0A   024 57.64                             109    0.3710  114  47 
 DNOA     IAML A   024 57.64         0.8                                114  47 
 DNOA    ES   0A   025 13.87                             109    0.2810  114  47 
 MGUS     IAML A   024 58.14         0.8                                118  81 
 MGUS    IP   0A   024 58.14                             108    0.2110  118  81 
 MGUS    ES   0A   025 14.74                             108    0.0210  118  81 
 APSL     IAML A   024 59.59         0.7                                130  64 
 APSL    IP   0A   024 59.59                             106    0.0110  130  64 
 APSL    ES   0A   025 17.28                             106   -0.2910  130  64 
 VOCA     IAML A   025  1.85         0.5                                148  38 
 VOCA    IP   0A   025  1.85                             104   -0.37 9  148  38 
 VOCA    ES   0A   025 21.03                             104   -1.08 9  148  38 
                                                                                
 2020  1 1 0026 37.9 L  33.736  52.407 28.2  New  7 0.5 2.6LNew                1
 GAP=247        1.28       5.6     4.9  6.7  0.1377E+02  0.6246E+01  0.1995E+01E
 Action:ARG 23-12-09 18:57 OP:OBSP STATUS:               ID:20200101002639     I
 STAT SP IPHASW D HRMM SECON CODA AMPLIT PERI AZIMU VELO AIN AR TRES W  DIS CAZ7
 RHPW    IP   0A   026 52.45                              97    0.0610 62.3  43 
 RHPW     IAML A   026 52.45       419.9                               62.3  43 
 RHPW    ES   0A   027  2.54                              97   -0.2710 62.3  43 
 XBVK    IP   0A   026 54.37                              62    0.6110 70.6  22 
 XBVK     IAML A   026 54.37       323.2                               70.6  22 
 XBVK    ES   0A   027  5.91                              62    0.7410 70.6  22 
 DNOA    IP   0A   027  0.21                              62    0.1510  113  54 
 DNOA     IAML A   027  0.21       159.8                                113  54 
 DNOA    ES   0A   027 16.12                              62    0.1210  113  54 
 MGUS    IP   0A   027  1.82                              62   -0.1410  126  87 
 MGUS     IAML A   027  1.82       131.2                                126  87 
 MGUS    ES   0A   027 18.93                              62   -0.3410  126  87 
 RPKV     IAML A   027  9.65        64.4                                174 341 
 RPKV    IP   0A   027  9.65                              62    0.45 8  174 341 
 RPKV    ES   0A   027 32.11                              62    0.38 8  174 341 
 HLUH    IP   0A   027 10.79                              62    0.02 8  185 334 
 HLUH    ES   0A   027 33.93                              62   -0.49 8  185 334 
 QYDI     IAML A   027 10.31        59.4                                185 358 
 QYDI    IP   0A   027 10.31                              62   -0.52 8  185 358 
 QYDI    ES   0A   027 32.93                              62   -1.60 8  185 358 
 HLUH     IAML A   027 10.79        56.8                                185 334 
                                                                                
 2020  1 1 0028 41.6 L  34.085  52.544  5.2  New  7 0.6 5.0LNew                1
 GAP=160        1.54       3.4     2.3  2.7 -0.2354E+01  0.7804E+00  0.2451E+01E
 Action:ARG 23-12-09 18:57 OP:OBSP STATUS:               ID:20200101002842     I
 STAT SP IPHASW D HRMM SECON CODA AMPLIT PERI AZIMU VELO AIN AR TRES W  DIS CAZ7
 XBVK    IP   0A   028 49.47                             100   -0.4310 30.0  26 
 XBVK     IAML A   028 49.47      26.2e4                               30.0  26 
 XBVK    ES   0A   028 55.08                             100   -0.7910 30.0  26 
 RHPW    IP   0A   028 50.49                             100    0.5010 30.4  77 
 RHPW     IAML A   028 50.49      23.6e4                               30.4  77 
 RHPW    ES   0A   028 56.85                             100    0.8310 30.4  77 
 LUEX    IP   0A   028 56.67                              62   -0.2810 58.1 246 
 LUEX     IAML A   028 56.67     97181.6                               58.1 246 
 LUEX    ES   0A   029  7.67                              62   -0.3210 58.1 246 
 DQYH    IP   0A   029  1.67                              47    0.4510 77.7 307 
 DQYH     IAML A   029  1.67     68667.5                               77.7 307 
 DQYH    ES   0A   029 16.45                              47    1.1210 77.7 307 
 DNOA     IAML A   029  2.54     60539.9                               83.6  71 
 DNOA    IP   0A   029  2.54                              47    0.1410 83.6  71 
 DNOA    ES   0A   029 17.96                              47    0.6010 83.6  71 
 VOCA     IAML A   029  6.24     40473.3                                110  53 
 VOCA    IP   0A   029  6.24                              33   -0.5410  110  53 
 VOCA    ES   0A   029 24.45                              33   -0.4610  110  53 
 APSL     IAML A   029  6.75     37885.9                                113  86 
 APSL    IP   0A   029  6.75                              33   -0.4810  113  86 
 APSL    ES   0A   029 25.32                              33   -0.3510  113  86 
                                                                                
 2020  1 1 0030 44.3 L  33.810  52.638 23.6  New  7 1.2 0.8LNew                1
 GAP=184        2.77      10.1     6.6 19.8 -0.2107E+02  0.8968E+01 -0.1086E+03E
 Action:ARG 23-12-09 18:57 OP:OBSP STATUS:               ID:20200101003045     I
 STAT SP IPHASW D HRMM SECON CODA AMPLIT PERI AZIMU VELO AIN AR TRES W  DIS CAZ7
 LUEX    IP   0A   030 58.79                              58   -0.0110 62.3 277 
 LUEX     IAML A   030 58.79         5.5                               62.3 277 
 LUEX    ES   0A   031  9.14                              58   -0.0810 62.3 277 
 CBZA    IP   0A   031  2.28                              58    0.1010 82.3 255 
 CBZA     IAML A   031  2.28         3.6                               82.3 255 
 CBZA    ES   0A   031 15.25                              58    0.2110 82.3 255 
 DQYH    IP   0A   031  6.43                              49    0.7910  105 318 
 DQYH     IAML A   031  6.43         2.6                                105 318 
 DQYH    ES   0A   031 22.50                              49    1.5110  105 318 
 FOUH    IP   0A   031  6.84                              49    0.7910  108   7 
 FOUH     IAML A   031  6.84         2.6                                108   7 
 FOUH    ES   0A   031 23.26                              49    1.5610  108   7 
 APSL     IAML A   031  6.15         2.4                                110  70 
 APSL    IP   0A   031  6.15                              49   -0.3010  110  70 
 APSL    ES   0A   031 22.02                              49   -0.3610  110  70 
 RPKV     IAML A   031 15.19         1.1                                175 334 
 RPKV    IP   0A   031 15.19                              49   -0.90 8  175 334 
 RPKV    ES   0A   031 37.17                              49   -1.79 8  175 334 
 HLUH     IAML A   031 16.51         1.0                                188 327 
 HLUH    IP   0A   031 16.51                              49   -1.56 7  188 327 
 HLUH    ES   0A   031 39.36                              49   -3.00 7  188 327 
                                                                                
 2020  1 1 0032 47.0 L  33.860  52.675 19.6  New  7 0.3 3.7LNew                1
 GAP=136        0.81       2.2     1.5  4.9 -0.5813E+00 -0.2209E+01 -0.5008E+00E
 Action:ARG 23-12-09 18:57 OP:OBSP STATUS:               ID:20200101003248     I
 STAT SP IPHASW D HRMM SECON CODA AMPLIT PERI AZIMU VELO AIN AR TRES W  DIS CAZ7
 LUEX    IP   0A   033  2.37                              58   -0.0710 65.3 272 
 LUEX     IAML A   033  2.37      4768.2                               65.3 272 
 LUEX    ES   0A   033 13.15                              58   -0.3910 65.3 272 
 DNOA    IP   0A   033  5.66                              58   -0.0610 84.7  52 
 DNOA     IAML A   033  5.66      3443.4                               84.7  52 
 DNOA    ES   0A   033 18.90                              58   -0.2810 84.7  52 
 CBZA    IP   0A   033  6.26                              58    0.1210 87.2 252 
 CBZA     IAML A   033  6.26      3063.1                               87.2 252 
 CBZA    ES   0A   033 19.96                              58    0.0610 87.2 252 
 MGUS     IAML A   033  8.53      2496.5                                101  95 
 MGUS    IP   0A   033  8.53                              49    0.2210  101  95 
 MGUS    ES   0A   033 23.93                              49    0.2910  101  95 
 FOUH    IP   0A   033  8.72                              49    0.3010  102   5 
 FOUH     IAML A   033  8.72      2677.8                                102   5 
 FOUH    ES   0A   033 24.29                              49    0.4710  102   5 
 APSL    IP   0A   033  8.63                              49   -0.3110  105  72 
 APSL     IAML A   033  8.63      2406.9                                105  72 
 APSL    ES   0A   033 24.10                              49   -0.6210  105  72 
 RAWC    IP   0A   033 10.07                              49    0.1110  112 115 
 RAWC     IAML A   033 10.07      2074.6                                112 115 
 RAWC    ES   0A   033 26.63                              49    0.1610  112 115 
                                                                                
 2020  1 1 0034 49.1 L  33.571  52.658 58.5  New  7 1.2 3.7LNew                1
 GAP=175        2.67       9.5     6.9 24.4  0.1629E+02 -0.2484E+02  0.1425E+02E
 Action:ARG 23-12-09 18:57 OP:OBSP STATUS:               ID:20200101003451     I
 STAT SP IPHASW D HRMM SECON CODA AMPLIT PERI AZIMU VELO AIN AR TRES W  DIS CAZ7
 RHPW    IP   0A   035  6.25                             122    0.8810 66.8  17 
 RHPW     IAML A   035  6.25      3743.3                               66.8  17 
 RHPW    ES   0A   035 17.69                             122    0.6410 66.8  17 
 LUEX    IP   0A   035  5.81                             120   -0.2510 72.2 298 
 LUEX     IAML A   035  5.81      3251.5                               72.2 298 
 LUEX    ES   0A   035 16.91                             120   -1.3210 72.2 298 
 CBZA    IP   0A   035  7.55                             116    0.2910 81.4 273 
 CBZA     IAML A   035  7.55      2729.0                               81.4 273 
 CBZA    ES   0A   035 19.96                             116   -0.3510 81.4 273 
 AVTK    IP   0A   035  9.03                             114    0.6410 89.7 307 
 AVTK     IAML A   035  9.03      2379.9                               89.7 307 
 AVTK    ES   0A   035 22.55                             114    0.3010 89.7 307 
 RAWC     IAML A   035 10.47      1959.2                                104  99 
 RAWC    IP   0A   035 10.47                             110    0.1010  104  99 
 RAWC    ES   0A   035 25.06                             110   -0.6010  104  99 
 DQYH     IAML A   035 14.57      1389.8                                127 325 
 DQYH    IP   0A   035 14.57                             106    0.9610  127 325 
 DQYH    ES   0A   035 32.24                             106    1.0210  127 325 
 QYDI     IAML A   035 23.77       580.0                                206 351 
 QYDI    IP   0A   035 23.77                              99   -1.36 7  206 351 
 QYDI    ES   0A   035 46.94                              99   -4.09 7  206 351 
                                                                                
