 2012  811 1600 50.4 L  38.415  46.789 15.2  New 24 0.3 4.0LNew                1
 GAP= 50        0.74       1.0     1.1  1.6  0.1051E+00 -0.2975E+00 -0.3558E+00E
 Action:ARG 24-03-13 16:01 OP:OBSP STATUS:               ID:20120811160050     I
 STAT SP IPHASW D HRMM SECON CODA AMPLIT PERI AZIMU VELO AIN AR TRES W  DIS CAZ7
 TVRZ    ES   0A  16 0 57.12                             135    0.4610 14.4 313 
 HRS     IPg  0A  16 0 55.23                             119   -0.0810 24.6 116 
 HRS      IAML A  16 0 55.27     30583.3                               24.6 116 
 HRS     ESg  0A  16 0 58.95                             119   -0.0610 24.6 116 
 FTB     ES   0A  16 1  7.83                             103    0.2610 56.1 218 
 TBZ     IPg  0A  16 1  0.75                             102    0.0310 59.3 250 
 BST     IPg  0A  16 1  3.78                              99   -0.2410 79.7 174 
 BST      IAML A  16 1  4.01      6755.9                               79.7 174 
 BST     ES   0A  16 1 14.37                              99    0.1210 79.7 174 
 ORD     IPg  0A  16 1  4.90                              98   -0.7210 89.6 310 
 ORD      IAML A  16 1  5.89      5705.1                               89.6 310 
 MRD     IPg  0A  16 1  6.97                              97   -0.4110  100 290 
 SRB     IPg  0A  16 1  7.11                              97   -0.3510  101 130 
 SRB     ES   0A  16 1 20.32                              97    0.0610  101 130 
 SHB     IPg  0A  16 1  7.86                              97   -0.0110  103 262 
 SHB     ES   0A  16 1 21.25                              97    0.2710  103 262 
 GRMI     IAML A  16 1  8.26      4335.7                                106  65 
 GRMI    IPg  0A  16 1  8.31                              96    0.0710  106  65 
 GRMI    ES   0A  16 1 21.81                              96    0.1710  106  65 
 AZR     ES   0A  16 1 22.53                              69    0.1810  108 221 
 HSH     ES   0A  16 1 28.18                              69   -0.0710  130 161 
 LRK     IPg  0A  16 1 13.60                              95    0.1310  138  79 
 NAX     IPg  0A  16 1 13.50                              95   -0.4410  140 307 
 NAX      IAML A  16 1 13.76      2770.2                                140 307 
 SBZ     IPg  0A  16 1 16.00                              94    0.0210  153 316 
 GLBA     IAML A  16 1 17.63      2008.9                                167  56 
 GLBA    IPg  0A  16 1 18.70                              94    0.4410  167  56 
 ASTR     IAML A  16 1 18.86      1830.8                                175  84 
 ASTR    IPg  0A  16 1 19.40                              94   -0.2710  175  84 
 ASTR    ES   0A  16 1 40.35                              69   -0.0610  175  84 
 BRDA     IAML A  16 1 23.69      1322.8                                208   9 
 BRDA    IPn  0A  16 1 25.30                                            208   9 
 MAKU    IPn  0A  16 1 24.02                                            210 300 
 SAAT    IPn  0A  16 1 24.60                                            214  41 
 SAAT    ES   0A  16 1 50.01                              49    0.1910  214  41 
 ZRD     IPn  0A  16 1 26.70                                            221  20 
 GANJ    IPn  0A  16 1 29.90                                            251 351 
 GANJ    ES   0A  16 1 57.89                              49    0.06 9  251 351 
 ZNJK    IPn  0A  16 1 29.83                                            256 139 
 ZNJK    ES   0A  16 1 59.03                              49    0.08 9  256 139 
 GNI     ES   0A  16 2  0.32                              49    0.23 9  261 318 
                                                                                
 2012  811 1615  4.2 L  38.422  46.669 15.6  New 24 0.3 2.7LNew                1
 GAP= 44        0.74       1.2     1.0  1.4  0.1385E+00 -0.2396E+00 -0.2874E+00E
 Action:ARG 24-03-13 16:01 OP:OBSP STATUS:               ID:20120811161504     I
 STAT SP IPHASW D HRMM SECON CODA AMPLIT PERI AZIMU VELO AIN AR TRES W  DIS CAZ7
 TVRZ    ES   0A  1615 10.00                             149    0.3810 9.08 359 
 TAHR    IP   0A  1615 10.66                             112    0.0610 34.2  77 
 HRS     IPg  0A  1615 10.18                             112   -0.4810 34.6 109 
 HRS     ESg  0A  1615 15.43                             112   -0.0610 34.6 109 
 TBZ     IPg  0A  1615 12.54                             105   -0.5210 49.9 246 
 TBZ     ESg  0A  1615 19.38                             105   -0.3110 49.9 246 
 FTB      IAML A  1615 13.58       622.8                               51.0 208 
 FTB     IP   0A  1615 13.58                             105    0.3510 51.0 208 
 ORD     ES   0A  1615 28.63                              99    0.1010 81.3 314 
 BST     IPg  0A  1615 17.63                              99   -0.6610 82.3 166 
 BST      IAML A  1615 18.46       322.6                               82.3 166 
 BST     ESg  0A  1615 28.81                              99   -0.0310 82.3 166 
 MRD     IPg  0A  1615 19.48                              98   -0.0910 90.2 291 
 SHB      IAML A  1615 20.12       265.4                               93.1 261 
 SHB     IPg  0A  1615 20.46                              98    0.4310 93.1 261 
 SHB     ESg  0A  1615 32.05                              98    0.1510 93.1 261 
 AZR     ES   0A  1615 35.09                              97    0.6010  102 216 
 SRB     IPg  0A  1615 22.53                              96   -0.1910  109 127 
 SRB      IAML A  1615 22.71       209.8                                109 127 
 SRB     ES   0A  1615 36.75                              69    0.2410  109 127 
 GRMI    ES   0A  1615 38.26                              69    0.2810  115  68 
 NAX     IP   0A  1615 25.92                              69   -0.1710  132 310 
 HSH     IP   0A  1615 26.57                              69    0.0510  135 157 
 SBZ     IP   0A  1615 27.97                              69   -0.1710  145 319 
 LRK     IP   0A  1615 28.46                              69   -0.0710  148  80 
 LRK      IAML A  1615 28.46       127.3                                148  80 
 GLBA    IP   0A  1615 32.88                              69    0.1410  175  58 
 GLBA     IAML A  1615 32.88        93.4                                175  58 
 ASTR    ES   0A  1615 56.86                              69   -0.1210  186  85 
 LKRN    IP   0A  1615 34.42                              69   -0.0810  187  79 
 LKRN    ES   0A  1615 57.24                              69    0.0210  187  79 
 MAKU    IP   0A  1615 36.55                              49   -0.0110  201 302 
 MAKU     IAML A  1615 36.55        70.9                                201 302 
 MAKU    ES   0A  1616  0.91                              49    0.1010  201 302 
 SAAT    IP   0A  1615 39.05                              49    0.1210  220  43 
 GANJ    IP   0A  1615 42.25                              49   -0.19 9  249 353 
 ZNJK    IP   0A  1615 44.51                              49    0.21 9  264 137 
 ZNJK    ES   0A  1616 14.57                              49    0.21 9  264 137 
 VANB    IP   0A  1615 47.10                              49   -0.04 9  287 275 
 VANB    ES   0A  1616 19.03                              49   -0.30 9  287 275 
                                                                                
 2012  811 1621 53.0 L  38.414  46.646 19.3  New 21 0.3 4.1LNew                1
 GAP= 50        0.78       1.4     1.3  1.9  0.2478E+00 -0.1753E+00 -0.1426E+01E
 Action:ARG 24-03-13 16:01 OP:OBSP STATUS:               ID:20120811162152     I
 STAT SP IPHASW D HRMM SECON CODA AMPLIT PERI AZIMU VELO AIN AR TRES W  DIS CAZ7
 HRS     IPg  0A  1621 59.43                             116   -0.4610 36.2 107 
 HRS      IAML A  1621 59.91     25768.5                               36.2 107 
 TAHR    ES   0A  1622  5.27                             116    0.1510 36.3  76 
 TBZ     IPg  0A  1622  1.74                             110    0.1110 47.7 246 
 TABZ    ES   0A  1622  8.39                             110    0.0510 48.5 215 
 ORD     ES   0A  1622 17.13                              69    0.0510 80.5 315 
 BST     IPg  0A  1622  6.86                             101   -0.2110 81.9 165 
 BST      IAML A  1622  6.95      8215.3                               81.9 165 
 MRD     IPg  0A  1622  8.33                             101    0.1710 88.7 292 
 SHB      IAML A  1622  8.40      6827.1                               90.9 261 
 SHB     IPg  0A  1622  9.20                             100    0.6810 90.9 261 
 SRB     IPg  0A  1622 11.16                              98   -0.5510  111 126 
 SRB      IAML A  1622 11.40      5240.0                                111 126 
 SRB     ES   0A  1622 25.36                              69    0.2010  111 126 
 GRMI     IAML A  1622 12.44      4767.4                                117  68 
 GRMI    IPg  0A  1622 12.98                              98    0.2010  117  68 
 GRMI    ES   0A  1622 27.17                              69    0.2410  117  68 
 HSH     ES   0A  1622 31.73                              69    0.1410  135 156 
 SBZ     ES   0A  1622 34.34                              69    0.0610  145 319 
 GLBA    ES   0A  1622 43.37                              69    0.2810  177  58 
 ASTR    ES   0A  1622 45.81                              69   -0.0910  188  84 
 MAKU    IPg  0A  1622 25.75                              95   -0.5510  200 302 
 BRDA    ES   0A  1622 50.71                              49   -0.1710  210  12 
 ZRD     ES   0A  1622 54.08                              49   -0.0810  226  23 
 GANJ    ES   0A  1622 59.20                              49   -0.11 9  249 354 
 GNI     IPn  2A  1622 34.70                                            253 320 
 GNI     ES   0A  1623  0.18                              49    0.03 9  253 320 
 ZNJK     IAML A  1622 32.92      1010.2                                264 136 
 ZNJK    IPn  0A  1622 34.10                                            264 136 
 VANB    ES   0A  1623  6.73                              49   -0.23 9  285 275 
                                                                                
 2012  811 1634 32.6 L  38.442  46.659 14.3  New 22 0.3 3.3LNew                1
 GAP= 40        0.84       1.4     1.2  2.0  0.3687E+00 -0.3945E+00 -0.1342E+01E
 Action:ARG 24-03-13 16:01 OP:OBSP STATUS:               ID:20120811163432     I
 STAT SP IPHASW D HRMM SECON CODA AMPLIT PERI AZIMU VELO AIN AR TRES W  DIS CAZ7
 TVRZ    IP   0A  1634 35.45                             153    0.1410 6.95   6 
 HRS     IPg  0A  1634 38.77                             109   -0.4310 36.2 112 
 HRS      IAML A  1634 39.33      4020.9                               36.2 112 
 HRS     ESg  0A  1634 43.74                             109   -0.4210 36.2 112 
 TBZ     IPg  0A  1634 41.18                             103   -0.2210 50.1 243 
 TBZ     ES   0A  1634 48.34                             103    0.3310 50.1 243 
 TABZ    ES   0A  1634 48.98                             103    0.5210 51.7 214 
 FTB     IP   0A  1634 42.04                             103    0.2410 52.5 206 
 ORD     IP   0A  1634 46.12                              98    0.0210 79.1 313 
 ORD      IAML A  1634 46.12      1333.8                               79.1 313 
 BST     IPg  0A  1634 46.37                              98   -0.6410 84.7 166 
 BST      IAML A  1634 47.21      1248.1                               84.7 166 
 BST     ESg  0A  1634 57.55                              98   -0.2710 84.7 166 
 MRD     IPg  0A  1634 47.88                              97    0.2210 88.7 290 
 MRD     ES   0A  1634 59.25                              97    0.2910 88.7 290 
 SHB     IPg  0A  1634 48.63                              97    0.3310 92.6 259 
 AZR     IP   0A  1634 50.27                              96    0.2010  103 215 
 SRB     IPg  0A  1634 50.86                              96   -0.5310  112 128 
 SRB     ES   0A  1635  5.73                              96    0.2310  112 128 
 GRMI    IPg  0A  1634 52.18                              95    0.2210  115  69 
 NAX     ES   0A  1635 10.31                              69   -0.1410  130 309 
 SBZ     IP   0A  1634 56.11                              69   -0.1510  143 318 
 SBZ      IAML A  1634 56.11       526.8                                143 318 
 SBZ     ES   0A  1635 13.89                              69   -0.1210  143 318 
 LRK     IP   0A  1634 57.18                              69    0.1210  148  81 
 LRK     ES   0A  1635 15.76                              69    0.3410  148  81 
 GLBA     IAML A  1635  1.29       371.8                                175  59 
 GLBA    IP   0A  1635  1.29                              69    0.1510  175  59 
 GLBA    ES   0A  1635 22.96                              69    0.4110  175  59 
 ASTR    IP   0A  1635  2.95                              69    0.0310  186  85 
 ASTR     IAML A  1635  2.95       330.4                                186  85 
 ASTR    ES   0A  1635 25.87                              69    0.2010  186  85 
 MAKU     IAML A  1635  4.70       286.3                                199 301 
 MAKU    IPg  0A  1635  5.19                              93   -0.5810  199 301 
 MAKU    ES   0A  1635 28.87                              49   -0.1710  199 301 
 ZRD     IP   0A  1635  7.58                              49   -0.1210  222  23 
 GANJ    IP   0A  1635 10.52                              49   -0.1610  246 353 
 ZNJK     IAML A  1635 13.32       158.0                                266 137 
 ZNJK    IPn  0A  1635 13.71                                            266 137 
 ZNJK    ES   0A  1635 43.67                              49    0.21 9  266 137 
 VANB    ES   0A  1635 47.43                              49   -0.30 9  286 274 
                                                                                
 2012  811 1737 58.6 L  38.400  46.867 21.7  New 23 0.3 2.1LNew                1
 GAP= 46        0.76       1.1     1.2  1.5  0.1048E-01  0.1517E+00 -0.4757E+00E
 Action:ARG 24-03-13 16:01 OP:OBSP STATUS:               ID:20120811173758     I
 STAT SP IPHASW D HRMM SECON CODA AMPLIT PERI AZIMU VELO AIN AR TRES W  DIS CAZ7
 HRS     IPg  0A  1738  2.86                             136   -0.4210 17.8 121 
 HRS     ESg  0A  1738  6.55                             136   -0.2610 17.8 121 
 TAHR     IAML A  1738  3.38       586.6                               18.9  58 
 TAHR    IP   0A  1738  3.38                             134   -0.0210 18.9  58 
 TAHR    ES   0A  1738  7.18                             134    0.1510 18.9  58 
 TVRZ    IP   0A  1738  3.68                             131    0.0610 20.9 304 
 TVRZ    ES   0A  1738  7.71                             131    0.3010 20.9 304 
 TBZ     IPg  0A  1738  9.71                              95   -0.2810 65.3 254 
 TBZ     ESg  0A  1738 17.71                              95   -0.8510 65.3 254 
 BST     IPg  0A  1738 11.69                              93   -0.1810 77.6 179 
 BST     ESg  0A  1738 21.86                              93    0.0110 77.6 179 
 SRB     ES   0A  1738 26.84                              92    0.4410 94.6 132 
 GRMI    IP   0A  1738 15.30                              92   -0.0510  100  63 
 MRD     IPg  0A  1738 16.21                              92   -0.2210  107 289 
 SHB     IPg  0A  1738 16.79                              92   -0.0310  110 264 
 SHB     ESg  0A  1738 31.18                              92    0.6710  110 264 
 AZR     ES   0A  1738 30.91                              91   -0.0310  111 224 
 HSH     ES   0A  1738 35.30                              91    0.3510  126 164 
 LRK     IP   0A  1738 20.00                              91   -0.1010  131  78 
 NAX     IP   0A  1738 22.62                              91    0.1210  147 306 
 NAX      IAML A  1738 22.62        32.0                                147 306 
 NAX     ES   0A  1738 40.87                              91    0.4110  147 306 
 SBZ      IAML A  1738 24.48        27.9                                159 315 
 SBZ     IP   0A  1738 24.48                              91    0.1510  159 315 
 GLBA    IP   0A  1738 24.79                              91   -0.0510  162  54 
 GLBA     IAML A  1738 24.79        27.3                                162  54 
 LKRN    IP   0A  1738 25.97                              91   -0.0910  170  78 
 BRDA     IAML A  1738 31.03        16.8                                209   7 
 BRDA    IP   0A  1738 31.03                              54   -0.1810  209   7 
 SAAT    ES   0A  1738 56.32                              54    0.1610  211  39 
 MAKU    IP   0A  1738 32.45                              54    0.1810  217 300 
 ZRD     IP   0A  1738 32.56                              54   -0.0810  220  18 
 ZRD     ES   0A  1738 58.03                              54   -0.1810  220  18 
 ZNJK    IP   0A  1738 36.67                              54    0.31 9  250 140 
 GANJ     IAML A  1738 36.78        11.1                                254 350 
 GANJ    IP   0A  1738 36.78                              54   -0.01 9  254 350 
 GANJ    ES   0A  1739  5.33                              54   -0.13 9  254 350 
 VANB    IP   0A  1738 43.04                              54    0.03 8  304 275 
 VANB     IAML A  1738 43.04         7.2                                304 275 
 VANB    ES   0A  1739 16.14                              54   -0.21 8  304 275 
                                                                                
