 2012  811 2029 19.0 L  38.370  46.852 10.0  New 24 0.5 2.6LNew                1
 GAP= 48        1.39       1.7     1.8  3.5  0.1339E+00  0.1139E+01 -0.1087E+01E
 Action:ARG 24-03-13 16:01 OP:OBSP STATUS:               ID:20120811202918     I
 STAT SP IPHASW D HRMM SECON CODA AMPLIT PERI AZIMU VELO AIN AR TRES W  DIS CAZ7
 HRS     IPg  0A  2029 21.31                             116   -1.1710 17.5 109 
 HRS      IAML A  2029 22.11      1948.4                               17.5 109 
 HRS     ESg  0A  2029 24.23                             116   -0.8810 17.5 109 
 TAHR     IAML A  2029 22.52      1582.5                               21.8  52 
 TAHR    IP   0A  2029 22.52                             110   -0.6110 21.8  52 
 TVRZ    IP   0A  2029 22.38                             110   -0.7610 21.9 313 
 FTB     IP   0A  2029 28.63                              97   -0.0210 56.1 226 
 FTB     ES   0A  2029 36.15                              97    0.2510 56.1 226 
 TBZ     IPg  0A  2029 29.47                              96   -0.3410 63.2 257 
 TBZ      IAML A  2029 29.59       362.0                               63.2 257 
 TBZ     ES   0A  2029 37.84                              96   -0.1010 63.2 257 
 BST     IPg  0A  2029 30.94                              95   -0.6910 74.3 178 
 BST     ES   0A  2029 41.46                              95    0.3510 74.3 178 
 SRB      IAML A  2029 34.77       211.8                               93.3 130 
 SRB     IP   0A  2029 34.77                              94    0.0210 93.3 130 
 SRB     ESg  0A  2029 46.44                              94   -0.1310 93.3 130 
 MRD     IPg  0A  2029 36.66                              93   -0.3710  107 291 
 MRD     ES   0A  2029 50.12                              93   -0.4510  107 291 
 SHB     IPg  0A  2029 37.41                              93    0.2110  108 265 
 AZR     ES   0A  2029 51.18                              93    0.3310  108 225 
 SHB      IAML A  2029 36.95       165.7                                108 265 
 HSH      IAML A  2029 39.90       134.4                                124 163 
 HSH     IP   0A  2029 39.90                              93    0.1810  124 163 
 HSH     ES   0A  2029 55.88                              93    0.6110  124 163 
 LRK     ES   0A  2029 58.06                              93    0.0210  133  76 
 NAX     ES   0A  2030  1.57                              69   -0.6010  148 308 
 SBZ     IP   0A  2029 45.16                              69   -0.4010  160 316 
 GLBA    IP   0A  2029 46.14                              69   -0.1610  165  54 
 GLBA     IAML A  2029 46.14        83.7                                165  54 
 ASTR    IP   0A  2029 47.34                              69    0.2210  170  82 
 LKRN    IP   0A  2029 47.58                              69    0.2110  172  77 
 LKRN    ES   0A  2030  9.32                              69    0.6510  172  77 
 BRDA    IP   0A  2029 53.26                              49   -0.0310  212   8 
 BRDA     IAML A  2029 53.26        51.5                                212   8 
 SAAT    IP   0A  2029 53.89                              49    0.3410  214  39 
 SAAT    ES   0A  2030 20.32                              49    0.8510  214  39 
 MAKU    ES   0A  2030 21.22                              49    0.9610  218 301 
 ZRD     IP   0A  2029 55.00                              49    0.2710  224  18 
 GANJ     IAML A  2029 59.11        34.1                                257 350 
 GANJ    IP   0A  2029 59.11                              49    0.30 9  257 350 
 GNI     ES   0A  2030 31.96                              49    0.67 9  269 318 
 VANB    IP   0A  2030  5.17                              49    0.62 8  303 276 
 VANB     IAML A  2030  5.17        22.8                                303 276 
                                                                                
 2012  811 2037 27.6 L  38.460  46.794 19.5  New 24 0.2 2.3LNew                1
 GAP= 41        0.58       0.8     0.9  1.0  0.6360E-01 -0.1393E+00 -0.2575E+00E
 Action:ARG 24-03-13 16:01 OP:OBSP STATUS:               ID:20120811203727     I
 STAT SP IPHASW D HRMM SECON CODA AMPLIT PERI AZIMU VELO AIN AR TRES W  DIS CAZ7
 TVRZ    ES   0A  2037 34.81                             147    0.4510 12.0 294 
 TAHR    ES   0A  2037 36.42                             129   -0.0110 22.7  81 
 HRS     IPg  0A  2037 33.35                             124    0.1810 26.8 126 
 FTB     IP   0A  2037 38.26                             106    0.0310 60.3 216 
 FTB      IAML A  2037 38.26       200.4                               60.3 216 
 TABZ    IP   0A  2037 38.30                             106    0.0310 60.6 223 
 TABZ    ES   0A  2037 46.48                             106    0.1910 60.6 223 
 TBZ     IPg  0A  2037 37.65                             106   -0.7710 61.6 246 
 BST     IP   0A  2037 41.97                              69   -0.0110 84.6 174 
 BST      IAML A  2037 41.97       122.0                               84.6 174 
 ORD     IP   0A  2037 42.34                              69    0.0210 86.8 307 
 ORD      IAML A  2037 42.34       120.5                               86.8 307 
 ORD     ES   0A  2037 53.55                              69    0.1710 86.8 307 
 MRD     IPg  0A  2037 44.06                              99   -0.4110 99.2 287 
 MRD      IAML A  2037 44.26        98.4                               99.2 287 
 SRB     IPg  0A  2037 45.27                              99    0.0510  104 132 
 SHB      IAML A  2037 45.08        90.5                                105 260 
 SHB     IPg  0A  2037 45.38                              99    0.0410  105 260 
 SHB     ESg  0A  2037 58.30                              99   -0.3710  105 260 
 AZR     ES   0A  2038  0.39                              69    0.2210  112 220 
 HSH     IP   0A  2037 49.63                              69   -0.0210  135 162 
 HSH     ES   0A  2038  6.30                              69    0.0810  135 162 
 SBZ     IP   0A  2037 51.96                              69    0.0110  150 314 
 SBZ     ES   0A  2038 10.39                              69    0.1510  150 314 
 GLBA    ES   0A  2038 14.01                              69   -0.0010  164  57 
 ASTR    IP   0A  2037 55.61                              69   -0.1510  175  86 
 ASTR     IAML A  2037 55.61        36.8                                175  86 
 ASTR    ES   0A  2038 16.77                              69   -0.1410  175  86 
 BRDA     IAML A  2037 59.69        27.9                                203   9 
 BRDA    IP   0A  2037 59.69                              49   -0.0310  203   9 
 MAKU    ES   0A  2038 25.16                              49    0.1510  208 299 
 SAAT     IAML A  2038  0.60        25.9                                210  42 
 SAAT    IP   0A  2038  0.60                              49    0.0310  210  42 
 SAAT    ES   0A  2038 25.30                              49   -0.0310  210  42 
 ZRD     IP   0A  2038  1.28                              49   -0.0610  216  21 
 GANJ    IP   0A  2038  5.07                              49    0.0210  246 351 
 GNI     IP   0A  2038  6.62                              49    0.10 9  258 317 
 GNI     ES   0A  2038 35.72                              49   -0.02 9  258 317 
 ZNJK     IAML A  2038  6.83        16.4                                260 139 
 ZNJK    IP   0A  2038  6.83                              49    0.12 9  260 139 
 ZNJK    ES   0A  2038 36.09                              49    0.02 9  260 139 
 VANB    IP   0A  2038 11.40                              49    0.03 8  297 274 
                                                                                
 2012  811 2045 46.7 L  38.416  46.684 11.9  New 23 0.6 2.9LNew                1
 GAP= 50        1.59       2.5     2.3  3.7  0.1466E+01 -0.1989E+01 -0.4086E+01E
 Action:ARG 24-03-13 16:01 OP:OBSP STATUS:               ID:20120811204546     I
 STAT SP IPHASW D HRMM SECON CODA AMPLIT PERI AZIMU VELO AIN AR TRES W  DIS CAZ7
 TVRZ    IP   0A  2045 49.76                             138    0.3610 9.88 352 
 TVRZ     IAML A  2045 49.76      7446.9                               9.88 352 
 HRS     IPg  0A  2045 52.04                             106   -0.7110 33.1 109 
 TAHR    IP   0A  2045 52.88                             106    0.1410 33.1  75 
 HRS     ESg  0A  2045 57.11                             106   -0.1510 33.1 109 
 TABZ    IPg  0A  2045 55.12                             100   -0.4310 50.6 218 
 TBZ     IPg  0A  2045 54.88                             100   -0.7010 50.8 247 
 TBZ     ESg  0A  2046  2.08                             100   -0.1410 50.8 247 
 BST     IPg  0A  2045 59.88                              96   -0.6810 81.4 167 
 BST      IAML A  2046  0.88       517.9                               81.4 167 
 BST     ESg  0A  2046 10.75                              96   -0.1910 81.4 167 
 MRD     IPg  0A  2046  1.40                              95   -0.8610 91.7 291 
 MRD      IAML A  2046  2.69       433.9                               91.7 291 
 MRD     ESg  0A  2046 15.10                              95    1.2010 91.7 291 
 SHB     IPg  0A  2046  2.18                              95   -0.4910 94.2 261 
 SHB      IAML A  2046  2.92       415.9                               94.2 261 
 SHB     ESg  0A  2046 15.18                              95    0.5510 94.2 261 
 AZR     IP   0A  2046  4.51                              95    0.5110  102 217 
 SRB     IPg  0A  2046  3.88                              94   -1.0610  108 127 
 SRB     ESg  0A  2046 20.62                              94    2.0310  108 127 
 HSH     IP   0A  2046  9.25                              69    0.1710  133 157 
 HSH     ES   0A  2046 26.23                              69    0.3810  133 157 
 NAX     IP   0A  2046  9.29                              69    0.2410  133 310 
 LRK     ES   0A  2046 29.36                              69   -0.0210  147  80 
 SBZ     ES   0A  2046 29.84                              69    0.4710  147 318 
 ASTR    ES   0A  2046 39.43                              69   -0.1310  185  84 
 MAKU    IP   0A  2046 19.81                              49    0.1410  202 302 
 BRDA     IAML A  2046 20.35       104.1                                209  12 
 BRDA    IP   0A  2046 20.35                              49   -0.1810  209  12 
 BRDA    ES   0A  2046 45.49                              49   -0.3810  209  12 
 SAAT    IP   0A  2046 21.95                              49    0.1410  220  43 
 SAAT    ES   0A  2046 48.24                              49    0.1210  220  43 
 ZRD     IP   0A  2046 22.26                              49   -0.0710  224  22 
 GANJ     IAML A  2046 25.27        72.0                                250 353 
 GANJ    IP   0A  2046 25.27                              49   -0.20 9  250 353 
 GNI      IAML A  2046 26.28        68.4                                255 320 
 GNI     IP   0A  2046 26.28                              49    0.10 9  255 320 
 ZNJK    ES   0A  2046 57.48                              49    0.19 9  262 137 
 VANB    IP   0A  2046 30.18                              49   -0.05 9  288 275 
 VANB    ES   0A  2047  2.47                              49   -0.38 9  288 275 
                                                                                
 2012  811 2113 21.4 L  38.437  46.665 11.2  New 22 0.3 2.4LNew                1
 GAP= 41        0.70       1.2     1.1  1.9  0.4812E+00 -0.7598E+00 -0.1103E+01E
 Action:ARG 24-03-13 16:01 OP:OBSP STATUS:               ID:20120811211321     I
 STAT SP IPHASW D HRMM SECON CODA AMPLIT PERI AZIMU VELO AIN AR TRES W  DIS CAZ7
 TVRZ    IP   0A  2113 23.87                             145    0.1010 7.47   2 
 HRS     IPg  0A  2113 27.06                             104   -0.7310 35.4 112 
 HRS     ESg  0A  2113 32.28                             104   -0.2810 35.4 112 
 TBZ     IPg  0A  2113 30.10                              99   -0.0810 50.3 244 
 TBZ     ES   0A  2113 36.99                              99    0.2410 50.3 244 
 FTB     IP   0A  2113 30.68                              99    0.1710 52.3 207 
 ORD     IP   0A  2113 34.95                              96   -0.0610 79.9 313 
 ORD     ES   0A  2113 45.27                              96    0.0710 79.9 313 
 BST     IPg  0A  2113 34.94                              95   -0.7410 84.0 166 
 BST     ES   0A  2113 46.67                              95    0.3010 84.0 166 
 MRD     IPg  0A  2113 36.32                              95   -0.2410 89.4 290 
 MRD      IAML A  2113 36.57       140.8                               89.4 290 
 MRD     ES   0A  2113 48.10                              95    0.1910 89.4 290 
 SHB     IPg  0A  2113 37.22                              95    0.0610 93.0 260 
 SRB     IPg  0A  2113 40.06                              94   -0.0110  111 128 
 SRB      IAML A  2113 40.14       104.0                                111 128 
 SRB     ES   0A  2113 54.34                              94    0.3010  111 128 
 GRMI    ES   0A  2113 55.54                              94    0.3710  115  69 
 NAX     IP   0A  2113 43.29                              93   -0.0210  131 309 
 NAX      IAML A  2113 43.29        77.4                                131 309 
 NAX     ES   0A  2113 59.85                              93    0.1310  131 309 
 HSH     IP   0A  2113 44.31                              69    0.0710  136 157 
 SBZ     IP   0A  2113 45.35                              69   -0.0510  144 318 
 SBZ     ES   0A  2114  3.47                              69    0.0910  144 318 
 LRK      IAML A  2113 46.03        63.7                                148  81 
 LRK     IP   0A  2113 46.03                              69    0.0110  148  81 
 LRK     ES   0A  2114  4.65                              69    0.1910  148  81 
 ASTR    IP   0A  2113 51.80                              69   -0.0710  186  85 
 LKRN    IP   0A  2113 52.00                              69    0.0210  187  80 
 LKRN     IAML A  2113 52.00        41.4                                187  80 
 LKRN    ES   0A  2114 15.09                              69    0.1910  187  80 
 BRDA    ES   0A  2114 20.01                              49   -0.2710  208  12 
 SAAT    IP   0A  2113 56.64                              49    0.1310  219  43 
 SAAT    ES   0A  2114 23.01                              49    0.2010  219  43 
 ZRD     IP   0A  2113 56.83                              49   -0.0810  223  23 
 GANJ    ES   0A  2114 28.47                              49   -0.3510  247 353 
 ZNJK    IP   0A  2114  2.34                              49    0.18 9  265 137 
 VANB    IP   0A  2114  4.75                              49   -0.03 9  286 275 
                                                                                
 2012  811 2118 35.2 L  38.438  46.723 18.6  New 23 0.4 2.6LNew                1
 GAP= 42        0.99       1.7     1.4  2.4  0.5107E+00 -0.6968E+00 -0.2321E+01E
 Action:ARG 24-03-13 16:01 OP:OBSP STATUS:               ID:20120811211835     I
 STAT SP IPHASW D HRMM SECON CODA AMPLIT PERI AZIMU VELO AIN AR TRES W  DIS CAZ7
 HRS     IPg  0A  2118 41.26                             119   -0.0410 30.9 115 
 HRS     ESg  0A  2118 46.47                             119    0.5910 30.9 115 
 TABZ    IP   0A  2118 45.02                             107    0.1010 54.6 219 
 FTB     IP   0A  2118 45.04                             107    0.0910 54.8 212 
 TBZ     IPg  0A  2118 44.41                             107   -0.5510 54.9 246 
 TBZ      IAML A  2118 45.15       454.7                               54.9 246 
 TBZ     ESg  0A  2118 51.63                             107   -0.6510 54.9 246 
 BST     IPg  0A  2118 49.03                             101   -0.4310 83.0 170 
 BST      IAML A  2118 49.34       248.2                               83.0 170 
 BST     ESg  0A  2119  0.13                             101   -0.0410 83.0 170 
 MRD     IPg  0A  2118 50.87                              99   -0.3710 94.1 289 
 MRD      IAML A  2118 51.26       212.6                               94.1 289 
 MRD     ESg  0A  2119  2.59                              99   -0.6910 94.1 289 
 SHB      IAML A  2118 51.90       198.4                               98.0 260 
 SHB     IPg  0A  2118 51.91                              99    0.0310 98.0 260 
 SHB     ESg  0A  2119  5.59                              99    1.1910 98.0 260 
 AZR     ES   0A  2119  6.43                              69    0.1010  106 218 
 SRB      IAML A  2118 52.90       169.3                                107 129 
 SRB     IPg  0A  2118 53.19                              98   -0.1410  107 129 
 SRB     ESg  0A  2119  7.59                              98    0.6610  107 129 
 GRMI    ES   0A  2119  7.24                              69   -0.0610  110  68 
 NAX     ES   0A  2119 14.17                              69    0.3210  134 308 
 HSH     IP   0A  2118 57.20                              69   -0.0910  134 159 
 LRK     IP   0A  2118 58.49                              69   -0.0910  143  80 
 LRK      IAML A  2118 58.49       105.9                                143  80 
 SBZ     ES   0A  2119 17.59                              69    0.3310  147 317 
 GLBA    IP   0A  2119  2.72                              69   -0.0710  170  58 
 ASTR    IP   0A  2119  4.30                              69   -0.1210  181  85 
 ASTR    ES   0A  2119 26.19                              69   -0.1510  181  85 
 LKRN     IAML A  2119  4.45        68.5                                182  80 
 LKRN    IP   0A  2119  4.45                              69   -0.0910  182  80 
 MAKU    IP   0A  2119  7.78                              49    0.1910  204 301 
 MAKU    ES   0A  2119 32.08                              49    0.1810  204 301 
 SAAT     IAML A  2119  9.06        49.1                                216  42 
 SAAT    IP   0A  2119  9.06                              49    0.0310  216  42 
 ZRD      IAML A  2119  9.62        47.1                                221  22 
 ZRD     IP   0A  2119  9.62                              49   -0.0010  221  22 
 ZRD     ES   0A  2119 35.29                              49   -0.1510  221  22 
 GANJ    IP   0A  2119 13.07                              49    0.11 9  248 352 
 ZNJK    IP   0A  2119 14.69                              49   -0.02 9  262 138 
 ZNJK    ES   0A  2119 44.05                              49   -0.30 9  262 138 
 VANB    IP   0A  2119 18.47                              49    0.12 9  291 274 
                                                                                
