 2012  811 1912  4.8 L  38.433  46.797 19.2  New 22 0.3 2.9LNew                1
 GAP= 51        0.83       1.4     1.2  2.0  0.1223E+00 -0.4158E+00 -0.1282E+01E
 Action:ARG 24-03-13 16:01 OP:OBSP STATUS:               ID:20120811191204     I
 STAT SP IPHASW D HRMM SECON CODA AMPLIT PERI AZIMU VELO AIN AR TRES W  DIS CAZ7
 HRS     IPg  0A  1912 10.02                             126   -0.0710 24.9 121 
 HRS     ESg  0A  1912 14.26                             126    0.1710 24.9 121 
 FTB     ES   0A  1912 22.79                             106    0.0110 58.1 218 
 TABZ     IAML A  1912 15.06       803.2                               58.6 225 
 TABZ    IPg  0A  1912 15.56                             106    0.4310 58.6 225 
 TABZ    ESg  0A  1912 23.94                             106    1.0310 58.6 225 
 TBZ     IPg  0A  1912 15.07                             106   -0.4010 60.7 249 
 TBZ      IAML A  1912 15.39       769.8                               60.7 249 
 TBZ     ESg  0A  1912 22.93                             106   -0.5710 60.7 249 
 BST     IPg  0A  1912 18.74                             101   -0.0710 81.6 174 
 BST     ESg  0A  1912 28.80                             101   -0.5510 81.6 174 
 ORD     IP   0A  1912 19.86                              69    0.0210 88.9 308 
 MRD     IPg  0A  1912 21.23                              99   -0.6210  100 288 
 MRD      IAML A  1912 21.62       376.9                                100 288 
 MRD     ESg  0A  1912 35.03                              99    0.3610  100 288 
 SRB      IAML A  1912 21.91       370.2                                102 131 
 SRB     IPg  0A  1912 22.20                              99    0.1610  102 131 
 SRB     ESg  0A  1912 34.88                              99   -0.1310  102 131 
 SHB     IPg  0A  1912 22.15                              99   -0.3410  104 261 
 SHB     ESg  0A  1912 36.09                              99    0.3010  104 261 
 GRMI    ES   0A  1912 35.37                              69    0.1110  104  66 
 AZR     IP   0A  1912 23.00                              69   -0.0810  110 221 
 AZR      IAML A  1912 23.00       322.0                                110 221 
 AZR     ES   0A  1912 36.80                              69   -0.0210  110 221 
 HSH     IP   0A  1912 26.39                              69   -0.0210  132 162 
 LRK     IP   0A  1912 27.13                              69   -0.0210  137  80 
 NAX     ES   0A  1912 44.99                              69    0.1610  140 306 
 GLBA    IP   0A  1912 31.53                              69   -0.0010  165  57 
 ASTR    ES   0A  1912 54.19                              69    0.0610  175  85 
 LKRN     IAML A  1912 33.10       148.0                                175  79 
 ASTR     IAML A  1912 32.94       149.3                                175  85 
 ASTR    IP   0A  1912 32.94                              69   -0.0310  175  85 
 LKRN    IP   0A  1912 33.10                              69   -0.0110  175  79 
 BRDA    IP   0A  1912 37.27                              49   -0.0410  206   9 
 ZRD     IP   0A  1912 38.91                              49    0.0110  219  20 
 ZNJK    IP   0A  1912 43.82                              49    0.19 9  257 139 
 ZNJK    ES   0A  1913 12.92                              49    0.14 9  257 139 
 GNI      IAML A  1912 44.13        65.6                                260 318 
 GNI     IP   0A  1912 44.13                              49    0.09 9  260 318 
 VANB     IAML A  1912 48.67        47.7                                298 275 
 VANB    IP   0A  1912 48.67                              49    0.02 8  298 275 
 VANB    ES   0A  1913 21.30                              49   -0.28 8  298 275 
                                                                                
 2012  811 1929 29.4 L  38.439  46.792 26.1  New 24 0.2 2.6LNew                1
 GAP= 52        0.62       1.0     0.9  1.5  0.9570E-01 -0.1545E+00 -0.5048E+00E
 Action:ARG 24-03-13 16:01 OP:OBSP STATUS:               ID:20120811192929     I
 STAT SP IPHASW D HRMM SECON CODA AMPLIT PERI AZIMU VELO AIN AR TRES W  DIS CAZ7
 TAHR    IP   0A  1929 35.23                             134   -0.0110 23.3  76 
 TAHR     IAML A  1929 35.23      1289.0                               23.3  76 
 HRS      IAML A  1929 35.58      1115.2                               25.6 121 
 HRS     IPg  0A  1929 35.69                             131    0.1910 25.6 121 
 HRS     ESg  0A  1929 40.14                             131    0.1010 25.6 121 
 FTB     IP   0A  1929 39.99                             106    0.0410 58.3 217 
 FTB     ES   0A  1929 48.01                             106    0.1810 58.3 217 
 TABZ    IPg  2A  1929 39.82                             106   -0.19 5 58.7 224 
 TABZ     IAML A  1929 40.06       410.8                               58.7 224 
 TABZ    ES   0A  1929 48.14                             106    0.2110 58.7 224 
 TBZ     IPg  0A  1929 39.25                             105   -1.0210 60.5 248 
 TBZ      IAML A  1929 40.38       400.4                               60.5 248 
 TBZ     ES   0A  1929 48.68                             105    0.3010 60.5 248 
 BST     IPg  0A  1929 43.44                              99   -0.1110 82.3 174 
 BST     ESg  0A  1929 54.28                              99    0.1610 82.3 174 
 ORD      IAML A  1929 44.45       237.1                               88.1 308 
 ORD     IP   0A  1929 44.45                              98    0.0210 88.1 308 
 ORD     ES   0A  1929 55.82                              98    0.1510 88.1 308 
 MRD     IPg  0A  1929 45.93                              96   -0.2610 99.7 288 
 MRD      IAML A  1929 46.22       195.5                               99.7 288 
 SRB     ES   0A  1929 59.41                              96   -0.0410  102 131 
 SHB     IPg  0A  1929 46.65                              96   -0.1810  104 261 
 GRMI    ES   0A  1929 59.99                              96   -0.0110  104  67 
 SHB     ESg  0A  1929 59.64                              96   -0.2410  104 261 
 AZR     IP   0A  1929 47.82                              95    0.0210  110 220 
 HSH      IAML A  1929 51.19       118.9                                133 162 
 HSH     IP   0A  1929 51.19                              94   -0.0110  133 162 
 LRK      IAML A  1929 51.78       113.5                                137  80 
 LRK     IP   0A  1929 51.78                              94   -0.0910  137  80 
 NAX      IAML A  1929 52.22       113.6                                139 306 
 NAX     IP   0A  1929 52.22                              94    0.0110  139 306 
 NAX     ES   0A  1930  9.42                              94    0.1410  139 306 
 SBZ      IAML A  1929 54.07        98.2                                151 315 
 SBZ     IP   0A  1929 54.07                              93    0.0110  151 315 
 GLBA    ES   0A  1930 16.25                              93   -0.0210  165  57 
 ASTR    ES   0A  1930 18.51                              54   -0.1010  175  85 
 LKRN    IP   0A  1929 57.62                              54   -0.0210  176  80 
 LKRN     IAML A  1929 57.62        72.7                                176  80 
 BRDA     IAML A  1930  1.39        54.8                                205   9 
 BRDA    IP   0A  1930  1.39                              54    0.1110  205   9 
 MAKU    IP   0A  1930  1.97                              54    0.1910  209 300 
 ZNJK    ES   0A  1930 36.55                              54    0.02 9  258 139 
 GNI     IP   0A  1930  8.17                              54    0.18 9  260 318 
 GNI     ES   0A  1930 36.96                              54    0.06 9  260 318 
 VANB     IAML A  1930 12.78        24.3                                297 274 
 VANB    IP   0A  1930 12.78                              54    0.14 8  297 274 
                                                                                
 2012  811 1930 45.3 L  38.432  46.928 22.5  New 21 0.3 2.8LNew                1
 GAP= 57        0.94       1.6     1.5  2.3 -0.4949E+00  0.8664E+00 -0.1623E+01E
 Action:ARG 24-03-13 16:01 OP:OBSP STATUS:               ID:20120811193045     I
 STAT SP IPHASW D HRMM SECON CODA AMPLIT PERI AZIMU VELO AIN AR TRES W  DIS CAZ7
 TAHR    ES   0A  1930 53.11                             148    0.2910 12.5  59 
 HRS     IPg  0A  1930 49.73                             141   -0.1610 16.1 142 
 HRS      IAML A  1930 50.06      2762.2                               16.1 142 
 HRS     ESg  0A  1930 53.00                             141   -0.3710 16.1 142 
 TVRZ    IP   0A  1930 50.78                             128    0.0110 24.0 290 
 TVRZ     IAML A  1930 50.78      1541.1                               24.0 290 
 FTB     IP   0A  1930 56.96                              97    0.2210 65.6 226 
 FTB     ES   0A  1931  5.85                              97    0.5010 65.6 226 
 TABZ    IPg  2A  1930 57.22                              96    0.26 5 67.0 232 
 TBZ     IPg  0A  1930 57.13                              96   -0.5010 71.4 252 
 TBZ     ESg  0A  1931  5.93                              96   -0.9810 71.4 252 
 BST     IPg  0A  1930 59.02                              94   -0.1010 81.2 182 
 BST      IAML A  1930 59.28       327.9                               81.2 182 
 BST     ESg  0A  1931  9.34                              94   -0.1810 81.2 182 
 SRB     IP   0A  1931  1.03                              93    0.0710 93.2 136 
 GRMI    IP   0A  1931  1.15                              93    0.0810 93.9  63 
 GRMI    ES   0A  1931 13.19                              93    0.2510 93.9  63 
 ORD     IP   0A  1931  1.61                              93   -0.1110 98.2 304 
 ORD     ES   0A  1931 14.00                              93   -0.0710 98.2 304 
 MRD     IPg  0A  1931  3.41                              92   -0.3210  111 287 
 MRD      IAML A  1931  3.75       199.8                                111 287 
 MRD     ESg  0A  1931 17.66                              92    0.0710  111 287 
 SHB     IPg  0A  1931  4.61                              92    0.2210  116 262 
 SHB     ESg  0A  1931 19.86                              92    1.1210  116 262 
 LRK     IP   0A  1931  5.93                              92    0.0410  125  79 
 NAX     ES   0A  1931 27.71                              91   -0.0710  149 304 
 GLBA    IP   0A  1931 10.59                              91    0.0310  156  54 
 GLBA    ES   0A  1931 29.70                              91    0.1710  156  54 
 SBZ     IP   0A  1931 11.10                              91   -0.1510  160 312 
 SBZ      IAML A  1931 11.10       108.3                                160 312 
 BRDA     IAML A  1931 17.12        69.0                                204   6 
 BRDA    IP   0A  1931 17.12                              54   -0.2010  204   6 
 BRDA    ES   0A  1931 40.93                              54   -0.4310  204   6 
 SAAT     IAML A  1931 17.43        69.2                                205  39 
 SAAT    IP   0A  1931 17.43                              54    0.0910  205  39 
 MAKU    IP   0A  1931 19.39                              54    0.1510  220 298 
 MAKU    ES   0A  1931 44.88                              54    0.1410  220 298 
 GANJ     IAML A  1931 23.08        44.6                                251 348 
 GANJ    IP   0A  1931 23.08                              54   -0.02 9  251 348 
 VANB    IP   0A  1931 30.45                              54    0.21 8  309 274 
                                                                                
 2012  811 1940 17.4 L  38.443  46.809 20.1  New 24 0.3 2.6LNew                1
 GAP= 43        0.94       1.5     1.4  2.1  0.1093E+00  0.6862E+00 -0.4320E+00E
 Action:ARG 24-03-13 16:01 OP:OBSP STATUS:               ID:20120811194017     I
 STAT SP IPHASW D HRMM SECON CODA AMPLIT PERI AZIMU VELO AIN AR TRES W  DIS CAZ7
 TVRZ    IP   0A  1940 21.51                             141   -0.0610 14.0 299 
 TVRZ    ES   0A  1940 24.82                             141    0.1310 14.0 299 
 TAHR    IP   0A  1940 22.32                             126   -0.1210 21.8  76 
 TAHR    ES   0A  1940 26.24                             126    0.0410 21.8  76 
 HRS     IPg  0A  1940 22.64                             122   -0.1610 24.6 124 
 HRS      IAML A  1940 22.94      1223.5                               24.6 124 
 HRS     ESg  0A  1940 26.58                             122   -0.2510 24.6 124 
 FTB     ES   0A  1940 35.71                              90   -0.1510 59.6 218 
 TABZ    ESg  0A  1940 36.60                              90    0.6110 60.1 225 
 TBZ     IPg  0A  1940 27.81                              90   -0.5210 62.0 248 
 TBZ     ESg  0A  1940 35.99                              90   -0.5210 62.0 248 
 BST     IPg  0A  1940 31.16                              90   -0.3310 82.6 175 
 BST      IAML A  1940 31.38       249.7                               82.6 175 
 BST     ESg  0A  1940 41.46                              90   -0.5810 82.6 175 
 MRD     IPg  0A  1940 34.03                              90   -0.2810  101 288 
 SRB     IPg  0A  1940 34.54                              90    0.1510  102 132 
 SRB     ESg  0A  1940 48.16                              90    1.0410  102 132 
 GRMI    IP   0A  1940 34.55                              90   -0.0410  103  66 
 GRMI     IAML A  1940 34.55       184.0                                103  66 
 SHB      IAML A  1940 34.86       174.8                                105 261 
 SHB     IPg  0A  1940 35.15                              90    0.1610  105 261 
 SHB     ESg  0A  1940 49.08                              90    0.9110  105 261 
 LRK     IP   0A  1940 39.49                              90   -0.0910  135  80 
 LRK      IAML A  1940 39.49       117.3                                135  80 
 NAX     ES   0A  1940 57.59                              90    0.1410  140 306 
 SBZ     ES   0A  1941  0.83                              90    0.1810  152 315 
 GLBA     IAML A  1940 43.88        84.3                                164  57 
 GLBA    IP   0A  1940 43.88                              90   -0.0510  164  57 
 ASTR    ES   0A  1941  6.43                              90    0.0110  173  85 
 LKRN     IAML A  1940 45.46        74.8                                174  80 
 LKRN    IP   0A  1940 45.46                              90   -0.0810  174  80 
 MAKU    ES   0A  1941 15.21                              54    0.0210  210 299 
 SAAT     IAML A  1940 50.51        52.1                                210  41 
 SAAT    IP   0A  1940 50.51                              54    0.0810  210  41 
 MAKU    IP   0A  1940 50.42                              54   -0.0110  210 299 
 ZRD     IP   0A  1940 51.22                              54   -0.0810  217  20 
 GANJ    IP   0A  1940 55.03                              54   -0.07 9  248 350 
 ZNJK    IP   0A  1940 56.49                              54    0.27 9  257 139 
 GNI      IAML A  1940 56.62        33.0                                260 317 
 GNI     IP   0A  1940 56.62                              54    0.03 9  260 317 
 VANB     IAML A  1941  1.22        23.8                                299 274 
 VANB    IP   0A  1941  1.22                              54   -0.11 8  299 274 
 VANB    ES   0A  1941 33.87                              54   -0.40 8  299 274 
                                                                                
 2012  811 2010 30.3 L  38.429  46.770 13.6  New 23 0.3 3.4LNew                1
 GAP= 55        0.86       1.3     1.3  1.7  0.5580E-01 -0.3501E+00 -0.6963E+00E
 Action:ARG 24-03-13 16:01 OP:OBSP STATUS:               ID:20120811201029     I
 STAT SP IPHASW D HRMM SECON CODA AMPLIT PERI AZIMU VELO AIN AR TRES W  DIS CAZ7
 TVRZ    IP   0A  2010 33.52                             136    0.1310 12.2 313 
 TVRZ    ES   0A  2010 36.24                             136    0.5010 12.2 313 
 TAHR    ES   0A  2010 39.03                             115    0.1610 25.4  74 
 HRS     IPg  0A  2010 34.27                             114   -1.1010 26.7 117 
 HRS     ESg  0A  2010 39.39                             114    0.1810 26.7 117 
 FTB     IP   0A  2010 39.99                             101   -0.0610 56.3 216 
 FTB      IAML A  2010 39.99      2833.1                               56.3 216 
 TABZ    ES   0A  2010 47.67                             101    0.1810 56.6 223 
 TBZ     IPg  0A  2010 40.08                             100   -0.3010 58.3 249 
 MRD     IPg  0A  2010 46.46                              96   -0.4310 98.3 289 
 MRD      IAML A  2010 47.04      1242.6                               98.3 289 
 SHB     IPg  0A  2010 47.12                              96   -0.3610  102 261 
 SRB     IPg  0A  2010 47.43                              96   -0.2310  103 130 
 SRB      IAML A  2010 47.82      1149.7                                103 130 
 SRB     ES   0A  2011  1.27                              96    0.5610  103 130 
 GRMI     IAML A  2010 48.25      1073.3                                107  66 
 GRMI    IPg  0A  2010 48.32                              95    0.0910  107  66 
 AZR     IP   0A  2010 48.48                              95   -0.0210  108 220 
 AZR      IAML A  2010 48.48      1082.8                                108 220 
 AZR     ES   0A  2011  2.42                              95    0.2310  108 220 
 HSH     ES   0A  2011  8.97                              69    0.1510  132 161 
 NAX      IAML A  2010 53.33       710.8                                138 307 
 NAX     IP   0A  2010 53.33                              69    0.0910  138 307 
 NAX     ES   0A  2011 10.90                              69    0.4110  138 307 
 LRK     ES   0A  2011 10.69                              69    0.0410  139  80 
 GLBA    IP   0A  2010 57.57                              69   -0.1310  167  57 
 GLBA     IAML A  2010 57.57       500.5                                167  57 
 GLBA    ES   0A  2011 18.33                              69    0.0510  167  57 
 ASTR    IP   0A  2010 58.99                              69   -0.1710  177  85 
 BRDA     IAML A  2011  3.37       334.3                                207  10 
 BRDA    IP   0A  2011  3.37                              49   -0.1510  207  10 
 MAKU    IPn  0A  2011  3.05                                            208 300 
 SAAT    ES   0A  2011 30.26                              49    0.2610  214  41 
 ZRD      IAML A  2011  5.12       294.2                                220  21 
 ZRD     IP   0A  2011  5.12                              49   -0.0410  220  21 
 ZRD     ES   0A  2011 31.31                              49   -0.0410  220  21 
 GANJ    IP   0A  2011  8.59                              49   -0.18 9  249 351 
 ZNJK    IPn  0A  2011 10.36                                            258 138 
 ZNJK    ES   0A  2011 39.79                              49    0.17 9  258 138 
 GNI     ES   0A  2011 39.83                              49    0.02 9  259 318 
                                                                                
