 2012  811 1342 11.7 L  38.407  46.681 12.4  New 23 0.4 4.0LNew                1
 GAP= 43        1.03       1.6     1.5  2.3  0.3586E+00 -0.1940E+00 -0.1054E+01E
 Action:ARG 24-03-13 16:01 OP:OBSP STATUS:               ID:20120811134211     I
 STAT SP IPHASW D HRMM SECON CODA AMPLIT PERI AZIMU VELO AIN AR TRES W  DIS CAZ7
 TVRZ    ES   0A  1342 17.12                             137    0.4510 10.9 354 
 HRS     IPg  0A  1342 17.03                             107   -0.6910 33.0 107 
 HRS      IAML A  1342 17.85     21768.6                               33.0 107 
 HRS     ESg  0A  1342 22.31                             107    0.0710 33.0 107 
 FTB     ES   0A  1342 27.14                             101    0.1410 50.0 210 
 TBZ     IPg  0A  1342 20.34                             101   -0.1310 50.2 248 
 BST     IPg  0A  1342 25.21                              96   -0.1710 80.4 167 
 BST      IAML A  1342 25.44      6633.9                               80.4 167 
 ORD     IPg  0A  1342 25.10                              96   -0.7410 83.2 314 
 MRD     IPg  0A  1342 27.35                              96    0.0910 91.9 292 
 MRD     ES   0A  1342 39.38                              96    0.4510 91.9 292 
 SHB     IPg  0A  1342 27.42                              95   -0.1610 93.9 262 
 SHB     ES   0A  1342 39.67                              95    0.1710 93.9 262 
 AZR     ES   0A  1342 41.84                              95    0.1810  101 217 
 SRB     IPg  0A  1342 29.22                              95   -0.6210  108 127 
 SRB     ES   0A  1342 44.29                              95    0.8510  108 127 
 GRMI    ES   0A  1342 45.94                              94    0.4810  115  67 
 NAX     IPg  0A  1342 33.80                              94   -0.3210  134 310 
 NAX     ES   0A  1342 51.13                              69    0.3010  134 310 
 SBZ      IAML A  1342 36.20      2544.4                                147 319 
 SBZ     ES   0A  1342 54.81                              69    0.3610  147 319 
 LRK     IPg  2A  1342 35.80                              93   -0.50 5  147  79 
 SBZ     IPg  0A  1342 35.80                              93   -0.5310  147 319 
 GLBA     IAML A  1342 40.49      1850.0                                175  58 
 GLBA    IPg  0A  1342 41.10                              93    0.1710  175  58 
 ASTR    IPg  0A  1342 42.40                              93   -0.1210  185  84 
 LKRN    IPg  0A  1342 42.50                              93   -0.1910  186  79 
 BRDA     IAML A  1342 45.40      1295.7                                211  12 
 BRDA    IPn  0A  1342 47.10                                            211  12 
 SAAT    IPn  0A  1342 46.90                                            221  42 
 SAAT     IAML A  1342 46.92      1174.0                                221  42 
 SAAT    ES   0A  1343 13.35                              49    0.1610  221  42 
 ZRD     ES   0A  1343 13.97                              49   -0.1610  225  22 
 GANJ    IPn  0A  1342 51.10                                            251 353 
 GNI      IAML A  1342 51.18       857.3                                256 320 
 GNI     IPn  2A  1342 53.20                                            256 320 
 GNI     ES   0A  1343 20.71                              49   -0.07 9  256 320 
 ZNJK    ES   0A  1343 22.22                              49    0.18 9  262 137 
                                                                                
 2012  811 1414 53.8 L  38.495  46.705 26.6  New 24 0.2 3.0LNew                1
 GAP= 54        0.65       1.0     1.0  1.5  0.6156E-01 -0.2083E+00 -0.5659E+00E
 Action:ARG 24-03-13 16:01 OP:OBSP STATUS:               ID:20120811141453     I
 STAT SP IPHASW D HRMM SECON CODA AMPLIT PERI AZIMU VELO AIN AR TRES W  DIS CAZ7
 TVRZ    IP   0A  1414 58.31                             172    0.1010 3.41 288 
 TVRZ     IAML A  1414 58.31     22995.2                               3.41 288 
 TAHR    ES   0A  1415  5.50                             127    0.1010 30.2  91 
 HRS     IPg  0A  1415  1.13                             122    0.0610 35.3 124 
 HRS      IAML A  1415  1.19      1255.0                               35.3 124 
 HRS     ESg  0A  1415  6.43                             122   -0.1210 35.3 124 
 TBZ     IPg  0A  1415  3.57                             108   -0.4510 56.4 239 
 TABZ     IAML A  1415  4.40       667.3                               58.8 214 
 TABZ    IP   0A  1415  4.40                             107    0.0410 58.8 214 
 TABZ    ES   0A  1415 12.50                             107    0.2010 58.8 214 
 FTB     IP   0A  1415  4.53                             106    0.0510 59.6 207 
 FTB      IAML A  1415  4.53       653.8                               59.6 207 
 ORD     IP   0A  1415  7.36                             100    0.0710 78.4 308 
 ORD     ES   0A  1415 17.67                             100    0.2410 78.4 308 
 BST     IPg  0A  1415  8.72                              98   -0.2610 89.5 170 
 BST     ESg  0A  1415 19.80                              98   -0.5910 89.5 170 
 MRD     IPg  0A  1415  8.42                              98   -0.7410 90.7 286 
 SHB     IPg  0A  1415 10.53                              97    0.3010 97.7 256 
 SHB     ES   0A  1415 22.53                              97   -0.0410 97.7 256 
 GRMI    IP   0A  1415 11.90                              96   -0.0710  109  71 
 GRMI     IAML A  1415 11.90       259.8                                109  71 
 GRMI    ES   0A  1415 25.62                              96    0.0010  109  71 
 AZR     IP   0A  1415 12.19                              96    0.0110  111 215 
 AZR     ES   0A  1415 26.14                              96    0.1610  111 215 
 SRB      IAML A  1415 12.47       251.8                                112 131 
 SRB     IP   0A  1415 12.47                              96    0.0510  112 131 
 SBZ     ES   0A  1415 34.38                              94    0.1210  141 315 
 HSH     IP   0A  1415 16.98                              94    0.1710  141 159 
 HSH     ES   0A  1415 34.51                              94    0.4110  141 159 
 ASTR    ES   0A  1415 44.38                              54   -0.0110  182  87 
 LKRN    IP   0A  1415 22.76                              54    0.0410  182  82 
 LKRN    ES   0A  1415 44.46                              54    0.0310  182  82 
 MAKU     IAML A  1415 25.05        91.2                                200 299 
 MAKU    IP   0A  1415 25.05                              54    0.1710  200 299 
 BRDA    IP   0A  1415 24.84                              54   -0.1410  201  12 
 SAAT    ES   0A  1415 50.84                              54   -0.0810  212  44 
 ZRD     IP   0A  1415 26.73                              54   -0.0810  215  23 
 GNI     IP   0A  1415 31.14                              54    0.06 9  250 318 
 ZNJK    IP   0A  1415 33.53                              54    0.28 9  268 139 
 ZNJK     IAML A  1415 33.53        48.8                                268 139 
 VANB    ES   0A  1416  7.49                              54   -0.08 9  289 273 
                                                                                
 2012  811 1425 15.5 L  38.428  46.681 11.8  New 18 0.2 4.3LNew                1
 GAP= 75        0.62       1.0     0.9  1.9  0.8715E-01  0.3644E-01 -0.2697E+00E
 Action:ARG 24-03-13 16:01 OP:OBSP STATUS:               ID:20120811142515     I
 STAT SP IPHASW D HRMM SECON CODA AMPLIT PERI AZIMU VELO AIN AR TRES W  DIS CAZ7
 TVRZ    ES   0A  1425 19.97                             142    0.1310 8.46 353 
 TAHR    ES   0A  1425 25.84                             106   -0.1110 33.0  78 
 HRS     IPg  0A  1425 21.35                             106   -0.2410 33.9 111 
 HRS      IAML A  1425 21.45     41505.8                               33.9 111 
 HRS     ESg  0A  1425 26.27                             106    0.0910 33.9 111 
 TBZ     IPg  0A  1425 24.13                             100   -0.2210 51.1 245 
 TBZ      IAML A  1425 24.21     24554.1                               51.1 245 
 FTB     ES   0A  1425 31.39                             100    0.0810 52.1 209 
 BST     IPg  0A  1425 29.13                              96   -0.3910 82.8 167 
 BST      IAML A  1425 29.47     12400.8                               82.8 167 
 BST     ESg  0A  1425 40.51                              96    0.4510 82.8 167 
 MRD     IPg  0A  1425 30.57                              95   -0.2810 90.9 291 
 SHB      IAML A  1425 31.31     10445.9                               94.2 260 
 SHB     IPg  0A  1425 31.44                              95    0.0510 94.2 260 
 SHB     ES   0A  1425 43.40                              95    0.0710 94.2 260 
 AZR     ES   0A  1425 46.12                              95    0.1710  103 216 
 SRB     IPg  0A  1425 33.29                              94   -0.5410  109 128 
 SRB      IAML A  1425 33.79      8230.5                                109 128 
 SRB     ES   0A  1425 47.73                              94    0.1210  109 128 
 GRMI    IPg  2A  1425 34.95                              94    0.35 5  114  68 
 GRMI    ES   0A  1425 49.17                              94    0.2210  114  68 
 NAX     ES   0A  1425 54.31                              94    0.0910  132 309 
 SBZ     ES   0A  1425 57.90                              69    0.1310  145 318 
 ASTR    ES   0A  1426  8.38                              69    0.0510  185  85 
 LKRN    ES   0A  1426  8.64                              69    0.0810  186  80 
 MAKU    IPn  2A  1425 48.11                                            202 301 
 MAKU    ES   0A  1426 12.84                              69   -0.0110  202 301 
 GNI     IPn  0A  1425 57.00                                            254 319 
 ZNJK     IAML A  1425 56.05      1584.3                                264 137 
 ZNJK    IPn  2A  1425 56.43                                            264 137 
                                                                                
 2012  811 1455 57.3 L  38.433  46.741  5.7  New 25 0.2 3.1LNew                1
 GAP= 43        0.64       1.0     0.9  1.8  0.2049E-01 -0.2151E+00 -0.7979E+00E
 Action:ARG 24-03-13 16:01 OP:OBSP STATUS:               ID:20120811145557     I
 STAT SP IPHASW D HRMM SECON CODA AMPLIT PERI AZIMU VELO AIN AR TRES W  DIS CAZ7
 TVRZ    IP   0A  1455 59.62                             110    0.2210 10.1 321 
 TVRZ     IAML A  1455 59.62     12135.6                               10.1 321 
 TAHR    ES   0A  1456  5.80                              95   -0.2010 27.8  77 
 HRS      IAML A  1456  2.37      3188.3                               29.3 116 
 HRS     IPg  0A  1456  2.39                              94   -0.1310 29.3 116 
 HRS     ESg  0A  1456  6.53                              94    0.1110 29.3 116 
 FTB     IP   0A  1456  6.71                              92   -0.0810 55.3 213 
 TABZ    IP   0A  1456  6.69                              92   -0.1010 55.3 221 
 TABZ     IAML A  1456  6.69      1378.8                               55.3 221 
 TBZ     IPg  0A  1456  6.75                              92   -0.1810 56.1 247 
 TBZ      IAML A  1456  6.83      1360.2                               56.1 247 
 TBZ     ESg  0A  1456 13.67                              92   -0.4710 56.1 247 
 BST     IPg  0A  1456 10.95                              91   -0.2810 82.3 171 
 BST     ESg  0A  1456 22.37                              91    0.6910 82.3 171 
 ORD     ES   0A  1456 22.58                              91    0.1210 85.0 310 
 MRD      IAML A  1456 13.45       645.2                               95.7 289 
 MRD     IPg  0A  1456 13.71                              91    0.2810 95.7 289 
 SHB     IPg  0A  1456 14.52                              91    0.4710 99.4 261 
 SHB     ES   0A  1456 26.63                              91    0.0310 99.4 261 
 SRB     IPg  0A  1456 14.46                              91   -0.5610  105 130 
 SRB      IAML A  1456 14.85       552.8                                105 130 
 AZR     IP   0A  1456 15.20                              91   -0.0810  107 219 
 GRMI    IP   0A  1456 15.53                              91   -0.0410  109  67 
 GRMI     IAML A  1456 15.53       535.1                                109  67 
 HSH     IP   0A  1456 19.58                              91   -0.0610  133 160 
 LRK     IP   0A  1456 20.91                              91   -0.0410  141  80 
 LRK      IAML A  1456 20.91       345.3                                141  80 
 LRK     ES   0A  1456 38.69                              91    0.0210  141  80 
 GLBA    ES   0A  1456 46.77                              69    0.1010  169  57 
 ASTR    IP   0A  1456 27.12                              69    0.0410  179  85 
 LKRN    ES   0A  1456 49.85                              69    0.2210  180  80 
 BRDA    IP   0A  1456 31.20                              69   -0.0510  207  10 
 BRDA    ES   0A  1456 56.67                              69   -0.0310  207  10 
 SAAT    IP   0A  1456 32.62                              49    0.1510  215  42 
 SAAT     IAML A  1456 32.62       157.7                                215  42 
 ZRD     ES   0A  1456 59.93                              49   -0.0610  220  21 
 GANJ    IP   0A  1456 36.55                              49   -0.01 9  248 352 
 GANJ    ES   0A  1457  5.80                              49   -0.21 9  248 352 
 GNI     ES   0A  1457  7.89                              49   -0.01 9  257 318 
 ZNJK    IP   0A  1456 38.18                              49    0.12 9  260 138 
 ZNJK    ES   0A  1457  8.62                              49   -0.00 9  260 138 
 VANB     IAML A  1456 42.10        78.8                                293 275 
 VANB    IP   0A  1456 42.10                              49    0.03 8  293 275 
                                                                                
 2012  811 1521 14.7 L  38.444  46.786 16.2  New 25 0.3 4.7LNew                1
 GAP= 65        0.91       1.3     1.5  1.9  0.2646E+00 -0.4399E+00 -0.1740E+00E
 Action:ARG 24-03-13 16:01 OP:OBSP STATUS:               ID:20120811152114     I
 STAT SP IPHASW D HRMM SECON CODA AMPLIT PERI AZIMU VELO AIN AR TRES W  DIS CAZ7
 TVRZ    ES   0A  1521 21.23                             142    0.4710 12.2 303 
 HRS     IPg  0A  1521 19.53                             119   -0.4410 26.4 122 
 FTB     ES   0A  1521 32.84                             103    0.2210 58.5 216 
 TBZ      IAML A  1521 25.16     50103.8                               60.2 247 
 TBZ     IPg  0A  1521 25.34                             103    0.1310 60.2 247 
 BST     ES   0A  1521 39.78                              99    0.2410 83.0 174 
 ORD     IPg  2A  1521 29.20                              99   -0.39 5 87.3 308 
 ORD      IAML A  1521 29.59     28748.4                               87.3 308 
 ORD     ES   0A  1521 40.91                              99    0.1510 87.3 308 
 MRD     IPg  0A  1521 31.27                              98   -0.2210 99.0 288 
 MRD      IAML A  1521 31.44     23962.1                               99.0 288 
 SRB     IPg  0A  1521 31.52                              97   -0.6510  103 132 
 SRB     ES   0A  1521 45.38                              69    0.1510  103 132 
 SHB     IPg  0A  1521 32.40                              97    0.1710  104 260 
 GRMI    IPg  2A  1521 32.43                              97    0.02 5  105  67 
 GRMI     IAML A  1521 32.56     22367.0                                105  67 
 AZR     ES   0A  1521 47.14                              69   -0.0210  110 220 
 HSH     ES   0A  1521 53.45                              69    0.1410  133 161 
 LRK     IPg  0A  1521 37.70                              95   -0.0510  137  80 
 LRK     ES   0A  1521 54.86                              69    0.4710  137  80 
 SBZ      IAML A  1521 39.28     12033.9                                150 315 
 SBZ     IPg  0A  1521 39.60                              95   -0.2910  150 315 
 SBZ     ES   0A  1521 57.87                              69   -0.0210  150 315 
 GLBA     IAML A  1521 41.83     10307.5                                165  57 
 GLBA    IPg  0A  1521 42.90                              94    0.5610  165  57 
 GLBA    ES   0A  1522  2.32                              69    0.4310  165  57 
 ASTR    IPg  0A  1521 43.20                              94   -0.8010  175  85 
 LKRN    IPg  0A  1521 43.80                              94   -0.3310  176  80 
 BRDA    IPn  0A  1521 49.60                                            205   9 
 MAKU     IAML A  1521 47.92      6532.8                                209 300 
 MAKU    IPn  2A  1521 48.14                                            209 300 
 MAKU    ES   0A  1522 12.78                              49   -0.0210  209 300 
 SAAT    IPn  2A  1521 48.30                                            212  41 
 SAAT     IAML A  1521 48.44      6380.4                                212  41 
 ZRD      IAML A  1521 49.05      5980.0                                218  21 
 ZRD     IPn  0A  1521 50.70                                            218  21 
 ZRD     ES   0A  1522 14.76                              49   -0.0610  218  21 
 GANJ    IPn  0A  1521 53.70                                            248 351 
 GNI      IAML A  1521 54.09      4127.7                                259 318 
 GNI     IPn  0A  1521 56.70                                            259 318 
 ZNJK    IPn  2A  1521 54.65                                            259 139 
 ZNJK    ES   0A  1522 23.79                              49    0.15 9  259 139 
 VANB    IPn  0A  1522  1.30                                            297 274 
 VANB    ES   0A  1522 31.47                              49   -0.37 8  297 274 
                                                                                
