 2012  811 2358 13.7 L  38.454  46.709 10.8  New 20 0.3 3.4LNew                1
 GAP= 80        0.71       1.4     1.0  1.9  0.3558E+00 -0.6951E+00 -0.1191E+01E
 Action:ARG 24-03-13 16:01 OP:OBSP STATUS:               ID:20120811235813     I
 STAT SP IPHASW D HRMM SECON CODA AMPLIT PERI AZIMU VELO AIN AR TRES W  DIS CAZ7
 TVRZ    ES   0A  2358 17.60                             147    0.0710 6.63 327 
 HRS     IPg  0A  2358 19.34                             104   -0.2410 32.7 117 
 HRS     ESg  0A  2358 24.14                             104    0.1210 32.7 117 
 TBZ     IPg  0A  2358 22.70                              98   -0.4110 54.6 244 
 TBZ      IAML A  2358 23.23      2885.5                               54.6 244 
 TBZ     ES   0A  2358 30.60                              98    0.4110 54.6 244 
 FTB      IAML A  2358 23.41      2748.1                               55.8 210 
 FTB     IP   0A  2358 23.41                              98    0.1010 55.8 210 
 MRD     IPg  0A  2358 28.84                              95   -0.4510 92.4 288 
 MRD      IAML A  2358 29.26      1384.0                               92.4 288 
 MRD     ES   0A  2358 41.15                              95    0.1410 92.4 288 
 SHB     IPg  0A  2358 30.01                              94   -0.0710 97.1 259 
 AZR      IAML A  2358 31.87      1074.6                                107 217 
 AZR     IP   0A  2358 31.87                              94    0.1610  107 217 
 SRB     IPg  0A  2358 31.36                              94   -0.6510  109 130 
 SRB      IAML A  2358 31.97      1032.5                                109 130 
 SRB     ESg  0A  2358 46.14                              94    0.3810  109 130 
 GRMI    IPg  0A  2358 32.21                              94   -0.0410  110  69 
 GRMI    ES   0A  2358 46.18                              94   -0.0010  110  69 
 NAX     ES   0A  2358 52.68                              93    0.1910  132 308 
 LRK     ES   0A  2358 55.73                              69    0.0810  144  81 
 SBZ     IP   0A  2358 37.84                              69   -0.0110  145 317 
 SBZ     ES   0A  2358 56.17                              69    0.1810  145 317 
 GLBA    ES   0A  2359  2.99                              69    0.1910  170  59 
 ASTR    IP   0A  2358 43.40                              69   -0.1310  182  86 
 ASTR    ES   0A  2359  5.91                              69   -0.0110  182  86 
 LKRN    ES   0A  2359  6.16                              69    0.0810  183  80 
 MAKU    IPn  0A  2358 46.19                                            202 300 
 SAAT    ES   0A  2359 14.53                              49    0.2610  215  43 
 ZRD      IAML A  2358 48.82       301.3                                219  22 
 ZRD     IP   0A  2358 48.82                              49    0.0210  219  22 
 GANJ    ES   0A  2359 20.42                              49   -0.4110  246 352 
 ZNJK    IPn  0A  2358 54.41                                            264 138 
 ZNJK     IAML A  2358 54.66       198.2                                264 138 
                                                                                
 2012  812 0010 52.9 L  38.395  46.702  4.6  New 24 0.2 2.5LNew                1
 GAP= 45        0.53       0.8     0.7  1.7 -0.9829E-01  0.4945E-01 -0.5556E+00E
 Action:ARG 24-03-13 16:01 OP:OBSP STATUS:               ID:20120812001052     I
 STAT SP IPHASW D HRMM SECON CODA AMPLIT PERI AZIMU VELO AIN AR TRES W  DIS CAZ7
 TVRZ    ES   0A   010 57.17                              96    0.0210 12.5 346 
 HRS     IPg  0A   010 58.45                              91    0.1010 30.9 106 
 TAHR    IP   0A   010 58.49                              91   -0.0710 32.2  71 
 FTB     ES   0A   011  8.10                              91    0.1910 49.9 213 
 TABZ    ES   0A   011  8.16                              91    0.2510 49.9 221 
 TBZ     IPg  0A   011  1.26                              91   -0.4710 51.5 250 
 TBZ     ES   0A   011  8.66                              91    0.2910 51.5 250 
 BST     IP   0A   011  6.11                              90   -0.1110 78.7 168 
 BST      IAML A   011  6.11       213.6                               78.7 168 
 MRD     IPg  0A   011  8.28                              90   -0.4610 94.1 292 
 MRD     ES   0A   011 20.68                              90    0.0510 94.1 292 
 SHB      IAML A   011  8.95       163.7                               95.5 263 
 SHB     IPg  0A   011  9.23                              90    0.2510 95.5 263 
 AZR     IP   0A   011 10.02                              90    0.0510  102 219 
 AZR      IAML A   011 10.02       147.5                                102 219 
 SRB     IPg  0A   011 10.48                              90   -0.1110  105 127 
 SRB     ES   0A   011 23.64                              90   -0.2310  105 127 
 GRMI    ES   0A   011 26.33                              90    0.1210  113  66 
 LRK      IAML A   011 17.13        81.6                                145  79 
 LRK     IP   0A   011 17.13                              90   -0.0610  145  79 
 LRK     ES   0A   011 35.46                              90    0.0510  145  79 
 SBZ     IP   0A   011 17.81                              90   -0.0310  149 318 
 SBZ      IAML A   011 17.81        79.1                                149 318 
 GLBA    ES   0A   011 43.98                              69    0.2410  174  57 
 ASTR    IP   0A   011 23.23                              69   -0.0610  183  84 
 LKRN    IP   0A   011 23.46                              69   -0.0210  184  78 
 LKRN     IAML A   011 23.46        53.0                                184  78 
 LKRN    ES   0A   011 46.54                              69    0.1210  184  78 
 MAKU    ES   0A   011 52.27                              69    0.2810  205 302 
 BRDA     IAML A   011 27.55        40.8                                211  11 
 BRDA    IP   0A   011 27.55                              69   -0.0810  211  11 
 BRDA    ES   0A   011 53.61                              69   -0.0810  211  11 
 SAAT     IAML A   011 28.95        37.3                                221  42 
 SAAT    IP   0A   011 28.95                              49    0.1210  221  42 
 SAAT    ES   0A   011 55.92                              49    0.1210  221  42 
 ZRD     IP   0A   011 29.48                              49    0.0110  226  22 
 GANJ    IP   0A   011 32.58                              49   -0.15 9  252 353 
 GNI     IP   0A   011 33.48                              49    0.00 9  258 320 
 GNI      IAML A   011 33.48        26.8                                258 320 
 VANB    IP   0A   011 37.32                              49   -0.08 9  290 275 
 VANB    ES   0A   012 10.41                              49   -0.38 9  290 275 
                                                                                
 2012  812 0015 23.0 L  38.440  46.763 16.3  New 22 0.2 3.1LNew                1
 GAP= 50        0.51       1.1     0.7  1.3 -0.3033E+00  0.1521E+00 -0.7881E+00E
 Action:ARG 24-03-13 16:01 OP:OBSP STATUS:               ID:20120812001522     I
 STAT SP IPHASW D HRMM SECON CODA AMPLIT PERI AZIMU VELO AIN AR TRES W  DIS CAZ7
 TAHR    IP   0A   015 28.16                             120    0.0310 25.7  77 
 TAHR     IAML A   015 28.16      3765.1                               25.7  77 
 TAHR    ES   0A   015 32.18                             120    0.1710 25.7  77 
 HRS     IPg  0A   015 28.38                             118   -0.0510 27.8 119 
 HRS      IAML A   015 28.48      3354.9                               27.8 119 
 FTB     IP   0A   015 32.98                             104    0.0310 57.0 215 
 FTB     ES   0A   015 40.62                             104    0.1810 57.0 215 
 TABZ    ES   0A   015 40.67                             104    0.1910 57.1 222 
 TBZ     IPg  0A   015 32.89                             103   -0.2610 58.2 247 
 TBZ      IAML A   015 33.23      1314.3                               58.2 247 
 TBZ     ESg  0A   015 40.59                             103   -0.2110 58.2 247 
 BST     IP   0A   015 37.08                              99   -0.0210 82.7 172 
 MRD     IPg  0A   015 39.11                              98   -0.3710 97.3 288 
 MRD      IAML A   015 39.52       631.6                               97.3 288 
 SHB     IPg  0A   015 39.92                              97   -0.2410  102 260 
 SHB     ESg  0A   015 53.44                              97    0.3710  102 260 
 SRB     IPg  0A   015 40.20                              97   -0.4110  104 131 
 SRB     ESg  0A   015 54.09                              97    0.2310  104 131 
 GRMI    IPg  0A   015 41.21                              97    0.2210  107  67 
 GRMI    ES   0A   015 54.41                              69    0.0110  107  67 
 AZR     ES   0A   015 54.99                              69    0.0110  109 219 
 LRK     ES   0A   016  3.11                              69   -0.0710  139  80 
 SBZ     IP   0A   015 47.56                              69    0.0810  149 316 
 SBZ      IAML A   015 47.56       313.4                                149 316 
 GLBA    IP   0A   015 50.18                              69   -0.0310  167  57 
 GLBA     IAML A   015 50.18       255.0                                167  57 
 GLBA    ES   0A   016 10.72                              69    0.0610  167  57 
 ASTR    ES   0A   016 13.27                              69   -0.1310  177  85 
 LKRN    IP   0A   015 51.80                              69   -0.1010  178  80 
 MAKU    IPn  0A   015 56.09                                            207 300 
 MAKU     IAML A   015 56.14       169.2                                207 300 
 MAKU    ES   0A   016 20.95                              49    0.2110  207 300 
 SAAT    ES   0A   016 22.12                              49    0.0510  213  42 
 GANJ    IP   0A   016  1.01                              49    0.00 9  248 351 
 GNI     IP   0A   016  2.37                              49    0.13 9  258 318 
 ZNJK    IPn  0A   016  3.21                                            260 139 
 VANB    IP   0A   016  6.88                              49    0.08 8  295 274 
 VANB    ES   0A   016 39.52                              49   -0.16 8  295 274 
                                                                                
 2012  812 0034 16.5 L  38.424  46.773 19.0  New 18 0.3 3.9LNew                1
 GAP= 86        0.86       1.7     1.3  1.7 -0.3105E+00  0.3538E+00 -0.1167E+01E
 Action:ARG 24-03-13 16:01 OP:OBSP STATUS:               ID:20120812003416     I
 STAT SP IPHASW D HRMM SECON CODA AMPLIT PERI AZIMU VELO AIN AR TRES W  DIS CAZ7
 TVRZ    IP   0A   034 20.53                             145    0.1210 12.7 314 
 TVRZ     IAML A   034 20.53     45977.5                               12.7 314 
 TVRZ    ES   0A   034 23.70                             145    0.3710 12.7 314 
 TAHR    ES   0A   034 26.08                             125    0.1510 25.4  73 
 HRS     IPg  0A   034 21.88                             124   -0.1410 26.3 116 
 HRS     ESg  0A   034 26.04                             124   -0.1110 26.3 116 
 FTB     IP   0A   034 26.57                             107    0.0810 56.0 216 
 FTB      IAML A   034 26.57      7045.5                               56.0 216 
 TABZ    ES   0A   034 34.36                             107    0.3010 56.4 224 
 TBZ     IPg  0A   034 26.27                             106   -0.5810 58.3 249 
 TBZ      IAML A   034 26.82      6713.7                               58.3 249 
 TBZ     ES   0A   034 34.70                             106    0.1010 58.3 249 
 ORD     ES   0A   034 42.95                              69    0.2910 87.9 310 
 MRD     IPg  0A   034 32.49                              99   -0.8510 98.7 289 
 MRD     ES   0A   034 45.86                              69    0.3010 98.7 289 
 SHB     IPg  0A   034 33.41                              99   -0.4710  102 262 
 SHB      IAML A   034 33.52      2966.6                                102 262 
 SHB     ESg  0A   034 46.91                              99    0.0110  102 262 
 SRB     IPg  0A   034 33.79                              99   -0.1710  103 130 
 SRB      IAML A   034 33.91      2878.6                                103 130 
 GRMI    IPg  0A   034 34.90                              99    0.2810  107  66 
 GRMI    ES   0A   034 47.72                              69    0.0410  107  66 
 AZR     ES   0A   034 48.34                              69    0.3010  108 220 
 LRK     ES   0A   034 56.50                              69    0.1710  139  79 
 ASTR    IP   0A   034 45.07                              69   -0.0210  177  84 
 MAKU     IAML A   034 49.60       837.9                                209 300 
 MAKU    IPn  0A   034 49.64                                            209 300 
 MAKU    ES   0A   035 14.37                              49    0.2310  209 300 
 GANJ    ES   0A   035 22.58                              49   -0.42 9  250 351 
 ZNJK    IPn  0A   034 56.71                                            258 138 
 GNI     ES   0A   035 25.11                              49   -0.05 9  260 318 
                                                                                
 2012  812 0041 26.6 L  38.477  46.737 20.1  New 25 0.3 2.7LNew                1
 GAP= 39        0.77       1.3     1.1  1.7 -0.1574E+00  0.3456E+00 -0.7336E+00E
 Action:ARG 24-03-13 16:01 OP:OBSP STATUS:               ID:20120812004126     I
 STAT SP IPHASW D HRMM SECON CODA AMPLIT PERI AZIMU VELO AIN AR TRES W  DIS CAZ7
 TVRZ    IP   0A   041 30.23                             160   -0.0110 6.73 296 
 TVRZ    ES   0A   041 33.17                             160    0.2410 6.73 296 
 TAHR    ES   0A   041 36.42                             118   -0.2810 27.4  87 
 HRS     IPg  0A   041 32.59                             112   -0.4310 32.0 124 
 HRS     ES   0A   041 37.85                             112    0.0410 32.0 124 
 TBZ     IPg  0A   041 35.92                              91   -1.0110 58.0 243 
 TBZ      IAML A   041 36.98       521.5                               58.0 243 
 TABZ    IP   0A   041 37.19                              91    0.1110 58.9 218 
 FTB     IP   0A   041 37.23                              91    0.0910 59.3 211 
 FTB      IAML A   041 37.23       510.3                               59.3 211 
 BST     ES   0A   041 52.58                              90    0.0810 87.2 171 
 MRD     IPg  0A   041 42.49                              90    0.0410 93.9 286 
 SHB     IPg  0A   041 43.34                              90   -0.0510  100 258 
 SHB      IAML A   041 43.40       237.3                                100 258 
 SHB     ESg  0A   041 56.66                              90    0.7110  100 258 
 GRMI    IP   0A   041 44.49                              90    0.0110  107  70 
 GRMI    ES   0A   041 58.14                              90    0.2810  107  70 
 SRB     IPg  0A   041 44.80                              90    0.0810  109 131 
 SRB     ES   0A   041 58.50                              90    0.2210  109 131 
 AZR     IP   0A   041 45.17                              90    0.1610  111 217 
 HSH     IP   0A   041 49.20                              90   -0.0310  138 160 
 LRK     ES   0A   042  6.91                              90    0.0010  141  82 
 SBZ     IP   0A   041 50.03                              90   -0.2210  145 315 
 SBZ      IAML A   041 50.03       129.8                                145 315 
 GLBA    ES   0A   042 14.29                              90    0.4010  167  59 
 ASTR    IP   0A   041 55.32                              90   -0.2310  179  86 
 ASTR     IAML A   041 55.32        89.6                                179  86 
 ASTR    ES   0A   042 17.08                              90   -0.1510  179  86 
 LKRN    ES   0A   042 17.34                              90    0.0010  180  81 
 BRDA    IP   0A   041 58.41                              54   -0.1910  202  11 
 SAAT    ES   0A   042 24.96                              54    0.2610  212  43 
 ZRD     IP   0A   042  0.24                              54   -0.1110  216  22 
 GANJ    IP   0A   042  3.58                              54   -0.1510  243 352 
 GNI      IAML A   042  5.02        43.7                                253 318 
 GNI     IP   0A   042  5.02                              54    0.08 9  253 318 
 GNI     ES   0A   042 33.75                              54    0.08 9  253 318 
 ZNJK    IP   0A   042  6.48                              54    0.17 9  264 139 
 VANB    IP   0A   042  9.74                              54   -0.02 9  292 274 
 VANB     IAML A   042  9.74        31.4                                292 274 
 VANB    ES   0A   042 41.90                              54   -0.19 9  292 274 
                                                                                
