 2012  811 1223 15.6 L  38.415  46.797  4.1  New 25 0.3 6.5LNew                1
 GAP= 45        0.90       1.5     1.3  3.2  0.2735E+00 -0.1756E+00 -0.2023E+01E
 Action:ARG 24-03-13 16:01 OP:OBSP STATUS:               ID:20120811122315     I
 STAT SP IPHASW D HRMM SECON CODA AMPLIT PERI AZIMU VELO AIN AR TRES W  DIS CAZ7
 TVRZ    ES   0A  1223 20.52                              91   -0.0610 15.0 311 
 TAHR    ES   0A  1223 23.13                              90    0.0410 23.7  69 
 HRS     IPg  0A  1223 19.51                              90   -0.4210 24.0 117 
 HRS      IAML A  1223 19.89      10.8e6                               24.0 117 
 HRS     ES   0A  1223 23.25                              90    0.0810 24.0 117 
 FTB     IP   0A  1223 25.62                              90    0.3410 56.5 219 
 TBZ      IAML A  1223 26.02      31.1e5                               60.0 251 
 TBZ     IPg  0A  1223 26.20                              90    0.3510 60.0 251 
 BST     IPg  0A  1223 28.66                              90   -0.4210 79.6 174 
 ORD     IPg  0A  1223 30.70                              90   -0.1110 90.1 309 
 SRB     ES   0A  1223 45.38                              90    0.2510  100 130 
 MRD     IPg  0A  1223 32.20                              90   -0.3910  101 289 
 MRD     ES   0A  1223 45.49                              90    0.1510  101 289 
 SHB     IPg  0A  1223 33.34                              90    0.2510  104 262 
 GRMI    IPg  0A  1223 32.55                              90   -0.7110  105  65 
 GRMI     IAML A  1223 33.29      14.2e5                                105  65 
 AZR      IAML A  1223 34.19      13.2e5                                109 221 
 AZR     IP   0A  1223 34.19                              90    0.3510  109 221 
 HSH     IP   0A  1223 37.41                              90    0.0710  130 161 
 LRK     IPg  0A  1223 37.80                              90   -0.7010  137  79 
 LRK      IAML A  1223 38.43      92.2e4                                137  79 
 NAX     IPg  0A  1223 38.70                              90   -0.4810  141 307 
 NAX      IAML A  1223 39.06      85.7e4                                141 307 
 NAX     ES   0A  1223 56.81                              90   -0.0510  141 307 
 SBZ     ES   0A  1224  0.31                              90   -0.1110  153 316 
 GLBA    IPg  0A  1223 43.80                              90    0.4710  166  56 
 GLBA    ES   0A  1224  4.44                              90    0.3210  166  56 
 ASTR    IP   0A  1223 44.60                              90   -0.1210  175  84 
 LKRN    ES   0A  1224  6.96                              90    0.0810  176  79 
 BRDA     IAML A  1223 49.73      42.2e4                                208   9 
 BRDA    IPn  0A  1223 50.20                                            208   9 
 BRDA    ES   0A  1224 15.48                              69    0.0010  208   9 
 SAAT    IPn  0A  1223 49.40                                            213  41 
 SAAT     IAML A  1223 50.92      40.2e4                                213  41 
 SAAT    ES   0A  1224 17.50                              69    0.5210  213  41 
 ZRD     IPn  0A  1223 52.10                                            221  20 
 ZRD     ES   0A  1224 18.79                              49    0.1610  221  20 
 GANJ    IPn  0A  1223 54.70                                            251 351 
 GANJ     IAML A  1223 55.49      28.2e4                                251 351 
 GANJ    ES   0A  1224 25.30                              49    0.10 9  251 351 
 ZNJK    IPn  0A  1223 55.20                                            256 139 
 VANB    ES   0A  1224 35.44                              49    0.12 8  298 275 
                                                                                
 2012  811 1228 46.3 L  38.431  46.781 21.7  New 24 0.2 3.5LNew                1
 GAP= 43        0.52       0.8     0.9  1.1  0.5067E-01 -0.2815E-01 -0.2742E+00E
 Action:ARG 24-03-13 16:01 OP:OBSP STATUS:               ID:20120811122846     I
 STAT SP IPHASW D HRMM SECON CODA AMPLIT PERI AZIMU VELO AIN AR TRES W  DIS CAZ7
 TVRZ    IP   0A  1228 50.61                             146    0.0510 12.7 309 
 TVRZ    ES   0A  1228 53.99                             146    0.2610 12.7 309 
 HRS      IAML A  1228 51.97      8704.6                               26.0 119 
 HRS     IPg  0A  1228 51.99                             123   -0.0310 26.0 119 
 HRS     ES   0A  1228 56.37                             123    0.0810 26.0 119 
 FTB     ES   0A  1229  4.26                              97    0.1110 57.1 217 
 TABZ    IP   0A  1228 56.55                              97   -0.0210 57.5 224 
 TABZ    ES   0A  1229  4.39                              97    0.1510 57.5 224 
 TBZ     IPg  0A  1228 56.26                              97   -0.5810 59.3 249 
 BST     IPg  0A  1229  0.16                              93   -0.0910 81.6 173 
 BST     ES   0A  1229 10.80                              93    0.1010 81.6 173 
 MRD     IPg  0A  1229  2.27                              92   -0.6610 99.1 289 
 MRD      IAML A  1229  2.98      1567.3                               99.1 289 
 SRB     IP   0A  1229  3.32                              92   -0.1310  103 131 
 SHB     IPg  0A  1229  3.64                              92    0.1310  103 261 
 GRMI    IP   0A  1229  3.84                              92   -0.0810  106  66 
 GRMI    ES   0A  1229 17.15                              92    0.0310  106  66 
 HSH     IP   0A  1229  7.98                              91   -0.0010  132 161 
 LRK     ES   0A  1229 25.85                              91    0.0510  138  80 
 NAX     ES   0A  1229 26.18                              91    0.1310  139 307 
 SBZ     ES   0A  1229 29.42                              91    0.0810  151 316 
 GLBA    IP   0A  1229 13.16                              91   -0.0910  166  57 
 GLBA     IAML A  1229 13.16       644.9                                166  57 
 ASTR     IAML A  1229 14.62       576.8                                176  85 
 ASTR    IP   0A  1229 14.62                              91   -0.0910  176  85 
 BRDA     IAML A  1229 18.67       432.3                                206   9 
 BRDA    IP   0A  1229 18.67                              54   -0.0110  206   9 
 MAKU    ES   0A  1229 43.76                              54    0.2310  209 300 
 SAAT    IP   0A  1229 19.59                              54    0.0810  213  41 
 SAAT     IAML A  1229 19.59       402.2                                213  41 
 SAAT    ES   0A  1229 44.49                              54    0.0910  213  41 
 ZRD     IP   0A  1229 20.34                              54    0.0310  219  20 
 ZRD      IAML A  1229 20.34       380.1                                219  20 
 GANJ     IAML A  1229 23.95       291.4                                249 351 
 GANJ    IP   0A  1229 23.95                              54   -0.02 9  249 351 
 GANJ    ES   0A  1229 52.03                              54   -0.17 9  249 351 
 ZNJK    IP   0A  1229 25.18                              54    0.12 9  258 139 
 ZNJK     IAML A  1229 25.18       262.3                                258 139 
 ZNJK    ES   0A  1229 54.17                              54    0.06 9  258 139 
 GNI     IP   0A  1229 25.37                              54    0.10 9  260 318 
 GNI     ES   0A  1229 54.49                              54    0.01 9  260 318 
 VANB    IP   0A  1229 29.98                              54    0.16 8  296 275 
                                                                                
 2012  811 1249 15.7 L  38.383  46.692 12.2  New 17 0.3 4.6LNew                1
 GAP= 97        0.79       1.6     1.1  2.4  0.3678E-01 -0.2611E+00 -0.1806E+01E
 Action:ARG 24-03-13 16:01 OP:OBSP STATUS:               ID:20120811124915     I
 STAT SP IPHASW D HRMM SECON CODA AMPLIT PERI AZIMU VELO AIN AR TRES W  DIS CAZ7
 HRS     IPg  0A  1249 21.23                             108   -0.2410 31.4 103 
 HRS      IAML A  1249 21.44     90707.1                               31.4 103 
 HRS     ESg  0A  1249 25.91                             108    0.1110 31.4 103 
 TAHR    ES   0A  1249 26.52                             107    0.1510 33.5  69 
 FTB     ES   0A  1249 30.68                             101    0.1710 48.3 213 
 TBZ     IPg  0A  1249 23.92                             101   -0.5510 50.2 251 
 TBZ     ES   0A  1249 31.16                             101    0.1210 50.2 251 
 BST      IAML A  1249 29.02     27244.0                               77.7 167 
 BST     IPg  0A  1249 29.06                              97    0.1210 77.7 167 
 BST     ES   0A  1249 39.16                              97    0.2910 77.7 167 
 ORD     ES   0A  1249 41.56                              96    0.3910 85.7 315 
 MRD     IPg  0A  1249 30.69                              95   -0.8810 93.7 293 
 MRD      IAML A  1249 31.66     21312.7                               93.7 293 
 MRD     ES   0A  1249 43.78                              95    0.3110 93.7 293 
 SHB     IPg  0A  1249 31.48                              95   -0.2110 94.5 264 
 SHB     ESg  0A  1249 43.98                              95    0.3010 94.5 264 
 SRB     IPg  0A  1249 33.24                              95   -0.2310  105 126 
 LRK     IPg  0A  1249 40.00                              93   -0.2410  147  78 
 LRK     ES   0A  1249 58.35                              69    0.0410  147  78 
 GLBA     IAML A  1249 44.54      7350.0                                176  57 
 GLBA    IPg  0A  1249 45.20                              93    0.1610  176  57 
 GLBA    ES   0A  1250  6.32                              69    0.1610  176  57 
 ASTR    IPg  0A  1249 46.40                              93   -0.0210  184  83 
 ASTR    ES   0A  1250  8.40                              69   -0.0110  184  83 
 LKRN    ES   0A  1250  8.80                              69    0.0410  186  78 
 MAKU    ES   0A  1250 13.91                              49    0.0810  205 302 
 BRDA    IPn  0A  1249 50.90                                            213  11 
 SAAT    IPn  0A  1249 50.60                                            222  42 
 GNI      IAML A  1249 55.57      3363.2                                259 320 
 GNI     IPn  0A  1249 56.00                                            259 320 
 GNI     ES   0A  1250 25.32                              49   -0.06 9  259 320 
                                                                                
 2012  811 1314  5.6 L  38.377  46.669  4.2  New 24 0.3 4.4LNew                1
 GAP= 46        0.74       1.2     1.0  3.1 -0.1216E+00 -0.1249E+00 -0.1107E+01E
 Action:ARG 24-03-13 16:01 OP:OBSP STATUS:               ID:20120811131405     I
 STAT SP IPHASW D HRMM SECON CODA AMPLIT PERI AZIMU VELO AIN AR TRES W  DIS CAZ7
 TVRZ    ES   0A  1314 10.01                              91   -0.3710 14.1 360 
 HRS     IPg  0A  1314 11.23                              90   -0.2710 33.3 101 
 HRS      IAML A  1314 11.35     54772.2                               33.3 101 
 FTB     ES   0A  1314 19.77                              90    0.0410 46.6 211 
 TBZ     IPg  0A  1314 14.01                              90    0.0810 48.0 251 
 TBZ     ES   0A  1314 20.09                              90   -0.0510 48.0 251 
 BST      IAML A  1314 18.69     17264.0                               77.4 165 
 BST     IPg  0A  1314 19.07                              90    0.3010 77.4 165 
 MRD     IPg  0A  1314 20.65                              90   -0.5410 92.2 294 
 MRD     ES   0A  1314 32.94                              90    0.1010 92.2 294 
 SHB     IPg  0A  1314 21.38                              90    0.1610 92.4 264 
 AZR     ES   0A  1314 34.57                              90    0.0110 98.1 218 
 SRB     IPg  0A  1314 23.16                              90   -0.3910  107 125 
 SRB     ES   0A  1314 36.88                              90   -0.1010  107 125 
 GRMI    IPg  2A  1314 24.77                              90   -0.50 5  117  65 
 GRMI    ES   0A  1314 40.05                              90    0.0710  117  65 
 NAX     IPg  0A  1314 28.40                              90    0.1610  135 311 
 SBZ      IAML A  1314 30.59      6296.7                                149 320 
 LRK     IPg  0A  1314 30.40                              90   -0.0910  149  78 
 LRK      IAML A  1314 30.48      6309.2                                149  78 
 LRK     ES   0A  1314 49.21                              90    0.0910  149  78 
 SBZ     IPg  0A  1314 30.00                              90   -0.5310  149 320 
 GLBA     IAML A  1314 35.30      4568.9                                178  57 
 GLBA    IPg  0A  1314 35.40                              90    0.1110  178  57 
 GLBA    ES   0A  1314 57.65                              69    0.1510  178  57 
 ASTR    IPg  0A  1314 36.40                              90   -0.2710  186  83 
 ASTR     IAML A  1314 36.67      4162.6                                186  83 
 ASTR    ES   0A  1315  0.05                              69    0.3010  186  83 
 LKRN    ES   0A  1315  0.46                              69    0.3510  188  78 
 MAKU    IPn  2A  1314 37.85                                            204 303 
 MAKU    ES   0A  1315  4.95                              69    0.5310  204 303 
 BRDA    ES   0A  1315  7.34                              69    0.1610  214  12 
 SAAT    IPn  0A  1314 40.70                                            224  42 
 ZRD     IPn  0A  1314 42.00                                            229  22 
 GANJ    IPn  0A  1314 44.70                                            254 353 
 GANJ     IAML A  1314 45.92      2215.2                                254 353 
 GNI      IAML A  1314 46.54      2129.6                                258 320 
 GNI     IPn  2A  1314 47.40                                            258 320 
 ZNJK    IPn  2A  1314 46.49                                            260 136 
 ZNJK     IAML A  1314 46.92      2062.0                                260 136 
 VANB    ES   0A  1315 23.19                              49    0.15 9  287 276 
                                                                                
 2012  811 1323 15.1 L  38.494  46.726  8.2  New 23 0.3 3.7LNew                1
 GAP= 53        0.64       1.0     0.9  1.8 -0.3938E-01 -0.1236E+00 -0.9258E+00E
 Action:ARG 24-03-13 16:01 OP:OBSP STATUS:               ID:20120811132314     I
 STAT SP IPHASW D HRMM SECON CODA AMPLIT PERI AZIMU VELO AIN AR TRES W  DIS CAZ7
 TAHR    IP   0A  1323 19.97                             101   -0.2110 28.3  91 
 HRS     IPg  0A  1323 20.93                              99   -0.1410 33.8 125 
 HRS     ES   0A  1323 25.50                              99   -0.0710 33.8 125 
 TBZ     IP   0A  1323 25.00                              95   -0.0210 58.0 240 
 TABZ    IP   0A  1323 25.33                              95    0.0210 59.8 216 
 FTB     ES   0A  1323 33.37                              94    0.1910 60.4 209 
 BST     IPg  0A  1323 29.91                              93   -0.2310 89.2 171 
 MRD     IPg  0A  1323 30.00                              93   -0.6810 92.4 286 
 MRD     ES   0A  1323 42.74                              93    0.3610 92.4 286 
 SHB     IPg  0A  1323 31.79                              93   -0.0510 99.5 257 
 GRMI    IPg  2A  1323 34.20                              92    1.05 5  107  71 
 GRMI    ES   0A  1323 46.83                              92    0.1310  107  71 
 SRB     IPg  0A  1323 33.09                              92   -0.5910  111 132 
 SRB      IAML A  1323 33.58      2049.3                                111 132 
 SRB     ES   0A  1323 47.59                              92   -0.0410  111 132 
 AZR     IP   0A  1323 33.86                              92    0.0410  112 216 
 AZR     ES   0A  1323 48.08                              92    0.2110  112 216 
 NAX      IAML A  1323 37.09      1558.6                                131 306 
 NAX     IP   0A  1323 37.09                              92    0.1010  131 306 
 HSH     ES   0A  1323 56.38                              92    0.2610  140 160 
 LRK     ES   0A  1323 56.61                              92    0.0910  142  83 
 GLBA    IP   0A  1323 42.82                              69    0.0610  167  60 
 GLBA     IAML A  1323 42.82       999.6                                167  60 
 GLBA    ES   0A  1324  3.75                              69    0.2310  167  60 
 LKRN    IP   0A  1323 44.87                              69    0.0210  180  82 
 LKRN     IAML A  1323 44.87       867.1                                180  82 
 LKRN    ES   0A  1324  7.35                              69    0.1710  180  82 
 BRDA     IAML A  1323 47.82       707.3                                200  11 
 BRDA    IP   0A  1323 47.82                              69   -0.0610  200  11 
 MAKU    IP   0A  1323 48.23                              69    0.1810  201 299 
 SAAT    ES   0A  1324 15.23                              49   -0.0110  211  43 
 ZRD     IP   0A  1323 49.84                              49   -0.0710  215  22 
 ZRD      IAML A  1323 49.84       614.4                                215  22 
 ZRD     ES   0A  1324 15.87                              49   -0.1610  215  22 
 GNI     IP   0A  1323 54.48                              49    0.06 9  251 318 
 ZNJK    IP   0A  1323 56.37                              49    0.09 9  266 139 
 ZNJK    ES   0A  1324 27.16                              49   -0.03 9  266 139 
 VANB    IP   0A  1323 59.39                              49    0.04 9  291 273 
 VANB     IAML A  1323 59.39       321.5                                291 273 
 VANB    ES   0A  1324 32.36                              49   -0.19 9  291 273 
                                                                                
