 2012  811 1745 44.5 L  38.408  46.791  8.0  New 22 0.3 2.5LNew                1
 GAP= 45        0.84       1.3     1.2  2.4 -0.1572E-01 -0.9922E+00 -0.1352E+01E
 Action:ARG 24-03-13 16:01 OP:OBSP STATUS:               ID:20120811174544     I
 STAT SP IPHASW D HRMM SECON CODA AMPLIT PERI AZIMU VELO AIN AR TRES W  DIS CAZ7
 TVRZ    IP   0A  1745 47.68                             112    0.1810 15.1 315 
 HRS     IPg  0A  1745 47.95                             103   -0.9610 24.1 114 
 HRS      IAML A  1745 48.97      1063.0                               24.1 114 
 HRS     ESg  0A  1745 52.91                             103    0.6910 24.1 114 
 FTB      IAML A  1745 53.97       344.1                               55.6 219 
 FTB     IP   0A  1745 53.97                              95   -0.0710 55.6 219 
 TABZ    IPg  2A  1745 54.50                              95    0.35 5 56.2 226 
 TABZ    ES   0A  1746  1.43                              95    0.0310 56.2 226 
 TBZ     IPg  0A  1745 54.33                              94   -0.3110 59.2 251 
 TBZ      IAML A  1745 54.64       315.1                               59.2 251 
 TBZ     ESg  0A  1746  2.27                              94    0.0210 59.2 251 
 BST     IPg  0A  1745 57.28                              93   -0.5910 78.9 174 
 BST      IAML A  1745 57.83       214.5                               78.9 174 
 BST     ESg  0A  1746  7.76                              93   -0.1410 78.9 174 
 SRB     IP   0A  1746  1.48                              92    0.1210  100 130 
 MRD     IPg  0A  1746  1.45                              92   -0.0110  101 290 
 SHB     IPg  0A  1746  1.77                              92   -0.1210  103 263 
 SHB     ESg  0A  1746 15.73                              92    0.7910  103 263 
 GRMI     IAML A  1746  2.30       141.0                                106  65 
 GRMI    IP   0A  1746  2.30                              92    0.0010  106  65 
 AZR     ES   0A  1746 16.19                              92    0.0410  108 221 
 LRK      IAML A  1746  7.45        91.5                                138  79 
 LRK     IP   0A  1746  7.45                              92   -0.0610  138  79 
 LRK     ES   0A  1746 24.81                              92    0.0310  138  79 
 NAX     IP   0A  1746  7.99                              92   -0.1010  141 307 
 NAX      IAML A  1746  7.99        85.8                                141 307 
 NAX     ES   0A  1746 25.75                              92   -0.0510  141 307 
 GLBA     IAML A  1746 12.35        64.8                                167  56 
 GLBA    IP   0A  1746 12.35                              69    0.1110  167  56 
 GLBA    ES   0A  1746 33.38                              69    0.3310  167  56 
 ASTR    ES   0A  1746 35.25                              69    0.0010  175  84 
 LKRN    IP   0A  1746 13.66                              69   -0.0110  177  78 
 LKRN    ES   0A  1746 35.68                              69    0.1210  177  78 
 BRDA    ES   0A  1746 43.74                              49   -0.4610  209   9 
 SAAT    IP   0A  1746 19.36                              49    0.0510  214  41 
 SAAT    ES   0A  1746 45.47                              49    0.0510  214  41 
 ZRD     IP   0A  1746 20.07                              49   -0.1310  222  20 
 GANJ    IP   0A  1746 23.83                              49   -0.10 9  252 351 
 ZNJK    IP   0A  1746 24.56                              49    0.19 9  255 138 
 ZNJK    ES   0A  1746 54.46                              49    0.19 9  255 138 
 GNI     IP   0A  1746 25.32                              49    0.12 9  262 318 
 GNI      IAML A  1746 25.32        25.6                                262 318 
                                                                                
 2012  811 1749 25.5 L  38.427  46.827 15.3  New 20 0.3 2.6LNew                1
 GAP= 44        0.85       1.8     1.3  2.7 -0.5054E-03 -0.4700E+00 -0.3630E+01E
 Action:ARG 24-03-13 16:01 OP:OBSP STATUS:               ID:20120811174925     I
 STAT SP IPHASW D HRMM SECON CODA AMPLIT PERI AZIMU VELO AIN AR TRES W  DIS CAZ7
 HRS     IPg  0A  1749 30.05                             122   -0.0810 22.3 123 
 HRS     ESg  0A  1749 33.63                             122    0.0310 22.3 123 
 FTB     IP   0A  1749 36.14                             102    0.3010 59.2 220 
 FTB     ES   0A  1749 44.19                             102    0.6110 59.2 220 
 TABZ    IPg  0A  1749 35.94                             102   -0.0210 60.0 227 
 TABZ    ES   0A  1749 44.42                             102    0.6210 60.0 227 
 TBZ     IPg  0A  1749 36.31                             101   -0.1210 62.9 250 
 TBZ      IAML A  1749 36.63       380.5                               62.9 250 
 TBZ     ESg  0A  1749 44.72                             101    0.1010 62.9 250 
 BST     IPg  0A  1749 39.01                              99   -0.3110 80.8 176 
 BST      IAML A  1749 39.40       266.4                               80.8 176 
 BST     ESg  0A  1749 48.72                              99   -0.9610 80.8 176 
 SRB     IPg  0A  1749 42.07                              97   -0.2510 99.2 132 
 SRB     ESg  0A  1749 55.15                              97    0.2210 99.2 132 
 GRMI    IP   0A  1749 42.85                              97    0.0610  102  65 
 GRMI     IAML A  1749 42.85       182.6                                102  65 
 MRD     IPg  0A  1749 42.70                              97   -0.2610  103 288 
 MRD     ESg  0A  1749 55.46                              97   -0.5810  103 288 
 SHB      IAML A  1749 43.45       173.5                                107 262 
 SHB     IPg  0A  1749 43.49                              96   -0.0810  107 262 
 HSH     IP   0A  1749 47.23                              69    0.0510  130 163 
 NAX      IAML A  1749 49.31       107.0                                142 306 
 NAX     IP   0A  1749 49.31                              69    0.2910  142 306 
 SBZ     IP   0A  1749 51.14                              69    0.2910  154 315 
 GLBA    IP   0A  1749 52.22                              69   -0.0110  163  56 
 GLBA     IAML A  1749 52.22        83.2                                163  56 
 GLBA    ES   0A  1750 12.33                              69    0.0510  163  56 
 LKRN    IP   0A  1749 53.75                              69    0.0310  173  79 
 LKRN    ES   0A  1750 15.01                              69    0.1410  173  79 
 BRDA    IP   0A  1749 58.42                              49   -0.0910  206   8 
 BRDA    ES   0A  1750 22.99                              49   -0.2710  206   8 
 SAAT    IP   0A  1749 59.29                              49    0.2210  211  40 
 SAAT    ES   0A  1750 24.51                              49    0.2710  211  40 
 MAKU    IP   0A  1749 59.53                              49    0.2110  213 300 
 ZRD     IP   0A  1750  0.05                              49    0.0110  218  19 
 ZRD     ES   0A  1750 25.81                              49   -0.1210  218  19 
 GANJ    IP   0A  1750  3.89                              49   -0.06 9  250 350 
 VANB    ES   0A  1750 43.22                              49   -0.43 8  300 275 
                                                                                
 2012  811 1758 33.3 L  38.383  46.801  8.2  New 23 0.3 4.1LNew                1
 GAP= 47        0.70       1.0     1.2  2.0  0.1004E+00 -0.1014E+01 -0.7945E+00E
 Action:ARG 24-03-13 16:01 OP:OBSP STATUS:               ID:20120811175833     I
 STAT SP IPHASW D HRMM SECON CODA AMPLIT PERI AZIMU VELO AIN AR TRES W  DIS CAZ7
 TVRZ    IP   0A  1758 36.77                             109    0.0710 17.7 319 
 TVRZ     IAML A  1758 36.77     54731.2                               17.7 319 
 HRS     IPg  0A  1758 37.17                             105   -0.2510 22.3 109 
 FTB     ES   0A  1758 49.82                              95    0.2610 54.0 221 
 TABZ    IP   0A  1758 42.79                              95    0.0410 55.0 229 
 TABZ    ES   0A  1758 50.06                              95    0.2110 55.0 229 
 TBZ      IAML A  1758 43.39     12801.8                               59.2 254 
 TBZ     IPg  0A  1758 43.58                              95    0.1510 59.2 254 
 TBZ     ES   0A  1758 51.10                              95    0.0510 59.2 254 
 BST     IPg  0A  1758 45.85                              93   -0.3510 76.1 174 
 BST     ESg  0A  1758 55.43                              93   -0.4610 76.1 174 
 ORD     IP   0A  1758 48.81                              93   -0.1110 92.7 311 
 ORD     ES   0A  1759  0.60                              93   -0.0510 92.7 311 
 SRB     IPg  0A  1758 49.16                              93   -0.6010 97.8 129 
 SRB      IAML A  1758 49.74      6349.8                               97.8 129 
 MRD     IPg  0A  1758 50.09                              93   -0.4510  103 291 
 SHB     IPg  0A  1758 50.91                              92    0.1410  104 264 
 SHB     ES   0A  1759  3.91                              92    0.0310  104 264 
 AZR     ES   0A  1759  4.82                              92    0.2910  106 223 
 GRMI    IPg  0A  1758 51.33                              92    0.1710  106  63 
 AZR     IP   0A  1758 51.23                              92    0.0910  106 223 
 GRMI    ES   0A  1759  5.17                              92    0.6010  106  63 
 HSH     IP   0A  1758 54.50                              92    0.0310  126 161 
 HSH      IAML A  1758 54.50      4205.8                                126 161 
 NAX     IP   0A  1758 57.19                              92   -0.0810  143 308 
 NAX     ES   0A  1759 15.26                              92    0.0010  143 308 
 SBZ     IP   0A  1758 59.30                              69   -0.0310  156 317 
 ASTR    IP   0A  1759  2.31                              69    0.1210  175  83 
 ASTR     IAML A  1759  2.31      2353.2                                175  83 
 BRDA    ES   0A  1759 33.24                              49   -0.2610  211   9 
 MAKU    IPn  0A  1759  7.05                                            213 301 
 SAAT    IP   0A  1759  8.45                              49    0.1910  216  40 
 SAAT     IAML A  1759  8.45      1543.5                                216  40 
 SAAT    ES   0A  1759 34.75                              49    0.2510  216  40 
 ZRD     ES   0A  1759 36.06                              49   -0.1610  224  20 
 ZNJK     IAML A  1759 13.00      1118.4                                253 138 
 ZNJK    IP   0A  1759 13.00                              49    0.18 9  253 138 
 ZNJK    ES   0A  1759 42.64                              49    0.17 9  253 138 
 GANJ    ES   0A  1759 42.63                              49   -0.23 9  255 351 
 GNI      IAML A  1759 14.37       989.5                                265 318 
 GNI     IPn  0A  1759 15.40                                            265 318 
                                                                                
 2012  811 1813  3.4 L  38.382  46.647  4.1  New 24 0.2 3.0LNew                1
 GAP= 45        0.56       0.8     0.8  1.8  0.7974E-01  0.4346E-01 -0.6874E+00E
 Action:ARG 24-03-13 16:01 OP:OBSP STATUS:               ID:20120811181303     I
 STAT SP IPHASW D HRMM SECON CODA AMPLIT PERI AZIMU VELO AIN AR TRES W  DIS CAZ7
 TVRZ    IP   0A  1813  5.81                              91   -0.1810 13.7   8 
 TVRZ     IAML A  1813  5.81      7157.4                               13.7   8 
 HRS     IPg  0A  1813  9.19                              90   -0.3410 35.2 101 
 HRS      IAML A  1813  9.59      2082.8                               35.2 101 
 HRS     ES   0A  1813 14.38                              90    0.2310 35.2 101 
 TAHR     IAML A  1813  9.81      1982.0                               37.2  71 
 TAHR    IP   0A  1813  9.81                              90   -0.0510 37.2  71 
 FTB     ES   0A  1813 17.30                              90   -0.0110 46.2 209 
 TBZ     IPg  0A  1813 11.45                              90    0.0710 46.4 250 
 TBZ     ES   0A  1813 17.40                              90    0.0110 46.4 250 
 BST      IAML A  1813 16.58       677.0                               78.5 164 
 BST     IPg  0A  1813 16.77                              90    0.1310 78.5 164 
 ORD     IP   0A  1813 17.38                              90   -0.0310 83.1 317 
 MRD     IPg  0A  1813 18.10                              90   -0.4810 90.2 294 
 MRD      IAML A  1813 18.54       555.5                               90.2 294 
 SHB     IPg  0A  1813 18.96                              90    0.3210 90.6 263 
 SHB     ES   0A  1813 30.17                              90    0.0710 90.6 263 
 AZR      IAML A  1813 19.67       485.7                               97.4 217 
 AZR     IP   0A  1813 19.67                              90   -0.0910 97.4 217 
 SRB     IPg  0A  1813 20.96                              90   -0.6110  108 124 
 SRB      IAML A  1813 21.62       423.4                                108 124 
 SRB     ES   0A  1813 35.43                              90    0.2110  108 124 
 GRMI    IPg  0A  1813 23.08                              90   -0.1410  118  66 
 HSH     IP   0A  1813 25.32                              90   -0.0010  131 155 
 HSH     ES   0A  1813 41.91                              90    0.1110  131 155 
 NAX     IP   0A  1813 25.64                              90   -0.0210  133 312 
 NAX     ES   0A  1813 42.48                              90    0.0910  133 312 
 SBZ     ES   0A  1813 46.60                              90    0.1610  147 320 
 LRK     ES   0A  1813 47.52                              90    0.2010  150  78 
 ASTR    IP   0A  1813 34.71                              69    0.1610  188  83 
 MAKU    IPn  0A  1813 35.57                                            202 303 
 MAKU     IAML A  1813 36.83       140.7                                202 303 
 BRDA    ES   0A  1814  4.86                              69    0.0110  214  12 
 ZRD     ES   0A  1814  8.20                              49    0.0510  229  23 
 GANJ    ES   0A  1814 13.38                              49    0.01 9  253 354 
 GNI      IAML A  1813 43.91        85.6                                256 321 
 GNI     IP   0A  1813 43.91                              49    0.16 9  256 321 
 GNI     ES   0A  1814 14.16                              49    0.11 9  256 321 
 ZNJK    IPn  0A  1813 44.50                                            262 136 
 VANB    IP   0A  1813 47.39                              49    0.04 9  285 276 
 VANB     IAML A  1813 47.39        66.2                                285 276 
 VANB    ES   0A  1814 20.18                              49   -0.17 9  285 276 
                                                                                
 2012  811 1821 44.6 L  38.440  46.709 18.5  New 21 0.3 2.6LNew                1
 GAP= 42        0.72       1.3     1.1  2.0  0.9656E-01 -0.1622E+00 -0.1745E+01E
 Action:ARG 24-03-13 16:01 OP:OBSP STATUS:               ID:20120811182144     I
 STAT SP IPHASW D HRMM SECON CODA AMPLIT PERI AZIMU VELO AIN AR TRES W  DIS CAZ7
 TAHR    IP   0A  1821 50.80                             119    0.1610 30.3  79 
 TAHR     IAML A  1821 50.80       924.2                               30.3  79 
 HRS     IPg  0A  1821 50.86                             118   -0.0210 32.1 115 
 HRS     ESg  0A  1821 56.06                             118    0.4810 32.1 115 
 TBZ     IPg  0A  1821 53.79                             107   -0.4310 53.9 245 
 TBZ      IAML A  1821 54.25       478.5                               53.9 245 
 TBZ     ESg  0A  1822  0.87                             107   -0.5510 53.9 245 
 TABZ    IP   0A  1821 54.35                             107    0.1010 54.1 218 
 FTB     IP   0A  1821 54.41                             107    0.1110 54.4 211 
 FTB      IAML A  1821 54.41       471.6                               54.4 211 
 FTB     ES   0A  1822  1.85                             107    0.2810 54.4 211 
 BST     IPg  0A  1821 58.70                             101   -0.2610 83.5 169 
 BST      IAML A  1821 59.06       253.1                               83.5 169 
 BST     ESg  0A  1822  9.52                             101   -0.1910 83.5 169 
 MRD     IPg  0A  1822  0.15                             100   -0.3210 92.9 289 
 MRD     ES   0A  1822 12.50                              69    0.3410 92.9 289 
 SHB     IPg  0A  1822  1.49                              99    0.3710 96.8 260 
 AZR     IP   0A  1822  2.35                              69    0.0110  106 217 
 AZR      IAML A  1822  2.35       178.1                                106 217 
 AZR     ES   0A  1822 15.74                              69    0.1110  106 217 
 SRB     IPg  0A  1822  2.72                              98   -0.2010  108 129 
 SRB     ESg  0A  1822 16.18                              98   -0.4710  108 129 
 NAX     IP   0A  1822  6.67                              69    0.1110  133 308 
 NAX      IAML A  1822  6.67       120.4                                133 308 
 NAX     ES   0A  1822 23.30                              69    0.2910  133 308 
 HSH     IP   0A  1822  7.03                              69    0.2010  135 159 
 LRK     IP   0A  1822  8.26                              69    0.0710  144  80 
 LRK     ES   0A  1822 26.09                              69    0.2210  144  80 
 SBZ     IP   0A  1822  8.59                              69    0.0710  146 317 
 SBZ     ES   0A  1822 26.65                              69    0.2010  146 317 
 GLBA    IP   0A  1822 12.34                              69   -0.0310  171  58 
 ASTR     IAML A  1822 14.10        67.8                                182  85 
 ASTR    IP   0A  1822 14.10                              69    0.0610  182  85 
 ASTR    ES   0A  1822 36.27                              69    0.1610  182  85 
 BRDA    IP   0A  1822 17.20                              49   -0.1210  206  11 
 SAAT    ES   0A  1822 43.90                              49   -0.1110  216  43 
 ZRD     IP   0A  1822 19.01                              49   -0.0910  221  22 
 ZRD     ES   0A  1822 44.67                              49   -0.2910  221  22 
 GANJ    ES   0A  1822 50.17                              49   -0.4910  247 352 
 ZNJK    IP   0A  1822 24.49                              49    0.21 9  263 138 
 ZNJK     IAML A  1822 24.49        32.1                                263 138 
                                                                                
