 2012  811 2121 14.1 L  38.450  46.800 17.4  New 22 0.3 2.7LNew                1
 GAP= 44        0.73       1.2     1.2  1.6  0.3488E+00 -0.3015E+00 -0.9176E+00E
 Action:ARG 24-03-13 16:01 OP:OBSP STATUS:               ID:20120811212114     I
 STAT SP IPHASW D HRMM SECON CODA AMPLIT PERI AZIMU VELO AIN AR TRES W  DIS CAZ7
 TVRZ    IP   0A  2121 18.07                             142    0.3010 12.9 297 
 TVRZ     IAML A  2121 18.07      3126.1                               12.9 297 
 TAHR    IP   0A  2121 19.19                             126    0.3010 22.4  79 
 HRS     IPg  0A  2121 19.26                             122   -0.1010 25.8 125 
 HRS     ESg  0A  2121 23.07                             122   -0.2510 25.8 125 
 FTB     IP   0A  2121 24.74                             104    0.1810 59.8 217 
 FTB      IAML A  2121 24.74       515.3                               59.8 217 
 TABZ    IPg  0A  2121 24.97                             104    0.3510 60.1 224 
 TABZ    ES   0A  2121 32.86                             104    0.3310 60.1 224 
 TBZ     IPg  0A  2121 24.57                             104   -0.2810 61.6 247 
 TBZ     ESg  0A  2121 32.51                             104   -0.4310 61.6 247 
 BST     IPg  0A  2121 27.81                             100   -0.5810 83.5 175 
 BST     ES   0A  2121 39.25                             100    0.1310 83.5 175 
 ORD     ES   0A  2121 40.33                              99   -0.0310 87.9 307 
 MRD     IPg  0A  2121 31.41                              98    0.3510100.0 287 
 MRD     ESg  0A  2121 43.57                              98   -0.2310100.0 287 
 GRMI    IP   0A  2121 31.52                              69    0.0610  103  67 
 GRMI     IAML A  2121 31.52       228.0                                103  67 
 SRB     IPg  2A  2121 30.13                              98   -1.37 5  103 132 
 SRB     ESg  0A  2121 44.31                              98   -0.2610  103 132 
 SHB     IPg  0A  2121 31.83                              98   -0.0210  105 260 
 SHB     ESg  0A  2121 45.39                              98    0.2110  105 260 
 AZR     IP   0A  2121 32.81                              69    0.0610  112 220 
 AZR      IAML A  2121 32.81       203.9                                112 220 
 LRK     IP   0A  2121 36.57                              69    0.0910  136  80 
 SBZ     ES   0A  2121 57.25                              69   -0.0110  151 315 
 GLBA     IAML A  2121 40.81       104.6                                164  57 
 GLBA    IP   0A  2121 40.81                              69    0.0510  164  57 
 SAAT    IP   0A  2121 47.53                              49    0.1710  210  41 
 ZRD     IP   0A  2121 48.16                              49   -0.0210  217  20 
 ZRD      IAML A  2121 48.16        60.5                                217  20 
 GANJ    IP   0A  2121 51.92                              49   -0.0010  247 351 
 GANJ     IAML A  2121 51.92        45.8                                247 351 
 GANJ    ES   0A  2122 20.08                              49   -0.2310  247 351 
 ZNJK    IP   0A  2121 53.62                              49    0.31 9  258 139 
 ZNJK     IAML A  2121 53.62        42.4                                258 139 
 ZNJK    ES   0A  2122 23.02                              49    0.29 9  258 139 
 GNI     ES   0A  2122 22.68                              49   -0.20 9  259 317 
 VANB    IP   0A  2121 58.23                              49    0.06 8  298 274 
 VANB    ES   0A  2122 30.98                              49   -0.27 8  298 274 
                                                                                
 2012  811 2133 50.7 L  38.442  46.850 18.9  New 23 0.4 3.2LNew                1
 GAP= 44        0.99       1.7     1.4  2.1  0.2396E+00 -0.2574E+00 -0.2018E+01E
 Action:ARG 24-03-13 16:01 OP:OBSP STATUS:               ID:20120811213350     I
 STAT SP IPHASW D HRMM SECON CODA AMPLIT PERI AZIMU VELO AIN AR TRES W  DIS CAZ7
 TVRZ    IP   0A  2133 55.40                             136    0.3110 17.3 293 
 TVRZ     IAML A  2133 55.40      6067.6                               17.3 293 
 TAHR     IAML A  2133 55.25      5562.8                               18.3  73 
 TAHR    IP   0A  2133 55.25                             134    0.0510 18.3  73 
 TAHR    ES   0A  2133 58.65                             134    0.1010 18.3  73 
 HRS     IPg  0A  2133 55.62                             130    0.0110 21.6 129 
 HRS      IAML A  2133 55.81      4642.3                               21.6 129 
 HRS     ESg  0A  2133 59.18                             130   -0.0810 21.6 129 
 FTB      IAML A  2134  1.97      1225.2                               61.8 220 
 FTB     IP   0A  2134  1.97                             105    0.3610 61.8 220 
 TABZ    IPg  0A  2134  2.12                             105    0.3810 62.6 227 
 TABZ    ESg  0A  2134 10.72                             105    0.7310 62.6 227 
 TBZ     IPg  0A  2134  1.80                             104   -0.3810 65.4 250 
 TBZ      IAML A  2134  2.57      1130.9                               65.4 250 
 TBZ     ESg  0A  2134 10.04                             104   -0.7210 65.4 250 
 BST     IPg  0A  2134  4.40                             101   -0.4910 82.3 178 
 BST     ESg  0A  2134 14.42                             101   -1.0910 82.3 178 
 SRB     IPg  0A  2134  7.78                              99    0.2210 98.8 134 
 SRB     ESg  0A  2134 20.64                              99    0.4510 98.8 134 
 GRMI    IP   0A  2134  7.34                              69   -0.1310 99.5  66 
 MRD     IPg  0A  2134  8.36                              99   -0.1310  105 287 
 MRD     ESg  0A  2134 21.46                              99   -0.3510  105 287 
 SHB     IPg  0A  2134  8.96                              98   -0.2710  109 261 
 SHB     ESg  0A  2134 23.46                              98    0.3510  109 261 
 HSH      IAML A  2134 12.65       390.0                                131 164 
 HSH     IP   0A  2134 12.65                              69    0.3110  131 164 
 NAX     IP   0A  2134 14.28                              69    0.1410  143 305 
 SBZ     ES   0A  2134 34.98                              69    0.1810  155 314 
 ASTR    IP   0A  2134 18.20                              69   -0.0410  170  85 
 ASTR    ES   0A  2134 38.83                              69   -0.0410  170  85 
 LKRN    IP   0A  2134 18.32                              69   -0.0610  171  79 
 LKRN     IAML A  2134 18.32       244.2                                171  79 
 LKRN    ES   0A  2134 39.03                              69   -0.0810  171  79 
 SAAT    IP   0A  2134 23.58                              49   -0.0210  208  40 
 MAKU    IP   0A  2134 24.55                              49    0.2710  214 299 
 ZRD     ES   0A  2134 49.70                              49   -0.3010  216  19 
 GANJ    ES   0A  2134 56.82                              49   -0.24 9  249 350 
 ZNJK    IP   0A  2134 29.67                              49    0.31 9  255 140 
 GNI     ES   0A  2135  0.07                              49    0.00 9  263 317 
 VANB    IP   0A  2134 35.63                              49    0.40 8  302 274 
                                                                                
 2012  811 2204 32.5 L  38.412  46.706 13.8  New 23 0.3 3.7LNew                1
 GAP= 44        0.77       1.2     1.1  1.7 -0.3077E+00  0.2927E+00 -0.8796E+00E
 Action:ARG 24-03-13 16:01 OP:OBSP STATUS:               ID:20120811220432     I
 STAT SP IPHASW D HRMM SECON CODA AMPLIT PERI AZIMU VELO AIN AR TRES W  DIS CAZ7
 TVRZ    ES   0A  22 4 37.83                             140    0.0910 10.7 342 
 HRS     IPg  0A  22 4 37.92                             111   -0.3710 31.1 109 
 HRS     ESg  0A  22 4 42.60                             111   -0.0510 31.1 109 
 TAHR    IP   0A  22 4 38.26                             111   -0.0610 31.3  74 
 TAHR    ES   0A  22 4 42.80                             111    0.1110 31.3  74 
 TABZ    ES   0A  22 4 48.68                             102    0.3910 51.5 220 
 FTB     IP   0A  22 4 41.61                             102    0.0710 51.7 212 
 FTB      IAML A  22 4 41.61      6212.2                               51.7 212 
 TBZ     IPg  0A  22 4 41.18                             102   -0.4810 52.4 248 
 TBZ     ES   0A  22 4 48.82                             102    0.2710 52.4 248 
 BST     IPg  0A  22 4 45.65                              98   -0.5710 80.5 168 
 BST     ESg  0A  22 4 56.69                              98    0.1810 80.5 168 
 MRD     IPg  0A  22 4 47.78                              96   -0.5910 93.7 291 
 SHB     IPg  0A  22 4 48.62                              96   -0.1410 96.1 262 
 SHB      IAML A  22 4 48.74      2586.7                               96.1 262 
 AZR     IP   0A  22 4 50.11                              96    0.1810  103 218 
 AZR      IAML A  22 4 50.11      2298.1                                103 218 
 AZR     ES   0A  22 5  3.54                              96    0.5310  103 218 
 SRB     IPg  0A  22 4 49.83                              96   -0.5910  106 128 
 SRB      IAML A  22 4 50.53      2158.1                                106 128 
 GRMI     IAML A  22 4 51.46      1977.1                                112  67 
 GRMI    IPg  0A  22 4 51.74                              95    0.3110  112  67 
 GRMI    ES   0A  22 5  5.90                              95    0.2610  112  67 
 NAX      IAML A  22 4 54.99      1492.8                                135 309 
 NAX     IP   0A  22 4 54.99                              69    0.0310  135 309 
 LRK     ES   0A  22 5 14.54                              69    0.1110  145  79 
 SBZ      IAML A  22 4 56.98      1269.2                                148 318 
 SBZ     IP   0A  22 4 56.98                              69   -0.0010  148 318 
 SBZ     ES   0A  22 5 15.57                              69    0.2110  148 318 
 GLBA    IP   0A  22 5  0.74                              69   -0.0510  173  57 
 GLBA    ES   0A  22 5 22.15                              69    0.1310  173  57 
 LKRN    ES   0A  22 5 24.98                              69    0.1110  184  79 
 MAKU    IPn  0A  22 5  4.55                                            204 301 
 BRDA    IP   0A  22 5  6.00                              49   -0.0710  210  11 
 SAAT     IAML A  22 5  7.42       597.2                                219  42 
 SAAT    IP   0A  22 5  7.42                              49    0.1910  219  42 
 GNI     IP   0A  22 5 11.96                              49    0.04 9  257 319 
 GNI     ES   0A  22 5 41.48                              49   -0.02 9  257 319 
 ZNJK     IAML A  22 5 12.74       408.9                                261 137 
 ZNJK    IPn  0A  22 5 14.45                                            261 137 
 VANB     IAML A  22 5 15.96       324.1                                290 275 
 VANB    IP   0A  22 5 15.96                              49   -0.06 9  290 275 
 VANB    ES   0A  22 5 48.40                              49   -0.27 9  290 275 
                                                                                
 2012  811 2212 47.0 L  38.412  46.753 15.9  New 22 0.3 3.3LNew                1
 GAP= 44        0.77       1.4     1.0  1.5 -0.6863E-01 -0.4322E-01 -0.4896E+00E
 Action:ARG 24-03-13 16:01 OP:OBSP STATUS:               ID:20120811221246     I
 STAT SP IPHASW D HRMM SECON CODA AMPLIT PERI AZIMU VELO AIN AR TRES W  DIS CAZ7
 HRS     IPg  0A  2212 52.41                             118    0.0710 27.3 112 
 HRS      IAML A  2212 52.48      5586.3                               27.3 112 
 HRS     ESg  0A  2212 56.19                             118   -0.1810 27.3 112 
 TAHR    IP   0A  2212 52.45                             118    0.1010 27.4  71 
 TAHR    ES   0A  2212 56.77                             118    0.3710 27.4  71 
 FTB     IP   0A  2212 56.76                             104    0.3110 53.9 216 
 FTB      IAML A  2212 56.76      2302.8                               53.9 216 
 TBZ     IPg  0A  2212 56.51                             103   -0.3110 56.2 250 
 TBZ      IAML A  2212 57.06      2174.2                               56.2 250 
 TBZ     ESg  0A  2213  3.79                             103   -0.4210 56.2 250 
 BST     IPg  0A  2213  0.42                              99   -0.2010 79.8 171 
 ORD      IAML A  2213  2.11      1169.5                               87.4 311 
 ORD     IP   0A  2213  2.11                              98    0.2510 87.4 311 
 MRD     IPg  0A  2213  2.93                              97   -0.5710 97.5 290 
 MRD     ES   0A  2213 16.28                              97    0.3810 97.5 290 
 SHB     IPg  0A  2213  3.57                              97   -0.3610  100 262 
 SHB      IAML A  2213  3.89       949.4                                100 262 
 SHB     ESg  0A  2213 17.27                              97    0.6110  100 262 
 SRB     IPg  0A  2213  4.17                              97   -0.2310  103 129 
 SRB     ES   0A  2213 17.80                              69    0.3210  103 129 
 AZR     ES   0A  2213 18.62                              69    0.4010  106 220 
 GRMI     IAML A  2213  5.23       842.8                                109  66 
 GRMI    IPg  0A  2213  5.27                              97   -0.0610  109  66 
 SBZ     IP   0A  2213 11.86                              69    0.1110  151 317 
 SBZ      IAML A  2213 11.86       484.1                                151 317 
 GLBA    IP   0A  2213 14.65                              69    0.0310  170  57 
 GLBA    ES   0A  2213 35.62                              69    0.2610  170  57 
 ASTR    ES   0A  2213 37.53                              69   -0.2410  179  84 
 LKRN    IP   0A  2213 15.99                              69   -0.1710  180  79 
 LKRN    ES   0A  2213 37.95                              69   -0.1110  180  79 
 MAKU    IPn  0A  2213 18.51                                            208 301 
 MAKU     IAML A  2213 20.18       264.7                                208 301 
 MAKU    ES   0A  2213 45.09                              49    0.1110  208 301 
 SAAT    ES   0A  2213 46.85                              49    0.0810  216  41 
 ZRD     IP   0A  2213 21.76                              49   -0.1310  222  21 
 GANJ     IAML A  2213 25.19       178.7                                251 352 
 GANJ    IP   0A  2213 25.19                              49   -0.22 9  251 352 
 ZNJK     IAML A  2213 26.43       167.9                                258 138 
 ZNJK    IPn  0A  2213 27.12                                            258 138 
 ZNJK    ES   0A  2213 55.91                              49    0.12 9  258 138 
 GNI     IP   0A  2213 26.53                              49    0.04 9  260 319 
 GNI      IAML A  2213 26.53       165.4                                260 319 
 VANB    IP   0A  2213 30.64                              49   -0.11 8  294 275 
 VANB     IAML A  2213 30.64       123.6                                294 275 
 VANB    ES   0A  2214  3.18                              49   -0.43 8  294 275 
                                                                                
 2012  811 2340 52.9 L  38.474  46.796 14.5  New 25 0.3 2.2LNew                1
 GAP= 43        0.71       1.1     1.0  1.5  0.8207E-02 -0.1501E+00 -0.5479E+00E
 Action:ARG 24-03-13 16:01 OP:OBSP STATUS:               ID:20120811234052     I
 STAT SP IPHASW D HRMM SECON CODA AMPLIT PERI AZIMU VELO AIN AR TRES W  DIS CAZ7
 TVRZ    IP   0A  2340 56.21                             139    0.1410 11.7 286 
 TAHR     IAML A  2340 57.32       529.4                               22.3  85 
 TAHR    IP   0A  2340 57.32                             120   -0.1110 22.3  85 
 TAHR    ES   0A  2341  0.79                             120   -0.0410 22.3  85 
 HRS     IPg  0A  2340 58.28                             115    0.0810 27.6 129 
 FTB     IP   0A  2341  3.69                             101    0.1010 61.8 215 
 FTB     ES   0A  2341 11.93                             101    0.3110 61.8 215 
 TABZ    IP   0A  2341  3.72                             101    0.1110 61.9 222 
 TBZ     IPg  0A  2341  2.77                             101   -0.9310 62.4 245 
 TBZ      IAML A  2341  3.82       154.8                               62.4 245 
 TBZ     ES   0A  2341 12.15                             101    0.3510 62.4 245 
 ORD     ES   0A  2341 19.02                              98    0.4910 86.1 306 
 BST     ES   0A  2341 18.81                              98    0.2410 86.2 175 
 MRD     IPg  0A  2341  9.16                              96   -0.4810 98.9 286 
 GRMI    ES   0A  2341 23.50                              96    0.2810  102  68 
 SHB      IAML A  2341 10.71        71.6                                105 259 
 SRB     IPg  0A  2341 10.53                              96   -0.0510  105 133 
 SHB     IPg  0A  2341 10.69                              96    0.0510  105 259 
 SHB     ESg  0A  2341 23.45                              96   -0.5010  105 259 
 AZR      IAML A  2341 12.02        63.0                                114 219 
 AZR     IP   0A  2341 12.02                              96   -0.0110  114 219 
 LRK     ES   0A  2341 32.34                              69   -0.0310  136  82 
 HSH     IP   0A  2341 15.40                              69   -0.1010  136 162 
 LRK     IP   0A  2341 15.35                              69   -0.1010  136  82 
 HSH     ES   0A  2341 32.43                              69   -0.0210  136 162 
 NAX      IAML A  2341 15.69        46.0                                137 305 
 NAX     IP   0A  2341 15.69                              69    0.0410  137 305 
 ASTR    ES   0A  2341 42.53                              69   -0.1410  174  86 
 BRDA    IP   0A  2341 25.24                              49   -0.1510  201   9 
 BRDA     IAML A  2341 25.24        22.4                                201   9 
 MAKU    IP   0A  2341 26.33                              49    0.1510  208 299 
 MAKU    ES   0A  2341 51.37                              49    0.2110  208 299 
 SAAT    ES   0A  2341 51.40                              49    0.0810  208  42 
 ZRD     IP   0A  2341 26.99                              49   -0.0210  214  21 
 GANJ    IP   0A  2341 30.69                              49   -0.0410  245 351 
 GANJ     IAML A  2341 30.69        15.0                                245 351 
 GNI     IP   0A  2341 32.33                              49    0.07 9  257 317 
 GNI     ES   0A  2342  1.75                              49   -0.04 9  257 317 
 ZNJK    ES   0A  2342  2.65                              49    0.07 9  261 140 
 VANB    IP   0A  2341 37.27                              49    0.02 8  297 274 
                                                                                
