 2001  2 3  036  9.8 L  33.982  52.741 19.3      15 0.1 2.3L                   1
 GAP=122                   0.3     0.2  0.3                                    E
 Action:ARG 24-03-13 14:52 OP:OBSP STATUS:               ID:20010203003609     I
 STAT SP IPHASW D HRMM SECON CODA AMPLIT PERI AZIMU VELO AIN AR TRES W  DIS CAZ7
 RHPW    IP   0A   036 16.75                                           21.0  30 
 RHPW    ES   0A   036 21.81                                           21.0  30 
 XBVK    IP   0A   036 19.50                                           38.5 351 
 XBVK    ES   0A   036 26.63                                           38.5 351 
 DNOA    IP   0A   036 25.30                                           71.2  57 
 DNOA    ES   0A   036 36.78                                           71.2  57 
 LUEX    IP   0A   036 25.63                                           73.3 260 
 LUEX    ES   0A   036 37.35                                           73.3 260 
 AVTK    IP   0A   036 26.79                                           80.9 275 
 AVTK    ES   0A   036 39.38                                           80.9 275 
 FOUH    IP   0A   036 27.82                                           87.5   1 
 FOUH    ES   0A   036 41.18                                           87.5   1 
 APSL    IP   0A   036 29.12                                           95.2  79 
 APSL    ES   0A   036 43.45                                           95.2  79 
 MGUS    IP   0A   036 29.22                                           96.4 103 
 MGUS    ES   0A   036 43.64                                           96.4 103 
 CBZA    IP   0A   036 29.39                                           98.9 245 
 CBZA    ES   0A   036 43.94                                           98.9 245 
 DQYH    IP   0A   036 29.86                                           99.6 305 
 DQYH    ES   0A   036 44.75                                           99.6 305 
 VOCA    IP   0A   036 30.21                                            103  41 
 RAWC    IP   0A   036 31.54                                            112 123 
 RAWC    ES   0A   036 47.70                                            112 123 
 QYDI    IP   0A   036 37.97                                            162 346 
 QYDI    ES   0A   036 58.51                                            162 346 
 RPKV    IP   0A   036 38.37                                            163 327 
 HLUH    IP   0A   036 39.99                                            178 320 
 HLUH    ES   0A   037  1.78                                            178 320 
 HLUH     IAML A   036 39.99        33.7                                        
 RHPW     IAML A   036 16.75       721.4                                        
 RPKV     IAML A   036 38.37        39.8                                        
 AVTK     IAML A   036 26.79       124.1                                        
 VOCA     IAML A   036 30.21        85.9                                        
 DNOA     IAML A   036 25.30       149.1                                        
 RAWC     IAML A   036 31.54        74.6                                        
                                                                                

 2001  2 3  037 19.9 L  34.125  52.412  8.8      14 0.1 1.3L                   1
 GAP=104                   0.4     0.2  0.3                                    E
 Action:ARG 24-03-13 14:52 OP:OBSP STATUS:               ID:20010203003719     I
 STAT SP IPHASW D HRMM SECON CODA AMPLIT PERI AZIMU VELO AIN AR TRES W  DIS CAZ7
 XBVK    IP   0A   037 28.82                                           34.0  50 
 XBVK    ES   0A   037 35.44                                           34.0  50 
 RHPW    IP   0A   037 30.73                                           42.6  87 
 RHPW    ES   0A   037 38.77                                           42.6  87 
 AVTK    IP   0A   037 32.34                                           49.5 259 
 AVTK    ES   0A   037 41.59                                           49.5 259 
 LUEX    IP   0A   037 32.37                                           49.5 234 
 LUEX    ES   0A   037 41.65                                           49.5 234 
 DQYH    IP   0A   037 35.46                                           64.3 310 
 DQYH    ES   0A   037 47.05                                           64.3 310 
 FOUH    IP   0A   037 38.10                                           78.9  25 
 FOUH    ES   0A   037 51.68                                           78.9  25 
 DNOA    IP   0A   037 40.56                                           94.7  76 
 DNOA    ES   0A   037 55.98                                           94.7  76 
 VOCA    IP   0A   037 43.69                                            117  58 
 APSL    IP   0A   037 44.93                                            125  89 
 APSL    ES   0A   038  3.63                                            125  89 
 MGUS    IP   0A   037 45.70                                            131 106 
 MGUS    ES   0A   038  4.98                                            131 106 
 RPKV    IP   0A   037 46.30                                            133 335 
 RPKV    ES   0A   038  6.02                                            133 335 
 QYDI    IP   0A   037 47.07                                            141 356 
 QYDI    ES   0A   038  7.33                                            141 356 
 HLUH    IP   0A   037 47.66                                            146 326 
 HLUH    ES   0A   038  8.41                                            146 326 
 RAWC    IP   0A   037 48.00                                            148 121 
 RAWC    ES   0A   038  8.97                                            148 121 
 RAWC     IAML A   037 48.00         4.9                                        
 XBVK     IAML A   037 28.82        41.3                                        
 LUEX     IAML A   037 32.37        25.5                                        
 HLUH     IAML A   037 47.66         5.0                                        
 MGUS     IAML A   037 45.70         6.0                                        
 DNOA     IAML A   037 40.56        10.2                                        
 DQYH     IAML A   037 35.46        17.9                                        
 VOCA     IAML A   037 43.69         7.3                                        
 RHPW     IAML A   037 30.73        31.0                                        
                                                                                

 2001  2 3  038 29.9 L  33.808  52.941 24.4      13 0.1 1.5L                   1
 GAP=139                   0.4     0.2  0.5                                    E
 Action:ARG 24-03-13 14:52 OP:OBSP STATUS:               ID:20010203003829     I
 STAT SP IPHASW D HRMM SECON CODA AMPLIT PERI AZIMU VELO AIN AR TRES W  DIS CAZ7
 RHPW    IP   0A   038 40.09                                           40.4 346 
 RHPW    ES   0A   038 47.66                                           40.4 346 
 XBVK    IP   0A   038 43.72                                           64.6 336 
 XBVK    ES   0A   038 54.01                                           64.6 336 
 DNOA    IP   0A   038 44.92                                           71.6  34 
 DNOA    ES   0A   038 56.10                                           71.6  34 
 MGUS    IP   0A   038 45.46                                           73.9  90 
 MGUS    ES   0A   038 57.05                                           73.9  90 
 APSL    IP   0A   038 46.75                                           83.4  62 
 APSL    ES   0A   038 59.31                                           83.4  62 
 RAWC    IP   0A   038 47.12                                           84.9 118 
 RAWC    ES   0A   038 59.95                                           84.9 118 
 LUEX    IP   0A   038 48.14                                           92.7 275 
 LUEX    ES   0A   039  1.75                                           92.7 275 
 AVTK    IP   0A   038 49.71                                            104 286 
 AVTK    ES   0A   039  4.49                                            104 286 
 VOCA    IP   0A   038 50.51                                            109  26 
 VOCA    ES   0A   039  5.89                                            109  26 
 CBZA    IP   0A   038 50.88                                            111 259 
 CBZA    ES   0A   039  6.53                                            111 259 
 QYDI    IP   0A   039  0.39                                            188 341 
 QYDI    ES   0A   039 22.52                                            188 341 
 RPKV    IP   0A   039  1.20                                            191 326 
 RPKV    ES   0A   039 23.48                                            191 326 
 HLUH    IP   0A   039  2.94                                            207 320 
 HLUH    ES   0A   039 26.31                                            207 320 
 RPKV     IAML A   039  1.20         5.0                                        
 DNOA     IAML A   038 44.92        25.3                                        
 APSL     IAML A   038 46.75        20.3                                        
 RHPW     IAML A   038 40.09        54.7                                        
 LUEX     IAML A   038 48.14        17.3                                        
 VOCA     IAML A   038 50.51        13.3                                        
                                                                                

 2001  2 3  039 39.9 L  33.510  52.476 11.1      14 0.1 1.2L                   1
 GAP=185                   0.3     0.1  0.2                                    E
 Action:ARG 24-03-13 14:52 OP:OBSP STATUS:               ID:20010203003939     I
 STAT SP IPHASW D HRMM SECON CODA AMPLIT PERI AZIMU VELO AIN AR TRES W  DIS CAZ7
 CBZA    IP   0A   039 54.95                                           64.7 282 
 CBZA    ES   0A   040  6.16                                           64.7 282 
 RHPW    IP   0A   039 58.08                                           82.7  26 
 RHPW    ES   0A   040 11.64                                           82.7  26 
 AVTK    IP   0A   039 58.16                                           83.1 319 
 AVTK    ES   0A   040 11.77                                           83.1 319 
 XBVK    IP   0A   040  0.13                                           96.1  12 
 RAWC    IP   0A   040  3.92                                            120  92 
 RAWC    ES   0A   040 21.86                                            120  92 
 MGUS    IP   0A   040  4.25                                            125  74 
 MGUS    ES   0A   040 22.43                                            125  74 
 DQYH    IP   0A   040  4.90                                            126 334 
 DQYH    ES   0A   040 23.56                                            126 334 
 DNOA    IP   0A   040  4.78                                            127  42 
 DNOA    ES   0A   040 23.36                                            127  42 
 APSL    IP   0A   040  6.44                                            140  58 
 APSL    ES   0A   040 26.26                                            140  58 
 FOUH    IP   0A   040  7.34                                            146  11 
 FOUH    ES   0A   040 27.75                                            146  11 
 VOCA    IP   0A   040  9.28                                            163  35 
 VOCA    ES   0A   040 30.99                                            163  35 
 RPKV    IP   0A   040 14.64                                            202 342 
 RPKV    ES   0A   040 39.49                                            202 342 
 HLUH    IP   0A   040 15.65                                            212 335 
 HLUH    ES   0A   040 41.16                                            212 335 
 QYDI    IP   0A   040 15.63                                            213 356 
 QYDI    ES   0A   040 40.94                                            213 356 
 RAWC     IAML A   040  3.92         5.1                                        
 CBZA     IAML A   039 54.95        13.1                                        
 HLUH     IAML A   040 15.65         1.8                                        
 FOUH     IAML A   040  7.34         3.7                                        
 VOCA     IAML A   040  9.28         3.0                                        
 XBVK     IAML A   040  0.13         7.4                                        
                                                                                

 2001  2 3  040 50.4 L  33.860  52.612 14.9      14 0.1 0.6L                   1
 GAP=136                   0.2     0.1  0.2                                    E
 Action:ARG 24-03-13 14:52 OP:OBSP STATUS:               ID:20010203004050     I
 STAT SP IPHASW D HRMM SECON CODA AMPLIT PERI AZIMU VELO AIN AR TRES W  DIS CAZ7
 RHPW    IP   0A   041  0.06                                           39.8  35 
 RHPW    ES   0A   041  7.60                                           39.8  35 
 XBVK    IP   0A   041  2.45                                           52.8   7 
 XBVK    ES   0A   041 11.79                                           52.8   7 
 AVTK    IP   0A   041  5.86                                           71.5 287 
 AVTK    ES   0A   041 17.76                                           71.5 287 
 CBZA    IP   0A   041  7.54                                           81.9 250 
 CBZA    ES   0A   041 20.70                                           81.9 250 
 DNOA    IP   0A   041  8.84                                           89.6  54 
 DNOA    ES   0A   041 22.96                                           89.6  54 
 DQYH    IP   0A   041 10.38                                           99.6 316 
 DQYH    ES   0A   041 25.67                                           99.6 316 
 FOUH    IP   0A   041 10.85                                            102   8 
 FOUH    ES   0A   041 26.48                                            102   8 
 MGUS    IP   0A   041 11.34                                            106  94 
 MGUS    ES   0A   041 27.35                                            106  94 
 APSL    IP   0A   041 12.08                                            110  73 
 APSL    ES   0A   041 28.64                                            110  73 
 RAWC    IP   0A   041 12.88                                            117 113 
 RAWC    ES   0A   041 30.04                                            117 113 
 VOCA    IP   0A   041 13.44                                            122  41 
 VOCA    ES   0A   041 31.02                                            122  41 
 RPKV    IP   0A   041 19.82                                            169 333 
 RPKV    ES   0A   041 41.48                                            169 333 
 QYDI    IP   0A   041 20.09                                            173 351 
 QYDI    ES   0A   041 42.04                                            173 351 
 HLUH    IP   0A   041 21.21                                            182 326 
 HLUH    ES   0A   041 43.92                                            182 326 
 MGUS     IAML A   041 11.34         1.8                                        
 AVTK     IAML A   041  5.86         3.3                                        
 CBZA     IAML A   041  7.54         2.7                                        
 APSL     IAML A   041 12.08         1.7                                        
 RAWC     IAML A   041 12.88         1.6                                        
 QYDI     IAML A   041 20.09         0.8                                        
 DQYH     IAML A   041 10.38         2.0                                        
                                                                                

 2001  2 3  042  0.1 L  33.774  52.631 16.8      14 0.1 0.7L                   1
 GAP=147                   0.2     0.1  0.1                                    E
 Action:ARG 24-03-13 14:52 OP:OBSP STATUS:               ID:20010203004200     I
 STAT SP IPHASW D HRMM SECON CODA AMPLIT PERI AZIMU VELO AIN AR TRES W  DIS CAZ7
 LUEX    IP   0A   042 14.28                                           63.0 281 
 LUEX    ES   0A   042 24.99                                           63.0 281 
 XBVK    IP   0A   042 14.08                                           63.4   4 
 XBVK    ES   0A   042 24.65                                           63.4   4 
 AVTK    IP   0A   042 16.54                                           77.2 294 
 AVTK    ES   0A   042 28.95                                           77.2 294 
 CBZA    IP   0A   042 17.28                                           80.8 258 
 CBZA    ES   0A   042 30.24                                           80.8 258 
 DNOA    IP   0A   042 19.47                                           94.9  48 
 DNOA    ES   0A   042 34.07                                           94.9  48 
 MGUS    IP   0A   042 20.82                                            104  88 
 MGUS    ES   0A   042 36.43                                            104  88 
 DQYH    IP   0A   042 21.52                                            108 319 
 DQYH    ES   0A   042 37.67                                            108 319 
 RAWC    IP   0A   042 21.87                                            111 109 
 APSL    IP   0A   042 22.03                                            112  67 
 APSL    ES   0A   042 38.55                                            112  67 
 FOUH    IP   0A   042 21.88                                            113   6 
 FOUH    ES   0A   042 38.30                                            113   6 
 VOCA    IP   0A   042 24.08                                            129  37 
 VOCA    ES   0A   042 42.14                                            129  37 
 RPKV    IP   0A   042 30.84                                            180 334 
 RPKV    ES   0A   042 53.15                                            180 334 
 QYDI    IP   0A   042 31.12                                            184 351 
 QYDI    ES   0A   042 53.77                                            184 351 
 HLUH    IP   0A   042 32.22                                            193 328 
 HLUH    ES   0A   042 55.55                                            193 328 
 QYDI     IAML A   042 31.12         0.8                                        
 HLUH     IAML A   042 32.22         0.7                                        
 MGUS     IAML A   042 20.82         2.1                                        
 RAWC     IAML A   042 21.87         1.9                                        
 RPKV     IAML A   042 30.84         0.8                                        
 VOCA     IAML A   042 24.08         1.5                                        
 APSL     IAML A   042 22.03         1.9                                        
                                                                                

