 2001  2 3  051 20.8 L  33.653  52.579 14.8      13 0.1 0.9L                   1
 GAP=163                   0.2     0.1  0.1                                    E
 Action:ARG 24-03-13 14:52 OP:OBSP STATUS:               ID:20010203005120     I
 STAT SP IPHASW D HRMM SECON CODA AMPLIT PERI AZIMU VELO AIN AR TRES W  DIS CAZ7
 RHPW    IP   0A   051 34.40                                           62.2  24 
 RHPW    ES   0A   051 45.21                                           62.2  24 
 LUEX    IP   0A   051 34.41                                           62.4 294 
 LUEX    ES   0A   051 45.21                                           62.4 294 
 CBZA    IP   0A   051 36.21                                           74.2 267 
 CBZA    ES   0A   051 48.37                                           74.2 267 
 AVTK    IP   0A   051 37.17                                           79.5 305 
 AVTK    ES   0A   051 50.04                                           79.5 305 
 DNOA    IP   0A   051 41.51                                            107  44 
 DNOA    ES   0A   051 57.64                                            107  44 
 MGUS    IP   0A   051 41.85                                            110  81 
 MGUS    ES   0A   051 58.24                                            110  81 
 RAWC    IP   0A   051 42.40                                            112 101 
 RAWC    ES   0A   051 59.20                                            112 101 
 DQYH    IP   0A   051 42.93                                            116 325 
 DQYH    ES   0A   052  0.12                                            116 325 
 APSL    IP   0A   051 43.72                                            122  62 
 APSL    ES   0A   052  1.50                                            122  62 
 VOCA    IP   0A   051 46.15                                            143  35 
 VOCA    ES   0A   052  5.77                                            143  35 
 RPKV    IP   0A   051 52.58                                            190 337 
 RPKV    ES   0A   052 15.96                                            190 337 
 QYDI    IP   0A   051 53.10                                            197 353 
 QYDI    ES   0A   052 16.99                                            197 353 
 HLUH    IP   0A   051 53.80                                            201 331 
 HLUH    ES   0A   052 18.14                                            201 331 
 DNOA     IAML A   051 41.51         3.6                                        
 LUEX     IAML A   051 34.41         8.1                                        
 VOCA     IAML A   051 46.15         2.3                                        
 HLUH     IAML A   051 53.80         1.2                                        
 RAWC     IAML A   051 42.40         3.4                                        
 CBZA     IAML A   051 36.21         6.3                                        
 AVTK     IAML A   051 37.17         5.7                                        
 DQYH     IAML A   051 42.93         3.2                                        
                                                                                

 2001  2 3  052 29.8 L  33.973  52.691 16.5      15 0.1 2.8L                   1
 GAP=123                   0.2     0.2  0.3                                    E
 Action:ARG 24-03-13 14:52 OP:OBSP STATUS:               ID:20010203005229     I
 STAT SP IPHASW D HRMM SECON CODA AMPLIT PERI AZIMU VELO AIN AR TRES W  DIS CAZ7
 RHPW    IP   0A   052 37.16                                           24.9  41 
 RHPW    ES   0A   052 42.54                                           24.9  41 
 XBVK    IP   0A   052 39.66                                           38.6   0 
 LUEX    IP   0A   052 45.08                                           67.5 260 
 LUEX    ES   0A   052 56.39                                           67.5 260 
 AVTK    IP   0A   052 46.34                                           75.2 276 
 AVTK    ES   0A   052 58.59                                           75.2 276 
 DNOA    IP   0A   052 46.35                                           76.5  59 
 DNOA    ES   0A   052 58.62                                           76.5  59 
 FOUH    IP   0A   052 48.29                                           88.4   5 
 FOUH    ES   0A   053  2.01                                           88.4   5 
 CBZA    IP   0A   052 48.95                                           93.4 244 
 CBZA    ES   0A   053  3.16                                           93.4 244 
 DQYH    IP   0A   052 49.71                                           95.3 308 
 DQYH    ES   0A   053  4.48                                           95.3 308 
 APSL    IP   0A   052 50.16                                            101  79 
 APSL    ES   0A   053  5.28                                            101  79 
 MGUS    IP   0A   052 50.26                                            101 102 
 MGUS    ES   0A   053  5.46                                            101 102 
 VOCA    IP   0A   052 51.00                                            107  43 
 RAWC    IP   0A   052 52.42                                            117 121 
 RAWC    ES   0A   053  9.24                                            117 121 
 RPKV    IP   0A   052 58.52                                            160 329 
 RPKV    ES   0A   053 19.35                                            160 329 
 QYDI    IP   0A   052 58.27                                            161 348 
 QYDI    ES   0A   053 19.05                                            161 348 
 HLUH    IP   0A   053  0.09                                            175 322 
 HLUH    ES   0A   053 22.01                                            175 322 
 HLUH     IAML A   053  0.09       127.4                                        
 DNOA     IAML A   052 46.35       492.4                                        
 QYDI     IAML A   052 58.27       148.3                                        
 CBZA     IAML A   052 48.95       367.0                                        
 AVTK     IAML A   052 46.34       505.5                                        
 FOUH     IAML A   052 48.29       398.5                                        
 RPKV     IAML A   052 58.52       150.1                                        
 DQYH     IAML A   052 49.71       356.0                                        
 MGUS     IAML A   052 50.26       320.5                                        
                                                                                

 2001  2 3  053 40.2 L  33.714  52.766 21.4      14 0.1 2.3L                   1
 GAP=154                   0.2     0.1  0.1                                    E
 Action:ARG 24-03-13 14:52 OP:OBSP STATUS:               ID:20010203005340     I
 STAT SP IPHASW D HRMM SECON CODA AMPLIT PERI AZIMU VELO AIN AR TRES W  DIS CAZ7
 RHPW    IP   0A   053 52.08                                           50.6   8 
 RHPW    ES   0A   054  1.15                                           50.6   8 
 XBVK    IP   0A   053 55.09                                           70.6 352 
 XBVK    ES   0A   054  6.41                                           70.6 352 
 LUEX    IP   0A   053 56.28                                           78.2 284 
 LUEX    ES   0A   054  8.50                                           78.2 284 
 DNOA    IP   0A   053 58.41                                           90.1  39 
 DNOA    ES   0A   054 12.22                                           90.1  39 
 AVTK    IP   0A   053 58.47                                           92.7 295 
 AVTK    ES   0A   054 12.31                                           92.7 295 
 CBZA    IP   0A   053 58.68                                           93.6 264 
 CBZA    ES   0A   054 12.70                                           93.6 264 
 RAWC    IP   0A   053 59.27                                           95.9 108 
 RAWC    ES   0A   054 13.73                                           95.9 108 
 APSL    IP   0A   054  0.25                                            103  61 
 APSL    ES   0A   054 15.44                                            103  61 
 FOUH    IP   0A   054  2.16                                            119 359 
 FOUH    ES   0A   054 18.78                                            119 359 
 DQYH    IP   0A   054  3.05                                            123 317 
 DQYH    ES   0A   054 20.33                                            123 317 
 VOCA    IP   0A   054  3.34                                            127  30 
 VOCA    ES   0A   054 20.85                                            127  30 
 RPKV    IP   0A   054 11.85                                            192 331 
 RPKV    ES   0A   054 34.73                                            192 331 
 QYDI    IP   0A   054 11.87                                            194 347 
 QYDI    ES   0A   054 34.79                                            194 347 
 HLUH    IP   0A   054 13.27                                            206 325 
 HLUH    ES   0A   054 37.17                                            206 325 
 CBZA     IAML A   053 58.68       109.9                                        
 RAWC     IAML A   053 59.27       106.0                                        
 QYDI     IAML A   054 11.87        31.5                                        
 LUEX     IAML A   053 56.28       143.6                                        
                                                                                

 2001  2 3  054 50.7 L  33.731  52.550 12.5      15 0.1 0.7L                   1
 GAP=152                   0.2     0.1  0.1                                    E
 Action:ARG 24-03-13 14:52 OP:OBSP STATUS:               ID:20010203005450     I
 STAT SP IPHASW D HRMM SECON CODA AMPLIT PERI AZIMU VELO AIN AR TRES W  DIS CAZ7
 RHPW    IP   0A   055  3.32                                           55.0  32 
 RHPW    ES   0A   055 13.31                                           55.0  32 
 LUEX    IP   0A   055  3.51                                           55.8 286 
 LUEX    ES   0A   055 13.65                                           55.8 286 
 XBVK    IP   0A   055  5.60                                           67.7  11 
 XBVK    ES   0A   055 17.30                                           67.7  11 
 AVTK    IP   0A   055  6.20                                           71.4 300 
 AVTK    ES   0A   055 18.35                                           71.4 300 
 CBZA    IP   0A   055  6.26                                           72.1 259 
 CBZA    ES   0A   055 18.45                                           72.1 259 
 DNOA    IP   0A   055 11.37                                            103  50 
 DNOA    ES   0A   055 27.40                                            103  50 
 DQYH    IP   0A   055 11.97                                            106 324 
 DQYH    ES   0A   055 28.45                                            106 324 
 MGUS    IP   0A   055 12.54                                            112  86 
 MGUS    ES   0A   055 29.45                                            112  86 
 FOUH    IP   0A   055 13.33                                            117  10 
 RAWC    IP   0A   055 13.39                                            117 106 
 RAWC    ES   0A   055 30.94                                            117 106 
 APSL    IP   0A   055 13.91                                            120  67 
 VOCA    IP   0A   055 15.83                                            137  39 
 VOCA    ES   0A   055 35.21                                            137  39 
 RPKV    IP   0A   055 21.68                                            179 337 
 RPKV    ES   0A   055 44.70                                            179 337 
 QYDI    IP   0A   055 22.21                                            187 353 
 QYDI    ES   0A   055 45.62                                            187 353 
 HLUH    IP   0A   055 22.88                                            191 330 
 HLUH    ES   0A   055 46.87                                            191 330 
 AVTK     IAML A   055  6.20         4.2                                        
 DNOA     IAML A   055 11.37         2.4                                        
 VOCA     IAML A   055 15.83         1.5                                        
 DQYH     IAML A   055 11.97         2.3                                        
 RHPW     IAML A   055  3.32         6.0                                        
 QYDI     IAML A   055 22.21         0.9                                        
 MGUS     IAML A   055 12.54         2.1                                        
 LUEX     IAML A   055  3.51         5.8                                        
                                                                                

 2001  2 3  056  0.4 L  33.717  52.566 15.0      13 0.1 3.2L                   1
 GAP=154                   0.2     0.1  0.1                                    E
 Action:ARG 24-03-13 14:52 OP:OBSP STATUS:               ID:20010203005600     I
 STAT SP IPHASW D HRMM SECON CODA AMPLIT PERI AZIMU VELO AIN AR TRES W  DIS CAZ7
 RHPW    IP   0A   056 13.25                                           56.4  29 
 RHPW    ES   0A   056 23.19                                           56.4  29 
 LUEX    IP   0A   056 13.63                                           57.8 288 
 LUEX    ES   0A   056 23.85                                           57.8 288 
 XBVK    IP   0A   056 15.53                                           69.9   9 
 XBVK    ES   0A   056 27.18                                           69.9   9 
 CBZA    IP   0A   056 16.16                                           73.0 261 
 CBZA    ES   0A   056 28.28                                           73.0 261 
 AVTK    IP   0A   056 16.27                                           73.7 301 
 AVTK    ES   0A   056 28.47                                           73.7 301 
 DNOA    IP   0A   056 20.93                                            103  48 
 DNOA    ES   0A   056 36.63                                            103  48 
 DQYH    IP   0A   056 21.90                                            109 324 
 DQYH    ES   0A   056 38.32                                            109 324 
 RAWC    IP   0A   056 22.72                                            116 105 
 RAWC    ES   0A   056 39.76                                            116 105 
 FOUH    IP   0A   056 23.10                                            119   9 
 FOUH    ES   0A   056 40.43                                            119   9 
 VOCA    IP   0A   056 25.44                                            138  38 
 VOCA    ES   0A   056 44.53                                            138  38 
 RPKV    IP   0A   056 31.55                                            182 337 
 RPKV    ES   0A   056 54.41                                            182 337 
 QYDI    IP   0A   056 32.07                                            189 353 
 QYDI    ES   0A   056 55.35                                            189 353 
 HLUH    IP   0A   056 32.78                                            194 330 
 HLUH    ES   0A   056 56.65                                            194 330 
 HLUH     IAML A   056 32.78       246.4                                        
 DNOA     IAML A   056 20.93       732.5                                        
 VOCA     IAML A   056 25.44       459.4                                        
 AVTK     IAML A   056 16.27      1222.1                                        
                                                                                

 2001  2 3  057 10.1 L  33.703  52.669 18.1      15 0.1 1.7L                   1
 GAP=156                   0.2     0.1  0.1                                    E
 Action:ARG 24-03-13 14:52 OP:OBSP STATUS:               ID:20010203005710     I
 STAT SP IPHASW D HRMM SECON CODA AMPLIT PERI AZIMU VELO AIN AR TRES W  DIS CAZ7
 RHPW    IP   0A   057 22.81                                           54.8  18 
 RHPW    ES   0A   057 32.42                                           54.8  18 
 LUEX    IP   0A   057 25.20                                           69.0 288 
 LUEX    ES   0A   057 36.60                                           69.0 288 
 XBVK    IP   0A   057 25.35                                           71.9   0 
 XBVK    ES   0A   057 36.87                                           71.9   0 
 CBZA    IP   0A   057 27.47                                           83.4 264 
 CBZA    ES   0A   057 40.57                                           83.4 264 
 AVTK    IP   0A   057 27.57                                           84.6 299 
 AVTK    ES   0A   057 40.74                                           84.6 299 
 DNOA    IP   0A   057 29.74                                           98.2  43 
 DNOA    ES   0A   057 44.54                                           98.2  43 
 MGUS    IP   0A   057 30.19                                            101  83 
 MGUS    ES   0A   057 45.34                                            101  83 
 RAWC    IP   0A   057 30.90                                            105 105 
 APSL    IP   0A   057 31.86                                            112  62 
 APSL    ES   0A   057 48.26                                            112  62 
 DQYH    IP   0A   057 32.72                                            117 321 
 DQYH    ES   0A   057 49.76                                            117 321 
 FOUH    IP   0A   057 32.84                                            120   4 
 FOUH    ES   0A   057 49.96                                            120   4 
 VOCA    IP   0A   057 34.48                                            134  34 
 VOCA    ES   0A   057 52.83                                            134  34 
 RPKV    IP   0A   057 41.87                                            189 334 
 RPKV    ES   0A   058  4.80                                            189 334 
 QYDI    IP   0A   057 42.18                                            194 350 
 QYDI    ES   0A   058  5.48                                            194 350 
 HLUH    IP   0A   057 43.24                                            202 328 
 HLUH    ES   0A   058  7.13                                            202 328 
 RAWC     IAML A   057 30.90        20.6                                        
 APSL     IAML A   057 31.86        18.4                                        
 HLUH     IAML A   057 43.24         6.5                                        
 FOUH     IAML A   057 32.84        16.3                                        
 CBZA     IAML A   057 27.47        29.3                                        
 DNOA     IAML A   057 29.74        22.9                                        
                                                                                

