 2001  2 3  029 10.5 L  34.122  52.855 22.5      13 0.2 1.4L                   1
 GAP=108                   0.5     0.2  0.4                                    E
 Action:ARG 24-03-13 14:52 OP:OBSP STATUS:               ID:20010203002910     I
 STAT SP IPHASW D HRMM SECON CODA AMPLIT PERI AZIMU VELO AIN AR TRES W  DIS CAZ7
 RHPW    IP   0A   029 15.28                                           3.46 349 
 RHPW    ES   0A   029 19.24                                           3.46 349 
 XBVK    IP   0A   029 17.80                                           28.8 324 
 XBVK    ES   0A   029 23.64                                           28.8 324 
 DNOA    IP   0A   029 22.42                                           54.3  64 
 DNOA    ES   0A   029 31.73                                           54.3  64 
 APSL    IP   0A   029 26.79                                           82.3  87 
 APSL    ES   0A   029 39.39                                           82.3  87 
 LUEX    IP   0A   029 27.69                                           87.8 252 
 LUEX    ES   0A   029 40.96                                           87.8 252 
 MGUS    IP   0A   029 28.33                                           90.3 113 
 MGUS    ES   0A   029 42.08                                           90.3 113 
 AVTK    IP   0A   029 28.37                                           92.1 265 
 AVTK    ES   0A   029 42.14                                           92.1 265 
 DQYH    IP   0A   029 29.97                                            101 295 
 DQYH    ES   0A   029 44.96                                            101 295 
 RAWC    IP   0A   029 31.53                                            113 132 
 RAWC    ES   0A   029 47.67                                            113 132 
 CBZA    IP   0A   029 31.41                                            115 241 
 CBZA    ES   0A   029 47.47                                            115 241 
 QYDI    IP   0A   029 35.94                                            151 340 
 QYDI    ES   0A   029 55.15                                            151 340 
 RPKV    IP   0A   029 37.12                                            157 321 
 RPKV    ES   0A   029 56.99                                            157 321 
 HLUH    IP   0A   029 39.09                                            175 315 
 HLUH    ES   0A   030  0.22                                            175 315 
 XBVK     IAML A   029 17.80        72.5                                        
 MGUS     IAML A   029 28.33        15.6                                        
 DQYH     IAML A   029 29.97        13.0                                        
 RHPW     IAML A   029 15.28       852.0                                        
 APSL     IAML A   029 26.79        17.9                                        
 HLUH     IAML A   029 39.09         5.2                                        
 RAWC     IAML A   029 31.53        11.0                                        
                                                                                

 2001  2 3  030 20.1 L  33.722  52.714 19.3      14 0.1 0.7L                   1
 GAP=153                   0.2     0.1  0.1                                    E
 Action:ARG 24-03-13 14:52 OP:OBSP STATUS:               ID:20010203003020     I
 STAT SP IPHASW D HRMM SECON CODA AMPLIT PERI AZIMU VELO AIN AR TRES W  DIS CAZ7
 RHPW    IP   0A   030 32.19                                           51.0  14 
 RHPW    ES   0A   030 41.32                                           51.0  14 
 XBVK    IP   0A   030 34.93                                           69.4 357 
 XBVK    ES   0A   030 46.13                                           69.4 357 
 LUEX    IP   0A   030 35.66                                           72.5 285 
 LUEX    ES   0A   030 47.40                                           72.5 285 
 AVTK    IP   0A   030 37.89                                           87.3 296 
 AVTK    ES   0A   030 51.31                                           87.3 296 
 CBZA    IP   0A   030 38.11                                           88.0 263 
 CBZA    ES   0A   030 51.69                                           88.0 263 
 DNOA    IP   0A   030 38.96                                           93.3  42 
 MGUS    IP   0A   030 39.41                                           96.7  84 
 MGUS    ES   0A   030 53.96                                           96.7  84 
 RAWC    IP   0A   030 40.24                                            101 107 
 RAWC    ES   0A   030 55.42                                            101 107 
 APSL    IP   0A   030 41.03                                            107  62 
 APSL    ES   0A   030 56.80                                            107  62 
 DQYH    IP   0A   030 42.74                                            119 318 
 DQYH    ES   0A   030 59.80                                            119 318 
 VOCA    IP   0A   030 43.79                                            129  33 
 VOCA    ES   0A   031  1.63                                            129  33 
 RPKV    IP   0A   030 51.69                                            189 333 
 RPKV    ES   0A   031 14.59                                            189 333 
 QYDI    IP   0A   030 51.86                                            192 349 
 QYDI    ES   0A   031 14.92                                            192 349 
 HLUH    IP   0A   030 53.10                                            202 326 
 HLUH    ES   0A   031 16.97                                            202 326 
 DQYH     IAML A   030 42.74         1.7                                        
 MGUS     IAML A   030 39.41         2.4                                        
 HLUH     IAML A   030 53.10         0.7                                        
 APSL     IAML A   030 41.03         2.1                                        
 QYDI     IAML A   030 51.86         0.7                                        
 DNOA     IAML A   030 38.96         2.6                                        
                                                                                

 2001  2 3  031 30.1 L  33.728  52.522 13.5      13 0.1 1.6L                   1
 GAP=153                   0.2     0.1  0.1                                    E
 Action:ARG 24-03-13 14:52 OP:OBSP STATUS:               ID:20010203003130     I
 STAT SP IPHASW D HRMM SECON CODA AMPLIT PERI AZIMU VELO AIN AR TRES W  DIS CAZ7
 LUEX    IP   0A   031 42.91                                           53.4 288 
 LUEX    ES   0A   031 52.60                                           53.4 288 
 RHPW    IP   0A   031 43.59                                           57.5  34 
 RHPW    ES   0A   031 53.78                                           57.5  34 
 CBZA    IP   0A   031 45.73                                           69.0 259 
 CBZA    ES   0A   031 57.54                                           69.0 259 
 XBVK    IP   0A   031 45.73                                           69.4  13 
 XBVK    ES   0A   031 57.52                                           69.4  13 
 AVTK    IP   0A   031 45.68                                           69.4 302 
 AVTK    ES   0A   031 57.44                                           69.4 302 
 DQYH    IP   0A   031 51.64                                            105 325 
 DQYH    ES   0A   032  7.88                                            105 325 
 DNOA    IP   0A   031 51.51                                            106  50 
 DNOA    ES   0A   032  7.64                                            106  50 
 MGUS    IP   0A   031 52.81                                            115  86 
 MGUS    ES   0A   032  9.92                                            115  86 
 FOUH    IP   0A   031 53.32                                            119  11 
 FOUH    ES   0A   032 10.81                                            119  11 
 APSL    IP   0A   031 54.13                                            123  67 
 APSL    ES   0A   032 12.23                                            123  67 
 VOCA    IP   0A   031 55.88                                            139  40 
 VOCA    ES   0A   032 15.30                                            139  40 
 RPKV    IP   0A   032  1.39                                            179 338 
 RPKV    ES   0A   032 24.31                                            179 338 
 QYDI    IP   0A   032  2.11                                            187 354 
 QYDI    ES   0A   032 25.41                                            187 354 
 DNOA     IAML A   031 51.51        18.9                                        
 RPKV     IAML A   032  1.39         7.7                                        
 LUEX     IAML A   031 42.91        51.2                                        
 XBVK     IAML A   031 45.73        35.7                                        
                                                                                

 2001  2 3  032 39.9 L  33.520  52.560 13.6      14 0.1 1.1L                   1
 GAP=182                   0.3     0.1  0.3                                    E
 Action:ARG 24-03-13 14:52 OP:OBSP STATUS:               ID:20010203003239     I
 STAT SP IPHASW D HRMM SECON CODA AMPLIT PERI AZIMU VELO AIN AR TRES W  DIS CAZ7
 LUEX    IP   0A   032 55.51                                           68.9 308 
 LUEX    ES   0A   033  7.14                                           68.9 308 
 CBZA    IP   0A   032 56.00                                           72.8 280 
 CBZA    ES   0A   033  8.01                                           72.8 280 
 RHPW    IP   0A   032 57.03                                           78.5  21 
 RHPW    ES   0A   033  9.80                                           78.5  21 
 AVTK    IP   0A   032 58.67                                           88.2 314 
 AVTK    ES   0A   033 12.68                                           88.2 314 
 XBVK    IP   0A   032 59.30                                           93.8   7 
 XBVK    ES   0A   033 13.78                                           93.8   7 
 RAWC    IP   0A   033  2.44                                            112  93 
 RAWC    ES   0A   033 19.27                                            112  93 
 MGUS    IP   0A   033  2.66                                            116  73 
 MGUS    ES   0A   033 19.66                                            116  73 
 DNOA    IP   0A   033  3.43                                            120  40 
 DNOA    ES   0A   033 21.00                                            120  40 
 DQYH    IP   0A   033  4.83                                            129 330 
 DQYH    ES   0A   033 23.40                                            129 330 
 APSL    IP   0A   033  4.95                                            133  56 
 APSL    ES   0A   033 23.65                                            133  56 
 FOUH    IP   0A   033  6.52                                            143   8 
 FOUH    ES   0A   033 26.36                                            143   8 
 VOCA    IP   0A   033  8.03                                            158  33 
 VOCA    ES   0A   033 28.86                                            158  33 
 RPKV    IP   0A   033 14.34                                            204 340 
 RPKV    ES   0A   033 38.87                                            204 340 
 HLUH    IP   0A   033 15.47                                            215 333 
 HLUH    ES   0A   033 40.82                                            215 333 
 RAWC     IAML A   033  2.44         5.0                                        
 RPKV     IAML A   033 14.34         1.7                                        
 RHPW     IAML A   032 57.03         8.7                                        
 DQYH     IAML A   033  4.83         4.0                                        
 AVTK     IAML A   032 58.67         7.4                                        
 DNOA     IAML A   033  3.43         4.5                                        
                                                                                

 2001  2 3  033 49.8 L  33.672  52.270  4.5      14 0.1 2.2L                   1
 GAP=160                   0.5     0.3  0.3                                    E
 Action:ARG 24-03-13 14:52 OP:OBSP STATUS:               ID:20010203003349     I
 STAT SP IPHASW D HRMM SECON CODA AMPLIT PERI AZIMU VELO AIN AR TRES W  DIS CAZ7
 LUEX    IP   0A   033 59.15                                           35.4 310 
 LUEX    ES   0A   034  6.01                                           35.4 310 
 AVTK    IP   0A   034  3.98                                           55.3 320 
 AVTK    ES   0A   034 14.47                                           55.3 320 
 RHPW    IP   0A   034  8.64                                           77.3  46 
 RHPW    ES   0A   034 22.62                                           77.3  46 
 XBVK    IP   0A   034  9.55                                           83.3  28 
 XBVK    ES   0A   034 24.22                                           83.3  28 
 DQYH    IP   0A   034 12.26                                           99.9 338 
 DQYH    ES   0A   034 28.95                                           99.9 338 
 DNOA    IP   0A   034 16.37                                            128  55 
 DNOA    ES   0A   034 36.14                                            128  55 
 FOUH    IP   0A   034 16.68                                            131  21 
 FOUH    ES   0A   034 36.68                                            131  21 
 MGUS    IP   0A   034 17.48                                            139  84 
 MGUS    ES   0A   034 38.08                                            139  84 
 RAWC    IP   0A   034 17.98                                            142 100 
 RAWC    ES   0A   034 38.95                                            142 100 
 APSL    IP   0A   034 19.03                                            148  68 
 APSL    ES   0A   034 40.77                                            148  68 
 VOCA    IP   0A   034 20.37                                            160  45 
 VOCA    ES   0A   034 43.11                                            160  45 
 RPKV    IP   0A   034 22.73                                            177 345 
 RPKV    ES   0A   034 46.71                                            177 345 
 HLUH    IP   0A   034 23.67                                            186 338 
 HLUH    ES   0A   034 48.20                                            186 338 
 QYDI    IP   0A   034 24.36                                            192   1 
 QYDI    ES   0A   034 49.30                                            192   1 
 RAWC     IAML A   034 17.98        45.7                                        
 VOCA     IAML A   034 20.37        37.2                                        
 APSL     IAML A   034 19.03        42.4                                        
 DNOA     IAML A   034 16.37        54.4                                        
 XBVK     IAML A   034  9.55       107.1                                        
 QYDI     IAML A   034 24.36        26.2                                        
 HLUH     IAML A   034 23.67        28.0                                        
                                                                                

 2001  2 3  035  0.7 L  33.368  52.750 20.1      14 0.0 1.8L                   1
 GAP=200                   0.4     0.2  0.3                                    E
 Action:ARG 24-03-13 14:52 OP:OBSP STATUS:               ID:20010203003500     I
 STAT SP IPHASW D HRMM SECON CODA AMPLIT PERI AZIMU VELO AIN AR TRES W  DIS CAZ7
 RHPW    IP   0A   035 18.43                                           90.5   5 
 RHPW    ES   0A   035 32.25                                           90.5   5 
 RAWC    IP   0A   035 18.95                                           93.8  83 
 RAWC    ES   0A   035 33.17                                           93.8  83 
 LUEX    IP   0A   035 19.20                                           94.8 309 
 LUEX    ES   0A   035 33.61                                           94.8 309 
 CBZA    IP   0A   035 19.23                                           96.0 288 
 CBZA    ES   0A   035 33.65                                           96.0 288 
 MGUS    IP   0A   035 20.57                                            105  61 
 MGUS    ES   0A   035 36.00                                            105  61 
 XBVK    IP   0A   035 21.02                                            110 356 
 XBVK    ES   0A   035 36.79                                            110 356 
 AVTK    IP   0A   035 21.64                                            114 314 
 AVTK    ES   0A   035 37.87                                            114 314 
 DNOA    IP   0A   035 23.27                                            123  28 
 DNOA    ES   0A   035 40.72                                            123  28 
 APSL    IP   0A   035 23.82                                            128  45 
 APSL    ES   0A   035 41.66                                            128  45 
 FOUH    IP   0A   035 27.41                                            159   0 
 FOUH    ES   0A   035 47.80                                            159   0 
 VOCA    IP   0A   035 28.09                                            163  24 
 VOCA    ES   0A   035 48.69                                            163  24 
 RPKV    IP   0A   035 36.26                                            227 337 
 RPKV    ES   0A   036  1.90                                            227 337 
 QYDI    IP   0A   035 36.64                                            233 350 
 QYDI    ES   0A   036  2.39                                            233 350 
 HLUH    IP   0A   035 37.52                                            239 331 
 HLUH    ES   0A   036  4.04                                            239 331 
 FOUH     IAML A   035 27.41        14.1                                        
 XBVK     IAML A   035 21.02        26.4                                        
 MGUS     IAML A   035 20.57        28.4                                        
 RPKV     IAML A   035 36.26         7.1                                        
 VOCA     IAML A   035 28.09        13.5                                        
 RHPW     IAML A   035 18.43        35.8                                        
 CBZA     IAML A   035 19.23        32.7                                        
 LUEX     IAML A   035 19.20        33.4                                        
 QYDI     IAML A   035 36.64         6.7                                        
                                                                                

