 2001  2 3  021  0.2 L  33.807  52.772 19.7      15 0.1 1.1L                   1
 GAP=142                   0.2     0.1  0.1                                    E
 Action:ARG 24-03-13 14:52 OP:OBSP STATUS:               ID:20010203002100     I
 STAT SP IPHASW D HRMM SECON CODA AMPLIT PERI AZIMU VELO AIN AR TRES W  DIS CAZ7
 RHPW    IP   0A   021 10.08                                           39.6  11 
 RHPW    ES   0A   021 17.63                                           39.6  11 
 XBVK    IP   0A   021 13.28                                           59.4 351 
 XBVK    ES   0A   021 23.23                                           59.4 351 
 LUEX    IP   0A   021 16.04                                           75.5 276 
 LUEX    ES   0A   021 28.06                                           75.5 276 
 DNOA    IP   0A   021 17.15                                           82.2  44 
 AVTK    IP   0A   021 17.97                                           88.0 288 
 AVTK    ES   0A   021 31.44                                           88.0 288 
 MGUS    IP   0A   021 18.39                                           91.2  90 
 CBZA    IP   0A   021 19.10                                           94.8 257 
 CBZA    ES   0A   021 33.42                                           94.8 257 
 APSL    IP   0A   021 19.57                                           98.7  66 
 APSL    ES   0A   021 34.25                                           98.7  66 
 RAWC    IP   0A   021 19.76                                            100 114 
 RAWC    ES   0A   021 34.58                                            100 114 
 FOUH    IP   0A   021 20.86                                            108 359 
 FOUH    ES   0A   021 36.51                                            108 359 
 DQYH    IP   0A   021 22.14                                            114 313 
 DQYH    ES   0A   021 38.75                                            114 313 
 VOCA    IP   0A   021 22.18                                            117  33 
 VOCA    ES   0A   021 38.82                                            117  33 
 RPKV    IP   0A   021 30.79                                            182 330 
 RPKV    ES   0A   021 53.13                                            182 330 
 QYDI    IP   0A   021 30.59                                            183 346 
 QYDI    ES   0A   021 52.93                                            183 346 
 HLUH    IP   0A   021 32.27                                            196 324 
 HLUH    ES   0A   021 55.67                                            196 324 
 RHPW     IAML A   021 10.08        22.4                                        
 VOCA     IAML A   021 22.18         4.7                                        
 DNOA     IAML A   021 17.15         8.3                                        
 MGUS     IAML A   021 18.39         7.1                                        
 APSL     IAML A   021 19.57         6.3                                        
 AVTK     IAML A   021 17.97         7.5                                        
 RPKV     IAML A   021 30.79         2.2                                        
 LUEX     IAML A   021 16.04         9.3                                        
                                                                                

 2001  2 3  022 10.1 L  33.796  52.570 13.6      14 0.1 0.5L                   1
 GAP=144                   0.2     0.1  0.2                                    E
 Action:ARG 24-03-13 14:52 OP:OBSP STATUS:               ID:20010203002210     I
 STAT SP IPHASW D HRMM SECON CODA AMPLIT PERI AZIMU VELO AIN AR TRES W  DIS CAZ7
 RHPW    IP   0A   022 21.81                                           48.6  35 
 RHPW    ES   0A   022 30.67                                           48.6  35 
 XBVK    IP   0A   022 24.11                                           60.9  11 
 XBVK    ES   0A   022 34.69                                           60.9  11 
 AVTK    IP   0A   022 25.76                                           69.7 294 
 AVTK    ES   0A   022 37.59                                           69.7 294 
 CBZA    IP   0A   022 26.84                                           75.1 254 
 CBZA    ES   0A   022 39.48                                           75.1 254 
 DNOA    IP   0A   022 30.32                                           97.9  52 
 DNOA    ES   0A   022 45.56                                           97.9  52 
 DQYH    IP   0A   022 31.06                                            102 321 
 DQYH    ES   0A   022 46.86                                            102 321 
 FOUH    IP   0A   022 32.13                                            110  10 
 MGUS    IP   0A   022 32.08                                            111  90 
 MGUS    ES   0A   022 48.63                                            111  90 
 APSL    IP   0A   022 33.18                                            117  70 
 APSL    ES   0A   022 50.56                                            117  70 
 RAWC    IP   0A   022 33.28                                            117 109 
 RAWC    ES   0A   022 50.74                                            117 109 
 VOCA    IP   0A   022 34.69                                            131  40 
 VOCA    ES   0A   022 53.20                                            131  40 
 RPKV    IP   0A   022 40.70                                            174 336 
 RPKV    ES   0A   023  2.97                                            174 336 
 QYDI    IP   0A   022 41.16                                            180 353 
 QYDI    ES   0A   023  3.84                                            180 353 
 HLUH    IP   0A   022 42.00                                            186 329 
 HLUH    ES   0A   023  5.31                                            186 329 
 RAWC     IAML A   022 33.28         1.2                                        
 MGUS     IAML A   022 32.08         1.3                                        
 AVTK     IAML A   022 25.76         2.7                                        
 QYDI     IAML A   022 41.16         0.6                                        
 APSL     IAML A   022 33.18         1.2                                        
 RHPW     IAML A   022 21.81         4.4                                        
 FOUH     IAML A   022 32.13         1.3                                        
 CBZA     IAML A   022 26.84         2.4                                        
                                                                                

 2001  2 3  023 19.8 L  34.024  52.849 22.2      15 0.1 3.3L                   1
 GAP=117                   0.4     0.2  0.5                                    E
 Action:ARG 24-03-13 14:52 OP:OBSP STATUS:               ID:20010203002319     I
 STAT SP IPHASW D HRMM SECON CODA AMPLIT PERI AZIMU VELO AIN AR TRES W  DIS CAZ7
 RHPW    IP   0A   023 25.98                                           13.3 358 
 RHPW    ES   0A   023 30.46                                           13.3 358 
 XBVK    IP   0A   023 29.20                                           37.2 333 
 XBVK    ES   0A   023 36.10                                           37.2 333 
 DNOA    IP   0A   023 33.19                                           59.3  56 
 DNOA    ES   0A   023 43.08                                           59.3  56 
 FOUH    IP   0A   023 36.89                                           83.1 354 
 APSL    IP   0A   023 37.09                                           83.5  81 
 APSL    ES   0A   023 49.91                                           83.5  81 
 LUEX    IP   0A   023 37.09                                           85.1 258 
 LUEX    ES   0A   023 49.90                                           85.1 258 
 MGUS    IP   0A   023 37.63                                           87.0 107 
 MGUS    ES   0A   023 50.85                                           87.0 107 
 AVTK    IP   0A   023 38.01                                           91.7 271 
 AVTK    ES   0A   023 51.51                                           91.7 271 
 VOCA    IP   0A   023 38.36                                           92.5  38 
 VOCA    ES   0A   023 52.12                                           92.5  38 
 DQYH    IP   0A   023 40.55                                            106 300 
 DQYH    ES   0A   023 55.97                                            106 300 
 RAWC    IP   0A   023 40.45                                            106 128 
 RAWC    ES   0A   023 55.78                                            106 128 
 CBZA    IP   0A   023 40.70                                            110 245 
 CBZA    ES   0A   023 56.22                                            110 245 
 QYDI    IP   0A   023 47.23                                            160 341 
 QYDI    ES   0A   024  7.34                                            160 341 
 RPKV    IP   0A   023 48.22                                            165 323 
 RPKV    ES   0A   024  8.75                                            165 323 
 HLUH    IP   0A   023 50.10                                            182 317 
 AVTK     IAML A   023 38.01      1047.7                                        
 DNOA     IAML A   023 33.19      1953.8                                        
 HLUH     IAML A   023 50.10       329.2                                        
 QYDI     IAML A   023 47.23       415.5                                        
 CBZA     IAML A   023 40.70       779.4                                        
 RPKV     IAML A   023 48.22       394.4                                        
 RAWC     IAML A   023 40.45       827.9                                        
                                                                                

 2001  2 3  025 39.9 L  34.046  52.922 24.6      14 0.1 1.0L                   1
 GAP=114                   0.4     0.2  0.4                                    E
 Action:ARG 24-03-13 14:52 OP:OBSP STATUS:               ID:20010203002539     I
 STAT SP IPHASW D HRMM SECON CODA AMPLIT PERI AZIMU VELO AIN AR TRES W  DIS CAZ7
 RHPW    IP   0A   025 46.23                                           13.3 328 
 RHPW    ES   0A   025 50.90                                           13.3 328 
 XBVK    IP   0A   025 49.58                                           39.0 323 
 XBVK    ES   0A   025 56.77                                           39.0 323 
 DNOA    IP   0A   025 52.03                                           52.9  54 
 DNOA    ES   0A   026  1.05                                           52.9  54 
 APSL    IP   0A   025 55.83                                           76.7  81 
 APSL    ES   0A   026  7.70                                           76.7  81 
 MGUS    IP   0A   025 56.68                                           81.5 110 
 MGUS    ES   0A   026  9.19                                           81.5 110 
 FOUH    IP   0A   025 56.60                                           82.1 349 
 FOUH    ES   0A   026  9.06                                           82.1 349 
 VOCA    IP   0A   025 57.32                                           87.0  35 
 VOCA    ES   0A   026 10.31                                           87.0  35 
 LUEX    IP   0A   025 58.12                                           91.8 258 
 LUEX    ES   0A   026 11.71                                           91.8 258 
 AVTK    IP   0A   025 59.01                                           98.2 270 
 AVTK    ES   0A   026 13.27                                           98.2 270 
 RAWC    IP   0A   025 59.78                                            103 131 
 RAWC    ES   0A   026 14.61                                            103 131 
 DQYH    IP   0A   026  1.06                                            111 297 
 DQYH    ES   0A   026 16.85                                            111 297 
 CBZA    IP   0A   026  1.67                                            117 245 
 CBZA    ES   0A   026 17.90                                            117 245 
 RPKV    IP   0A   026  8.23                                            167 321 
 HLUH    IP   0A   026 10.19                                            185 315 
 HLUH    ES   0A   026 31.94                                            185 315 
 RPKV     IAML A   026  8.23         2.0                                        
 CBZA     IAML A   026  1.67         3.7                                        
 HLUH     IAML A   026 10.19         1.7                                        
 RAWC     IAML A   025 59.78         4.6                                        
 XBVK     IAML A   025 49.58        17.9                                        
 AVTK     IAML A   025 59.01         5.0                                        
 FOUH     IAML A   025 56.60         6.5                                        
                                                                                

 2001  2 3  026 50.1 L  33.762  52.550 14.6      15 0.1 0.8L                   1
 GAP=148                   0.2     0.1  0.1                                    E
 Action:ARG 24-03-13 14:52 OP:OBSP STATUS:               ID:20010203002650     I
 STAT SP IPHASW D HRMM SECON CODA AMPLIT PERI AZIMU VELO AIN AR TRES W  DIS CAZ7
 RHPW    IP   0A   027  2.62                                           52.6  33 
 RHPW    ES   0A   027 12.09                                           52.6  33 
 LUEX    IP   0A   027  3.19                                           55.2 283 
 LUEX    ES   0A   027 13.08                                           55.2 283 
 XBVK    IP   0A   027  4.83                                           64.9  11 
 XBVK    ES   0A   027 15.95                                           64.9  11 
 AVTK    IP   0A   027  5.68                                           70.1 298 
 AVTK    ES   0A   027 17.44                                           70.1 298 
 CBZA    IP   0A   027  6.26                                           72.8 257 
 CBZA    ES   0A   027 18.46                                           72.8 257 
 DNOA    IP   0A   027 10.76                                            101  51 
 DQYH    IP   0A   027 11.24                                            104 323 
 DQYH    ES   0A   027 27.16                                            104 323 
 MGUS    IP   0A   027 12.27                                            112  88 
 MGUS    ES   0A   027 28.96                                            112  88 
 FOUH    IP   0A   027 12.58                                            114  10 
 FOUH    ES   0A   027 29.51                                            114  10 
 RAWC    IP   0A   027 13.27                                            117 107 
 RAWC    ES   0A   027 30.72                                            117 107 
 APSL    IP   0A   027 13.46                                            120  68 
 VOCA    IP   0A   027 15.14                                            134  40 
 VOCA    ES   0A   027 34.00                                            134  40 
 RPKV    IP   0A   027 20.94                                            177 336 
 RPKV    ES   0A   027 43.43                                            177 336 
 QYDI    IP   0A   027 21.47                                            184 353 
 QYDI    ES   0A   027 44.34                                            184 353 
 HLUH    IP   0A   027 22.15                                            189 330 
 HLUH    ES   0A   027 45.63                                            189 330 
 XBVK     IAML A   027  4.83         5.5                                        
 VOCA     IAML A   027 15.14         1.8                                        
 FOUH     IAML A   027 12.58         2.3                                        
 DNOA     IAML A   027 10.76         2.8                                        
 RAWC     IAML A   027 13.27         2.2                                        
 RHPW     IAML A   027  2.62         7.3                                        
 DQYH     IAML A   027 11.24         2.7                                        
                                                                                

 2001  2 3  028  0.6 L  33.819  52.246  4.0      15 0.1 1.4L                   1
 GAP=134                   0.4     0.2  0.2                                    E
 Action:ARG 24-03-13 14:52 OP:OBSP STATUS:               ID:20010203002800     I
 STAT SP IPHASW D HRMM SECON CODA AMPLIT PERI AZIMU VELO AIN AR TRES W  DIS CAZ7
 LUEX    IP   0A   028  7.02                                           26.6 283 
 LUEX    ES   0A   028 12.29                                           26.6 283 
 AVTK    IP   0A   028 11.15                                           42.9 307 
 AVTK    ES   0A   028 19.52                                           42.9 307 
 CBZA    IP   0A   028 12.57                                           48.9 241 
 CBZA    ES   0A   028 21.99                                           48.9 241 
 RHPW    IP   0A   028 17.16                                           67.9  57 
 RHPW    ES   0A   028 30.04                                           67.9  57 
 XBVK    IP   0A   028 17.27                                           69.9  35 
 XBVK    ES   0A   028 30.22                                           69.9  35 
 DQYH    IP   0A   028 20.00                                           84.1 335 
 DQYH    ES   0A   028 35.00                                           84.1 335 
 FOUH    IP   0A   028 25.00                                            116  24 
 FOUH    ES   0A   028 43.75                                            116  24 
 DNOA    IP   0A   028 25.65                                            120  61 
 DNOA    ES   0A   028 44.90                                            120  61 
 MGUS    IP   0A   028 28.17                                            140  91 
 MGUS    ES   0A   028 49.31                                            140  91 
 APSL    IP   0A   028 28.91                                            144  75 
 RAWC    IP   0A   028 29.25                                            147 106 
 VOCA    IP   0A   028 29.39                                            149  49 
 VOCA    ES   0A   028 51.43                                            149  49 
 RPKV    IP   0A   028 31.02                                            161 344 
 RPKV    ES   0A   028 53.96                                            161 344 
 HLUH    IP   0A   028 31.98                                            170 336 
 HLUH    ES   0A   028 55.46                                            170 336 
 QYDI    IP   0A   028 32.69                                            176   2 
 QYDI    ES   0A   028 56.54                                            176   2 
 XBVK     IAML A   028 17.27        19.9                                        
 RHPW     IAML A   028 17.16        20.7                                        
 DQYH     IAML A   028 20.00        15.2                                        
 QYDI     IAML A   028 32.69         4.5                                        
 RAWC     IAML A   028 29.25         6.2                                        
 RPKV     IAML A   028 31.02         5.3                                        
 APSL     IAML A   028 28.91         6.4                                        
 FOUH     IAML A   028 25.00         9.2                                        
 AVTK     IAML A   028 11.15        38.4                                        
                                                                                

