 2001  2 3  0 6 59.9 L  33.836  52.543 12.8      15 0.1 2.7L                   1
 GAP=138                   0.2     0.1  0.2                                    E
 Action:ARG 24-03-13 14:52 OP:OBSP STATUS:               ID:20010203000659     I
 STAT SP IPHASW D HRMM SECON CODA AMPLIT PERI AZIMU VELO AIN AR TRES W  DIS CAZ7
 RHPW    IP   0A   0 7 11.31                                           45.5  41 
 RHPW    ES   0A   0 7 19.79                                           45.5  41 
 LUEX    IP   0A   0 7 12.79                                           52.9 274 
 LUEX    ES   0A   0 7 22.38                                           52.9 274 
 XBVK    IP   0A   0 7 13.30                                           55.8  14 
 XBVK    ES   0A   0 7 23.27                                           55.8  14 
 AVTK    IP   0A   0 7 15.01                                           65.3 290 
 AVTK    ES   0A   0 7 26.27                                           65.3 290 
 CBZA    IP   0A   0 7 16.59                                           74.7 249 
 CBZA    ES   0A   0 7 29.03                                           74.7 249 
 DQYH    IP   0A   0 7 20.25                                           96.2 320 
 DNOA    IP   0A   0 7 20.26                                           96.4  55 
 DNOA    ES   0A   0 7 35.45                                           96.4  55 
 FOUH    IP   0A   0 7 21.73                                            105  11 
 FOUH    ES   0A   0 7 38.02                                            105  11 
 MGUS    IP   0A   0 7 22.52                                            113  92 
 MGUS    ES   0A   0 7 39.41                                            113  92 
 APSL    IP   0A   0 7 23.37                                            117  73 
 APSL    ES   0A   0 7 40.89                                            117  73 
 RAWC    IP   0A   0 7 23.88                                            122 111 
 RAWC    ES   0A   0 7 41.78                                            122 111 
 VOCA    IP   0A   0 7 24.56                                            128  43 
 VOCA    ES   0A   0 7 42.98                                            128  43 
 RPKV    IP   0A   0 7 30.03                                            168 335 
 RPKV    ES   0A   0 7 52.05                                            168 335 
 QYDI    IP   0A   0 7 30.63                                            174 353 
 QYDI    ES   0A   0 7 52.95                                            174 353 
 HLUH    IP   0A   0 7 31.29                                            180 328 
 HLUH    ES   0A   0 7 54.25                                            180 328 
 RHPW     IAML A   0 7 11.31       670.1                                        
 HLUH     IAML A   0 7 31.29        80.7                                        
 AVTK     IAML A   0 7 15.01       411.5                                        
 APSL     IAML A   0 7 23.37       169.7                                        
 RAWC     IAML A   0 7 23.88       158.8                                        
 LUEX     IAML A   0 7 12.79       549.8                                        
 CBZA     IAML A   0 7 16.59       340.7                                        
 VOCA     IAML A   0 7 24.56       148.0                                        
                                                                                

 2001  2 3  0 8 10.1 L  33.546  52.691 19.4      13 0.1 2.0L                   1
 GAP=177                   0.3     0.1  0.2                                    E
 Action:ARG 24-03-13 14:52 OP:OBSP STATUS:               ID:20010203000810     I
 STAT SP IPHASW D HRMM SECON CODA AMPLIT PERI AZIMU VELO AIN AR TRES W  DIS CAZ7
 RHPW    IP   0A   0 8 25.54                                           71.5  11 
 RHPW    ES   0A   0 8 37.20                                           71.5  11 
 LUEX    IP   0A   0 8 26.59                                           78.8 300 
 LUEX    ES   0A   0 8 39.03                                           78.8 300 
 XBVK    IP   0A   0 8 28.09                                           89.9 359 
 XBVK    ES   0A   0 8 41.65                                           89.9 359 
 AVTK    IP   0A   0 8 29.20                                           96.7 307 
 AVTK    ES   0A   0 8 43.61                                           96.7 307 
 RAWC    IP   0A   0 8 29.95                                           99.2  95 
 RAWC    ES   0A   0 8 44.92                                           99.2  95 
 MGUS    IP   0A   0 8 30.12                                            102  73 
 MGUS    ES   0A   0 8 45.21                                            102  73 
 DNOA    IP   0A   0 8 31.44                                            110  35 
 DNOA    ES   0A   0 8 47.52                                            110  35 
 APSL    IP   0A   0 8 32.62                                            120  54 
 APSL    ES   0A   0 8 49.59                                            120  54 
 DQYH    IP   0A   0 8 34.65                                            134 325 
 DQYH    ES   0A   0 8 53.02                                            134 325 
 FOUH    IP   0A   0 8 35.10                                            139   2 
 FOUH    ES   0A   0 8 53.90                                            139   2 
 VOCA    IP   0A   0 8 36.21                                            148  29 
 VOCA    ES   0A   0 8 55.72                                            148  29 
 RPKV    IP   0A   0 8 43.84                                            207 336 
 RPKV    ES   0A   0 9  7.86                                            207 336 
 HLUH    IP   0A   0 8 45.10                                            219 330 
 HLUH    ES   0A   0 9 10.08                                            219 330 
 LUEX     IAML A   0 8 26.59        61.4                                        
 DQYH     IAML A   0 8 34.65        26.8                                        
 FOUH     IAML A   0 8 35.10        25.0                                        
 DNOA     IAML A   0 8 31.44        36.8                                        
 RHPW     IAML A   0 8 25.54        70.7                                        
 XBVK     IAML A   0 8 28.09        50.5                                        
                                                                                

 2001  2 3  0 9 20.6 L  33.635  52.644 17.6      13 0.1 2.3L                   1
 GAP=165                   0.2     0.1  0.1                                    E
 Action:ARG 24-03-13 14:52 OP:OBSP STATUS:               ID:20010203000920     I
 STAT SP IPHASW D HRMM SECON CODA AMPLIT PERI AZIMU VELO AIN AR TRES W  DIS CAZ7
 RHPW    IP   0A   0 9 34.20                                           61.8  18 
 RHPW    ES   0A   0 9 44.86                                           61.8  18 
 LUEX    IP   0A   0 9 35.29                                           69.6 294 
 LUEX    ES   0A   0 9 46.75                                           69.6 294 
 XBVK    IP   0A   0 9 36.64                                           78.7   2 
 XBVK    ES   0A   0 9 49.12                                           78.7   2 
 CBZA    IP   0A   0 9 36.95                                           81.0 269 
 CBZA    ES   0A   0 9 49.66                                           81.0 269 
 MGUS    IP   0A   0 9 40.59                                            104  79 
 MGUS    ES   0A   0 9 56.04                                            104  79 
 DNOA    IP   0A   0 9 40.84                                            104  41 
 DNOA    ES   0A   0 9 56.47                                            104  41 
 RAWC    IP   0A   0 9 41.02                                            105 101 
 RAWC    ES   0A   0 9 56.78                                            105 101 
 APSL    IP   0A   0 9 42.65                                            117  60 
 APSL    ES   0A   0 9 59.64                                            117  60 
 DQYH    IP   0A   0 9 43.35                                            122 323 
 DQYH    ES   0A   010  0.85                                            122 323 
 FOUH    IP   0A   0 9 43.95                                            128   5 
 FOUH    ES   0A   010  1.91                                            128   5 
 VOCA    IP   0A   0 9 45.56                                            141  33 
 VOCA    ES   0A   010  4.72                                            141  33 
 RPKV    IP   0A   0 9 52.66                                            194 336 
 RPKV    ES   0A   010 15.99                                            194 336 
 HLUH    IP   0A   0 9 53.95                                            207 329 
 HLUH    ES   0A   010 18.21                                            207 329 
 RPKV     IAML A   0 9 52.66        29.6                                        
 RHPW     IAML A   0 9 34.20       189.3                                        
 FOUH     IAML A   0 9 43.95        62.8                                        
 APSL     IAML A   0 9 42.65        72.4                                        
 XBVK     IAML A   0 9 36.64       134.5                                        
 CBZA     IAML A   0 9 36.95       129.0                                        
 LUEX     IAML A   0 9 35.29       160.4                                        
                                                                                

 2001  2 3  010 30.2 L  34.123  52.533 12.7      15 0.1 2.2L                   1
 GAP=106                   0.3     0.2  0.2                                    E
 Action:ARG 24-03-13 14:52 OP:OBSP STATUS:               ID:20010203001030     I
 STAT SP IPHASW D HRMM SECON CODA AMPLIT PERI AZIMU VELO AIN AR TRES W  DIS CAZ7
 XBVK    IP   0A   010 37.59                                           28.1  31 
 XBVK    ES   0A   010 43.29                                           28.1  31 
 RHPW    IP   0A   010 38.24                                           31.2  82 
 RHPW    ES   0A   010 44.43                                           31.2  82 
 LUEX    IP   0A   010 43.66                                           58.3 243 
 AVTK    IP   0A   010 43.85                                           60.7 263 
 AVTK    ES   0A   010 54.24                                           60.7 263 
 DQYH    IP   0A   010 46.67                                           74.9 306 
 DQYH    ES   0A   010 59.17                                           74.9 306 
 FOUH    IP   0A   010 46.98                                           76.8  17 
 FOUH    ES   0A   010 59.71                                           76.8  17 
 DNOA    IP   0A   010 48.12                                           84.1  73 
 DNOA    ES   0A   011  1.72                                           84.1  73 
 CBZA    IP   0A   010 48.77                                           89.0 231 
 CBZA    ES   0A   011  2.85                                           89.0 231 
 VOCA    IP   0A   010 51.65                                            108  54 
 VOCA    ES   0A   011  7.89                                            108  54 
 APSL    IP   0A   010 52.61                                            113  87 
 APSL    ES   0A   011  9.56                                            113  87 
 MGUS    IP   0A   010 53.57                                            119 107 
 RAWC    IP   0A   010 55.90                                            137 123 
 RAWC    ES   0A   011 15.30                                            137 123 
 RPKV    IP   0A   010 56.37                                            140 331 
 RPKV    ES   0A   011 16.04                                            140 331 
 QYDI    IP   0A   010 56.57                                            144 352 
 QYDI    ES   0A   011 16.42                                            144 352 
 HLUH    IP   0A   010 57.86                                            155 323 
 HLUH    ES   0A   011 18.61                                            155 323 
 AVTK     IAML A   010 43.85       147.3                                        
 FOUH     IAML A   010 46.98       105.6                                        
 VOCA     IAML A   010 51.65        62.3                                        
 LUEX     IAML A   010 43.66       155.6                                        
 DQYH     IAML A   010 46.67       109.5                                        
 MGUS     IAML A   010 53.57        53.6                                        
 RHPW     IAML A   010 38.24       350.4                                        
 CBZA     IAML A   010 48.77        85.1                                        
                                                                                

 2001  2 3  011 39.8 L  33.941  52.914 23.3      14 0.1 3.7L                   1
 GAP=125                   0.3     0.2  0.3                                    E
 Action:ARG 24-03-13 14:52 OP:OBSP STATUS:               ID:20010203001139     I
 STAT SP IPHASW D HRMM SECON CODA AMPLIT PERI AZIMU VELO AIN AR TRES W  DIS CAZ7
 RHPW    IP   0A   011 47.48                                           23.5 344 
 RHPW    ES   0A   011 53.10                                           23.5 344 
 XBVK    IP   0A   011 51.08                                           48.2 332 
 XBVK    ES   0A   011 59.39                                           48.2 332 
 DNOA    IP   0A   011 53.38                                           60.7  45 
 DNOA    ES   0A   012  3.42                                           60.7  45 
 MGUS    IP   0A   011 56.17                                           78.9 102 
 MGUS    ES   0A   012  8.30                                           78.9 102 
 APSL    IP   0A   011 56.36                                           79.8  73 
 APSL    ES   0A   012  8.63                                           79.8  73 
 LUEX    IP   0A   011 57.75                                           89.5 265 
 LUEX    ES   0A   012 11.07                                           89.5 265 
 FOUH    IP   0A   011 58.27                                           93.2 351 
 FOUH    ES   0A   012 11.98                                           93.2 351 
 RAWC    IP   0A   011 58.70                                           96.4 126 
 RAWC    ES   0A   012 12.73                                           96.4 126 
 VOCA    IP   0A   011 58.87                                           96.8  32 
 VOCA    ES   0A   012 13.03                                           96.8  32 
 AVTK    IP   0A   011 58.97                                           98.2 277 
 AVTK    ES   0A   012 13.20                                           98.2 277 
 CBZA    IP   0A   012  1.07                                            112 251 
 CBZA    ES   0A   012 16.85                                            112 251 
 QYDI    IP   0A   012  8.52                                            171 341 
 QYDI    ES   0A   012 29.52                                            171 341 
 RPKV    IP   0A   012  9.48                                            176 323 
 RPKV    ES   0A   012 30.86                                            176 323 
 HLUH    IP   0A   012 11.34                                            193 317 
 HLUH    ES   0A   012 33.89                                            193 317 
 RAWC     IAML A   011 58.70      2363.0                                        
 XBVK     IAML A   011 51.08      6290.0                                        
 HLUH     IAML A   012 11.34       716.9                                        
 CBZA     IAML A   012  1.07      1847.0                                        
 FOUH     IAML A   011 58.27      2488.6                                        
 AVTK     IAML A   011 58.97      2297.2                                        
 QYDI     IAML A   012  8.52       898.4                                        
 MGUS     IAML A   011 56.17      3185.6                                        
                                                                                

 2001  2 3  012 50.2 L  33.437  52.542 11.8      14 0.1 1.6L                   1
 GAP=194                   0.4     0.2  0.3                                    E
 Action:ARG 24-03-13 14:52 OP:OBSP STATUS:               ID:20010203001250     I
 STAT SP IPHASW D HRMM SECON CODA AMPLIT PERI AZIMU VELO AIN AR TRES W  DIS CAZ7
 CBZA    IP   0A   013  6.36                                           73.7 288 
 CBZA    ES   0A   013 18.63                                           73.7 288 
 LUEX    IP   0A   013  6.65                                           74.3 315 
 LUEX    ES   0A   013 19.13                                           74.3 315 
 RHPW    IP   0A   013  8.93                                           88.4  20 
 RHPW    ES   0A   013 23.13                                           88.4  20 
 AVTK    IP   0A   013  9.86                                           94.4 319 
 AVTK    ES   0A   013 24.76                                           94.4 319 
 XBVK    IP   0A   013 11.15                                            103   7 
 XBVK    ES   0A   013 27.02                                            103   7 
 RAWC    IP   0A   013 12.91                                            114  88 
 RAWC    ES   0A   013 30.10                                            114  88 
 MGUS    IP   0A   013 13.74                                            120  69 
 MGUS    ES   0A   013 31.55                                            120  69 
 DNOA    IP   0A   013 14.90                                            130  37 
 DNOA    ES   0A   013 33.56                                            130  37 
 DQYH    IP   0A   013 16.17                                            137 333 
 DQYH    ES   0A   013 35.70                                            137 333 
 APSL    IP   0A   013 16.25                                            140  53 
 APSL    ES   0A   013 35.91                                            140  53 
 FOUH    IP   0A   013 18.13                                            153   8 
 FOUH    ES   0A   013 38.99                                            153   8 
 VOCA    IP   0A   013 19.48                                            167  31 
 VOCA    ES   0A   013 41.27                                            167  31 
 RPKV    IP   0A   013 25.76                                            213 341 
 RPKV    ES   0A   013 51.36                                            213 341 
 HLUH    IP   0A   013 26.82                                            222 335 
 HLUH    ES   0A   013 53.13                                            222 335 
 XBVK     IAML A   013 11.15        19.9                                        
 AVTK     IAML A   013  9.86        23.1                                        
 HLUH     IAML A   013 26.82         5.0                                        
 DNOA     IAML A   013 14.90        13.8                                        
 RAWC     IAML A   013 12.91        17.1                                        
 VOCA     IAML A   013 19.48         8.9                                        
                                                                                

