 2001  2 3  043  9.9 L  33.682  52.473 11.2      13 0.1 2.3L                   1
 GAP=159                   0.2     0.1  0.1                                    E
 Action:ARG 24-03-13 14:52 OP:OBSP STATUS:               ID:20010203004309     I
 STAT SP IPHASW D HRMM SECON CODA AMPLIT PERI AZIMU VELO AIN AR TRES W  DIS CAZ7
 LUEX    IP   0A   043 22.65                                           50.9 295 
 LUEX    ES   0A   043 32.14                                           50.9 295 
 CBZA    IP   0A   043 24.94                                           63.8 263 
 CBZA    ES   0A   043 36.15                                           63.8 263 
 RHPW    IP   0A   043 25.12                                           64.0  35 
 RHPW    ES   0A   043 36.46                                           64.0  35 
 AVTK    IP   0A   043 25.75                                           68.4 307 
 AVTK    ES   0A   043 37.56                                           68.4 307 
 XBVK    IP   0A   043 27.10                                           75.2  15 
 XBVK    ES   0A   043 39.92                                           75.2  15 
 DQYH    IP   0A   043 32.30                                            107 329 
 DQYH    ES   0A   043 49.02                                            107 329 
 MGUS    IP   0A   043 33.78                                            120  84 
 MGUS    ES   0A   043 51.62                                            120  84 
 RAWC    IP   0A   043 34.45                                            123 102 
 RAWC    ES   0A   043 52.78                                            123 102 
 FOUH    IP   0A   043 34.55                                            125  13 
 FOUH    ES   0A   043 52.97                                            125  13 
 APSL    IP   0A   043 35.36                                            130  66 
 APSL    ES   0A   043 54.38                                            130  66 
 VOCA    IP   0A   043 37.19                                            146  40 
 VOCA    ES   0A   043 57.58                                            146  40 
 RPKV    IP   0A   043 42.11                                            182 340 
 RPKV    ES   0A   044  5.66                                            182 340 
 QYDI    IP   0A   043 43.09                                            192 356 
 QYDI    ES   0A   044  7.07                                            192 356 
 AVTK     IAML A   043 25.75       172.7                                        
 LUEX     IAML A   043 22.65       258.2                                        
 CBZA     IAML A   043 24.94       190.1                                        
 RHPW     IAML A   043 25.12       189.2                                        
 VOCA     IAML A   043 37.19        52.8                                        
                                                                                

 2001  2 3  044 20.0 L  33.912  52.673 16.8      14 0.1 2.6L                   1
 GAP=130                   0.2     0.1  0.2                                    E
 Action:ARG 24-03-13 14:52 OP:OBSP STATUS:               ID:20010203004420     I
 STAT SP IPHASW D HRMM SECON CODA AMPLIT PERI AZIMU VELO AIN AR TRES W  DIS CAZ7
 RHPW    IP   0A   044 28.52                                           32.5  32 
 RHPW    ES   0A   044 34.91                                           32.5  32 
 XBVK    IP   0A   044 31.04                                           47.2   1 
 XBVK    ES   0A   044 39.31                                           47.2   1 
 LUEX    IP   0A   044 34.70                                           65.3 267 
 LUEX    ES   0A   044 45.72                                           65.3 267 
 AVTK    IP   0A   044 36.37                                           75.4 282 
 AVTK    ES   0A   044 48.65                                           75.4 282 
 DNOA    IP   0A   044 37.30                                           82.2  55 
 DNOA    ES   0A   044 50.27                                           82.2  55 
 CBZA    IP   0A   044 38.45                                           88.8 248 
 CBZA    ES   0A   044 52.28                                           88.8 248 
 FOUH    IP   0A   044 39.58                                           97.1   5 
 FOUH    ES   0A   044 54.26                                           97.1   5 
 DQYH    IP   0A   044 40.23                                           99.9 312 
 DQYH    ES   0A   044 55.40                                           99.9 312 
 MGUS    IP   0A   044 40.37                                            101  97 
 MGUS    ES   0A   044 55.64                                            101  97 
 RAWC    IP   0A   044 42.14                                            114 117 
 RAWC    ES   0A   044 58.74                                            114 117 
 VOCA    IP   0A   044 42.02                                            114  41 
 VOCA    ES   0A   044 58.54                                            114  41 
 RPKV    IP   0A   044 49.21                                            167 331 
 RPKV    ES   0A   045 10.43                                            167 331 
 QYDI    IP   0A   044 49.15                                            169 349 
 QYDI    ES   0A   045 10.48                                            169 349 
 HLUH    IP   0A   044 50.69                                            181 324 
 HLUH    ES   0A   045 13.00                                            181 324 
 VOCA     IAML A   044 42.02       162.3                                        
 FOUH     IAML A   044 39.58       211.1                                        
 RHPW     IAML A   044 28.52       943.6                                        
 QYDI     IAML A   044 49.15        82.7                                        
 AVTK     IAML A   044 36.37       307.1                                        
 DQYH     IAML A   044 40.23       201.9                                        
 DNOA     IAML A   044 37.30       271.1                                        
                                                                                

 2001  2 3  045 30.2 L  33.662  52.822 23.4      14 0.1 2.0L                   1
 GAP=160                   0.3     0.1  0.3                                    E
 Action:ARG 24-03-13 14:52 OP:OBSP STATUS:               ID:20010203004530     I
 STAT SP IPHASW D HRMM SECON CODA AMPLIT PERI AZIMU VELO AIN AR TRES W  DIS CAZ7
 RHPW    IP   0A   045 42.88                                           56.0   2 
 RHPW    ES   0A   045 52.55                                           56.0   2 
 XBVK    IP   0A   045 46.09                                           77.2 349 
 XBVK    ES   0A   045 58.15                                           77.2 349 
 LUEX    IP   0A   045 47.28                                           84.5 287 
 LUEX    ES   0A   046  0.24                                           84.5 287 
 MGUS    IP   0A   045 47.66                                           87.2  79 
 MGUS    ES   0A   046  0.91                                           87.2  79 
 RAWC    IP   0A   045 48.19                                           89.6 105 
 RAWC    ES   0A   046  1.83                                           89.6 105 
 DNOA    IP   0A   045 48.41                                           92.0  34 
 DNOA    ES   0A   046  2.22                                           92.0  34 
 CBZA    IP   0A   045 49.23                                           98.0 268 
 CBZA    ES   0A   046  3.65                                           98.0 268 
 AVTK    IP   0A   045 49.40                                           99.7 297 
 AVTK    ES   0A   046  3.96                                           99.7 297 
 APSL    IP   0A   045 49.76                                            101  56 
 APSL    ES   0A   046  4.57                                            101  56 
 FOUH    IP   0A   045 52.77                                            125 357 
 FOUH    ES   0A   046  9.85                                            125 357 
 VOCA    IP   0A   045 53.53                                            130  27 
 VOCA    ES   0A   046 11.17                                            130  27 
 RPKV    IP   0A   046  2.69                                            199 331 
 RPKV    ES   0A   046 25.88                                            199 331 
 QYDI    IP   0A   046  2.59                                            201 346 
 QYDI    ES   0A   046 25.80                                            201 346 
 HLUH    IP   0A   046  4.11                                            213 325 
 HLUH    ES   0A   046 28.34                                            213 325 
 DNOA     IAML A   045 48.41        49.7                                        
 XBVK     IAML A   045 46.09        64.3                                        
 RPKV     IAML A   046  2.69        13.1                                        
 AVTK     IAML A   045 49.40        43.9                                        
 HLUH     IAML A   046  4.11        11.4                                        
                                                                                

 2001  2 3  046 39.9 L  33.701  52.445 10.1      15 0.1 2.2L                   1
 GAP=157                   0.2     0.1  0.1                                    E
 Action:ARG 24-03-13 14:52 OP:OBSP STATUS:               ID:20010203004639     I
 STAT SP IPHASW D HRMM SECON CODA AMPLIT PERI AZIMU VELO AIN AR TRES W  DIS CAZ7
 LUEX    IP   0A   046 52.10                                           48.1 293 
 LUEX    ES   0A   047  1.18                                           48.1 293 
 CBZA    IP   0A   046 54.74                                           62.2 260 
 CBZA    ES   0A   047  5.80                                           62.2 260 
 RHPW    IP   0A   046 55.26                                           63.2  37 
 RHPW    ES   0A   047  6.71                                           63.2  37 
 AVTK    IP   0A   046 55.30                                           65.2 306 
 AVTK    ES   0A   047  6.77                                           65.2 306 
 XBVK    IP   0A   046 57.09                                           73.3  17 
 XBVK    ES   0A   047  9.91                                           73.3  17 
 DQYH    IP   0A   047  2.00                                            104 329 
 DQYH    ES   0A   047 18.50                                            104 329 
 DNOA    IP   0A   047  3.21                                            112  51 
 MGUS    IP   0A   047  4.34                                            122  85 
 MGUS    ES   0A   047 22.59                                            122  85 
 FOUH    IP   0A   047  4.60                                            123  14 
 FOUH    ES   0A   047 23.05                                            123  14 
 RAWC    IP   0A   047  5.06                                            126 103 
 RAWC    ES   0A   047 23.85                                            126 103 
 APSL    IP   0A   047  5.81                                            131  67 
 APSL    ES   0A   047 25.16                                            131  67 
 VOCA    IP   0A   047  7.45                                            145  41 
 VOCA    ES   0A   047 28.03                                            145  41 
 RPKV    IP   0A   047 11.92                                            179 340 
 RPKV    ES   0A   047 35.35                                            179 340 
 QYDI    IP   0A   047 13.01                                            189 356 
 QYDI    ES   0A   047 36.98                                            189 356 
 HLUH    IP   0A   047 12.99                                            190 333 
 HLUH    ES   0A   047 37.02                                            190 333 
 CBZA     IAML A   046 54.74       168.8                                        
 FOUH     IAML A   047  4.60        60.8                                        
 MGUS     IAML A   047  4.34        61.1                                        
 VOCA     IAML A   047  7.45        45.6                                        
 AVTK     IAML A   046 55.30       158.0                                        
 RHPW     IAML A   046 55.26       165.3                                        
 XBVK     IAML A   046 57.09       134.1                                        
 RAWC     IAML A   047  5.06        58.1                                        
                                                                                

 2001  2 3  047 49.8 L  33.992  52.439  9.2      13 0.1 1.3L                   1
 GAP=118                   0.2     0.2  0.1                                    E
 Action:ARG 24-03-13 14:52 OP:OBSP STATUS:               ID:20010203004749     I
 STAT SP IPHASW D HRMM SECON CODA AMPLIT PERI AZIMU VELO AIN AR TRES W  DIS CAZ7
 RHPW    IP   0A   048  0.97                                           43.1  65 
 RHPW    ES   0A   048  9.20                                           43.1  65 
 XBVK    IP   0A   048  0.98                                           44.1  31 
 XBVK    ES   0A   048  9.21                                           44.1  31 
 LUEX    IP   0A   048  1.52                                           45.3 253 
 LUEX    ES   0A   048 10.16                                           45.3 253 
 AVTK    IP   0A   048  2.78                                           52.3 277 
 AVTK    ES   0A   048 12.37                                           52.3 277 
 CBZA    IP   0A   048  6.73                                           74.1 235 
 CBZA    ES   0A   048 19.28                                           74.1 235 
 DQYH    IP   0A   048  7.60                                           77.7 317 
 DQYH    ES   0A   048 20.80                                           77.7 317 
 FOUH    IP   0A   048 10.04                                           92.3  19 
 FOUH    ES   0A   048 25.07                                           92.3  19 
 APSL    IP   0A   048 14.68                                            123  81 
 APSL    ES   0A   048 33.19                                            123  81 
 VOCA    IP   0A   048 14.67                                            123  51 
 VOCA    ES   0A   048 33.17                                            123  51 
 RAWC    IP   0A   048 16.69                                            138 116 
 RAWC    ES   0A   048 36.70                                            138 116 
 RPKV    IP   0A   048 18.09                                            149 336 
 RPKV    ES   0A   048 38.99                                            149 336 
 QYDI    IP   0A   048 18.89                                            157 356 
 QYDI    ES   0A   048 40.36                                            157 356 
 HLUH    IP   0A   048 19.35                                            161 328 
 HLUH    ES   0A   048 41.23                                            161 328 
 RPKV     IAML A   048 18.09         4.4                                        
 RAWC     IAML A   048 16.69         5.1                                        
 DQYH     IAML A   048  7.60        12.5                                        
 CBZA     IAML A   048  6.73        13.4                                        
 QYDI     IAML A   048 18.89         4.0                                        
                                                                                

 2001  2 3  049  0.5 L  33.809  52.571 13.2      15 0.1 1.6L                   1
 GAP=142                   0.2     0.1  0.2                                    E
 Action:ARG 24-03-13 14:52 OP:OBSP STATUS:               ID:20010203004900     I
 STAT SP IPHASW D HRMM SECON CODA AMPLIT PERI AZIMU VELO AIN AR TRES W  DIS CAZ7
 RHPW    IP   0A   049 11.52                                           46.4  35 
 RHPW    ES   0A   049 20.16                                           46.4  35 
 LUEX    IP   0A   049 13.39                                           56.4 277 
 LUEX    ES   0A   049 23.43                                           56.4 277 
 XBVK    IP   0A   049 13.82                                           58.7  10 
 XBVK    ES   0A   049 24.19                                           58.7  10 
 AVTK    IP   0A   049 15.73                                           69.7 292 
 AVTK    ES   0A   049 27.52                                           69.7 292 
 CBZA    IP   0A   049 16.89                                           76.6 253 
 CBZA    ES   0A   049 29.56                                           76.6 253 
 DNOA    IP   0A   049 20.21                                           95.9  53 
 DQYH    IP   0A   049 20.88                                            101 320 
 FOUH    IP   0A   049 21.97                                            108   9 
 FOUH    ES   0A   049 38.45                                            108   9 
 MGUS    IP   0A   049 22.06                                            110  91 
 MGUS    ES   0A   049 38.61                                            110  91 
 APSL    IP   0A   049 23.12                                            116  70 
 APSL    ES   0A   049 40.47                                            116  70 
 RAWC    IP   0A   049 23.36                                            117 110 
 RAWC    ES   0A   049 40.89                                            117 110 
 VOCA    IP   0A   049 24.62                                            128  41 
 VOCA    ES   0A   049 43.09                                            128  41 
 RPKV    IP   0A   049 30.56                                            172 335 
 RPKV    ES   0A   049 52.81                                            172 335 
 QYDI    IP   0A   049 31.01                                            178 352 
 QYDI    ES   0A   049 53.59                                            178 352 
 HLUH    IP   0A   049 31.83                                            185 328 
 HLUH    ES   0A   049 55.11                                            185 328 
 CBZA     IAML A   049 16.89        25.4                                        
 QYDI     IAML A   049 31.01         6.4                                        
 FOUH     IAML A   049 21.97        14.9                                        
 RHPW     IAML A   049 11.52        50.5                                        
 XBVK     IAML A   049 13.82        36.8                                        
 APSL     IAML A   049 23.12        13.5                                        
                                                                                

