 2001  2 3  014  0.5 L  33.769  52.576 14.3      15 0.1 0.3L                   1
 GAP=147                   0.2     0.1  0.1                                    E
 Action:ARG 24-03-13 14:52 OP:OBSP STATUS:               ID:20010203001400     I
 STAT SP IPHASW D HRMM SECON CODA AMPLIT PERI AZIMU VELO AIN AR TRES W  DIS CAZ7
 RHPW    IP   0A   014 12.17                                           50.0  32 
 RHPW    ES   0A   014 21.30                                           50.0  32 
 LUEX    IP   0A   014 13.56                                           57.6 282 
 LUEX    ES   0A   014 23.73                                           57.6 282 
 XBVK    IP   0A   014 14.52                                           63.1   9 
 XBVK    ES   0A   014 25.42                                           63.1   9 
 AVTK    IP   0A   014 16.00                                           72.0 296 
 AVTK    ES   0A   014 28.01                                           72.0 296 
 CBZA    IP   0A   014 16.63                                           75.8 256 
 CBZA    ES   0A   014 29.11                                           75.8 256 
 DNOA    IP   0A   014 20.45                                           98.4  50 
 DNOA    ES   0A   014 35.78                                           98.4  50 
 DQYH    IP   0A   014 21.32                                            104 321 
 DQYH    ES   0A   014 37.32                                            104 321 
 MGUS    IP   0A   014 21.85                                            109  88 
 MGUS    ES   0A   014 38.24                                            109  88 
 FOUH    IP   0A   014 22.37                                            113   9 
 FOUH    ES   0A   014 39.14                                            113   9 
 RAWC    IP   0A   014 22.91                                            116 108 
 RAWC    ES   0A   014 40.10                                            116 108 
 APSL    IP   0A   014 23.10                                            117  68 
 APSL    ES   0A   014 40.42                                            117  68 
 VOCA    IP   0A   014 24.90                                            132  39 
 VOCA    ES   0A   014 43.57                                            132  39 
 RPKV    IP   0A   014 30.97                                            177 336 
 QYDI    IP   0A   014 31.41                                            183 352 
 QYDI    ES   0A   014 54.25                                            183 352 
 HLUH    IP   0A   014 32.24                                            189 329 
 HLUH    ES   0A   014 55.74                                            189 329 
 VOCA     IAML A   014 24.90         0.6                                        
 RAWC     IAML A   014 22.91         0.8                                        
 MGUS     IAML A   014 21.85         0.9                                        
 XBVK     IAML A   014 14.52         1.9                                        
 APSL     IAML A   014 23.10         0.8                                        
 CBZA     IAML A   014 16.63         1.5                                        
 RHPW     IAML A   014 12.17         2.7                                        
                                                                                

 2001  2 3  015 10.4 L  33.789  52.648 17.7      15 0.1 2.5L                   1
 GAP=145                   0.2     0.1  0.1                                    E
 Action:ARG 24-03-13 14:52 OP:OBSP STATUS:               ID:20010203001510     I
 STAT SP IPHASW D HRMM SECON CODA AMPLIT PERI AZIMU VELO AIN AR TRES W  DIS CAZ7
 RHPW    IP   0A   015 21.10                                           45.7  25 
 XBVK    IP   0A   015 23.66                                           61.1   3 
 XBVK    ES   0A   015 33.91                                           61.1   3 
 LUEX    IP   0A   015 24.40                                           63.9 279 
 LUEX    ES   0A   015 35.19                                           63.9 279 
 AVTK    IP   0A   015 26.58                                           77.4 293 
 AVTK    ES   0A   015 39.01                                           77.4 293 
 CBZA    IP   0A   015 27.47                                           82.5 257 
 CBZA    ES   0A   015 40.57                                           82.5 257 
 DNOA    IP   0A   015 29.01                                           92.5  48 
 DNOA    ES   0A   015 43.26                                           92.5  48 
 MGUS    IP   0A   015 30.37                                            103  89 
 MGUS    ES   0A   015 45.64                                            103  89 
 DQYH    IP   0A   015 31.38                                            108 318 
 APSL    IP   0A   015 31.62                                            110  68 
 APSL    ES   0A   015 47.83                                            110  68 
 RAWC    IP   0A   015 31.60                                            110 110 
 RAWC    ES   0A   015 47.81                                            110 110 
 FOUH    IP   0A   015 31.48                                            111   6 
 FOUH    ES   0A   015 47.59                                            111   6 
 VOCA    IP   0A   015 33.62                                            126  37 
 VOCA    ES   0A   015 51.34                                            126  37 
 RPKV    IP   0A   015 40.57                                            178 333 
 RPKV    ES   0A   016  2.69                                            178 333 
 QYDI    IP   0A   015 40.80                                            183 350 
 QYDI    ES   0A   016  3.22                                            183 350 
 HLUH    IP   0A   015 41.98                                            191 327 
 HLUH    ES   0A   016  5.12                                            191 327 
 XBVK     IAML A   015 23.66       334.8                                        
 QYDI     IAML A   015 40.80        58.3                                        
 CBZA     IAML A   015 27.47       218.7                                        
 FOUH     IAML A   015 31.48       138.8                                        
 RPKV     IAML A   015 40.57        61.0                                        
 RHPW     IAML A   015 21.10       495.1                                        
                                                                                

 2001  2 3  016 19.9 L  33.606  52.478 12.1      13 0.1 5.0L                   1
 GAP=171                   0.3     0.1  0.1                                    E
 Action:ARG 24-03-13 14:52 OP:OBSP STATUS:               ID:20010203001619     I
 STAT SP IPHASW D HRMM SECON CODA AMPLIT PERI AZIMU VELO AIN AR TRES W  DIS CAZ7
 LUEX    IP   0A   016 33.32                                           55.4 303 
 LUEX    ES   0A   016 43.31                                           55.4 303 
 CBZA    IP   0A   016 34.66                                           63.6 271 
 CBZA    ES   0A   016 45.65                                           63.6 271 
 RHPW    IP   0A   016 36.23                                           71.2  31 
 RHPW    ES   0A   016 48.41                                           71.2  31 
 XBVK    IP   0A   016 38.18                                           83.5  14 
 XBVK    ES   0A   016 51.81                                           83.5  14 
 DQYH    IP   0A   016 43.22                                            114 331 
 DQYH    ES   0A   017  0.64                                            114 331 
 DNOA    IP   0A   016 43.37                                            117  46 
 DNOA    ES   0A   017  0.90                                            117  46 
 MGUS    IP   0A   016 43.60                                            120  79 
 MGUS    ES   0A   017  1.30                                            120  79 
 RAWC    IP   0A   016 43.96                                            122  98 
 RAWC    ES   0A   017  1.92                                            122  98 
 FOUH    IP   0A   016 45.53                                            133  12 
 FOUH    ES   0A   017  4.67                                            133  12 
 APSL    IP   0A   016 45.58                                            134  62 
 APSL    ES   0A   017  4.75                                            134  62 
 VOCA    IP   0A   016 47.89                                            152  38 
 VOCA    ES   0A   017  8.79                                            152  38 
 RPKV    IP   0A   016 53.04                                            190 341 
 RPKV    ES   0A   017 17.05                                            190 341 
 QYDI    IP   0A   016 54.03                                            200 356 
 QYDI    ES   0A   017 18.40                                            200 356 
 RAWC     IAML A   016 43.96     33176.7                                        
 CBZA     IAML A   016 34.66     88290.7                                        
 RHPW     IAML A   016 36.23     75420.9                                        
 APSL     IAML A   016 45.58     28347.0                                        
 LUEX     IAML A   016 33.32      10.7e4                                        
                                                                                

 2001  2 3  017 30.3 L  33.612  52.800 22.6      13 0.1 0.8L                   1
 GAP=167                   0.4     0.2  0.4                                    E
 Action:ARG 24-03-13 14:52 OP:OBSP STATUS:               ID:20010203001730     I
 STAT SP IPHASW D HRMM SECON CODA AMPLIT PERI AZIMU VELO AIN AR TRES W  DIS CAZ7
 RHPW    IP   0A   017 44.03                                           61.4   4 
 RHPW    ES   0A   017 54.54                                           61.4   4 
 XBVK    IP   0A   017 46.94                                           82.0 352 
 XBVK    ES   0A   017 59.65                                           82.0 352 
 LUEX    IP   0A   017 47.37                                           84.1 291 
 LUEX    ES   0A   018  0.40                                           84.1 291 
 RAWC    IP   0A   017 48.44                                           90.6 101 
 RAWC    ES   0A   018  2.28                                           90.6 101 
 MGUS    IP   0A   017 48.20                                           90.6  76 
 MGUS    ES   0A   018  1.84                                           90.6  76 
 CBZA    IP   0A   017 49.08                                           95.7 271 
 CBZA    ES   0A   018  3.39                                           95.7 271 
 DNOA    IP   0A   017 49.39                                           97.7  34 
 DNOA    ES   0A   018  3.93                                           97.7  34 
 AVTK    IP   0A   017 49.69                                            100 300 
 AVTK    ES   0A   018  4.46                                            100 300 
 APSL    IP   0A   017 50.58                                            106  55 
 APSL    ES   0A   018  6.01                                            106  55 
 FOUH    IP   0A   017 53.67                                            130 358 
 FOUH    ES   0A   018 11.43                                            130 358 
 VOCA    IP   0A   017 54.47                                            135  27 
 VOCA    ES   0A   018 12.79                                            135  27 
 RPKV    IP   0A   018  3.35                                            203 332 
 RPKV    ES   0A   018 26.96                                            203 332 
 QYDI    IP   0A   018  3.40                                            205 347 
 QYDI    ES   0A   018 27.06                                            205 347 
 QYDI     IAML A   018  3.40         0.8                                        
 MGUS     IAML A   017 48.20         3.2                                        
 FOUH     IAML A   017 53.67         1.8                                        
 XBVK     IAML A   017 46.94         3.8                                        
 APSL     IAML A   017 50.58         2.5                                        
 VOCA     IAML A   017 54.47         1.7                                        
 RAWC     IAML A   017 48.44         3.2                                        
                                                                                

 2001  2 3  018 40.1 L  33.688  52.761 20.1      14 0.1 3.7L                   1
 GAP=157                   0.2     0.1  0.1                                    E
 Action:ARG 24-03-13 14:52 OP:OBSP STATUS:               ID:20010203001840     I
 STAT SP IPHASW D HRMM SECON CODA AMPLIT PERI AZIMU VELO AIN AR TRES W  DIS CAZ7
 XBVK    IP   0A   018 55.66                                           73.6 354 
 XBVK    ES   0A   019  7.41                                           73.6 354 
 LUEX    IP   0A   018 56.43                                           77.9 287 
 LUEX    ES   0A   019  8.75                                           77.9 287 
 CBZA    IP   0A   018 58.64                                           92.1 266 
 CBZA    ES   0A   019 12.62                                           92.1 266 
 MGUS    IP   0A   018 58.71                                           92.8  81 
 MGUS    ES   0A   019 12.74                                           92.8  81 
 AVTK    IP   0A   018 58.67                                           93.0 297 
 AVTK    ES   0A   019 12.68                                           93.0 297 
 DNOA    IP   0A   018 58.87                                           93.4  38 
 DNOA    ES   0A   019 13.02                                           93.4  38 
 RAWC    IP   0A   018 59.37                                           96.2 106 
 RAWC    ES   0A   019 13.89                                           96.2 106 
 APSL    IP   0A   019  0.60                                            105  59 
 APSL    ES   0A   019 16.05                                            105  59 
 FOUH    IP   0A   019  2.71                                            122   0 
 FOUH    ES   0A   019 19.75                                            122   0 
 DQYH    IP   0A   019  3.45                                            123 318 
 DQYH    ES   0A   019 21.03                                            123 318 
 VOCA    IP   0A   019  3.82                                            130  30 
 RPKV    IP   0A   019 12.33                                            194 332 
 RPKV    ES   0A   019 35.51                                            194 332 
 QYDI    IP   0A   019 12.39                                            197 347 
 QYDI    ES   0A   019 35.61                                            197 347 
 HLUH    IP   0A   019 13.74                                            208 326 
 HLUH    ES   0A   019 37.92                                            208 326 
 MGUS     IAML A   018 58.71      2871.2                                        
 AVTK     IAML A   018 58.67      2860.8                                        
 RAWC     IAML A   018 59.37      2718.1                                        
 VOCA     IAML A   019  3.82      1664.7                                        
                                                                                

 2001  2 3  019 50.8 L  33.738  52.482 12.0      14 0.1 3.6L                   1
 GAP=151                   0.2     0.1  0.1                                    E
 Action:ARG 24-03-13 14:52 OP:OBSP STATUS:               ID:20010203001950     I
 STAT SP IPHASW D HRMM SECON CODA AMPLIT PERI AZIMU VELO AIN AR TRES W  DIS CAZ7
 LUEX    IP   0A   020  2.34                                           50.0 287 
 LUEX    ES   0A   020 11.59                                           50.0 287 
 RHPW    IP   0A   020  4.00                                           57.9  37 
 RHPW    ES   0A   020 14.50                                           57.9  37 
 AVTK    IP   0A   020  5.20                                           65.9 302 
 AVTK    ES   0A   020 16.60                                           65.9 302 
 CBZA    IP   0A   020  5.29                                           66.4 257 
 CBZA    ES   0A   020 16.76                                           66.4 257 
 DQYH    IP   0A   020 11.41                                            102 326 
 DQYH    ES   0A   020 27.48                                            102 326 
 DNOA    IP   0A   020 12.17                                            107  52 
 DNOA    ES   0A   020 28.80                                            107  52 
 FOUH    IP   0A   020 13.59                                            117  13 
 FOUH    ES   0A   020 31.29                                            117  13 
 MGUS    IP   0A   020 13.55                                            117  87 
 MGUS    ES   0A   020 31.21                                            117  87 
 RAWC    IP   0A   020 14.43                                            123 105 
 RAWC    ES   0A   020 32.75                                            123 105 
 APSL    IP   0A   020 14.85                                            126  68 
 APSL    ES   0A   020 33.49                                            126  68 
 VOCA    IP   0A   020 16.40                                            140  41 
 VOCA    ES   0A   020 36.19                                            140  41 
 RPKV    IP   0A   020 21.25                                            176 339 
 RPKV    ES   0A   020 44.18                                            176 339 
 QYDI    IP   0A   020 22.19                                            185 355 
 QYDI    ES   0A   020 45.59                                            185 355 
 HLUH    IP   0A   020 22.38                                            188 331 
 HLUH    ES   0A   020 45.98                                            188 331 
 LUEX     IAML A   020  2.34      5502.4                                        
 APSL     IAML A   020 14.85      1401.8                                        
 QYDI     IAML A   020 22.19       709.3                                        
 HLUH     IAML A   020 22.38       692.6                                        
 RHPW     IAML A   020  4.00      4520.2                                        
                                                                                

