 2001  2 3  0 0  0.0 L  33.851  52.609 15.0      13 0.0 4.1L                   1
 GAP=137                   0.2     0.1  0.2                                    E
 Action:ARG 24-03-13 14:52 OP:OBSP STATUS:               ID:20010203000000     I
 STAT SP IPHASW D HRMM SECON CODA AMPLIT PERI AZIMU VELO AIN AR TRES W  DIS CAZ7
 RHPW    IP   0A   0 0 10.20                                           40.5  35 
 RHPW    ES   0A   0 0 17.85                                           40.5  35 
 XBVK    IP   0A   0 0 12.61                                           53.6   7 
 XBVK    ES   0A   0 0 22.07                                           53.6   7 
 LUEX    IP   0A   0 0 13.71                                           59.7 272 
 LUEX    ES   0A   0 0 23.99                                           59.7 272 
 CBZA    IP   0A   0 0 17.44                                           81.5 251 
 CBZA    ES   0A   0 0 30.52                                           81.5 251 
 DNOA    IP   0A   0 0 18.95                                           90.2  54 
 DNOA    ES   0A   0 0 33.17                                           90.2  54 
 DQYH    IP   0A   0 0 20.44                                            100 317 
 DQYH    ES   0A   0 0 35.76                                            100 317 
 FOUH    IP   0A   0 0 20.94                                            103   8 
 FOUH    ES   0A   0 0 36.65                                            103   8 
 MGUS    IP   0A   0 0 21.32                                            106  93 
 MGUS    ES   0A   0 0 37.32                                            106  93 
 APSL    IP   0A   0 0 22.14                                            111  72 
 APSL    ES   0A   0 0 38.74                                            111  72 
 RAWC    IP   0A   0 0 22.82                                            116 113 
 RAWC    ES   0A   0 0 39.93                                            116 113 
 VOCA    IP   0A   0 0 23.54                                            122  41 
 VOCA    ES   0A   0 0 41.20                                            122  41 
 RPKV    IP   0A   0 0 29.90                                            170 333 
 RPKV    ES   0A   0 0 51.61                                            170 333 
 QYDI    IP   0A   0 0 30.17                                            174 351 
 QYDI    ES   0A   0 0 52.17                                            174 351 
 XBVK     IAML A   0 0 12.61     14583.2                                        
 QYDI     IAML A   0 0 30.17      2317.9                                        
 MGUS     IAML A   0 0 21.32      5378.1                                        
 VOCA     IAML A   0 0 23.54      4287.1                                        
 APSL     IAML A   0 0 22.14      5045.4                                        
 DQYH     IAML A   0 0 20.44      5950.7                                        
 FOUH     IAML A   0 0 20.94      5637.3                                        
                                                                                

 2001  2 3  0 1 10.1 L  33.508  52.671 18.3      14 0.1 2.2L                   1
 GAP=183                   0.3     0.1  0.2                                    E
 Action:ARG 24-03-13 14:52 OP:OBSP STATUS:               ID:20010203000110     I
 STAT SP IPHASW D HRMM SECON CODA AMPLIT PERI AZIMU VELO AIN AR TRES W  DIS CAZ7
 RHPW    IP   0A   0 1 26.44                                           77.7  13 
 RHPW    ES   0A   0 1 38.77                                           77.7  13 
 LUEX    IP   0A   0 1 26.88                                           79.7 304 
 LUEX    ES   0A   0 1 39.54                                           79.7 304 
 CBZA    IP   0A   0 1 27.48                                           84.5 281 
 CBZA    ES   0A   0 1 40.60                                           84.5 281 
 AVTK    IP   0A   0 1 29.59                                           98.4 311 
 AVTK    ES   0A   0 1 44.28                                           98.4 311 
 RAWC    IP   0A   0 1 30.33                                            101  92 
 RAWC    ES   0A   0 1 45.58                                            101  92 
 MGUS    IP   0A   0 1 30.77                                            106  70 
 MGUS    ES   0A   0 1 46.34                                            106  70 
 DNOA    IP   0A   0 1 32.27                                            116  35 
 DNOA    ES   0A   0 1 48.96                                            116  35 
 APSL    IP   0A   0 1 33.33                                            125  52 
 APSL    ES   0A   0 1 50.84                                            125  52 
 DQYH    IP   0A   0 1 35.16                                            137 327 
 DQYH    ES   0A   0 1 53.89                                            137 327 
 FOUH    IP   0A   0 1 35.91                                            145   3 
 FOUH    ES   0A   0 1 55.15                                            145   3 
 VOCA    IP   0A   0 1 36.94                                            154  29 
 VOCA    ES   0A   0 1 56.97                                            154  29 
 RPKV    IP   0A   0 1 44.43                                            211 337 
 RPKV    ES   0A   0 2  8.88                                            211 337 
 QYDI    IP   0A   0 1 44.92                                            217 351 
 QYDI    ES   0A   0 2  9.60                                            217 351 
 HLUH    IP   0A   0 1 45.66                                            222 331 
 HLUH    ES   0A   0 2 11.06                                            222 331 
 MGUS     IAML A   0 1 30.77        75.8                                        
 APSL     IAML A   0 1 33.33        58.4                                        
 VOCA     IAML A   0 1 36.94        40.9                                        
 HLUH     IAML A   0 1 45.66        20.2                                        
 QYDI     IAML A   0 1 44.92        21.3                                        
 RPKV     IAML A   0 1 44.43        22.6                                        
 CBZA     IAML A   0 1 27.48       108.4                                        
 LUEX     IAML A   0 1 26.88       118.1                                        
                                                                                

 2001  2 3  0 2 19.9 L  33.874  52.871 22.0      13 0.1 4.3L                   1
 GAP=133                   0.3     0.2  0.3                                    E
 Action:ARG 24-03-13 14:52 OP:OBSP STATUS:               ID:20010203000219     I
 STAT SP IPHASW D HRMM SECON CODA AMPLIT PERI AZIMU VELO AIN AR TRES W  DIS CAZ7
 XBVK    IP   0A   0 2 32.14                                           54.0 340 
 XBVK    ES   0A   0 2 41.25                                           54.0 340 
 DNOA    IP   0A   0 2 34.89                                           69.6  43 
 DNOA    ES   0A   0 2 46.05                                           69.6  43 
 MGUS    IP   0A   0 2 36.74                                           81.8  96 
 MGUS    ES   0A   0 2 49.29                                           81.8  96 
 LUEX    IP   0A   0 2 37.16                                           84.9 270 
 LUEX    ES   0A   0 2 50.03                                           84.9 270 
 AVTK    IP   0A   0 2 38.74                                           95.3 282 
 AVTK    ES   0A   0 2 52.79                                           95.3 282 
 RAWC    IP   0A   0 2 38.69                                           95.5 121 
 RAWC    ES   0A   0 2 52.71                                           95.5 121 
 FOUH    IP   0A   0 2 39.44                                            100 354 
 FOUH    ES   0A   0 2 54.02                                            100 354 
 VOCA    IP   0A   0 2 40.33                                            106  31 
 VOCA    ES   0A   0 2 55.58                                            106  31 
 CBZA    IP   0A   0 2 40.43                                            106 254 
 CBZA    ES   0A   0 2 55.75                                            106 254 
 DQYH    IP   0A   0 2 42.01                                            117 307 
 DQYH    ES   0A   0 2 58.51                                            117 307 
 QYDI    IP   0A   0 2 49.51                                            178 343 
 QYDI    ES   0A   0 3 11.17                                            178 343 
 RPKV    IP   0A   0 2 50.22                                            180 326 
 RPKV    ES   0A   0 3 12.14                                            180 326 
 HLUH    IP   0A   0 2 51.91                                            196 320 
 HLUH    ES   0A   0 3 15.00                                            196 320 
 XBVK     IAML A   0 2 32.14     21439.0                                        
 QYDI     IAML A   0 2 49.51      3320.5                                        
 CBZA     IAML A   0 2 40.43      8038.6                                        
 FOUH     IAML A   0 2 39.44      8745.9                                        
 LUEX     IAML A   0 2 37.16     11328.5                                        
 HLUH     IAML A   0 2 51.91      2744.3                                        
                                                                                

 2001  2 3  0 3 30.1 L  33.998  52.534 12.7      15 0.1 1.0L                   1
 GAP=119                   0.3     0.2  0.3                                    E
 Action:ARG 24-03-13 14:52 OP:OBSP STATUS:               ID:20010203000330     I
 STAT SP IPHASW D HRMM SECON CODA AMPLIT PERI AZIMU VELO AIN AR TRES W  DIS CAZ7
 RHPW    IP   0A   0 3 39.15                                           34.9  61 
 RHPW    ES   0A   0 3 46.01                                           34.9  61 
 XBVK    IP   0A   0 3 39.98                                           39.3  21 
 XBVK    ES   0A   0 3 47.47                                           39.3  21 
 LUEX    IP   0A   0 3 43.00                                           53.9 255 
 LUEX    ES   0A   0 3 52.75                                           53.9 255 
 AVTK    IP   0A   0 3 44.05                                           60.8 275 
 AVTK    ES   0A   0 3 54.59                                           60.8 275 
 CBZA    IP   0A   0 3 47.64                                           81.8 238 
 CBZA    ES   0A   0 4  0.86                                           81.8 238 
 DQYH    IP   0A   0 3 48.19                                           83.1 312 
 DQYH    ES   0A   0 4  1.83                                           83.1 312 
 DNOA    IP   0A   0 3 48.94                                           88.3  65 
 DNOA    ES   0A   0 4  3.14                                           88.3  65 
 FOUH    IP   0A   0 3 49.04                                           88.9  14 
 FOUH    ES   0A   0 4  3.32                                           88.9  14 
 APSL    IP   0A   0 3 52.83                                            114  81 
 APSL    ES   0A   0 4  9.95                                            114  81 
 MGUS    IP   0A   0 3 53.09                                            116 101 
 VOCA    IP   0A   0 3 53.01                                            116  49 
 VOCA    ES   0A   0 4 10.27                                            116  49 
 RAWC    IP   0A   0 3 55.12                                            130 118 
 RPKV    IP   0A   0 3 57.87                                            151 333 
 RPKV    ES   0A   0 4 18.51                                            151 333 
 QYDI    IP   0A   0 3 58.27                                            157 352 
 QYDI    ES   0A   0 4 19.33                                            157 352 
 HLUH    IP   0A   0 3 59.24                                            165 325 
 HLUH    ES   0A   0 4 20.97                                            165 325 
 MGUS     IAML A   0 3 53.09         4.2                                        
 DNOA     IAML A   0 3 48.94         6.5                                        
 HLUH     IAML A   0 3 59.24         2.3                                        
 APSL     IAML A   0 3 52.83         4.3                                        
 XBVK     IAML A   0 3 39.98        19.6                                        
 FOUH     IAML A   0 3 49.04         6.4                                        
 LUEX     IAML A   0 3 43.00        13.0                                        
 RPKV     IAML A   0 3 57.87         2.7                                        
                                                                                

 2001  2 3  0 4 40.5 L  33.666  52.538 13.6      15 0.1 1.7L                   1
 GAP=162                   0.2     0.1  0.2                                    E
 Action:ARG 24-03-13 14:52 OP:OBSP STATUS:               ID:20010203000440     I
 STAT SP IPHASW D HRMM SECON CODA AMPLIT PERI AZIMU VELO AIN AR TRES W  DIS CAZ7
 LUEX    IP   0A   0 4 53.67                                           58.2 295 
 LUEX    ES   0A   0 5  3.91                                           58.2 295 
 RHPW    IP   0A   0 4 54.59                                           62.9  28 
 RHPW    ES   0A   0 5  5.52                                           62.9  28 
 CBZA    IP   0A   0 4 55.70                                           70.3 266 
 CBZA    ES   0A   0 5  7.48                                           70.3 266 
 AVTK    IP   0A   0 4 56.59                                           75.4 306 
 AVTK    ES   0A   0 5  9.04                                           75.4 306 
 XBVK    IP   0A   0 4 56.78                                           76.4  10 
 XBVK    ES   0A   0 5  9.37                                           76.4  10 
 DNOA    IP   0A   0 5  1.94                                            109  46 
 DNOA    ES   0A   0 5 18.39                                            109  46 
 DQYH    IP   0A   0 5  2.58                                            113 327 
 DQYH    ES   0A   0 5 19.51                                            113 327 
 MGUS    IP   0A   0 5  2.54                                            114  82 
 MGUS    ES   0A   0 5 19.45                                            114  82 
 RAWC    IP   0A   0 5  3.16                                            116 102 
 RAWC    ES   0A   0 5 20.52                                            116 102 
 APSL    IP   0A   0 5  4.27                                            125  63 
 APSL    ES   0A   0 5 22.47                                            125  63 
 FOUH    IP   0A   0 5  4.21                                            126   9 
 FOUH    ES   0A   0 5 22.36                                            126   9 
 VOCA    IP   0A   0 5  6.50                                            144  37 
 VOCA    ES   0A   0 5 26.38                                            144  37 
 RPKV    IP   0A   0 5 12.34                                            187 338 
 RPKV    ES   0A   0 5 35.71                                            187 338 
 QYDI    IP   0A   0 5 12.98                                            195 354 
 QYDI    ES   0A   0 5 36.80                                            195 354 
 HLUH    IP   0A   0 5 13.45                                            198 331 
 HLUH    ES   0A   0 5 37.82                                            198 331 
 RAWC     IAML A   0 5  3.16        20.4                                        
 RHPW     IAML A   0 4 54.59        51.4                                        
 QYDI     IAML A   0 5 12.98         8.2                                        
 VOCA     IAML A   0 5  6.50        14.3                                        
 FOUH     IAML A   0 5  4.21        18.0                                        
 LUEX     IAML A   0 4 53.67        57.2                                        
 DNOA     IAML A   0 5  1.94        22.6                                        
                                                                                

 2001  2 3  0 5 50.2 L  33.902  52.667 16.6      15 0.1 2.3L                   1
 GAP=131                   0.2     0.1  0.2                                    E
 Action:ARG 24-03-13 14:52 OP:OBSP STATUS:               ID:20010203000550     I
 STAT SP IPHASW D HRMM SECON CODA AMPLIT PERI AZIMU VELO AIN AR TRES W  DIS CAZ7
 RHPW    IP   0A   0 5 58.73                                           33.4  32 
 RHPW    ES   0A   0 6  5.27                                           33.4  32 
 XBVK    IP   0A   0 6  1.31                                           48.1   2 
 XBVK    ES   0A   0 6  9.80                                           48.1   2 
 LUEX    IP   0A   0 6  4.62                                           64.9 268 
 LUEX    ES   0A   0 6 15.58                                           64.9 268 
 AVTK    IP   0A   0 6  6.37                                           75.2 283 
 AVTK    ES   0A   0 6 18.64                                           75.2 283 
 DNOA    IP   0A   0 6  7.48                                           82.9  54 
 DNOA    ES   0A   0 6 20.60                                           82.9  54 
 CBZA    IP   0A   0 6  8.34                                           88.2 249 
 CBZA    ES   0A   0 6 22.10                                           88.2 249 
 FOUH    IP   0A   0 6  9.80                                           98.0   5 
 FOUH    ES   0A   0 6 24.64                                           98.0   5 
 DQYH    IP   0A   0 6 10.31                                            100 312 
 MGUS    IP   0A   0 6 10.46                                            101  96 
 MGUS    ES   0A   0 6 25.80                                            101  96 
 APSL    IP   0A   0 6 10.85                                            104  74 
 APSL    ES   0A   0 6 26.49                                            104  74 
 RAWC    IP   0A   0 6 12.20                                            114 116 
 RAWC    ES   0A   0 6 28.84                                            114 116 
 VOCA    IP   0A   0 6 12.20                                            115  40 
 VOCA    ES   0A   0 6 28.85                                            115  40 
 RPKV    IP   0A   0 6 19.33                                            168 331 
 RPKV    ES   0A   0 6 40.64                                            168 331 
 QYDI    IP   0A   0 6 19.32                                            170 349 
 QYDI    ES   0A   0 6 40.76                                            170 349 
 HLUH    IP   0A   0 6 20.81                                            182 324 
 HLUH    ES   0A   0 6 43.20                                            182 324 
 RPKV     IAML A   0 6 19.33        36.1                                        
 QYDI     IAML A   0 6 19.32        35.1                                        
 CBZA     IAML A   0 6  8.34       104.5                                        
 XBVK     IAML A   0 6  1.31       244.0                                        
 VOCA     IAML A   0 6 12.20        68.6                                        
 RHPW     IAML A   0 5 58.73       390.3                                        
 APSL     IAML A   0 6 10.85        80.4                                        
                                                                                

