# 2001 02 03 01 17 00.000000 33.605 52.518  13.0  2.2 0.0 0.0 0.0        67
CBZA 15.400 1.00 P
CBZA 26.950 1.00 S
RHPW 15.560 1.00 P
RHPW 27.220 1.00 S
AVTK 17.030 1.00 P
AVTK 29.800 1.00 S
XBVK 17.740 1.00 P
XBVK 31.040 1.00 S
DNOA 22.630 1.00 P
DNOA 39.600 1.00 S
DQYH 23.240 1.00 P
DQYH 40.660 1.00 S
MGUS 22.780 1.00 P
MGUS 39.860 1.00 S
RAWC 23.180 1.00 P
RAWC 40.560 1.00 S
APSL 24.800 1.00 P
APSL 43.400 1.00 S
FOUH 25.070 1.00 P
FOUH 43.880 1.00 S
VOCA 27.210 1.00 P
VOCA 47.620 1.00 S
RPKV 33.020 1.00 P
RPKV 56.740 1.00 S
HLUH 34.110 1.00 P
HLUH 58.740 1.00 S
# 2001 02 03 01 18 10.000000 33.800 52.543  14.0  1.0 0.0 0.0 0.0        68
RHPW 11.940 1.00 P
RHPW 20.890 1.00 S
LUEX 12.990 1.00 P
LUEX 22.730 1.00 S
XBVK 14.110 1.00 P
XBVK 24.700 1.00 S
AVTK 15.380 1.00 P
AVTK 26.910 1.00 S
CBZA 16.370 1.00 P
CBZA 28.650 1.00 S
DNOA 20.560 1.00 P
DNOA 35.990 1.00 S
FOUH 22.190 1.00 P
FOUH 38.840 1.00 S
MGUS 22.330 1.00 P
APSL 23.400 1.00 P
APSL 40.950 1.00 S
RAWC 23.490 1.00 P
RAWC 41.100 1.00 S
VOCA 24.880 1.00 P
VOCA 43.540 1.00 S
RPKV 30.560 1.00 P
RPKV 52.830 1.00 S
QYDI 31.090 1.00 P
QYDI 53.700 1.00 S
HLUH 31.800 1.00 P
HLUH 55.050 1.00 S
# 2001 02 03 01 19 20.000000 33.725 52.491  12.2  2.1 0.0 0.0 0.0        69
LUEX 12.550 1.00 P
RHPW 14.000 1.00 P
RHPW 24.500 1.00 S
CBZA 15.460 1.00 P
CBZA 27.050 1.00 S
AVTK 15.380 1.00 P
AVTK 26.910 1.00 S
XBVK 15.950 1.00 P
XBVK 27.920 1.00 S
DQYH 21.590 1.00 P
DQYH 37.790 1.00 S
DNOA 22.050 1.00 P
DNOA 38.590 1.00 S
MGUS 23.430 1.00 P
MGUS 41.000 1.00 S
FOUH 23.600 1.00 P
FOUH 41.300 1.00 S
RAWC 24.220 1.00 P
RAWC 42.380 1.00 S
APSL 24.700 1.00 P
APSL 43.220 1.00 S
VOCA 26.340 1.00 P
RPKV 31.390 1.00 P
RPKV 54.400 1.00 S
QYDI 32.230 1.00 P
QYDI 55.640 1.00 S
HLUH 32.520 1.00 P
HLUH 56.230 1.00 S
# 2001 02 03 01 20 30.000000 33.761 52.488  11.9  3.4 0.0 0.0 0.0        70
LUEX 12.370 1.00 P
LUEX 21.650 1.00 S
RHPW 13.670 1.00 P
AVTK 15.100 1.00 P
AVTK 26.420 1.00 S
XBVK 15.550 1.00 P
XBVK 27.210 1.00 S
CBZA 15.590 1.00 P
CBZA 27.280 1.00 S
DQYH 21.300 1.00 P
DQYH 37.280 1.00 S
DNOA 21.980 1.00 P
DNOA 38.460 1.00 S
FOUH 23.360 1.00 P
FOUH 40.880 1.00 S
MGUS 23.530 1.00 P
MGUS 41.180 1.00 S
RAWC 24.450 1.00 P
RAWC 42.790 1.00 S
APSL 24.720 1.00 P
APSL 43.270 1.00 S
VOCA 26.180 1.00 P
VOCA 45.820 1.00 S
RPKV 31.120 1.00 P
RPKV 53.950 1.00 S
QYDI 32.000 1.00 P
QYDI 55.280 1.00 S
HLUH 32.260 1.00 P
HLUH 55.780 1.00 S
# 2001 02 03 01 21 40.000000 33.816 52.265   5.8  1.4 0.0 0.0 0.0        71
LUEX  7.230 1.00 P
LUEX 12.660 1.00 S
AVTK 11.330 1.00 P
AVTK 19.820 1.00 S
CBZA 12.690 1.00 P
CBZA 22.200 1.00 S
RHPW 16.810 1.00 P
RHPW 29.410 1.00 S
XBVK 17.030 1.00 P
XBVK 29.800 1.00 S
DQYH 19.820 1.00 P
DQYH 34.680 1.00 S
FOUH 24.590 1.00 P
FOUH 43.030 1.00 S
DNOA 25.200 1.00 P
DNOA 44.100 1.00 S
MGUS 27.750 1.00 P
MGUS 48.560 1.00 S
APSL 28.470 1.00 P
APSL 49.820 1.00 S
RAWC 28.850 1.00 P
RAWC 50.420 1.00 S
VOCA 28.930 1.00 P
VOCA 50.630 1.00 S
RPKV 30.820 1.00 P
RPKV 53.560 1.00 S
HLUH 31.770 1.00 P
HLUH 55.070 1.00 S
QYDI 32.450 1.00 P
QYDI 56.140 1.00 S
# 2001 02 03 01 22 50.000000 33.733 52.755  19.5  4.2 0.0 0.0 0.0        72
RHPW 11.540 1.00 P
RHPW 20.200 1.00 S
XBVK 14.450 1.00 P
XBVK 25.290 1.00 S
LUEX 15.890 1.00 P
LUEX 27.800 1.00 S
AVTK 18.020 1.00 P
AVTK 31.530 1.00 S
DNOA 18.320 1.00 P
DNOA 32.060 1.00 S
CBZA 18.540 1.00 P
CBZA 32.450 1.00 S
MGUS 18.930 1.00 P
MGUS 33.120 1.00 S
RAWC 19.940 1.00 P
RAWC 34.900 1.00 S
APSL 20.440 1.00 P
APSL 35.780 1.00 S
FOUH 21.830 1.00 P
FOUH 38.210 1.00 S
DQYH 22.580 1.00 P
DQYH 39.520 1.00 S
VOCA 23.270 1.00 P
VOCA 40.710 1.00 S
QYDI 31.480 1.00 P
QYDI 54.340 1.00 S
HLUH 32.840 1.00 P
HLUH 56.590 1.00 S
# 2001 02 03 01 24 00.000000 33.543 52.933  24.6  1.2 0.0 0.0 0.0        73
RHPW 14.440 1.00 P
RHPW 25.270 1.00 S
RAWC 16.210 1.00 P
RAWC 28.370 1.00 S
XBVK 17.610 1.00 P
XBVK 30.820 1.00 S
LUEX 18.870 1.00 P
LUEX 33.020 1.00 S
DNOA 18.720 1.00 P
DNOA 32.750 1.00 S
APSL 19.350 1.00 P
APSL 33.870 1.00 S
CBZA 20.200 1.00 P
CBZA 35.340 1.00 S
AVTK 20.920 1.00 P
AVTK 36.610 1.00 S
VOCA 23.930 1.00 P
VOCA 41.760 1.00 S
FOUH 23.990 1.00 P
FOUH 41.910 1.00 S
DQYH 25.260 1.00 P
DQYH 43.880 1.00 S
QYDI 33.760 1.00 P
QYDI 57.700 1.00 S
HLUH 35.430 1.00 P
HLUH 60.450 1.00 S
# 2001 02 03 01 25 10.000000 33.770 52.655  16.6  2.4 0.0 0.0 0.0        74
RHPW 11.380 1.00 P
RHPW 19.910 1.00 S
XBVK 13.910 1.00 P
XBVK 24.350 1.00 S
LUEX 14.450 1.00 P
LUEX 25.300 1.00 S
AVTK 16.720 1.00 P
AVTK 29.250 1.00 S
CBZA 17.500 1.00 P
CBZA 30.620 1.00 S
DNOA 19.340 1.00 P
DNOA 33.840 1.00 S
MGUS 20.560 1.00 P
MGUS 35.990 1.00 S
DQYH 21.560 1.00 P
DQYH 37.730 1.00 S
RAWC 21.750 1.00 P
RAWC 38.060 1.00 S
APSL 21.860 1.00 P
APSL 38.260 1.00 S
FOUH 21.790 1.00 P
FOUH 38.140 1.00 S
VOCA 23.980 1.00 P
VOCA 41.960 1.00 S
RPKV 30.790 1.00 P
RPKV 53.090 1.00 S
QYDI 31.080 1.00 P
QYDI 53.700 1.00 S
HLUH 32.190 1.00 P
HLUH 55.500 1.00 S
# 2001 02 03 01 26 20.000000 33.967 52.409  10.2  1.3 0.0 0.0 0.0        75
LUEX 10.850 1.00 P
LUEX 18.990 1.00 S
RHPW 11.760 1.00 P
RHPW 20.580 1.00 S
XBVK 11.760 1.00 P
XBVK 20.590 1.00 S
AVTK 12.480 1.00 P
AVTK 21.840 1.00 S
CBZA 16.350 1.00 P
CBZA 28.620 1.00 S
DQYH 17.730 1.00 P
DQYH 31.030 1.00 S
FOUH 20.580 1.00 P
FOUH 36.010 1.00 S
DNOA 21.490 1.00 P
DNOA 37.610 1.00 S
APSL 25.170 1.00 P
APSL 44.040 1.00 S
MGUS 25.130 1.00 P
MGUS 43.970 1.00 S
VOCA 25.160 1.00 P
VOCA 44.020 1.00 S
RAWC 26.980 1.00 P
RAWC 47.180 1.00 S
RPKV 28.320 1.00 P
RPKV 49.410 1.00 S
QYDI 29.220 1.00 P
HLUH 29.550 1.00 P
HLUH 51.560 1.00 S
# 2001 02 03 01 27 30.000000 33.801 52.624  16.2  2.6 0.0 0.0 0.0        76
RHPW 10.990 1.00 P
RHPW 19.220 1.00 S
LUEX 14.010 1.00 P
LUEX 24.510 1.00 S
CBZA 17.240 1.00 P
CBZA 30.170 1.00 S
DNOA 19.340 1.00 P
DNOA 33.840 1.00 S
DQYH 21.070 1.00 P
DQYH 36.870 1.00 S
MGUS 20.980 1.00 P
MGUS 36.720 1.00 S
FOUH 21.510 1.00 P
FOUH 37.640 1.00 S
APSL 22.100 1.00 P
APSL 38.670 1.00 S
RAWC 22.210 1.00 P
RAWC 38.860 1.00 S
VOCA 23.920 1.00 P
VOCA 41.870 1.00 S
RPKV 30.470 1.00 P
RPKV 52.540 1.00 S
QYDI 30.740 1.00 P
QYDI 53.120 1.00 S
HLUH 31.850 1.00 P
HLUH 54.950 1.00 S
# 2001 02 03 01 28 40.000000 33.886 52.606  16.1  2.2 0.0 0.0 0.0        77
RHPW  9.550 1.00 P
RHPW 16.710 1.00 S
XBVK 11.840 1.00 P
XBVK 20.730 1.00 S
LUEX 13.750 1.00 P
LUEX 24.060 1.00 S
AVTK 15.640 1.00 P
AVTK 27.370 1.00 S
CBZA 17.600 1.00 P
CBZA 30.800 1.00 S
DNOA 18.480 1.00 P
DNOA 32.340 1.00 S
DQYH 19.970 1.00 P
DQYH 34.950 1.00 S
FOUH 20.350 1.00 P
FOUH 35.610 1.00 S
MGUS 21.260 1.00 P
MGUS 37.210 1.00 S
RAWC 22.870 1.00 P
RAWC 40.020 1.00 S
VOCA 23.010 1.00 P
VOCA 40.270 1.00 S
RPKV 29.340 1.00 P
RPKV 50.690 1.00 S
QYDI 29.620 1.00 P
QYDI 51.240 1.00 S
HLUH 30.740 1.00 P
HLUH 53.170 1.00 S
# 2001 02 03 01 29 50.000000 33.962 52.801  21.2  1.0 0.0 0.0 0.0        78
RHPW  6.850 1.00 P
RHPW 11.990 1.00 S
XBVK 10.050 1.00 P
XBVK 17.580 1.00 S
DNOA 14.750 1.00 P
DNOA 25.810 1.00 S
LUEX 16.220 1.00 P
LUEX 28.380 1.00 S
AVTK 17.490 1.00 P
AVTK 30.610 1.00 S
FOUH 18.030 1.00 P
FOUH 31.560 1.00 S
APSL 18.360 1.00 P
APSL 32.140 1.00 S
VOCA 19.830 1.00 P
VOCA 34.700 1.00 S
CBZA 19.860 1.00 P
CBZA 34.760 1.00 S
RAWC 20.670 1.00 P
RAWC 36.170 1.00 S
QYDI 28.190 1.00 P
QYDI 48.890 1.00 S
RPKV 28.750 1.00 P
RPKV 49.680 1.00 S
HLUH 30.410 1.00 P
HLUH 52.470 1.00 S
# 2001 02 03 01 31 00.000000 33.590 52.536  13.3  2.0 0.0 0.0 0.0        79
LUEX 14.270 1.00 P
LUEX 24.960 1.00 S
RHPW 15.770 1.00 P
RHPW 27.600 1.00 S
CBZA 15.560 1.00 P
CBZA 27.240 1.00 S
XBVK 17.960 1.00 P
XBVK 31.430 1.00 S
DNOA 22.740 1.00 P
DNOA 39.790 1.00 S
RAWC 22.950 1.00 P
RAWC 40.150 1.00 S
MGUS 22.630 1.00 P
MGUS 39.600 1.00 S
DQYH 23.510 1.00 P
DQYH 41.150 1.00 S
APSL 24.740 1.00 P
APSL 43.300 1.00 S
FOUH 25.290 1.00 P
VOCA 27.360 1.00 P
VOCA 47.860 1.00 S
RPKV 33.290 1.00 P
RPKV 57.100 1.00 S
QYDI 33.990 1.00 P
QYDI 58.300 1.00 S
HLUH 34.390 1.00 P
HLUH 59.090 1.00 S
# 2001 02 03 01 32 10.000000 33.733 52.411   9.5  2.5 0.0 0.0 0.0        80
CBZA 14.550 1.00 P
CBZA 25.460 1.00 S
AVTK 14.660 1.00 P
AVTK 25.660 1.00 S
RHPW 15.290 1.00 P
RHPW 26.760 1.00 S
XBVK 16.910 1.00 P
XBVK 29.590 1.00 S
DQYH 21.600 1.00 P
DQYH 37.810 1.00 S
DNOA 23.500 1.00 P
DNOA 41.120 1.00 S
FOUH 24.550 1.00 P
FOUH 42.960 1.00 S
MGUS 24.960 1.00 P
MGUS 43.680 1.00 S
RAWC 25.750 1.00 P
RAWC 45.050 1.00 S
APSL 26.240 1.00 P
VOCA 27.610 1.00 P
VOCA 48.320 1.00 S
RPKV 31.650 1.00 P
RPKV 54.900 1.00 S
HLUH 32.720 1.00 P
HLUH 56.550 1.00 S
QYDI 32.800 1.00 P
QYDI 56.690 1.00 S
# 2001 02 03 01 33 20.000000 33.938 52.569  14.7  1.1 0.0 0.0 0.0        81
RHPW  9.340 1.00 P
RHPW 16.340 1.00 S
XBVK 10.950 1.00 P
XBVK 19.170 1.00 S
LUEX 13.210 1.00 P
LUEX 23.120 1.00 S
AVTK 14.730 1.00 P
AVTK 25.790 1.00 S
CBZA 17.490 1.00 P
CBZA 30.600 1.00 S
DNOA 18.690 1.00 P
DNOA 32.700 1.00 S
DQYH 19.060 1.00 P
DQYH 33.360 1.00 S
FOUH 19.790 1.00 P
FOUH 34.640 1.00 S
MGUS 22.290 1.00 P
MGUS 39.000 1.00 S
APSL 22.380 1.00 P
APSL 39.160 1.00 S
VOCA 23.040 1.00 P
VOCA 40.330 1.00 S
RAWC 24.090 1.00 P
RAWC 42.160 1.00 S
QYDI 29.070 1.00 P
QYDI 50.460 1.00 S
# 2001 02 03 01 34 30.000000 33.737 52.513  12.3  3.1 0.0 0.0 0.0        82
LUEX 13.000 1.00 P
LUEX 22.740 1.00 S
RHPW 13.550 1.00 P
RHPW 23.720 1.00 S
XBVK 15.660 1.00 P
XBVK 27.410 1.00 S
AVTK 15.750 1.00 P
AVTK 27.570 1.00 S
CBZA 15.910 1.00 P
CBZA 27.840 1.00 S
DNOA 21.670 1.00 P
DNOA 37.930 1.00 S
MGUS 23.010 1.00 P
FOUH 23.390 1.00 P
FOUH 40.940 1.00 S
RAWC 23.920 1.00 P
RAWC 41.860 1.00 S
APSL 24.320 1.00 P
APSL 42.560 1.00 S
VOCA 26.010 1.00 P
VOCA 45.510 1.00 S
RPKV 31.500 1.00 P
RPKV 54.520 1.00 S
QYDI 32.210 1.00 P
QYDI 55.610 1.00 S
HLUH 32.670 1.00 P
HLUH 56.530 1.00 S
# 2001 02 03 01 35 40.000000 33.606 52.214   4.1  1.8 0.0 0.0 0.0        83
LUEX  9.630 1.00 P
LUEX 16.860 1.00 S
CBZA 10.320 1.00 P
AVTK 14.790 1.00 P
AVTK 25.880 1.00 S
RHPW 20.090 1.00 P
RHPW 35.150 1.00 S
XBVK 21.020 1.00 P
XBVK 36.790 1.00 S
DQYH 23.180 1.00 P
DQYH 40.560 1.00 S
DNOA 27.720 1.00 P
DNOA 48.500 1.00 S
FOUH 28.000 1.00 P
FOUH 49.000 1.00 S
MGUS 28.490 1.00 P
MGUS 49.830 1.00 S
RAWC 28.720 1.00 P
RAWC 50.220 1.00 S
APSL 30.120 1.00 P
APSL 52.610 1.00 S
VOCA 31.780 1.00 P
VOCA 55.180 1.00 S
RPKV 33.680 1.00 P
RPKV 58.280 1.00 S
HLUH 34.500 1.00 P
HLUH 59.570 1.00 S
QYDI 35.490 1.00 P
QYDI 61.160 1.00 S
# 2001 02 03 01 36 50.000000 34.004 52.422  10.1  4.0 0.0 0.0 0.0        84
XBVK 10.730 1.00 P
XBVK 18.770 1.00 S
RHPW 11.000 1.00 P
RHPW 19.250 1.00 S
LUEX 11.450 1.00 P
LUEX 20.040 1.00 S
AVTK 12.640 1.00 P
AVTK 22.110 1.00 S
CBZA 17.000 1.00 P
DQYH 17.320 1.00 P
FOUH 19.860 1.00 P
FOUH 34.760 1.00 S
DNOA 21.020 1.00 P
DNOA 36.780 1.00 S
VOCA 24.600 1.00 P
VOCA 43.050 1.00 S
APSL 24.860 1.00 P
APSL 43.510 1.00 S
MGUS 25.010 1.00 P
MGUS 43.760 1.00 S
RAWC 27.010 1.00 P
RAWC 47.240 1.00 S
RPKV 27.940 1.00 P
RPKV 48.740 1.00 S
QYDI 28.690 1.00 P
QYDI 50.010 1.00 S
HLUH 29.220 1.00 P
HLUH 51.010 1.00 S
# 2001 02 03 01 38 00.000000 33.832 52.667  17.4  1.7 0.0 0.0 0.0        85
RHPW  9.880 1.00 P
RHPW 17.290 1.00 S
XBVK 12.420 1.00 P
XBVK 21.730 1.00 S
LUEX 14.520 1.00 P
LUEX 25.400 1.00 S
AVTK 16.420 1.00 P
AVTK 28.740 1.00 S
CBZA 17.930 1.00 P
CBZA 31.380 1.00 S
DNOA 18.210 1.00 P
DNOA 31.880 1.00 S
MGUS 20.290 1.00 P
MGUS 35.510 1.00 S
DQYH 20.830 1.00 P
DQYH 36.450 1.00 S
FOUH 20.630 1.00 P
FOUH 36.100 1.00 S
APSL 21.150 1.00 P
APSL 37.010 1.00 S
RAWC 21.770 1.00 P
RAWC 38.110 1.00 S
VOCA 22.910 1.00 P
RPKV 29.900 1.00 P
RPKV 51.560 1.00 S
QYDI 30.030 1.00 P
QYDI 51.930 1.00 S
HLUH 31.330 1.00 P
HLUH 54.040 1.00 S
# 2001 02 03 01 39 10.000000 33.705 52.501  12.2  1.3 0.0 0.0 0.0        86
LUEX 12.940 1.00 P
LUEX 22.650 1.00 S
RHPW 14.240 1.00 P
RHPW 24.920 1.00 S
CBZA 15.540 1.00 P
CBZA 27.190 1.00 S
AVTK 15.830 1.00 P
AVTK 27.690 1.00 S
XBVK 16.350 1.00 P
DQYH 22.030 1.00 P
DQYH 38.560 1.00 S
DNOA 22.150 1.00 P
DNOA 38.760 1.00 S
MGUS 23.240 1.00 P
MGUS 40.680 1.00 S
FOUH 23.930 1.00 P
FOUH 41.880 1.00 S
RAWC 24.000 1.00 P
APSL 24.710 1.00 P
APSL 43.240 1.00 S
VOCA 26.540 1.00 P
VOCA 46.440 1.00 S
RPKV 31.810 1.00 P
RPKV 55.090 1.00 S
QYDI 32.600 1.00 P
QYDI 56.250 1.00 S
HLUH 32.940 1.00 P
HLUH 56.970 1.00 S
# 2001 02 03 01 40 20.000000 33.916 52.504  12.8  0.9 0.0 0.0 0.0        87
RHPW 10.740 1.00 P
RHPW 18.790 1.00 S
XBVK 12.020 1.00 P
XBVK 21.040 1.00 S
LUEX 12.390 1.00 P
LUEX 21.680 1.00 S
AVTK 14.100 1.00 P
AVTK 24.680 1.00 S
CBZA 16.670 1.00 P
CBZA 29.180 1.00 S
DQYH 19.210 1.00 P
DQYH 33.620 1.00 S
DNOA 20.040 1.00 P
DNOA 35.070 1.00 S
MGUS 23.230 1.00 P
MGUS 40.650 1.00 S
APSL 23.570 1.00 P
APSL 41.250 1.00 S
VOCA 24.190 1.00 P
VOCA 42.340 1.00 S
RAWC 24.820 1.00 P
RAWC 43.440 1.00 S
QYDI 29.690 1.00 P
QYDI 51.530 1.00 S
HLUH 30.320 1.00 P
HLUH 52.780 1.00 S
# 2001 02 03 01 41 30.000000 33.731 52.785  21.1  1.4 0.0 0.0 0.0        88
RHPW 11.410 1.00 P
RHPW 19.970 1.00 S
XBVK 14.460 1.00 P
XBVK 25.300 1.00 S
LUEX 16.110 1.00 P
LUEX 28.190 1.00 S
DNOA 17.970 1.00 P
DNOA 31.450 1.00 S
MGUS 18.410 1.00 P
MGUS 32.210 1.00 S
AVTK 18.210 1.00 P
AVTK 31.870 1.00 S
CBZA 18.760 1.00 P
RAWC 19.400 1.00 P
RAWC 33.950 1.00 S
APSL 19.990 1.00 P
APSL 34.980 1.00 S
FOUH 21.670 1.00 P
FOUH 37.920 1.00 S
DQYH 22.640 1.00 P
DQYH 39.620 1.00 S
VOCA 22.930 1.00 P
VOCA 40.120 1.00 S
RPKV 31.390 1.00 P
RPKV 54.050 1.00 S
QYDI 31.360 1.00 P
QYDI 54.060 1.00 S
HLUH 32.830 1.00 P
HLUH 56.510 1.00 S
# 2001 02 03 01 42 40.000000 33.906 52.400   9.5  1.4 0.0 0.0 0.0        89
RHPW 12.850 1.00 P
RHPW 22.480 1.00 S
AVTK 12.850 1.00 P
AVTK 22.490 1.00 S
XBVK 13.290 1.00 P
XBVK 23.260 1.00 S
CBZA 15.590 1.00 P
CBZA 27.280 1.00 S
DQYH 18.930 1.00 P
DQYH 33.130 1.00 S
FOUH 22.020 1.00 P
FOUH 38.540 1.00 S
DNOA 22.250 1.00 P
DNOA 38.940 1.00 S
APSL 25.590 1.00 P
APSL 44.770 1.00 S
VOCA 26.030 1.00 P
VOCA 45.550 1.00 S
RAWC 26.750 1.00 P
RAWC 46.800 1.00 S
RPKV 29.380 1.00 P
RPKV 51.240 1.00 S
QYDI 30.420 1.00 P
QYDI 52.770 1.00 S
HLUH 30.570 1.00 P
HLUH 53.190 1.00 S
# 2001 02 03 01 43 50.000000 33.797 52.332   7.7  4.4 0.0 0.0 0.0        90
LUEX  9.030 1.00 P
LUEX 15.800 1.00 S
AVTK 12.870 1.00 P
AVTK 22.520 1.00 S
CBZA 13.940 1.00 P
CBZA 24.390 1.00 S
RHPW 15.500 1.00 P
RHPW 27.120 1.00 S
XBVK 16.430 1.00 P
XBVK 28.750 1.00 S
DQYH 20.330 1.00 P
DQYH 35.580 1.00 S
DNOA 24.060 1.00 P
DNOA 42.110 1.00 S
FOUH 24.110 1.00 P
FOUH 42.190 1.00 S
MGUS 26.370 1.00 P
MGUS 46.140 1.00 S
APSL 27.190 1.00 P
APSL 47.590 1.00 S
RAWC 27.390 1.00 P
RAWC 47.910 1.00 S
VOCA 27.900 1.00 P
VOCA 48.830 1.00 S
RPKV 30.810 1.00 P
HLUH 31.830 1.00 P
HLUH 55.050 1.00 S
QYDI 32.070 1.00 P
# 2001 02 03 01 45 00.000000 33.903 52.617  16.6  0.9 0.0 0.0 0.0        91
RHPW  9.150 1.00 P
RHPW 16.010 1.00 S
XBVK 11.290 1.00 P
XBVK 19.760 1.00 S
LUEX 13.830 1.00 P
LUEX 24.210 1.00 S
AVTK 15.570 1.00 P
AVTK 27.250 1.00 S
CBZA 17.740 1.00 P
CBZA 31.040 1.00 S
DNOA 18.120 1.00 P
DNOA 31.710 1.00 S
DQYH 19.690 1.00 P
DQYH 34.450 1.00 S
FOUH 19.890 1.00 P
MGUS 21.250 1.00 P
MGUS 37.200 1.00 S
APSL 21.580 1.00 P
APSL 37.770 1.00 S
VOCA 22.640 1.00 P
VOCA 39.620 1.00 S
RAWC 22.960 1.00 P
RAWC 40.190 1.00 S
QYDI 29.250 1.00 P
QYDI 50.620 1.00 S
HLUH 30.470 1.00 P
HLUH 52.710 1.00 S
# 2001 02 03 01 46 10.000000 33.800 52.734  18.7  2.8 0.0 0.0 0.0        92
RHPW 10.210 1.00 P
RHPW 17.870 1.00 S
XBVK 13.180 1.00 P
XBVK 23.070 1.00 S
LUEX 15.530 1.00 P
LUEX 27.170 1.00 S
AVTK 17.520 1.00 P
AVTK 30.660 1.00 S
DNOA 17.760 1.00 P
DNOA 31.080 1.00 S
CBZA 18.650 1.00 P
CBZA 32.640 1.00 S
MGUS 19.160 1.00 P
MGUS 33.530 1.00 S
APSL 20.300 1.00 P
APSL 35.530 1.00 S
RAWC 20.500 1.00 P
RAWC 35.870 1.00 S
FOUH 21.040 1.00 P
FOUH 36.810 1.00 S
DQYH 21.900 1.00 P
DQYH 38.320 1.00 S
VOCA 22.690 1.00 P
VOCA 39.710 1.00 S
RPKV 30.650 1.00 P
RPKV 52.870 1.00 S
QYDI 30.610 1.00 P
QYDI 52.950 1.00 S
HLUH 32.110 1.00 P
HLUH 55.380 1.00 S
# 2001 02 03 01 47 20.000000 33.872 52.439  11.2  1.0 0.0 0.0 0.0        93
LUEX 11.120 1.00 P
LUEX 19.460 1.00 S
RHPW 12.740 1.00 P
RHPW 22.300 1.00 S
AVTK 13.620 1.00 P
AVTK 23.830 1.00 S
XBVK 13.760 1.00 P
XBVK 24.080 1.00 S
CBZA 15.600 1.00 P
CBZA 27.290 1.00 S
DQYH 19.510 1.00 P
DQYH 34.140 1.00 S
DNOA 21.790 1.00 P
DNOA 38.130 1.00 S
FOUH 22.030 1.00 P
FOUH 38.560 1.00 S
MGUS 24.390 1.00 P
MGUS 42.680 1.00 S
APSL 24.980 1.00 P
APSL 43.720 1.00 S
VOCA 25.660 1.00 P
VOCA 44.910 1.00 S
RAWC 25.770 1.00 P
RAWC 45.080 1.00 S
RPKV 29.590 1.00 P
RPKV 51.500 1.00 S
QYDI 30.590 1.00 P
QYDI 52.990 1.00 S
HLUH 30.800 1.00 P
HLUH 53.440 1.00 S
# 2001 02 03 01 48 30.000000 33.685 52.489  12.3  0.7 0.0 0.0 0.0        94
LUEX 12.770 1.00 P
LUEX 22.340 1.00 S
RHPW 14.660 1.00 P
RHPW 25.660 1.00 S
AVTK 15.750 1.00 P
AVTK 27.570 1.00 S
XBVK 16.680 1.00 P
XBVK 29.180 1.00 S
DQYH 22.060 1.00 P
DQYH 38.610 1.00 S
DNOA 22.370 1.00 P
DNOA 39.160 1.00 S
MGUS 23.430 1.00 P
MGUS 41.000 1.00 S
RAWC 24.130 1.00 P
RAWC 42.220 1.00 S
FOUH 24.160 1.00 P
FOUH 42.270 1.00 S
APSL 24.910 1.00 P
APSL 43.580 1.00 S
VOCA 26.770 1.00 P
VOCA 46.850 1.00 S
RPKV 31.860 1.00 P
RPKV 55.230 1.00 S
QYDI 32.760 1.00 P
QYDI 56.510 1.00 S
HLUH 32.960 1.00 P
HLUH 56.980 1.00 S
# 2001 02 03 01 49 40.000000 33.340 52.784  20.7  2.9 0.0 0.0 0.0        95
RHPW 18.330 1.00 P
RHPW 32.080 1.00 S
RAWC 18.660 1.00 P
RAWC 32.650 1.00 S
LUEX 19.210 1.00 P
LUEX 33.620 1.00 S
CBZA 19.350 1.00 P
MGUS 20.350 1.00 P
MGUS 35.620 1.00 S
XBVK 20.960 1.00 P
XBVK 36.680 1.00 S
AVTK 21.620 1.00 P
AVTK 37.840 1.00 S
DNOA 23.060 1.00 P
DNOA 40.340 1.00 S
APSL 23.610 1.00 P
APSL 41.310 1.00 S
DQYH 26.970 1.00 P
DQYH 46.820 1.00 S
FOUH 27.320 1.00 P
FOUH 47.660 1.00 S
VOCA 27.860 1.00 P
RPKV 36.160 1.00 P
RPKV 61.720 1.00 S
QYDI 36.550 1.00 P
QYDI 62.240 1.00 S
HLUH 37.420 1.00 P
HLUH 63.850 1.00 S
# 2001 02 03 01 50 50.000000 33.678 52.461  10.9  2.2 0.0 0.0 0.0        96
LUEX 12.620 1.00 P
LUEX 22.080 1.00 S
CBZA 14.930 1.00 P
CBZA 26.130 1.00 S
RHPW 15.250 1.00 P
RHPW 26.690 1.00 S
AVTK 15.750 1.00 P
AVTK 27.560 1.00 S
XBVK 17.210 1.00 P
XBVK 30.120 1.00 S
DQYH 22.350 1.00 P
DQYH 39.110 1.00 S
DNOA 22.990 1.00 P
DNOA 40.240 1.00 S
MGUS 23.950 1.00 P
MGUS 41.910 1.00 S
RAWC 24.620 1.00 P
RAWC 43.070 1.00 S
FOUH 24.680 1.00 P
FOUH 43.190 1.00 S
APSL 25.530 1.00 P
APSL 44.670 1.00 S
VOCA 27.350 1.00 P
RPKV 32.170 1.00 P
RPKV 55.780 1.00 S
QYDI 33.170 1.00 P
QYDI 57.220 1.00 S
HLUH 33.270 1.00 P
HLUH 57.510 1.00 S
# 2001 02 03 01 52 00.000000 33.722 52.379   9.0  1.0 0.0 0.0 0.0        97
LUEX 10.570 1.00 P
LUEX 18.510 1.00 S
CBZA 14.070 1.00 P
CBZA 24.630 1.00 S
AVTK 14.330 1.00 P
AVTK 25.080 1.00 S
RHPW 15.760 1.00 P
RHPW 27.590 1.00 S
XBVK 17.260 1.00 P
XBVK 30.210 1.00 S
DQYH 21.460 1.00 P
DQYH 37.560 1.00 S
DNOA 23.860 1.00 P
DNOA 41.760 1.00 S
MGUS 25.410 1.00 P
MGUS 44.460 1.00 S
RAWC 26.140 1.00 P
RAWC 45.720 1.00 S
APSL 26.680 1.00 P
APSL 46.680 1.00 S
VOCA 27.910 1.00 P
VOCA 48.850 1.00 S
HLUH 32.620 1.00 P
HLUH 56.370 1.00 S
QYDI 32.810 1.00 P
QYDI 56.700 1.00 S
# 2001 02 03 01 53 10.000000 33.297 52.762  19.9  2.6 0.0 0.0 0.0        98
RAWC 19.010 1.00 P
RAWC 33.260 1.00 S
RHPW 19.100 1.00 P
RHPW 33.430 1.00 S
CBZA 19.480 1.00 P
CBZA 34.080 1.00 S
LUEX 19.650 1.00 P
MGUS 20.870 1.00 P
MGUS 36.520 1.00 S
XBVK 21.690 1.00 P
XBVK 37.950 1.00 S
AVTK 22.130 1.00 P
AVTK 38.720 1.00 S
DNOA 23.850 1.00 P
DNOA 41.700 1.00 S
APSL 24.210 1.00 P
APSL 42.320 1.00 S
DQYH 27.570 1.00 P
DQYH 47.840 1.00 S
FOUH 28.010 1.00 P
FOUH 48.810 1.00 S
VOCA 28.640 1.00 P
VOCA 49.570 1.00 S
RPKV 36.820 1.00 P
RPKV 62.850 1.00 S
QYDI 37.230 1.00 P
QYDI 63.390 1.00 S
HLUH 38.070 1.00 P
HLUH 64.920 1.00 S
# 2001 02 03 01 54 20.000000 33.909 52.411  10.1  1.2 0.0 0.0 0.0        99
LUEX 10.670 1.00 P
LUEX 18.670 1.00 S
RHPW 12.550 1.00 P
RHPW 21.970 1.00 S
AVTK 13.060 1.00 P
AVTK 22.860 1.00 S
XBVK 13.070 1.00 P
XBVK 22.870 1.00 S
CBZA 15.770 1.00 P
CBZA 27.590 1.00 S
DQYH 18.920 1.00 P
DQYH 33.110 1.00 S
FOUH 21.770 1.00 P
FOUH 38.090 1.00 S
DNOA 21.930 1.00 P
DNOA 38.380 1.00 S
MGUS 24.950 1.00 P
MGUS 43.660 1.00 S
APSL 25.310 1.00 P
APSL 44.300 1.00 S
VOCA 25.760 1.00 P
VOCA 45.070 1.00 S
RAWC 26.460 1.00 P
RAWC 46.290 1.00 S
RPKV 29.270 1.00 P
RPKV 51.020 1.00 S
QYDI 30.220 1.00 P
QYDI 52.420 1.00 S
HLUH 30.480 1.00 P
HLUH 53.050 1.00 S
