# 2001 02 03 02 34 00.000000 33.742 52.766  20.0  2.3 0.0 0.0 0.0       133
RHPW 11.260 1.00 P
RHPW 19.700 1.00 S
XBVK 14.240 1.00 P
XBVK 24.920 1.00 S
LUEX 16.000 1.00 P
LUEX 28.000 1.00 S
DNOA 17.960 1.00 P
AVTK 18.060 1.00 P
AVTK 31.600 1.00 S
CBZA 18.720 1.00 P
CBZA 32.770 1.00 S
MGUS 18.680 1.00 P
MGUS 32.700 1.00 S
RAWC 19.770 1.00 P
RAWC 34.600 1.00 S
APSL 20.120 1.00 P
APSL 35.210 1.00 S
FOUH 21.590 1.00 P
FOUH 37.790 1.00 S
DQYH 22.500 1.00 P
DQYH 39.380 1.00 S
VOCA 22.900 1.00 P
VOCA 40.070 1.00 S
RPKV 31.280 1.00 P
RPKV 53.950 1.00 S
HLUH 32.720 1.00 P
HLUH 56.400 1.00 S
# 2001 02 03 02 35 10.000000 33.647 52.415   9.7  0.9 0.0 0.0 0.0       134
LUEX 12.120 1.00 P
LUEX 21.210 1.00 S
CBZA 14.180 1.00 P
AVTK 15.690 1.00 P
AVTK 27.460 1.00 S
RHPW 16.410 1.00 P
RHPW 28.720 1.00 S
XBVK 18.160 1.00 P
XBVK 31.780 1.00 S
DQYH 22.660 1.00 P
DQYH 39.650 1.00 S
DNOA 23.970 1.00 P
DNOA 41.960 1.00 S
MGUS 24.770 1.00 P
MGUS 43.350 1.00 S
RAWC 25.310 1.00 P
RAWC 44.280 1.00 S
FOUH 25.550 1.00 P
FOUH 44.720 1.00 S
APSL 26.460 1.00 P
APSL 46.290 1.00 S
VOCA 28.300 1.00 P
VOCA 49.520 1.00 S
RPKV 32.590 1.00 P
RPKV 56.500 1.00 S
HLUH 33.630 1.00 P
HLUH 58.110 1.00 S
# 2001 02 03 02 36 20.000000 33.950 53.001  27.7  2.7 0.0 0.0 0.0       135
RHPW  7.920 1.00 P
RHPW 13.860 1.00 S
XBVK 11.570 1.00 P
XBVK 20.250 1.00 S
DNOA 12.490 1.00 P
DNOA 21.870 1.00 S
MGUS 15.150 1.00 P
MGUS 26.520 1.00 S
APSL 15.260 1.00 P
APSL 26.710 1.00 S
RAWC 17.880 1.00 P
RAWC 31.290 1.00 S
VOCA 18.030 1.00 P
VOCA 31.550 1.00 S
FOUH 18.030 1.00 P
LUEX 18.340 1.00 P
LUEX 32.090 1.00 S
AVTK 19.500 1.00 P
AVTK 34.120 1.00 S
CBZA 21.510 1.00 P
CBZA 37.540 1.00 S
DQYH 22.020 1.00 P
DQYH 38.520 1.00 S
QYDI 28.300 1.00 P
RPKV 29.370 1.00 P
RPKV 50.630 1.00 S
HLUH 31.280 1.00 P
HLUH 53.720 1.00 S
# 2001 02 03 02 37 30.000000 33.721 52.621  16.5  2.3 0.0 0.0 0.0       136
RHPW 12.440 1.00 P
RHPW 21.770 1.00 S
LUEX 14.200 1.00 P
LUEX 24.840 1.00 S
XBVK 14.820 1.00 P
XBVK 25.930 1.00 S
AVTK 16.600 1.00 P
AVTK 29.050 1.00 S
CBZA 16.830 1.00 P
CBZA 29.460 1.00 S
DNOA 19.990 1.00 P
DNOA 34.980 1.00 S
MGUS 21.030 1.00 P
MGUS 36.810 1.00 S
RAWC 21.910 1.00 P
RAWC 38.350 1.00 S
DQYH 21.820 1.00 P
DQYH 38.190 1.00 S
APSL 22.410 1.00 P
APSL 39.220 1.00 S
VOCA 24.600 1.00 P
VOCA 43.050 1.00 S
QYDI 31.630 1.00 P
QYDI 54.610 1.00 S
HLUH 32.600 1.00 P
HLUH 56.140 1.00 S
# 2001 02 03 02 38 40.000000 33.851 52.717  18.9  2.6 0.0 0.0 0.0       137
RHPW  9.240 1.00 P
RHPW 16.180 1.00 S
XBVK 12.090 1.00 P
XBVK 21.150 1.00 S
LUEX 15.070 1.00 P
LUEX 26.380 1.00 S
AVTK 16.910 1.00 P
AVTK 29.590 1.00 S
DNOA 17.290 1.00 P
CBZA 18.540 1.00 P
CBZA 32.450 1.00 S
MGUS 19.460 1.00 P
MGUS 34.050 1.00 S
APSL 20.250 1.00 P
APSL 35.430 1.00 S
FOUH 20.190 1.00 P
FOUH 35.340 1.00 S
DQYH 21.000 1.00 P
DQYH 36.740 1.00 S
RAWC 21.020 1.00 P
RAWC 36.790 1.00 S
VOCA 22.160 1.00 P
VOCA 38.780 1.00 S
RPKV 29.790 1.00 P
RPKV 51.400 1.00 S
QYDI 29.750 1.00 P
QYDI 51.470 1.00 S
# 2001 02 03 02 39 50.000000 33.942 52.196   3.6  1.7 0.0 0.0 0.0       138
LUEX  5.900 1.00 P
LUEX 10.320 1.00 S
AVTK  8.680 1.00 P
AVTK 15.180 1.00 S
CBZA 13.440 1.00 P
CBZA 23.520 1.00 S
XBVK 15.890 1.00 P
XBVK 27.800 1.00 S
RHPW 16.790 1.00 P
RHPW 29.380 1.00 S
DQYH 17.500 1.00 P
DQYH 30.620 1.00 S
FOUH 23.910 1.00 P
FOUH 41.850 1.00 S
DNOA 25.720 1.00 P
DNOA 45.010 1.00 S
VOCA 29.100 1.00 P
VOCA 50.920 1.00 S
MGUS 29.160 1.00 P
MGUS 51.020 1.00 S
APSL 29.320 1.00 P
APSL 51.300 1.00 S
RPKV 29.480 1.00 P
RPKV 51.590 1.00 S
HLUH 30.470 1.00 P
HLUH 53.100 1.00 S
RAWC 30.660 1.00 P
RAWC 53.390 1.00 S
QYDI 31.270 1.00 P
QYDI 54.350 1.00 S
# 2001 02 03 02 41 00.000000 34.210 52.518  12.6  1.6 0.0 0.0 0.0       139
XBVK  5.950 1.00 P
XBVK 10.410 1.00 S
RHPW  8.380 1.00 P
RHPW 14.660 1.00 S
AVTK 14.310 1.00 P
AVTK 25.030 1.00 S
LUEX 14.580 1.00 P
LUEX 25.510 1.00 S
FOUH 15.390 1.00 P
FOUH 26.920 1.00 S
DQYH 15.870 1.00 P
DQYH 27.780 1.00 S
DNOA 17.920 1.00 P
DNOA 31.360 1.00 S
CBZA 19.990 1.00 P
CBZA 34.980 1.00 S
VOCA 21.130 1.00 P
VOCA 36.980 1.00 S
APSL 22.690 1.00 P
APSL 39.710 1.00 S
MGUS 24.230 1.00 P
RPKV 25.590 1.00 P
RPKV 44.780 1.00 S
QYDI 25.630 1.00 P
QYDI 44.820 1.00 S
RAWC 26.760 1.00 P
RAWC 46.810 1.00 S
HLUH 27.210 1.00 P
HLUH 47.600 1.00 S
# 2001 02 03 02 42 10.000000 33.782 52.739  19.2  3.2 0.0 0.0 0.0       140
RHPW 10.510 1.00 P
RHPW 18.400 1.00 S
XBVK 13.430 1.00 P
XBVK 23.500 1.00 S
LUEX 15.400 1.00 P
LUEX 26.950 1.00 S
DNOA 17.880 1.00 P
DNOA 31.290 1.00 S
CBZA 18.450 1.00 P
CBZA 32.280 1.00 S
MGUS 19.160 1.00 P
MGUS 33.530 1.00 S
APSL 20.380 1.00 P
APSL 35.670 1.00 S
RAWC 20.440 1.00 P
RAWC 35.770 1.00 S
FOUH 21.130 1.00 P
FOUH 36.980 1.00 S
DQYH 21.840 1.00 P
DQYH 38.220 1.00 S
VOCA 22.770 1.00 P
VOCA 39.840 1.00 S
RPKV 30.640 1.00 P
RPKV 52.830 1.00 S
HLUH 32.080 1.00 P
HLUH 55.310 1.00 S
# 2001 02 03 02 43 20.000000 33.996 52.829  21.3  3.1 0.0 0.0 0.0       141
RHPW  6.250 1.00 P
RHPW 10.930 1.00 S
XBVK  9.500 1.00 P
XBVK 16.620 1.00 S
DNOA 14.060 1.00 P
DNOA 24.600 1.00 S
LUEX 16.590 1.00 P
LUEX 29.040 1.00 S
FOUH 17.500 1.00 P
FOUH 30.620 1.00 S
APSL 17.870 1.00 P
APSL 31.270 1.00 S
AVTK 17.680 1.00 P
AVTK 30.930 1.00 S
VOCA 19.260 1.00 P
VOCA 33.710 1.00 S
DQYH 20.490 1.00 P
DQYH 35.850 1.00 S
CBZA 20.260 1.00 P
CBZA 35.450 1.00 S
RAWC 20.680 1.00 P
RAWC 36.180 1.00 S
QYDI 27.770 1.00 P
QYDI 48.250 1.00 S
HLUH 30.300 1.00 P
HLUH 52.250 1.00 S
# 2001 02 03 02 44 30.000000 33.921 52.385   9.1  2.4 0.0 0.0 0.0       142
LUEX 10.180 1.00 P
LUEX 17.810 1.00 S
AVTK 12.440 1.00 P
RHPW 12.810 1.00 P
RHPW 22.420 1.00 S
XBVK 12.990 1.00 P
XBVK 22.730 1.00 S
CBZA 15.800 1.00 P
CBZA 27.650 1.00 S
DQYH 18.630 1.00 P
DQYH 32.600 1.00 S
FOUH 21.720 1.00 P
FOUH 38.020 1.00 S
DNOA 22.280 1.00 P
DNOA 38.990 1.00 S
MGUS 25.430 1.00 P
MGUS 44.500 1.00 S
APSL 25.690 1.00 P
APSL 44.960 1.00 S
VOCA 25.990 1.00 P
VOCA 45.490 1.00 S
RAWC 27.060 1.00 P
RAWC 47.330 1.00 S
RPKV 29.160 1.00 P
RPKV 50.880 1.00 S
QYDI 30.180 1.00 P
QYDI 52.370 1.00 S
HLUH 30.370 1.00 P
HLUH 52.940 1.00 S
# 2001 02 03 02 45 40.000000 33.977 52.575  14.7  1.3 0.0 0.0 0.0       143
RHPW  8.700 1.00 P
RHPW 15.230 1.00 S
XBVK 10.240 1.00 P
XBVK 17.930 1.00 S
LUEX 13.490 1.00 P
LUEX 23.600 1.00 S
AVTK 14.770 1.00 P
AVTK 25.840 1.00 S
CBZA 17.860 1.00 P
CBZA 31.260 1.00 S
DQYH 18.750 1.00 P
DQYH 32.810 1.00 S
FOUH 19.240 1.00 P
FOUH 33.670 1.00 S
APSL 22.140 1.00 P
APSL 38.750 1.00 S
MGUS 22.230 1.00 P
MGUS 38.900 1.00 S
VOCA 22.720 1.00 P
VOCA 39.760 1.00 S
RAWC 24.140 1.00 P
RAWC 42.250 1.00 S
RPKV 28.290 1.00 P
RPKV 49.180 1.00 S
QYDI 28.610 1.00 P
QYDI 49.860 1.00 S
HLUH 29.660 1.00 P
HLUH 51.670 1.00 S
# 2001 02 03 02 46 50.000000 33.955 52.364   9.2  2.6 0.0 0.0 0.0       144
LUEX  9.790 1.00 P
LUEX 17.130 1.00 S
AVTK 11.680 1.00 P
AVTK 20.440 1.00 S
RHPW 12.820 1.00 P
RHPW 22.440 1.00 S
XBVK 12.560 1.00 P
XBVK 21.980 1.00 S
CBZA 15.750 1.00 P
CBZA 27.560 1.00 S
DQYH 17.730 1.00 P
DQYH 31.030 1.00 S
FOUH 21.270 1.00 P
FOUH 37.220 1.00 S
DNOA 22.430 1.00 P
DNOA 39.250 1.00 S
MGUS 25.860 1.00 P
MGUS 45.250 1.00 S
APSL 25.950 1.00 P
APSL 45.410 1.00 S
VOCA 26.000 1.00 P
VOCA 45.490 1.00 S
RAWC 27.640 1.00 P
RAWC 48.320 1.00 S
RPKV 28.620 1.00 P
RPKV 49.980 1.00 S
QYDI 29.680 1.00 P
HLUH 29.800 1.00 P
HLUH 52.010 1.00 S
# 2001 02 03 02 48 00.000000 33.736 52.520  13.3  2.6 0.0 0.0 0.0       145
LUEX 13.080 1.00 P
LUEX 22.880 1.00 S
RHPW 13.390 1.00 P
RHPW 23.430 1.00 S
AVTK 15.810 1.00 P
AVTK 27.670 1.00 S
CBZA 15.910 1.00 P
CBZA 27.830 1.00 S
DQYH 21.490 1.00 P
DQYH 37.620 1.00 S
DNOA 21.390 1.00 P
DNOA 37.430 1.00 S
MGUS 22.670 1.00 P
MGUS 39.680 1.00 S
FOUH 23.210 1.00 P
FOUH 40.610 1.00 S
RAWC 23.590 1.00 P
RAWC 41.270 1.00 S
VOCA 25.780 1.00 P
VOCA 45.120 1.00 S
RPKV 31.240 1.00 P
RPKV 54.080 1.00 S
QYDI 32.000 1.00 P
QYDI 55.240 1.00 S
HLUH 32.410 1.00 P
HLUH 56.090 1.00 S
# 2001 02 03 02 49 10.000000 33.801 52.736  19.4  0.7 0.0 0.0 0.0       146
RHPW 10.160 1.00 P
RHPW 17.770 1.00 S
XBVK 13.100 1.00 P
XBVK 22.930 1.00 S
LUEX 15.470 1.00 P
LUEX 27.070 1.00 S
AVTK 17.450 1.00 P
AVTK 30.530 1.00 S
CBZA 18.580 1.00 P
CBZA 32.510 1.00 S
MGUS 19.030 1.00 P
MGUS 33.300 1.00 S
APSL 20.170 1.00 P
APSL 35.300 1.00 S
RAWC 20.390 1.00 P
RAWC 35.680 1.00 S
FOUH 20.910 1.00 P
FOUH 36.590 1.00 S
DQYH 21.790 1.00 P
DQYH 38.140 1.00 S
VOCA 22.520 1.00 P
VOCA 39.410 1.00 S
RPKV 30.540 1.00 P
RPKV 52.670 1.00 S
QYDI 30.490 1.00 P
QYDI 52.750 1.00 S
HLUH 32.000 1.00 P
HLUH 55.180 1.00 S
# 2001 02 03 02 50 20.000000 33.857 52.208   4.1  2.5 0.0 0.0 0.0       147
LUEX  5.850 1.00 P
LUEX 10.230 1.00 S
AVTK  9.850 1.00 P
AVTK 17.240 1.00 S
CBZA 12.260 1.00 P
CBZA 21.460 1.00 S
XBVK 16.990 1.00 P
XBVK 29.730 1.00 S
RHPW 17.370 1.00 P
RHPW 30.390 1.00 S
DQYH 19.040 1.00 P
DQYH 33.330 1.00 S
FOUH 24.760 1.00 P
FOUH 43.330 1.00 S
DNOA 25.880 1.00 P
DNOA 45.300 1.00 S
MGUS 28.730 1.00 P
MGUS 50.260 1.00 S
APSL 29.290 1.00 P
APSL 51.250 1.00 S
VOCA 29.490 1.00 P
VOCA 51.610 1.00 S
RAWC 30.020 1.00 P
RAWC 52.340 1.00 S
RPKV 30.380 1.00 P
RPKV 53.030 1.00 S
HLUH 31.330 1.00 P
HLUH 54.430 1.00 S
QYDI 32.210 1.00 P
# 2001 02 03 02 51 30.000000 33.768 52.689  17.6  1.3 0.0 0.0 0.0       148
RHPW 11.100 1.00 P
RHPW 19.420 1.00 S
XBVK 13.830 1.00 P
XBVK 24.200 1.00 S
LUEX 15.050 1.00 P
LUEX 26.340 1.00 S
AVTK 17.210 1.00 P
AVTK 30.110 1.00 S
CBZA 17.980 1.00 P
CBZA 31.470 1.00 S
DNOA 18.710 1.00 P
DNOA 32.730 1.00 S
MGUS 19.870 1.00 P
MGUS 34.770 1.00 S
RAWC 21.060 1.00 P
RAWC 36.860 1.00 S
APSL 21.170 1.00 P
APSL 37.050 1.00 S
DQYH 21.940 1.00 P
DQYH 38.390 1.00 S
FOUH 21.620 1.00 P
VOCA 23.450 1.00 P
RPKV 30.920 1.00 P
RPKV 53.310 1.00 S
QYDI 31.050 1.00 P
QYDI 53.690 1.00 S
HLUH 32.340 1.00 P
HLUH 55.760 1.00 S
# 2001 02 03 02 52 40.000000 34.076 52.484  12.3  1.8 0.0 0.0 0.0       149
XBVK  8.720 1.00 P
XBVK 15.250 1.00 S
RHPW  9.300 1.00 P
RHPW 16.270 1.00 S
LUEX 12.810 1.00 P
LUEX 22.420 1.00 S
AVTK 13.150 1.00 P
AVTK 23.010 1.00 S
DQYH 16.680 1.00 P
DQYH 29.180 1.00 S
FOUH 18.060 1.00 P
FOUH 31.610 1.00 S
CBZA 17.960 1.00 P
CBZA 31.430 1.00 S
DNOA 19.310 1.00 P
DNOA 33.790 1.00 S
VOCA 22.830 1.00 P
VOCA 39.950 1.00 S
APSL 23.560 1.00 P
APSL 41.230 1.00 S
MGUS 24.200 1.00 P
MGUS 42.350 1.00 S
RAWC 26.430 1.00 P
RAWC 46.230 1.00 S
RPKV 26.830 1.00 P
RPKV 46.830 1.00 S
QYDI 27.280 1.00 P
QYDI 47.670 1.00 S
HLUH 28.230 1.00 P
HLUH 49.290 1.00 S
# 2001 02 03 02 53 50.000000 33.931 52.425  10.3  0.5 0.0 0.0 0.0       150
LUEX 11.110 1.00 P
LUEX 19.440 1.00 S
RHPW 11.890 1.00 P
RHPW 20.810 1.00 S
XBVK 12.320 1.00 P
XBVK 21.550 1.00 S
AVTK 13.100 1.00 P
AVTK 22.920 1.00 S
CBZA 16.300 1.00 P
CBZA 28.530 1.00 S
FOUH 21.140 1.00 P
FOUH 37.000 1.00 S
DNOA 21.420 1.00 P
DNOA 37.490 1.00 S
MGUS 24.720 1.00 P
APSL 24.960 1.00 P
APSL 43.670 1.00 S
VOCA 25.230 1.00 P
VOCA 44.160 1.00 S
RAWC 26.400 1.00 P
RAWC 46.200 1.00 S
RPKV 28.860 1.00 P
RPKV 50.300 1.00 S
QYDI 29.740 1.00 P
QYDI 51.630 1.00 S
HLUH 30.100 1.00 P
HLUH 52.470 1.00 S
# 2001 02 03 02 55 00.000000 33.976 52.575  14.8  2.0 0.0 0.0 0.0       151
RHPW  8.690 1.00 P
RHPW 15.200 1.00 S
XBVK 10.050 1.00 P
XBVK 17.590 1.00 S
LUEX 13.530 1.00 P
LUEX 23.670 1.00 S
AVTK 14.760 1.00 P
AVTK 25.820 1.00 S
DQYH 18.720 1.00 P
DQYH 32.760 1.00 S
FOUH 19.050 1.00 P
FOUH 33.340 1.00 S
APSL 22.120 1.00 P
APSL 38.710 1.00 S
MGUS 22.220 1.00 P
MGUS 38.880 1.00 S
VOCA 22.560 1.00 P
VOCA 39.480 1.00 S
RAWC 24.160 1.00 P
RAWC 42.280 1.00 S
RPKV 28.180 1.00 P
RPKV 48.970 1.00 S
QYDI 28.470 1.00 P
QYDI 49.560 1.00 S
HLUH 29.570 1.00 P
HLUH 51.480 1.00 S
# 2001 02 03 02 56 10.000000 33.314 52.654  17.2  1.6 0.0 0.0 0.0       152
CBZA 17.970 1.00 P
CBZA 31.450 1.00 S
LUEX 18.390 1.00 P
LUEX 32.190 1.00 S
RAWC 20.760 1.00 P
RAWC 36.330 1.00 S
AVTK 21.230 1.00 P
AVTK 37.160 1.00 S
XBVK 21.610 1.00 P
XBVK 37.820 1.00 S
DNOA 24.410 1.00 P
DNOA 42.690 1.00 S
APSL 25.300 1.00 P
APSL 44.220 1.00 S
DQYH 26.900 1.00 P
DQYH 46.810 1.00 S
FOUH 28.110 1.00 P
FOUH 48.780 1.00 S
VOCA 29.110 1.00 P
VOCA 50.560 1.00 S
RPKV 36.430 1.00 P
RPKV 62.230 1.00 S
QYDI 37.080 1.00 P
QYDI 63.220 1.00 S
HLUH 37.530 1.00 P
HLUH 64.060 1.00 S
# 2001 02 03 02 57 20.000000 33.832 52.883  23.6  1.9 0.0 0.0 0.0       153
RHPW  9.090 1.00 P
RHPW 15.910 1.00 S
DNOA 15.360 1.00 P
DNOA 26.870 1.00 S
MGUS 16.730 1.00 P
MGUS 29.280 1.00 S
LUEX 17.130 1.00 P
LUEX 29.970 1.00 S
APSL 17.690 1.00 P
APSL 30.960 1.00 S
RAWC 18.480 1.00 P
RAWC 32.340 1.00 S
AVTK 18.750 1.00 P
AVTK 32.810 1.00 S
FOUH 19.810 1.00 P
FOUH 34.670 1.00 S
CBZA 20.230 1.00 P
CBZA 35.400 1.00 S
VOCA 20.660 1.00 P
VOCA 36.150 1.00 S
DQYH 22.180 1.00 P
DQYH 38.810 1.00 S
QYDI 29.830 1.00 P
QYDI 51.700 1.00 S
HLUH 32.140 1.00 P
HLUH 55.280 1.00 S
# 2001 02 03 02 58 30.000000 34.099 52.601  15.4  4.4 0.0 0.0 0.0       154
RHPW  6.940 1.00 P
RHPW 12.150 1.00 S
XBVK  7.370 1.00 P
XBVK 12.900 1.00 S
LUEX 14.620 1.00 P
LUEX 25.580 1.00 S
AVTK 15.020 1.00 P
AVTK 26.280 1.00 S
DNOA 16.890 1.00 P
DNOA 29.560 1.00 S
DQYH 17.610 1.00 P
DQYH 30.810 1.00 S
CBZA 19.220 1.00 P
CBZA 33.640 1.00 S
APSL 21.280 1.00 P
APSL 37.240 1.00 S
MGUS 22.220 1.00 P
MGUS 38.890 1.00 S
RAWC 24.590 1.00 P
RAWC 43.020 1.00 S
RPKV 26.790 1.00 P
RPKV 46.750 1.00 S
QYDI 26.710 1.00 P
QYDI 46.630 1.00 S
HLUH 28.390 1.00 P
HLUH 49.410 1.00 S
# 2001 02 03 02 59 40.000000 33.885 52.761  20.0  2.2 0.0 0.0 0.0       155
RHPW  8.380 1.00 P
RHPW 14.670 1.00 S
XBVK 11.500 1.00 P
XBVK 20.120 1.00 S
LUEX 15.580 1.00 P
LUEX 27.260 1.00 S
DNOA 16.250 1.00 P
DNOA 28.440 1.00 S
AVTK 17.280 1.00 P
AVTK 30.240 1.00 S
MGUS 18.820 1.00 P
MGUS 32.940 1.00 S
CBZA 19.120 1.00 P
CBZA 33.460 1.00 S
APSL 19.350 1.00 P
APSL 33.870 1.00 S
FOUH 19.510 1.00 P
FOUH 34.140 1.00 S
RAWC 20.630 1.00 P
RAWC 36.110 1.00 S
VOCA 21.250 1.00 P
VOCA 37.190 1.00 S
RPKV 29.530 1.00 P
RPKV 50.990 1.00 S
QYDI 29.280 1.00 P
QYDI 50.700 1.00 S
HLUH 31.070 1.00 P
HLUH 53.600 1.00 S
# 2001 02 03 03 00 50.000000 33.812 52.532  13.4  2.3 0.0 0.0 0.0       156
RHPW 11.910 1.00 P
RHPW 20.840 1.00 S
LUEX 12.740 1.00 P
LUEX 22.290 1.00 S
XBVK 13.940 1.00 P
XBVK 24.400 1.00 S
CBZA 16.360 1.00 P
CBZA 28.630 1.00 S
DQYH 20.540 1.00 P
DQYH 35.950 1.00 S
FOUH 22.120 1.00 P
FOUH 38.700 1.00 S
MGUS 22.610 1.00 P
MGUS 39.560 1.00 S
APSL 23.640 1.00 P
APSL 41.360 1.00 S
RAWC 23.910 1.00 P
RAWC 41.840 1.00 S
VOCA 24.930 1.00 P
VOCA 43.630 1.00 S
RPKV 30.330 1.00 P
RPKV 52.560 1.00 S
QYDI 30.980 1.00 P
QYDI 53.530 1.00 S
HLUH 31.560 1.00 P
HLUH 54.680 1.00 S
# 2001 02 03 03 02 00.000000 33.562 52.486  12.1  1.7 0.0 0.0 0.0       157
CBZA 14.860 1.00 P
CBZA 26.010 1.00 S
RHPW 16.740 1.00 P
RHPW 29.290 1.00 S
AVTK 17.200 1.00 P
AVTK 30.110 1.00 S
XBVK 18.710 1.00 P
XBVK 32.750 1.00 S
DQYH 23.730 1.00 P
DQYH 41.520 1.00 S
RAWC 23.710 1.00 P
RAWC 41.500 1.00 S
DNOA 23.680 1.00 P
DNOA 41.450 1.00 S
MGUS 23.550 1.00 P
MGUS 41.210 1.00 S
APSL 25.670 1.00 P
APSL 44.910 1.00 S
FOUH 26.010 1.00 P
FOUH 45.520 1.00 S
VOCA 28.250 1.00 P
VOCA 49.360 1.00 S
RPKV 33.570 1.00 P
RPKV 57.730 1.00 S
HLUH 34.600 1.00 P
HLUH 59.500 1.00 S
# 2001 02 03 03 03 10.000000 33.526 52.439  10.6  0.5 0.0 0.0 0.0       158
LUEX 13.970 1.00 P
LUEX 24.450 1.00 S
CBZA 14.390 1.00 P
CBZA 25.190 1.00 S
AVTK 17.410 1.00 P
AVTK 30.460 1.00 S
RHPW 17.820 1.00 P
RHPW 31.190 1.00 S
XBVK 19.700 1.00 P
XBVK 34.470 1.00 S
DQYH 24.270 1.00 P
DQYH 42.480 1.00 S
MGUS 24.580 1.00 P
MGUS 43.010 1.00 S
APSL 26.690 1.00 P
APSL 46.690 1.00 S
FOUH 26.970 1.00 P
FOUH 47.150 1.00 S
VOCA 29.270 1.00 P
VOCA 50.970 1.00 S
RPKV 34.150 1.00 P
RPKV 58.770 1.00 S
HLUH 35.120 1.00 P
HLUH 60.300 1.00 S
QYDI 35.260 1.00 P
QYDI 60.340 1.00 S
# 2001 02 03 03 04 20.000000 33.872 52.803  21.4  4.6 0.0 0.0 0.0       159
RHPW  8.580 1.00 P
RHPW 15.020 1.00 S
XBVK 11.860 1.00 P
XBVK 20.760 1.00 S
DNOA 15.870 1.00 P
DNOA 27.770 1.00 S
LUEX 16.100 1.00 P
LUEX 28.170 1.00 S
MGUS 18.080 1.00 P
MGUS 31.640 1.00 S
APSL 18.740 1.00 P
APSL 32.790 1.00 S
CBZA 19.470 1.00 P
CBZA 34.080 1.00 S
FOUH 19.570 1.00 P
RAWC 19.850 1.00 P
RAWC 34.730 1.00 S
VOCA 21.040 1.00 P
VOCA 36.810 1.00 S
DQYH 21.380 1.00 P
DQYH 37.410 1.00 S
QYDI 29.480 1.00 P
QYDI 51.050 1.00 S
RPKV 29.880 1.00 P
RPKV 51.590 1.00 S
HLUH 31.430 1.00 P
HLUH 54.230 1.00 S
# 2001 02 03 03 05 30.000000 33.528 52.429  10.3  1.2 0.0 0.0 0.0       160
LUEX 13.980 1.00 P
LUEX 24.470 1.00 S
CBZA 14.420 1.00 P
CBZA 25.230 1.00 S
AVTK 17.500 1.00 P
AVTK 30.630 1.00 S
RHPW 17.800 1.00 P
RHPW 31.150 1.00 S
DQYH 24.350 1.00 P
DQYH 42.620 1.00 S
RAWC 24.530 1.00 P
RAWC 42.910 1.00 S
DNOA 24.750 1.00 P
DNOA 43.320 1.00 S
MGUS 24.590 1.00 P
MGUS 43.040 1.00 S
APSL 26.680 1.00 P
APSL 46.680 1.00 S
VOCA 29.270 1.00 P
VOCA 50.980 1.00 S
RPKV 34.220 1.00 P
RPKV 58.870 1.00 S
HLUH 35.210 1.00 P
HLUH 60.460 1.00 S
QYDI 35.320 1.00 P
QYDI 60.450 1.00 S
# 2001 02 03 03 06 40.000000 33.706 52.484  12.6  3.7 0.0 0.0 0.0       161
LUEX 12.540 1.00 P
LUEX 21.940 1.00 S
RHPW 14.400 1.00 P
RHPW 25.200 1.00 S
CBZA 15.120 1.00 P
CBZA 26.450 1.00 S
AVTK 15.480 1.00 P
AVTK 27.090 1.00 S
XBVK 16.390 1.00 P
XBVK 28.680 1.00 S
DQYH 21.740 1.00 P
DQYH 38.040 1.00 S
DNOA 22.330 1.00 P
DNOA 39.080 1.00 S
MGUS 23.440 1.00 P
MGUS 41.030 1.00 S
RAWC 24.220 1.00 P
RAWC 42.370 1.00 S
APSL 24.910 1.00 P
APSL 43.590 1.00 S
VOCA 26.630 1.00 P
VOCA 46.610 1.00 S
RPKV 31.550 1.00 P
RPKV 54.690 1.00 S
QYDI 32.500 1.00 P
QYDI 56.080 1.00 S
# 2001 02 03 03 07 50.000000 33.664 52.550  14.3  1.0 0.0 0.0 0.0       162
LUEX 13.820 1.00 P
LUEX 24.190 1.00 S
RHPW 14.220 1.00 P
RHPW 24.890 1.00 S
CBZA 15.880 1.00 P
CBZA 27.780 1.00 S
XBVK 16.510 1.00 P
XBVK 28.900 1.00 S
AVTK 16.660 1.00 P
AVTK 29.160 1.00 S
DNOA 21.630 1.00 P
DQYH 22.540 1.00 P
MGUS 22.210 1.00 P
MGUS 38.870 1.00 S
RAWC 22.850 1.00 P
RAWC 39.980 1.00 S
APSL 23.960 1.00 P
APSL 41.930 1.00 S
FOUH 23.980 1.00 P
FOUH 41.960 1.00 S
VOCA 26.220 1.00 P
VOCA 45.880 1.00 S
RPKV 32.250 1.00 P
RPKV 55.520 1.00 S
QYDI 32.820 1.00 P
QYDI 56.560 1.00 S
HLUH 33.420 1.00 P
HLUH 57.710 1.00 S
# 2001 02 03 03 09 00.000000 34.035 52.768  20.0  3.3 0.0 0.0 0.0       163
RHPW  5.850 1.00 P
RHPW 10.230 1.00 S
XBVK  8.530 1.00 P
XBVK 14.930 1.00 S
DNOA 14.550 1.00 P
LUEX 16.100 1.00 P
LUEX 28.180 1.00 S
FOUH 16.870 1.00 P
FOUH 29.530 1.00 S
AVTK 17.020 1.00 P
AVTK 29.780 1.00 S
APSL 18.640 1.00 P
APSL 32.610 1.00 S
MGUS 19.180 1.00 P
MGUS 33.570 1.00 S
DQYH 19.670 1.00 P
DQYH 34.430 1.00 S
VOCA 19.350 1.00 P
VOCA 33.860 1.00 S
CBZA 19.970 1.00 P
CBZA 34.950 1.00 S
RAWC 21.770 1.00 P
RAWC 38.100 1.00 S
QYDI 27.280 1.00 P
QYDI 47.430 1.00 S
RPKV 27.960 1.00 P
RPKV 48.470 1.00 S
HLUH 29.710 1.00 P
HLUH 51.340 1.00 S
# 2001 02 03 03 10 10.000000 33.949 52.489  11.6  1.3 0.0 0.0 0.0       164
RHPW 10.630 1.00 P
RHPW 18.610 1.00 S
XBVK 11.480 1.00 P
XBVK 20.090 1.00 S
LUEX 12.300 1.00 P
AVTK 13.790 1.00 P
AVTK 24.140 1.00 S
CBZA 16.870 1.00 P
CBZA 29.520 1.00 S
DQYH 18.740 1.00 P
DQYH 32.790 1.00 S
DNOA 20.280 1.00 P
DNOA 35.490 1.00 S
FOUH 20.470 1.00 P
FOUH 35.820 1.00 S
MGUS 23.820 1.00 P
MGUS 41.690 1.00 S
APSL 23.940 1.00 P
APSL 41.900 1.00 S
VOCA 24.380 1.00 P
VOCA 42.670 1.00 S
RAWC 25.520 1.00 P
RAWC 44.650 1.00 S
RPKV 28.770 1.00 P
RPKV 50.090 1.00 S
HLUH 30.050 1.00 P
HLUH 52.380 1.00 S
# 2001 02 03 03 11 20.000000 33.760 52.771  20.3  1.4 0.0 0.0 0.0       165
RHPW 10.700 1.00 P
RHPW 18.720 1.00 S
XBVK 13.730 1.00 P
XBVK 24.030 1.00 S
LUEX 15.970 1.00 P
LUEX 27.950 1.00 S
DNOA 17.750 1.00 P
DNOA 31.070 1.00 S
AVTK 17.940 1.00 P
AVTK 31.400 1.00 S
MGUS 18.530 1.00 P
MGUS 32.430 1.00 S
CBZA 18.840 1.00 P
CBZA 32.980 1.00 S
RAWC 19.660 1.00 P
RAWC 34.410 1.00 S
APSL 19.930 1.00 P
APSL 34.880 1.00 S
FOUH 21.230 1.00 P
FOUH 37.150 1.00 S
VOCA 22.710 1.00 P
VOCA 39.740 1.00 S
RPKV 31.010 1.00 P
RPKV 53.480 1.00 S
QYDI 30.920 1.00 P
QYDI 53.430 1.00 S
