# 2001 02 03 03 12 30.000000 33.796 52.398   9.7  5.0 0.0 0.0 0.0       166
LUEX 10.380 1.00 P
LUEX 18.160 1.00 S
AVTK 13.670 1.00 P
AVTK 23.920 1.00 S
RHPW 14.350 1.00 P
RHPW 25.120 1.00 S
CBZA 14.670 1.00 P
CBZA 25.670 1.00 S
XBVK 15.590 1.00 P
XBVK 27.280 1.00 S
DQYH 20.410 1.00 P
DQYH 35.730 1.00 S
DNOA 22.980 1.00 P
DNOA 40.220 1.00 S
FOUH 23.440 1.00 P
FOUH 41.030 1.00 S
MGUS 25.160 1.00 P
MGUS 44.020 1.00 S
APSL 26.040 1.00 P
APSL 45.560 1.00 S
RAWC 26.260 1.00 P
RAWC 45.930 1.00 S
VOCA 26.890 1.00 P
VOCA 47.060 1.00 S
QYDI 31.730 1.00 P
QYDI 54.900 1.00 S
# 2001 02 03 03 13 40.000000 33.695 52.271   6.1  1.0 0.0 0.0 0.0       167
LUEX  8.840 1.00 P
LUEX 15.460 1.00 S
CBZA 11.710 1.00 P
CBZA 20.500 1.00 S
AVTK 13.510 1.00 P
AVTK 23.650 1.00 S
RHPW 18.280 1.00 P
RHPW 31.990 1.00 S
XBVK 19.160 1.00 P
XBVK 33.520 1.00 S
DQYH 21.690 1.00 P
DQYH 37.950 1.00 S
DNOA 26.100 1.00 P
DNOA 45.670 1.00 S
FOUH 26.240 1.00 P
FOUH 45.910 1.00 S
MGUS 27.440 1.00 P
MGUS 48.010 1.00 S
RAWC 27.990 1.00 P
RAWC 48.960 1.00 S
APSL 28.860 1.00 P
APSL 50.480 1.00 S
VOCA 30.060 1.00 P
VOCA 52.570 1.00 S
RPKV 32.270 1.00 P
RPKV 55.910 1.00 S
HLUH 33.200 1.00 P
HLUH 57.400 1.00 S
# 2001 02 03 03 14 50.000000 33.623 52.576  14.8  1.9 0.0 0.0 0.0       168
LUEX 14.460 1.00 P
LUEX 25.300 1.00 S
RHPW 14.760 1.00 P
RHPW 25.830 1.00 S
CBZA 16.070 1.00 P
CBZA 28.120 1.00 S
XBVK 17.100 1.00 P
XBVK 29.930 1.00 S
DNOA 21.800 1.00 P
DNOA 38.160 1.00 S
MGUS 21.890 1.00 P
MGUS 38.310 1.00 S
RAWC 22.330 1.00 P
RAWC 39.080 1.00 S
DQYH 23.140 1.00 P
DQYH 40.490 1.00 S
APSL 23.890 1.00 P
APSL 41.820 1.00 S
FOUH 24.460 1.00 P
VOCA 26.450 1.00 P
VOCA 46.280 1.00 S
RPKV 32.810 1.00 P
RPKV 56.280 1.00 S
QYDI 33.360 1.00 P
QYDI 57.350 1.00 S
HLUH 34.010 1.00 P
HLUH 58.390 1.00 S
# 2001 02 03 03 16 00.000000 33.771 53.067  29.1  2.5 0.0 0.0 0.0       169
RHPW 11.020 1.00 P
RHPW 19.290 1.00 S
MGUS 13.840 1.00 P
MGUS 24.220 1.00 S
DNOA 14.470 1.00 P
DNOA 25.320 1.00 S
XBVK 14.670 1.00 P
XBVK 25.680 1.00 S
RAWC 15.380 1.00 P
RAWC 26.920 1.00 S
APSL 15.520 1.00 P
APSL 27.150 1.00 S
LUEX 19.360 1.00 P
LUEX 33.860 1.00 S
VOCA 20.130 1.00 P
VOCA 35.230 1.00 S
FOUH 20.780 1.00 P
FOUH 36.360 1.00 S
CBZA 21.710 1.00 P
CBZA 37.870 1.00 S
DQYH 24.110 1.00 P
DQYH 41.800 1.00 S
QYDI 30.840 1.00 P
QYDI 53.000 1.00 S
RPKV 31.880 1.00 P
RPKV 54.480 1.00 S
HLUH 33.730 1.00 P
HLUH 57.420 1.00 S
# 2001 02 03 03 17 10.000000 33.715 52.536  13.6  1.5 0.0 0.0 0.0       170
LUEX 13.260 1.00 P
LUEX 23.200 1.00 S
RHPW 13.560 1.00 P
RHPW 23.730 1.00 S
XBVK 15.730 1.00 P
XBVK 27.530 1.00 S
CBZA 15.910 1.00 P
CBZA 27.840 1.00 S
AVTK 15.960 1.00 P
AVTK 27.930 1.00 S
DNOA 21.400 1.00 P
DNOA 37.450 1.00 S
DQYH 21.760 1.00 P
DQYH 38.080 1.00 S
MGUS 22.550 1.00 P
MGUS 39.460 1.00 S
RAWC 23.370 1.00 P
RAWC 40.900 1.00 S
FOUH 23.320 1.00 P
FOUH 40.810 1.00 S
APSL 23.960 1.00 P
APSL 41.920 1.00 S
VOCA 25.840 1.00 P
VOCA 45.220 1.00 S
RPKV 31.510 1.00 P
RPKV 54.460 1.00 S
HLUH 32.660 1.00 P
HLUH 56.500 1.00 S
# 2001 02 03 03 18 20.000000 33.908 52.905  24.2  2.2 0.0 0.0 0.0       171
RHPW  7.980 1.00 P
RHPW 13.960 1.00 S
XBVK 11.550 1.00 P
XBVK 20.220 1.00 S
DNOA 14.130 1.00 P
DNOA 24.730 1.00 S
MGUS 16.390 1.00 P
MGUS 28.680 1.00 S
APSL 16.860 1.00 P
LUEX 17.410 1.00 P
RAWC 18.630 1.00 P
RAWC 32.600 1.00 S
AVTK 18.770 1.00 P
AVTK 32.860 1.00 S
FOUH 18.780 1.00 P
FOUH 32.860 1.00 S
VOCA 19.480 1.00 P
VOCA 34.100 1.00 S
CBZA 20.700 1.00 P
CBZA 36.210 1.00 S
DQYH 21.870 1.00 P
DQYH 38.260 1.00 S
QYDI 28.940 1.00 P
QYDI 50.210 1.00 S
RPKV 29.810 1.00 P
RPKV 51.400 1.00 S
HLUH 31.610 1.00 P
HLUH 54.380 1.00 S
# 2001 02 03 03 19 30.000000 33.958 52.903  23.8  1.7 0.0 0.0 0.0       172
RHPW  7.070 1.00 P
RHPW 12.370 1.00 S
XBVK 10.670 1.00 P
XBVK 18.670 1.00 S
DNOA 13.480 1.00 P
DNOA 23.590 1.00 S
MGUS 16.640 1.00 P
MGUS 29.120 1.00 S
APSL 16.690 1.00 P
APSL 29.210 1.00 S
FOUH 18.000 1.00 P
FOUH 31.490 1.00 S
AVTK 18.610 1.00 P
AVTK 32.580 1.00 S
VOCA 18.850 1.00 P
VOCA 32.990 1.00 S
RAWC 19.210 1.00 P
RAWC 33.610 1.00 S
CBZA 20.870 1.00 P
CBZA 36.520 1.00 S
DQYH 21.410 1.00 P
QYDI 28.240 1.00 P
QYDI 49.030 1.00 S
RPKV 29.180 1.00 P
RPKV 50.350 1.00 S
HLUH 31.020 1.00 P
HLUH 53.370 1.00 S
# 2001 02 03 03 20 40.000000 33.842 52.897  24.0  1.3 0.0 0.0 0.0       173
RHPW  9.150 1.00 P
RHPW 16.020 1.00 S
XBVK 12.710 1.00 P
XBVK 22.240 1.00 S
DNOA 15.050 1.00 P
DNOA 26.340 1.00 S
MGUS 16.440 1.00 P
MGUS 28.780 1.00 S
LUEX 17.330 1.00 P
LUEX 30.320 1.00 S
APSL 17.410 1.00 P
RAWC 18.250 1.00 P
RAWC 31.930 1.00 S
AVTK 18.940 1.00 P
AVTK 33.150 1.00 S
FOUH 19.770 1.00 P
FOUH 34.590 1.00 S
CBZA 20.440 1.00 P
CBZA 35.760 1.00 S
VOCA 20.460 1.00 P
VOCA 35.810 1.00 S
DQYH 22.320 1.00 P
DQYH 39.070 1.00 S
QYDI 29.800 1.00 P
QYDI 51.670 1.00 S
RPKV 30.540 1.00 P
RPKV 52.640 1.00 S
HLUH 32.240 1.00 P
HLUH 55.480 1.00 S
# 2001 02 03 03 21 50.000000 33.759 52.440  10.8  0.8 0.0 0.0 0.0       174
LUEX 11.470 1.00 P
LUEX 20.080 1.00 S
RHPW 14.240 1.00 P
RHPW 24.920 1.00 S
AVTK 14.470 1.00 P
AVTK 25.330 1.00 S
CBZA 14.970 1.00 P
CBZA 26.210 1.00 S
XBVK 15.860 1.00 P
XBVK 27.760 1.00 S
DQYH 21.020 1.00 P
DQYH 36.790 1.00 S
DNOA 22.590 1.00 P
DNOA 39.530 1.00 S
FOUH 23.640 1.00 P
FOUH 41.370 1.00 S
MGUS 24.400 1.00 P
MGUS 42.710 1.00 S
RAWC 25.340 1.00 P
VOCA 26.660 1.00 P
VOCA 46.650 1.00 S
RPKV 30.990 1.00 P
RPKV 53.750 1.00 S
QYDI 32.080 1.00 P
QYDI 55.440 1.00 S
HLUH 32.090 1.00 P
HLUH 55.470 1.00 S
# 2001 02 03 03 23 00.000000 33.919 52.666  17.1  0.8 0.0 0.0 0.0       175
RHPW  8.370 1.00 P
RHPW 14.650 1.00 S
XBVK 10.940 1.00 P
XBVK 19.140 1.00 S
LUEX 14.640 1.00 P
LUEX 25.610 1.00 S
AVTK 16.240 1.00 P
AVTK 28.420 1.00 S
DNOA 17.290 1.00 P
DNOA 30.260 1.00 S
CBZA 18.390 1.00 P
CBZA 32.180 1.00 S
FOUH 19.460 1.00 P
FOUH 34.050 1.00 S
DQYH 20.030 1.00 P
DQYH 35.060 1.00 S
MGUS 20.570 1.00 P
MGUS 35.990 1.00 S
APSL 20.830 1.00 P
APSL 36.460 1.00 S
VOCA 22.010 1.00 P
VOCA 38.520 1.00 S
RAWC 22.380 1.00 P
RAWC 39.170 1.00 S
RPKV 29.100 1.00 P
RPKV 50.270 1.00 S
QYDI 29.060 1.00 P
QYDI 50.340 1.00 S
# 2001 02 03 03 24 10.000000 33.758 52.864  23.2  2.6 0.0 0.0 0.0       176
RHPW 10.580 1.00 P
RHPW 18.510 1.00 S
XBVK 14.010 1.00 P
XBVK 24.520 1.00 S
DNOA 16.370 1.00 P
DNOA 28.650 1.00 S
LUEX 17.150 1.00 P
LUEX 30.010 1.00 S
RAWC 18.210 1.00 P
RAWC 31.870 1.00 S
AVTK 18.980 1.00 P
AVTK 33.220 1.00 S
CBZA 19.880 1.00 P
CBZA 34.790 1.00 S
FOUH 20.950 1.00 P
FOUH 36.670 1.00 S
VOCA 21.670 1.00 P
VOCA 37.930 1.00 S
DQYH 22.850 1.00 P
DQYH 39.980 1.00 S
QYDI 30.870 1.00 P
QYDI 53.270 1.00 S
RPKV 31.370 1.00 P
RPKV 53.780 1.00 S
HLUH 32.910 1.00 P
HLUH 56.440 1.00 S
# 2001 02 03 03 25 20.000000 33.950 52.740  19.3  1.7 0.0 0.0 0.0       177
RHPW  7.340 1.00 P
RHPW 12.840 1.00 S
XBVK 10.190 1.00 P
XBVK 17.840 1.00 S
LUEX 15.420 1.00 P
LUEX 26.980 1.00 S
DNOA 15.850 1.00 P
DNOA 27.740 1.00 S
AVTK 16.780 1.00 P
AVTK 29.360 1.00 S
FOUH 18.510 1.00 P
FOUH 32.400 1.00 S
APSL 19.480 1.00 P
APSL 34.090 1.00 S
DQYH 20.140 1.00 P
DQYH 35.240 1.00 S
VOCA 20.810 1.00 P
VOCA 36.420 1.00 S
RAWC 21.530 1.00 P
RAWC 37.680 1.00 S
QYDI 28.440 1.00 P
QYDI 49.300 1.00 S
RPKV 28.720 1.00 P
RPKV 49.640 1.00 S
HLUH 30.290 1.00 P
HLUH 52.300 1.00 S
# 2001 02 03 03 26 30.000000 33.562 52.794  21.3  1.7 0.0 0.0 0.0       178
RHPW 14.560 1.00 P
RHPW 25.470 1.00 S
LUEX 17.250 1.00 P
LUEX 30.180 1.00 S
XBVK 17.330 1.00 P
XBVK 30.320 1.00 S
RAWC 18.570 1.00 P
RAWC 32.490 1.00 S
MGUS 18.500 1.00 P
MGUS 32.370 1.00 S
CBZA 18.700 1.00 P
CBZA 32.730 1.00 S
AVTK 19.640 1.00 P
AVTK 34.370 1.00 S
DNOA 19.900 1.00 P
DNOA 34.820 1.00 S
FOUH 24.090 1.00 P
FOUH 42.160 1.00 S
DQYH 24.460 1.00 P
DQYH 42.590 1.00 S
VOCA 24.880 1.00 P
VOCA 43.460 1.00 S
RPKV 33.420 1.00 P
RPKV 57.050 1.00 S
QYDI 33.610 1.00 P
QYDI 57.360 1.00 S
HLUH 34.760 1.00 P
HLUH 59.410 1.00 S
# 2001 02 03 03 27 40.000000 33.886 52.336   7.6  3.1 0.0 0.0 0.0       179
LUEX  8.960 1.00 P
LUEX 15.680 1.00 S
AVTK 11.780 1.00 P
AVTK 20.610 1.00 S
RHPW 14.260 1.00 P
RHPW 24.960 1.00 S
XBVK 14.330 1.00 P
XBVK 25.080 1.00 S
CBZA 14.860 1.00 P
CBZA 26.010 1.00 S
DQYH 19.080 1.00 P
DQYH 33.390 1.00 S
FOUH 22.880 1.00 P
FOUH 40.050 1.00 S
DNOA 23.460 1.00 P
DNOA 41.060 1.00 S
MGUS 26.370 1.00 P
MGUS 46.140 1.00 S
APSL 26.790 1.00 P
APSL 46.890 1.00 S
VOCA 27.160 1.00 P
VOCA 47.530 1.00 S
RAWC 27.860 1.00 P
RAWC 48.720 1.00 S
RPKV 29.820 1.00 P
HLUH 30.960 1.00 P
HLUH 53.840 1.00 S
QYDI 31.000 1.00 P
QYDI 53.790 1.00 S
# 2001 02 03 03 28 50.000000 33.659 52.570  15.5  1.5 0.0 0.0 0.0       180
LUEX 13.970 1.00 P
LUEX 24.450 1.00 S
RHPW 14.150 1.00 P
RHPW 24.750 1.00 S
CBZA 15.920 1.00 P
CBZA 27.860 1.00 S
XBVK 16.410 1.00 P
XBVK 28.720 1.00 S
DNOA 21.410 1.00 P
DNOA 37.470 1.00 S
MGUS 21.860 1.00 P
MGUS 38.250 1.00 S
RAWC 22.460 1.00 P
RAWC 39.300 1.00 S
DQYH 22.430 1.00 P
DQYH 39.240 1.00 S
APSL 23.670 1.00 P
APSL 41.420 1.00 S
FOUH 23.820 1.00 P
FOUH 41.680 1.00 S
VOCA 26.000 1.00 P
VOCA 45.510 1.00 S
RPKV 32.120 1.00 P
RPKV 55.230 1.00 S
QYDI 32.700 1.00 P
QYDI 56.320 1.00 S
HLUH 33.290 1.00 P
HLUH 57.390 1.00 S
# 2001 02 03 03 30 00.000000 33.718 52.639  16.1  1.9 0.0 0.0 0.0       181
RHPW 12.390 1.00 P
RHPW 21.680 1.00 S
LUEX 14.580 1.00 P
LUEX 25.520 1.00 S
AVTK 16.960 1.00 P
AVTK 29.690 1.00 S
CBZA 17.200 1.00 P
CBZA 30.090 1.00 S
DNOA 19.860 1.00 P
DNOA 34.760 1.00 S
MGUS 20.800 1.00 P
RAWC 21.670 1.00 P
RAWC 37.910 1.00 S
DQYH 22.130 1.00 P
DQYH 38.720 1.00 S
APSL 22.230 1.00 P
APSL 38.910 1.00 S
FOUH 22.530 1.00 P
FOUH 39.430 1.00 S
VOCA 24.520 1.00 P
VOCA 42.910 1.00 S
RPKV 31.440 1.00 P
RPKV 54.160 1.00 S
QYDI 31.760 1.00 P
QYDI 54.850 1.00 S
HLUH 32.810 1.00 P
HLUH 56.510 1.00 S
# 2001 02 03 03 31 10.000000 33.716 52.433  10.8  1.8 0.0 0.0 0.0       182
LUEX 11.810 1.00 P
LUEX 20.670 1.00 S
CBZA 14.760 1.00 P
CBZA 25.830 1.00 S
RHPW 14.900 1.00 P
RHPW 26.070 1.00 S
AVTK 14.980 1.00 P
AVTK 26.210 1.00 S
XBVK 16.670 1.00 P
XBVK 29.180 1.00 S
DQYH 21.690 1.00 P
DQYH 37.950 1.00 S
DNOA 22.930 1.00 P
DNOA 40.130 1.00 S
FOUH 24.250 1.00 P
FOUH 42.430 1.00 S
MGUS 24.290 1.00 P
MGUS 42.510 1.00 S
RAWC 25.050 1.00 P
RAWC 43.820 1.00 S
APSL 25.650 1.00 P
APSL 44.880 1.00 S
VOCA 27.100 1.00 P
VOCA 47.420 1.00 S
RPKV 31.590 1.00 P
RPKV 54.770 1.00 S
HLUH 32.680 1.00 P
HLUH 56.480 1.00 S
# 2001 02 03 03 32 20.000000 33.846 52.702  18.2  1.7 0.0 0.0 0.0       183
RHPW  9.480 1.00 P
RHPW 16.590 1.00 S
XBVK 12.270 1.00 P
XBVK 21.470 1.00 S
LUEX 14.850 1.00 P
LUEX 26.000 1.00 S
AVTK 16.750 1.00 P
AVTK 29.320 1.00 S
CBZA 18.350 1.00 P
CBZA 32.100 1.00 S
MGUS 19.800 1.00 P
MGUS 34.640 1.00 S
FOUH 20.400 1.00 P
FOUH 35.690 1.00 S
APSL 20.620 1.00 P
APSL 36.090 1.00 S
DQYH 20.970 1.00 P
DQYH 36.690 1.00 S
RAWC 21.300 1.00 P
RAWC 37.280 1.00 S
VOCA 22.520 1.00 P
RPKV 29.830 1.00 P
RPKV 51.460 1.00 S
QYDI 29.880 1.00 P
QYDI 51.690 1.00 S
HLUH 31.290 1.00 P
HLUH 53.990 1.00 S
# 2001 02 03 03 33 30.000000 33.956 52.650  16.6  2.1 0.0 0.0 0.0       184
RHPW  7.890 1.00 P
RHPW 13.810 1.00 S
XBVK 10.230 1.00 P
XBVK 17.910 1.00 S
LUEX 14.660 1.00 P
LUEX 25.660 1.00 S
AVTK 16.040 1.00 P
AVTK 28.080 1.00 S
DNOA 17.130 1.00 P
DNOA 29.980 1.00 S
CBZA 18.550 1.00 P
CBZA 32.460 1.00 S
FOUH 18.950 1.00 P
DQYH 19.530 1.00 P
DQYH 34.180 1.00 S
MGUS 20.790 1.00 P
MGUS 36.380 1.00 S
APSL 20.810 1.00 P
APSL 36.420 1.00 S
VOCA 21.780 1.00 P
VOCA 38.110 1.00 S
RAWC 22.870 1.00 P
RAWC 40.020 1.00 S
RPKV 28.600 1.00 P
RPKV 49.480 1.00 S
HLUH 30.080 1.00 P
HLUH 52.070 1.00 S
# 2001 02 03 03 34 40.000000 33.582 52.513  12.3  1.1 0.0 0.0 0.0       185
LUEX 14.160 1.00 P
LUEX 24.780 1.00 S
CBZA 15.410 1.00 P
CBZA 26.970 1.00 S
RHPW 16.170 1.00 P
RHPW 28.310 1.00 S
AVTK 17.430 1.00 P
AVTK 30.490 1.00 S
XBVK 18.340 1.00 P
XBVK 32.100 1.00 S
DNOA 23.020 1.00 P
DNOA 40.280 1.00 S
RAWC 23.320 1.00 P
RAWC 40.800 1.00 S
MGUS 23.010 1.00 P
DQYH 23.770 1.00 P
DQYH 41.600 1.00 S
APSL 25.040 1.00 P
APSL 43.820 1.00 S
FOUH 25.640 1.00 P
VOCA 27.630 1.00 P
VOCA 48.320 1.00 S
RPKV 33.550 1.00 P
RPKV 57.560 1.00 S
QYDI 34.310 1.00 P
QYDI 58.810 1.00 S
HLUH 34.650 1.00 P
HLUH 59.500 1.00 S
# 2001 02 03 03 35 50.000000 33.770 52.429  10.5  0.9 0.0 0.0 0.0       186
LUEX 11.430 1.00 P
LUEX 20.000 1.00 S
RHPW 14.230 1.00 P
RHPW 24.900 1.00 S
AVTK 14.560 1.00 P
AVTK 25.470 1.00 S
CBZA 14.980 1.00 P
CBZA 26.220 1.00 S
XBVK 15.780 1.00 P
XBVK 27.610 1.00 S
DQYH 21.120 1.00 P
DQYH 36.970 1.00 S
FOUH 23.680 1.00 P
FOUH 41.450 1.00 S
MGUS 24.420 1.00 P
MGUS 42.730 1.00 S
RAWC 25.410 1.00 P
RAWC 44.460 1.00 S
APSL 25.540 1.00 P
APSL 44.700 1.00 S
VOCA 26.710 1.00 P
VOCA 46.750 1.00 S
RPKV 31.080 1.00 P
RPKV 53.920 1.00 S
QYDI 32.110 1.00 P
QYDI 55.520 1.00 S
# 2001 02 03 03 37 00.000000 33.891 52.147   2.8  1.6 0.0 0.0 0.0       187
LUEX  4.210 1.00 P
LUEX  7.370 1.00 S
AVTK  8.230 1.00 P
AVTK 14.400 1.00 S
CBZA 11.770 1.00 P
CBZA 20.590 1.00 S
XBVK 17.590 1.00 P
XBVK 30.780 1.00 S
RHPW 18.360 1.00 P
RHPW 32.120 1.00 S
DQYH 18.140 1.00 P
DQYH 31.750 1.00 S
FOUH 25.100 1.00 P
FOUH 43.920 1.00 S
DNOA 26.760 1.00 P
DNOA 46.820 1.00 S
MGUS 29.760 1.00 P
MGUS 52.020 1.00 S
RPKV 30.050 1.00 P
RPKV 52.520 1.00 S
APSL 30.260 1.00 P
APSL 52.940 1.00 S
VOCA 30.150 1.00 P
RAWC 31.130 1.00 P
RAWC 54.190 1.00 S
QYDI 32.070 1.00 P
QYDI 55.650 1.00 S
# 2001 02 03 03 38 10.000000 33.501 52.709  18.7  1.2 0.0 0.0 0.0       188
RHPW 15.730 1.00 P
RHPW 27.530 1.00 S
LUEX 16.730 1.00 P
LUEX 29.290 1.00 S
CBZA 17.740 1.00 P
CBZA 31.050 1.00 S
XBVK 18.270 1.00 P
XBVK 31.960 1.00 S
AVTK 19.360 1.00 P
AVTK 33.880 1.00 S
RAWC 19.840 1.00 P
RAWC 34.720 1.00 S
MGUS 20.060 1.00 P
MGUS 35.110 1.00 S
DNOA 21.510 1.00 P
DNOA 37.650 1.00 S
APSL 22.590 1.00 P
APSL 39.540 1.00 S
DQYH 24.810 1.00 P
DQYH 43.260 1.00 S
FOUH 25.240 1.00 P
FOUH 44.100 1.00 S
VOCA 26.260 1.00 P
VOCA 45.800 1.00 S
RPKV 33.990 1.00 P
RPKV 58.090 1.00 S
QYDI 34.400 1.00 P
QYDI 58.710 1.00 S
HLUH 35.250 1.00 P
HLUH 60.320 1.00 S
# 2001 02 03 03 39 20.000000 33.691 52.357   8.5  2.9 0.0 0.0 0.0       189
LUEX 10.470 1.00 P
LUEX 18.320 1.00 S
CBZA 13.350 1.00 P
CBZA 23.360 1.00 S
AVTK 14.550 1.00 P
AVTK 25.470 1.00 S
RHPW 16.870 1.00 P
RHPW 29.520 1.00 S
XBVK 18.270 1.00 P
XBVK 31.970 1.00 S
DQYH 21.890 1.00 P
DQYH 38.300 1.00 S
DNOA 24.600 1.00 P
DNOA 43.040 1.00 S
FOUH 25.590 1.00 P
FOUH 44.790 1.00 S
MGUS 25.860 1.00 P
MGUS 45.250 1.00 S
RAWC 26.450 1.00 P
RAWC 46.270 1.00 S
APSL 27.250 1.00 P
APSL 47.680 1.00 S
VOCA 28.750 1.00 P
VOCA 50.320 1.00 S
RPKV 32.110 1.00 P
RPKV 55.660 1.00 S
HLUH 33.110 1.00 P
HLUH 57.200 1.00 S
QYDI 33.520 1.00 P
QYDI 57.920 1.00 S
# 2001 02 03 03 40 30.000000 33.555 52.539  12.7  2.7 0.0 0.0 0.0       190
LUEX 14.730 1.00 P
LUEX 25.780 1.00 S
CBZA 15.730 1.00 P
CBZA 27.520 1.00 S
AVTK 17.880 1.00 P
AVTK 31.290 1.00 S
XBVK 18.600 1.00 P
XBVK 32.550 1.00 S
RAWC 22.930 1.00 P
RAWC 40.120 1.00 S
MGUS 22.770 1.00 P
MGUS 39.860 1.00 S
DNOA 23.160 1.00 P
DNOA 40.530 1.00 S
DQYH 24.130 1.00 P
DQYH 42.220 1.00 S
FOUH 25.890 1.00 P
FOUH 45.310 1.00 S
VOCA 27.810 1.00 P
VOCA 48.610 1.00 S
RPKV 33.820 1.00 P
RPKV 57.990 1.00 S
QYDI 34.580 1.00 P
QYDI 59.210 1.00 S
HLUH 34.960 1.00 P
HLUH 59.950 1.00 S
# 2001 02 03 03 41 40.000000 34.134 52.306   6.8  0.9 0.0 0.0 0.0       191
AVTK 10.170 1.00 P
AVTK 17.790 1.00 S
XBVK 10.730 1.00 P
XBVK 18.780 1.00 S
LUEX 10.650 1.00 P
LUEX 18.640 1.00 S
RHPW 12.910 1.00 P
RHPW 22.600 1.00 S
DQYH 14.660 1.00 P
DQYH 25.660 1.00 S
CBZA 17.570 1.00 P
CBZA 30.750 1.00 S
FOUH 19.500 1.00 P
FOUH 34.120 1.00 S
DNOA 22.640 1.00 P
VOCA 25.500 1.00 P
VOCA 44.620 1.00 S
RPKV 26.350 1.00 P
APSL 26.880 1.00 P
APSL 47.030 1.00 S
MGUS 27.550 1.00 P
MGUS 48.210 1.00 S
QYDI 27.780 1.00 P
QYDI 48.580 1.00 S
HLUH 27.610 1.00 P
HLUH 48.320 1.00 S
RAWC 29.790 1.00 P
RAWC 52.050 1.00 S
# 2001 02 03 03 42 50.000000 33.896 52.735  18.9  0.6 0.0 0.0 0.0       192
RHPW  8.150 1.00 P
RHPW 14.260 1.00 S
XBVK 11.190 1.00 P
XBVK 19.580 1.00 S
LUEX 15.380 1.00 P
LUEX 26.910 1.00 S
DNOA 16.440 1.00 P
DNOA 28.780 1.00 S
AVTK 17.060 1.00 P
AVTK 29.860 1.00 S
CBZA 19.030 1.00 P
CBZA 33.310 1.00 S
FOUH 19.450 1.00 P
FOUH 34.040 1.00 S
APSL 19.700 1.00 P
APSL 34.480 1.00 S
DQYH 20.760 1.00 P
DQYH 36.330 1.00 S
RAWC 21.120 1.00 P
RAWC 36.970 1.00 S
VOCA 21.360 1.00 P
VOCA 37.380 1.00 S
RPKV 29.410 1.00 P
RPKV 50.780 1.00 S
QYDI 29.180 1.00 P
QYDI 50.520 1.00 S
HLUH 30.940 1.00 P
HLUH 53.390 1.00 S
# 2001 02 03 03 44 00.000000 33.706 52.410   9.8  2.3 0.0 0.0 0.0       193
LUEX 11.390 1.00 P
LUEX 19.920 1.00 S
CBZA 14.330 1.00 P
CBZA 25.090 1.00 S
AVTK 14.860 1.00 P
RHPW 15.610 1.00 P
RHPW 27.320 1.00 S
XBVK 17.300 1.00 P
XBVK 30.280 1.00 S
DQYH 21.830 1.00 P
DQYH 38.200 1.00 S
DNOA 23.610 1.00 P
DNOA 41.320 1.00 S
FOUH 24.810 1.00 P
FOUH 43.420 1.00 S
MGUS 24.880 1.00 P
MGUS 43.540 1.00 S
RAWC 25.590 1.00 P
RAWC 44.780 1.00 S
APSL 26.300 1.00 P
APSL 46.010 1.00 S
VOCA 27.770 1.00 P
VOCA 48.600 1.00 S
RPKV 31.860 1.00 P
RPKV 55.240 1.00 S
HLUH 32.910 1.00 P
HLUH 56.870 1.00 S
QYDI 33.040 1.00 P
QYDI 57.080 1.00 S
# 2001 02 03 03 45 10.000000 33.853 52.510  12.5  3.1 0.0 0.0 0.0       194
RHPW 11.550 1.00 P
RHPW 20.200 1.00 S
LUEX 12.500 1.00 P
LUEX 21.880 1.00 S
XBVK 13.250 1.00 P
XBVK 23.200 1.00 S
AVTK 14.670 1.00 P
AVTK 25.670 1.00 S
CBZA 16.480 1.00 P
CBZA 28.840 1.00 S
DQYH 20.080 1.00 P
DQYH 35.140 1.00 S
DNOA 20.570 1.00 P
DNOA 36.000 1.00 S
FOUH 21.770 1.00 P
FOUH 38.090 1.00 S
MGUS 23.020 1.00 P
MGUS 40.280 1.00 S
APSL 23.790 1.00 P
APSL 41.630 1.00 S
RAWC 24.450 1.00 P
RAWC 42.790 1.00 S
VOCA 24.760 1.00 P
VOCA 43.330 1.00 S
RPKV 29.900 1.00 P
RPKV 51.890 1.00 S
QYDI 30.590 1.00 P
QYDI 52.920 1.00 S
HLUH 31.150 1.00 P
HLUH 54.070 1.00 S
# 2001 02 03 03 46 20.000000 34.054 52.472  12.1  1.4 0.0 0.0 0.0       195
XBVK  9.260 1.00 P
XBVK 16.210 1.00 S
RHPW  9.600 1.00 P
LUEX 12.520 1.00 P
LUEX 21.910 1.00 S
AVTK 13.120 1.00 P
AVTK 22.950 1.00 S
DQYH 17.090 1.00 P
DQYH 29.910 1.00 S
CBZA 17.590 1.00 P
CBZA 30.790 1.00 S
FOUH 18.520 1.00 P
FOUH 32.420 1.00 S
DNOA 19.610 1.00 P
DNOA 34.320 1.00 S
APSL 23.670 1.00 P
APSL 41.430 1.00 S
MGUS 24.130 1.00 P
MGUS 42.230 1.00 S
RAWC 26.270 1.00 P
RAWC 45.950 1.00 S
RPKV 27.270 1.00 P
RPKV 47.560 1.00 S
QYDI 27.720 1.00 P
QYDI 48.420 1.00 S
HLUH 28.650 1.00 P
HLUH 50.000 1.00 S
# 2001 02 03 03 47 30.000000 33.818 52.487  11.9  1.3 0.0 0.0 0.0       196
LUEX 12.140 1.00 P
LUEX 21.250 1.00 S
RHPW 12.540 1.00 P
RHPW 21.950 1.00 S
XBVK 14.240 1.00 P
XBVK 24.920 1.00 S
AVTK 14.610 1.00 P
AVTK 25.570 1.00 S
CBZA 15.940 1.00 P
CBZA 27.890 1.00 S
DQYH 20.400 1.00 P
DQYH 35.700 1.00 S
DNOA 21.430 1.00 P
DNOA 37.500 1.00 S
FOUH 22.480 1.00 P
FOUH 39.340 1.00 S
MGUS 23.500 1.00 P
MGUS 41.130 1.00 S
APSL 24.470 1.00 P
APSL 42.810 1.00 S
RAWC 24.810 1.00 P
RAWC 43.410 1.00 S
RPKV 30.290 1.00 P
RPKV 52.590 1.00 S
QYDI 31.160 1.00 P
QYDI 53.890 1.00 S
HLUH 31.500 1.00 P
HLUH 54.560 1.00 S
# 2001 02 03 03 48 40.000000 33.580 52.738  19.2  0.9 0.0 0.0 0.0       197
RHPW 14.320 1.00 P
RHPW 25.070 1.00 S
LUEX 16.400 1.00 P
LUEX 28.690 1.00 S
XBVK 17.020 1.00 P
XBVK 29.790 1.00 S
AVTK 18.930 1.00 P
AVTK 33.130 1.00 S
MGUS 19.280 1.00 P
MGUS 33.730 1.00 S
DNOA 20.180 1.00 P
DNOA 35.310 1.00 S
APSL 21.540 1.00 P
APSL 37.700 1.00 S
DQYH 24.160 1.00 P
DQYH 42.180 1.00 S
FOUH 24.030 1.00 P
FOUH 42.050 1.00 S
VOCA 25.060 1.00 P
VOCA 43.830 1.00 S
RPKV 33.210 1.00 P
RPKV 56.760 1.00 S
QYDI 33.490 1.00 P
QYDI 57.220 1.00 S
HLUH 34.530 1.00 P
HLUH 59.070 1.00 S
# 2001 02 03 03 49 50.000000 33.831 52.749  20.2  1.4 0.0 0.0 0.0       198
RHPW  9.360 1.00 P
RHPW 16.380 1.00 S
XBVK 12.330 1.00 P
XBVK 21.580 1.00 S
LUEX 15.420 1.00 P
LUEX 26.990 1.00 S
DNOA 17.040 1.00 P
DNOA 29.820 1.00 S
AVTK 17.210 1.00 P
AVTK 30.120 1.00 S
CBZA 18.720 1.00 P
CBZA 32.760 1.00 S
MGUS 18.880 1.00 P
MGUS 33.040 1.00 S
APSL 19.760 1.00 P
APSL 34.590 1.00 S
RAWC 20.460 1.00 P
RAWC 35.800 1.00 S
FOUH 20.220 1.00 P
DQYH 21.250 1.00 P
DQYH 37.190 1.00 S
VOCA 21.950 1.00 P
VOCA 38.420 1.00 S
RPKV 29.950 1.00 P
RPKV 51.660 1.00 S
QYDI 29.880 1.00 P
QYDI 51.680 1.00 S
