# 2001 02 03 03 51 00.000000 33.877 52.466  11.7  1.6 0.0 0.0 0.0       199
LUEX 11.800 1.00 P
LUEX 20.650 1.00 S
RHPW 11.950 1.00 P
RHPW 20.920 1.00 S
XBVK 13.190 1.00 P
XBVK 23.080 1.00 S
AVTK 13.990 1.00 P
AVTK 24.480 1.00 S
CBZA 16.060 1.00 P
CBZA 28.110 1.00 S
DQYH 19.670 1.00 P
DQYH 34.420 1.00 S
DNOA 21.100 1.00 P
DNOA 36.920 1.00 S
FOUH 21.730 1.00 P
FOUH 38.020 1.00 S
MGUS 23.820 1.00 P
MGUS 41.680 1.00 S
APSL 24.390 1.00 P
APSL 42.690 1.00 S
VOCA 25.110 1.00 P
RAWC 25.260 1.00 P
RAWC 44.210 1.00 S
RPKV 29.590 1.00 P
RPKV 51.450 1.00 S
QYDI 30.410 1.00 P
QYDI 52.690 1.00 S
HLUH 30.840 1.00 P
HLUH 53.560 1.00 S
# 2001 02 03 03 52 10.000000 33.810 52.547  13.8  1.5 0.0 0.0 0.0       200
LUEX 13.040 1.00 P
LUEX 22.830 1.00 S
XBVK 13.860 1.00 P
XBVK 24.260 1.00 S
AVTK 15.370 1.00 P
AVTK 26.900 1.00 S
CBZA 16.560 1.00 P
CBZA 28.980 1.00 S
DNOA 20.370 1.00 P
DNOA 35.640 1.00 S
DQYH 20.710 1.00 P
DQYH 36.250 1.00 S
MGUS 22.270 1.00 P
MGUS 38.980 1.00 S
APSL 23.300 1.00 P
APSL 40.780 1.00 S
RAWC 23.540 1.00 P
RAWC 41.200 1.00 S
VOCA 24.690 1.00 P
VOCA 43.210 1.00 S
RPKV 30.440 1.00 P
RPKV 52.620 1.00 S
QYDI 30.940 1.00 P
QYDI 53.460 1.00 S
HLUH 31.700 1.00 P
HLUH 54.890 1.00 S
# 2001 02 03 03 53 20.000000 33.619 52.920  25.1  2.0 0.0 0.0 0.0       201
RHPW 13.370 1.00 P
RHPW 23.390 1.00 S
MGUS 16.340 1.00 P
MGUS 28.590 1.00 S
RAWC 16.660 1.00 P
RAWC 29.160 1.00 S
XBVK 16.480 1.00 P
XBVK 28.840 1.00 S
DNOA 17.910 1.00 P
DNOA 31.340 1.00 S
LUEX 18.260 1.00 P
LUEX 31.960 1.00 S
APSL 18.830 1.00 P
APSL 32.950 1.00 S
CBZA 19.900 1.00 P
CBZA 34.820 1.00 S
AVTK 20.260 1.00 P
AVTK 35.460 1.00 S
FOUH 23.020 1.00 P
FOUH 40.290 1.00 S
VOCA 23.170 1.00 P
VOCA 40.470 1.00 S
DQYH 24.470 1.00 P
DQYH 42.530 1.00 S
QYDI 32.900 1.00 P
QYDI 56.230 1.00 S
RPKV 33.140 1.00 P
RPKV 56.510 1.00 S
HLUH 34.600 1.00 P
# 2001 02 03 03 54 30.000000 33.835 52.390   8.8  1.2 0.0 0.0 0.0       202
LUEX 10.300 1.00 P
LUEX 18.030 1.00 S
AVTK 13.580 1.00 P
AVTK 23.770 1.00 S
XBVK 15.040 1.00 P
XBVK 26.320 1.00 S
CBZA 15.100 1.00 P
CBZA 26.430 1.00 S
DQYH 20.280 1.00 P
DQYH 35.500 1.00 S
DNOA 22.930 1.00 P
DNOA 40.130 1.00 S
FOUH 23.240 1.00 P
FOUH 40.660 1.00 S
APSL 26.050 1.00 P
APSL 45.590 1.00 S
RAWC 26.470 1.00 P
RAWC 46.310 1.00 S
VOCA 26.790 1.00 P
VOCA 46.880 1.00 S
RPKV 30.510 1.00 P
RPKV 53.030 1.00 S
QYDI 31.570 1.00 P
QYDI 54.670 1.00 S
HLUH 31.650 1.00 P
HLUH 54.790 1.00 S
# 2001 02 03 03 55 40.000000 33.855 52.342   7.5  0.8 0.0 0.0 0.0       203
LUEX  9.140 1.00 P
LUEX 15.990 1.00 S
AVTK 12.300 1.00 P
AVTK 21.530 1.00 S
RHPW 14.550 1.00 P
RHPW 25.460 1.00 S
XBVK 14.940 1.00 P
XBVK 26.140 1.00 S
DQYH 19.700 1.00 P
DQYH 34.480 1.00 S
FOUH 23.280 1.00 P
FOUH 40.740 1.00 S
DNOA 23.590 1.00 P
DNOA 41.290 1.00 S
APSL 26.850 1.00 P
APSL 46.990 1.00 S
VOCA 27.340 1.00 P
VOCA 47.840 1.00 S
RAWC 27.600 1.00 P
RAWC 48.270 1.00 S
RPKV 30.280 1.00 P
RPKV 52.770 1.00 S
HLUH 31.410 1.00 P
HLUH 54.450 1.00 S
QYDI 31.470 1.00 P
QYDI 54.550 1.00 S
# 2001 02 03 03 56 50.000000 33.859 52.504  12.5  1.3 0.0 0.0 0.0       204
RHPW 11.540 1.00 P
RHPW 20.200 1.00 S
LUEX 12.370 1.00 P
LUEX 21.640 1.00 S
XBVK 13.180 1.00 P
XBVK 23.060 1.00 S
AVTK 14.480 1.00 P
AVTK 25.350 1.00 S
CBZA 16.390 1.00 P
CBZA 28.690 1.00 S
DQYH 19.890 1.00 P
DQYH 34.810 1.00 S
MGUS 23.130 1.00 P
MGUS 40.480 1.00 S
APSL 23.860 1.00 P
APSL 41.760 1.00 S
RAWC 24.590 1.00 P
RAWC 43.040 1.00 S
VOCA 24.760 1.00 P
VOCA 43.320 1.00 S
RPKV 29.730 1.00 P
RPKV 51.630 1.00 S
QYDI 30.460 1.00 P
QYDI 52.720 1.00 S
HLUH 30.990 1.00 P
HLUH 53.790 1.00 S
# 2001 02 03 03 58 00.000000 34.023 52.718  19.0  1.4 0.0 0.0 0.0       205
RHPW  6.390 1.00 P
RHPW 11.180 1.00 S
XBVK  8.740 1.00 P
XBVK 15.290 1.00 S
LUEX 15.450 1.00 P
LUEX 27.030 1.00 S
DNOA 15.470 1.00 P
DNOA 27.070 1.00 S
AVTK 16.420 1.00 P
AVTK 28.730 1.00 S
FOUH 17.320 1.00 P
FOUH 30.320 1.00 S
DQYH 19.300 1.00 P
DQYH 33.780 1.00 S
APSL 19.490 1.00 P
APSL 34.110 1.00 S
CBZA 19.350 1.00 P
CBZA 33.860 1.00 S
MGUS 19.870 1.00 P
MGUS 34.780 1.00 S
VOCA 20.110 1.00 P
VOCA 35.190 1.00 S
QYDI 27.540 1.00 P
QYDI 47.850 1.00 S
RPKV 27.950 1.00 P
HLUH 29.600 1.00 P
HLUH 51.210 1.00 S
# 2001 02 03 03 59 10.000000 33.889 52.664  17.3  1.4 0.0 0.0 0.0       206
RHPW  8.930 1.00 P
RHPW 15.630 1.00 S
XBVK 11.520 1.00 P
XBVK 20.160 1.00 S
LUEX 14.470 1.00 P
LUEX 25.320 1.00 S
AVTK 16.260 1.00 P
AVTK 28.460 1.00 S
DNOA 17.630 1.00 P
DNOA 30.850 1.00 S
CBZA 18.180 1.00 P
CBZA 31.820 1.00 S
FOUH 19.930 1.00 P
DQYH 20.290 1.00 P
DQYH 35.510 1.00 S
MGUS 20.490 1.00 P
MGUS 35.860 1.00 S
APSL 20.970 1.00 P
RAWC 22.150 1.00 P
RAWC 38.760 1.00 S
VOCA 22.340 1.00 P
VOCA 39.100 1.00 S
RPKV 29.360 1.00 P
RPKV 50.680 1.00 S
QYDI 29.400 1.00 P
QYDI 50.890 1.00 S
HLUH 30.820 1.00 P
HLUH 53.220 1.00 S
# 2001 02 03 04 00 20.000000 33.859 52.635  16.2  2.5 0.0 0.0 0.0       207
XBVK 12.260 1.00 P
XBVK 21.450 1.00 S
LUEX 14.150 1.00 P
LUEX 24.770 1.00 S
AVTK 16.110 1.00 P
CBZA 17.790 1.00 P
CBZA 31.140 1.00 S
DNOA 18.400 1.00 P
DNOA 32.190 1.00 S
DQYH 20.480 1.00 P
DQYH 35.830 1.00 S
FOUH 20.590 1.00 P
FOUH 36.040 1.00 S
MGUS 20.870 1.00 P
MGUS 36.510 1.00 S
APSL 21.600 1.00 P
APSL 37.800 1.00 S
RAWC 22.400 1.00 P
RAWC 39.200 1.00 S
VOCA 23.040 1.00 P
VOCA 40.320 1.00 S
RPKV 29.740 1.00 P
RPKV 51.320 1.00 S
QYDI 29.900 1.00 P
QYDI 51.710 1.00 S
HLUH 31.170 1.00 P
HLUH 53.810 1.00 S
# 2001 02 03 04 01 30.000000 33.578 52.518  13.0  2.9 0.0 0.0 0.0       208
LUEX 14.120 1.00 P
LUEX 24.710 1.00 S
CBZA 15.410 1.00 P
CBZA 26.970 1.00 S
RHPW 15.980 1.00 P
RHPW 27.960 1.00 S
AVTK 17.290 1.00 P
AVTK 30.260 1.00 S
XBVK 18.130 1.00 P
XBVK 31.730 1.00 S
DNOA 22.850 1.00 P
DNOA 39.990 1.00 S
RAWC 23.110 1.00 P
RAWC 40.450 1.00 S
MGUS 22.840 1.00 P
MGUS 39.970 1.00 S
DQYH 23.550 1.00 P
DQYH 41.210 1.00 S
APSL 24.890 1.00 P
APSL 43.560 1.00 S
FOUH 25.440 1.00 P
FOUH 44.510 1.00 S
VOCA 27.450 1.00 P
VOCA 48.030 1.00 S
RPKV 33.320 1.00 P
RPKV 57.160 1.00 S
QYDI 34.100 1.00 P
QYDI 58.400 1.00 S
HLUH 34.440 1.00 P
HLUH 59.110 1.00 S
# 2001 02 03 04 02 40.000000 33.511 52.544  13.7  2.2 0.0 0.0 0.0       209
LUEX 15.180 1.00 P
LUEX 26.560 1.00 S
CBZA 15.800 1.00 P
CBZA 27.650 1.00 S
RHPW 16.920 1.00 P
RHPW 29.600 1.00 S
AVTK 18.370 1.00 P
AVTK 32.140 1.00 S
XBVK 19.110 1.00 P
XBVK 33.450 1.00 S
RAWC 22.610 1.00 P
RAWC 39.560 1.00 S
MGUS 22.720 1.00 P
MGUS 39.770 1.00 S
DNOA 23.440 1.00 P
DNOA 41.020 1.00 S
DQYH 24.600 1.00 P
DQYH 43.020 1.00 S
APSL 25.000 1.00 P
APSL 43.750 1.00 S
FOUH 26.360 1.00 P
FOUH 46.090 1.00 S
VOCA 28.040 1.00 P
VOCA 48.890 1.00 S
RPKV 34.150 1.00 P
RPKV 58.550 1.00 S
QYDI 34.950 1.00 P
QYDI 59.800 1.00 S
HLUH 35.280 1.00 P
HLUH 60.490 1.00 S
# 2001 02 03 04 03 50.000000 34.013 52.989  25.7  1.8 0.0 0.0 0.0       210
RHPW  7.090 1.00 P
RHPW 12.400 1.00 S
XBVK 10.640 1.00 P
XBVK 18.620 1.00 S
DNOA 11.850 1.00 P
APSL 15.140 1.00 P
APSL 26.490 1.00 S
MGUS 15.740 1.00 P
MGUS 27.550 1.00 S
FOUH 17.380 1.00 P
FOUH 30.420 1.00 S
VOCA 17.310 1.00 P
VOCA 30.300 1.00 S
LUEX 18.640 1.00 P
LUEX 32.610 1.00 S
RAWC 18.830 1.00 P
RAWC 32.950 1.00 S
AVTK 19.630 1.00 P
AVTK 34.350 1.00 S
DQYH 21.760 1.00 P
DQYH 38.070 1.00 S
CBZA 21.970 1.00 P
CBZA 38.330 1.00 S
QYDI 27.770 1.00 P
QYDI 48.250 1.00 S
RPKV 28.950 1.00 P
RPKV 50.000 1.00 S
HLUH 30.910 1.00 P
HLUH 53.150 1.00 S
# 2001 02 03 04 05 00.000000 33.689 52.263   5.6  2.0 0.0 0.0 0.0       211
LUEX  8.710 1.00 P
LUEX 15.240 1.00 S
CBZA 11.420 1.00 P
CBZA 19.990 1.00 S
AVTK 13.560 1.00 P
AVTK 23.740 1.00 S
RHPW 18.370 1.00 P
RHPW 32.150 1.00 S
XBVK 19.130 1.00 P
XBVK 33.470 1.00 S
DQYH 21.760 1.00 P
DQYH 38.080 1.00 S
DNOA 26.180 1.00 P
FOUH 26.240 1.00 P
FOUH 45.920 1.00 S
MGUS 27.720 1.00 P
MGUS 48.500 1.00 S
RAWC 28.250 1.00 P
RAWC 49.410 1.00 S
APSL 29.070 1.00 P
VOCA 30.070 1.00 P
VOCA 52.570 1.00 S
RPKV 32.290 1.00 P
RPKV 55.960 1.00 S
HLUH 33.230 1.00 P
HLUH 57.450 1.00 S
QYDI 33.940 1.00 P
QYDI 58.580 1.00 S
# 2001 02 03 04 06 10.000000 33.644 52.743  19.8  1.6 0.0 0.0 0.0       212
RHPW 13.140 1.00 P
RHPW 23.000 1.00 S
XBVK 15.960 1.00 P
XBVK 27.930 1.00 S
LUEX 16.060 1.00 P
LUEX 28.100 1.00 S
CBZA 18.010 1.00 P
CBZA 31.510 1.00 S
AVTK 18.380 1.00 P
AVTK 32.170 1.00 S
MGUS 19.180 1.00 P
MGUS 33.560 1.00 S
DNOA 19.430 1.00 P
DNOA 34.000 1.00 S
RAWC 19.720 1.00 P
RAWC 34.510 1.00 S
APSL 21.160 1.00 P
APSL 37.040 1.00 S
DQYH 23.330 1.00 P
DQYH 40.800 1.00 S
FOUH 23.040 1.00 P
FOUH 40.310 1.00 S
VOCA 24.290 1.00 P
VOCA 42.490 1.00 S
RPKV 32.320 1.00 P
RPKV 55.390 1.00 S
QYDI 32.610 1.00 P
QYDI 55.850 1.00 S
HLUH 33.680 1.00 P
HLUH 57.730 1.00 S
# 2001 02 03 04 07 20.000000 33.930 52.411   9.6  1.0 0.0 0.0 0.0       213
LUEX 10.730 1.00 P
LUEX 18.780 1.00 S
RHPW 12.200 1.00 P
RHPW 21.340 1.00 S
XBVK 12.520 1.00 P
XBVK 21.910 1.00 S
AVTK 12.820 1.00 P
AVTK 22.440 1.00 S
CBZA 16.170 1.00 P
CBZA 28.300 1.00 S
DQYH 18.510 1.00 P
DQYH 32.400 1.00 S
FOUH 21.350 1.00 P
FOUH 37.360 1.00 S
APSL 25.340 1.00 P
APSL 44.350 1.00 S
VOCA 25.610 1.00 P
VOCA 44.820 1.00 S
RAWC 26.780 1.00 P
RAWC 46.850 1.00 S
RPKV 28.960 1.00 P
RPKV 50.500 1.00 S
QYDI 29.880 1.00 P
QYDI 51.900 1.00 S
HLUH 30.180 1.00 P
HLUH 52.620 1.00 S
# 2001 02 03 04 08 30.000000 33.818 52.607  15.6  2.8 0.0 0.0 0.0       214
RHPW 10.740 1.00 P
RHPW 18.790 1.00 S
XBVK 13.230 1.00 P
XBVK 23.150 1.00 S
LUEX 13.850 1.00 P
LUEX 24.230 1.00 S
AVTK 16.040 1.00 P
AVTK 28.070 1.00 S
CBZA 17.340 1.00 P
CBZA 30.340 1.00 S
DNOA 19.270 1.00 P
DNOA 33.730 1.00 S
DQYH 20.740 1.00 P
DQYH 36.300 1.00 S
FOUH 21.350 1.00 P
FOUH 37.350 1.00 S
APSL 22.190 1.00 P
APSL 38.820 1.00 S
RAWC 22.530 1.00 P
RAWC 39.430 1.00 S
VOCA 23.810 1.00 P
VOCA 41.670 1.00 S
RPKV 30.160 1.00 P
RPKV 52.030 1.00 S
QYDI 30.510 1.00 P
QYDI 52.710 1.00 S
# 2001 02 03 04 09 40.000000 33.849 52.575  14.6  1.6 0.0 0.0 0.0       215
RHPW 10.670 1.00 P
RHPW 18.670 1.00 S
XBVK 12.870 1.00 P
XBVK 22.520 1.00 S
LUEX 13.210 1.00 P
LUEX 23.120 1.00 S
AVTK 15.380 1.00 P
AVTK 26.910 1.00 S
CBZA 17.010 1.00 P
CBZA 29.770 1.00 S
DNOA 19.530 1.00 P
DNOA 34.170 1.00 S
DQYH 20.230 1.00 P
DQYH 35.400 1.00 S
FOUH 21.250 1.00 P
FOUH 37.190 1.00 S
MGUS 21.920 1.00 P
MGUS 38.360 1.00 S
APSL 22.730 1.00 P
APSL 39.780 1.00 S
RAWC 23.360 1.00 P
RAWC 40.870 1.00 S
VOCA 23.970 1.00 P
VOCA 41.950 1.00 S
RPKV 29.900 1.00 P
RPKV 51.710 1.00 S
HLUH 31.190 1.00 P
HLUH 54.060 1.00 S
# 2001 02 03 04 10 50.000000 33.860 52.600  15.6  2.5 0.0 0.0 0.0       216
RHPW 10.040 1.00 P
RHPW 17.560 1.00 S
XBVK 12.380 1.00 P
XBVK 21.670 1.00 S
LUEX 13.650 1.00 P
LUEX 23.890 1.00 S
AVTK 15.660 1.00 P
AVTK 27.410 1.00 S
CBZA 17.410 1.00 P
CBZA 30.460 1.00 S
DNOA 18.860 1.00 P
DNOA 33.010 1.00 S
DQYH 20.240 1.00 P
DQYH 35.410 1.00 S
FOUH 20.760 1.00 P
FOUH 36.340 1.00 S
MGUS 21.360 1.00 P
MGUS 37.380 1.00 S
APSL 22.110 1.00 P
APSL 38.690 1.00 S
RAWC 22.870 1.00 P
RAWC 40.020 1.00 S
VOCA 23.350 1.00 P
VOCA 40.860 1.00 S
RPKV 29.710 1.00 P
RPKV 51.290 1.00 S
QYDI 29.970 1.00 P
QYDI 51.840 1.00 S
HLUH 31.100 1.00 P
HLUH 53.750 1.00 S
# 2001 02 03 04 12 00.000000 33.518 52.310   7.5  0.7 0.0 0.0 0.0       217
CBZA 12.240 1.00 P
CBZA 21.410 1.00 S
LUEX 12.620 1.00 P
LUEX 22.080 1.00 S
AVTK 16.840 1.00 P
AVTK 29.460 1.00 S
RHPW 19.660 1.00 P
RHPW 34.400 1.00 S
XBVK 21.240 1.00 P
XBVK 37.160 1.00 S
DNOA 26.840 1.00 P
DNOA 46.950 1.00 S
RAWC 26.700 1.00 P
RAWC 46.710 1.00 S
MGUS 26.890 1.00 P
MGUS 47.030 1.00 S
FOUH 28.370 1.00 P
FOUH 49.500 1.00 S
APSL 28.810 1.00 P
APSL 50.390 1.00 S
VOCA 31.060 1.00 P
VOCA 54.030 1.00 S
RPKV 34.510 1.00 P
RPKV 59.640 1.00 S
HLUH 35.350 1.00 P
HLUH 60.900 1.00 S
# 2001 02 03 04 13 10.000000 33.779 52.998  26.6  0.6 0.0 0.0 0.0       218
RHPW 10.500 1.00 P
XBVK 14.140 1.00 P
XBVK 24.750 1.00 S
MGUS 14.980 1.00 P
DNOA 14.890 1.00 P
DNOA 26.060 1.00 S
RAWC 16.500 1.00 P
RAWC 28.870 1.00 S
APSL 16.450 1.00 P
APSL 28.790 1.00 S
LUEX 18.470 1.00 P
LUEX 32.320 1.00 S
AVTK 20.100 1.00 P
AVTK 35.180 1.00 S
VOCA 20.470 1.00 P
VOCA 35.830 1.00 S
FOUH 20.590 1.00 P
FOUH 36.030 1.00 S
CBZA 21.050 1.00 P
CBZA 36.810 1.00 S
DQYH 23.490 1.00 P
DQYH 40.910 1.00 S
QYDI 30.620 1.00 P
QYDI 52.790 1.00 S
RPKV 31.490 1.00 P
RPKV 53.880 1.00 S
HLUH 33.260 1.00 P
HLUH 56.760 1.00 S
# 2001 02 03 04 14 20.000000 34.012 52.392   9.5  2.2 0.0 0.0 0.0       219
LUEX 10.850 1.00 P
LUEX 18.980 1.00 S
XBVK 10.930 1.00 P
XBVK 19.120 1.00 S
RHPW 11.400 1.00 P
RHPW 19.950 1.00 S
AVTK 11.990 1.00 P
AVTK 20.990 1.00 S
CBZA 16.640 1.00 P
CBZA 29.130 1.00 S
DQYH 16.870 1.00 P
DQYH 29.510 1.00 S
FOUH 19.920 1.00 P
FOUH 34.860 1.00 S
DNOA 21.570 1.00 P
DNOA 37.740 1.00 S
VOCA 25.000 1.00 P
VOCA 43.750 1.00 S
APSL 25.350 1.00 P
APSL 44.360 1.00 S
MGUS 25.500 1.00 P
MGUS 44.610 1.00 S
RAWC 27.490 1.00 P
RAWC 48.010 1.00 S
RPKV 27.720 1.00 P
QYDI 28.700 1.00 P
QYDI 50.040 1.00 S
# 2001 02 03 04 15 30.000000 33.842 52.781  19.6  1.9 0.0 0.0 0.0       220
RHPW  9.150 1.00 P
RHPW 16.010 1.00 S
XBVK 12.460 1.00 P
LUEX 15.870 1.00 P
LUEX 27.770 1.00 S
DNOA 16.620 1.00 P
DNOA 29.090 1.00 S
AVTK 17.740 1.00 P
AVTK 31.040 1.00 S
MGUS 18.440 1.00 P
MGUS 32.260 1.00 S
CBZA 19.310 1.00 P
CBZA 33.790 1.00 S
APSL 19.330 1.00 P
APSL 33.820 1.00 S
RAWC 20.060 1.00 P
RAWC 35.110 1.00 S
FOUH 20.270 1.00 P
FOUH 35.470 1.00 S
DQYH 21.750 1.00 P
DQYH 38.070 1.00 S
VOCA 21.690 1.00 P
VOCA 37.960 1.00 S
RPKV 30.330 1.00 P
RPKV 52.360 1.00 S
HLUH 31.850 1.00 P
HLUH 54.950 1.00 S
# 2001 02 03 04 16 40.000000 33.756 52.688  18.1  0.7 0.0 0.0 0.0       221
RHPW 11.210 1.00 P
RHPW 19.620 1.00 S
XBVK 13.890 1.00 P
XBVK 24.310 1.00 S
LUEX 14.990 1.00 P
LUEX 26.230 1.00 S
DNOA 18.700 1.00 P
DNOA 32.720 1.00 S
MGUS 19.880 1.00 P
MGUS 34.790 1.00 S
RAWC 20.980 1.00 P
RAWC 36.710 1.00 S
APSL 21.140 1.00 P
APSL 36.990 1.00 S
DQYH 21.850 1.00 P
DQYH 38.240 1.00 S
FOUH 21.630 1.00 P
FOUH 37.860 1.00 S
VOCA 23.430 1.00 P
VOCA 41.000 1.00 S
RPKV 30.860 1.00 P
RPKV 53.200 1.00 S
QYDI 31.040 1.00 P
QYDI 53.650 1.00 S
HLUH 32.280 1.00 P
HLUH 55.630 1.00 S
# 2001 02 03 04 17 50.000000 33.597 52.559  14.3  3.9 0.0 0.0 0.0       222
LUEX 14.490 1.00 P
LUEX 25.350 1.00 S
RHPW 15.260 1.00 P
RHPW 26.710 1.00 S
CBZA 15.890 1.00 P
CBZA 27.810 1.00 S
AVTK 17.460 1.00 P
AVTK 30.560 1.00 S
MGUS 22.070 1.00 P
MGUS 38.610 1.00 S
RAWC 22.440 1.00 P
RAWC 39.260 1.00 S
DQYH 23.440 1.00 P
DQYH 41.030 1.00 S
APSL 24.160 1.00 P
APSL 42.280 1.00 S
FOUH 24.880 1.00 P
FOUH 43.530 1.00 S
VOCA 26.770 1.00 P
VOCA 46.850 1.00 S
RPKV 33.100 1.00 P
RPKV 56.740 1.00 S
QYDI 33.720 1.00 P
QYDI 57.860 1.00 S
HLUH 34.300 1.00 P
HLUH 58.820 1.00 S
# 2001 02 03 04 19 00.000000 33.830 52.600  15.3  2.0 0.0 0.0 0.0       223
RHPW 10.550 1.00 P
RHPW 18.460 1.00 S
XBVK 12.970 1.00 P
XBVK 22.700 1.00 S
LUEX 13.720 1.00 P
LUEX 24.010 1.00 S
AVTK 15.830 1.00 P
CBZA 17.310 1.00 P
CBZA 30.300 1.00 S
DNOA 19.180 1.00 P
DNOA 33.570 1.00 S
DQYH 20.600 1.00 P
DQYH 36.050 1.00 S
FOUH 21.190 1.00 P
FOUH 37.070 1.00 S
MGUS 21.350 1.00 P
MGUS 37.360 1.00 S
APSL 22.250 1.00 P
APSL 38.940 1.00 S
RAWC 22.750 1.00 P
RAWC 39.820 1.00 S
VOCA 23.680 1.00 P
VOCA 41.450 1.00 S
RPKV 30.070 1.00 P
RPKV 51.880 1.00 S
QYDI 30.370 1.00 P
QYDI 52.480 1.00 S
HLUH 31.450 1.00 P
HLUH 54.310 1.00 S
# 2001 02 03 04 20 10.000000 33.785 52.725  19.3  1.5 0.0 0.0 0.0       224
RHPW 10.500 1.00 P
RHPW 18.370 1.00 S
XBVK 13.300 1.00 P
XBVK 23.280 1.00 S
LUEX 15.320 1.00 P
LUEX 26.820 1.00 S
AVTK 17.300 1.00 P
AVTK 30.280 1.00 S
DNOA 17.920 1.00 P
DNOA 31.360 1.00 S
CBZA 18.390 1.00 P
CBZA 32.180 1.00 S
MGUS 19.210 1.00 P
MGUS 33.620 1.00 S
APSL 20.430 1.00 P
APSL 35.760 1.00 S
RAWC 20.530 1.00 P
FOUH 21.060 1.00 P
FOUH 36.850 1.00 S
DQYH 21.730 1.00 P
DQYH 38.020 1.00 S
VOCA 22.760 1.00 P
VOCA 39.830 1.00 S
RPKV 30.560 1.00 P
RPKV 52.700 1.00 S
QYDI 30.600 1.00 P
QYDI 52.920 1.00 S
HLUH 32.000 1.00 P
HLUH 55.190 1.00 S
# 2001 02 03 04 21 20.000000 34.023 52.645  16.6  0.7 0.0 0.0 0.0       225
RHPW  7.030 1.00 P
RHPW 12.300 1.00 S
XBVK  8.840 1.00 P
XBVK 15.470 1.00 S
LUEX 14.840 1.00 P
LUEX 25.970 1.00 S
AVTK 15.770 1.00 P
AVTK 27.600 1.00 S
DNOA 16.670 1.00 P
DNOA 29.170 1.00 S
FOUH 17.800 1.00 P
FOUH 31.150 1.00 S
DQYH 18.910 1.00 P
DQYH 33.090 1.00 S
APSL 20.680 1.00 P
APSL 36.190 1.00 S
VOCA 21.050 1.00 P
VOCA 36.840 1.00 S
RAWC 23.340 1.00 P
RAWC 40.840 1.00 S
RPKV 27.920 1.00 P
RPKV 48.520 1.00 S
QYDI 27.800 1.00 P
QYDI 48.340 1.00 S
HLUH 29.470 1.00 P
HLUH 51.190 1.00 S
# 2001 02 03 04 22 30.000000 33.523 52.446  10.8  2.8 0.0 0.0 0.0       226
CBZA 14.520 1.00 P
CBZA 25.400 1.00 S
AVTK 17.510 1.00 P
AVTK 30.640 1.00 S
RHPW 17.770 1.00 P
RHPW 31.090 1.00 S
XBVK 19.670 1.00 P
XBVK 34.430 1.00 S
RAWC 24.370 1.00 P
RAWC 42.630 1.00 S
MGUS 24.440 1.00 P
MGUS 42.760 1.00 S
DNOA 24.690 1.00 P
DNOA 43.200 1.00 S
APSL 26.560 1.00 P
APSL 46.480 1.00 S
FOUH 26.940 1.00 P
FOUH 47.110 1.00 S
VOCA 29.200 1.00 P
VOCA 50.850 1.00 S
RPKV 34.230 1.00 P
RPKV 58.840 1.00 S
HLUH 35.220 1.00 P
HLUH 60.450 1.00 S
QYDI 35.250 1.00 P
QYDI 60.310 1.00 S
# 2001 02 03 04 23 40.000000 33.841 52.771  20.1  3.2 0.0 0.0 0.0       227
RHPW  9.230 1.00 P
RHPW 16.160 1.00 S
XBVK 12.400 1.00 P
XBVK 21.700 1.00 S
LUEX 15.780 1.00 P
LUEX 27.610 1.00 S
DNOA 16.710 1.00 P
DNOA 29.240 1.00 S
AVTK 17.600 1.00 P
AVTK 30.800 1.00 S
CBZA 19.110 1.00 P
CBZA 33.430 1.00 S
APSL 19.440 1.00 P
APSL 34.010 1.00 S
RAWC 20.130 1.00 P
RAWC 35.230 1.00 S
FOUH 20.200 1.00 P
FOUH 35.360 1.00 S
DQYH 21.570 1.00 P
DQYH 37.750 1.00 S
VOCA 21.740 1.00 P
VOCA 38.050 1.00 S
RPKV 30.190 1.00 P
RPKV 52.100 1.00 S
QYDI 29.940 1.00 P
QYDI 51.820 1.00 S
# 2001 02 03 04 24 50.000000 33.401 52.502  12.0  1.3 0.0 0.0 0.0       228
CBZA 16.080 1.00 P
CBZA 28.140 1.00 S
LUEX 16.450 1.00 P
LUEX 28.790 1.00 S
RHPW 19.230 1.00 P
RHPW 33.650 1.00 S
AVTK 19.730 1.00 P
AVTK 34.530 1.00 S
XBVK 21.400 1.00 P
XBVK 37.450 1.00 S
RAWC 23.440 1.00 P
RAWC 41.030 1.00 S
MGUS 24.250 1.00 P
MGUS 42.440 1.00 S
DQYH 26.190 1.00 P
DQYH 45.730 1.00 S
APSL 26.720 1.00 P
APSL 46.740 1.00 S
FOUH 28.360 1.00 P
FOUH 49.470 1.00 S
VOCA 29.910 1.00 P
VOCA 52.000 1.00 S
RPKV 35.820 1.00 P
RPKV 61.480 1.00 S
QYDI 36.760 1.00 P
QYDI 62.890 1.00 S
# 2001 02 03 04 26 00.000000 33.731 52.702  18.6  1.0 0.0 0.0 0.0       229
RHPW 11.790 1.00 P
XBVK 14.460 1.00 P
XBVK 25.310 1.00 S
LUEX 15.180 1.00 P
LUEX 26.570 1.00 S
AVTK 17.400 1.00 P
AVTK 30.450 1.00 S
CBZA 17.840 1.00 P
CBZA 31.230 1.00 S
DNOA 19.030 1.00 P
DNOA 33.300 1.00 S
MGUS 19.750 1.00 P
MGUS 34.560 1.00 S
RAWC 20.730 1.00 P
RAWC 36.280 1.00 S
APSL 21.250 1.00 P
APSL 37.180 1.00 S
DQYH 22.230 1.00 P
DQYH 38.900 1.00 S
FOUH 22.030 1.00 P
FOUH 38.550 1.00 S
VOCA 23.770 1.00 P
VOCA 41.590 1.00 S
QYDI 31.470 1.00 P
QYDI 54.390 1.00 S
HLUH 32.650 1.00 P
HLUH 56.230 1.00 S
# 2001 02 03 04 27 10.000000 34.052 52.624  15.8  0.6 0.0 0.0 0.0       230
RHPW  7.080 1.00 P
RHPW 12.390 1.00 S
XBVK  8.320 1.00 P
XBVK 14.560 1.00 S
LUEX 14.640 1.00 P
LUEX 25.620 1.00 S
AVTK 15.360 1.00 P
AVTK 26.870 1.00 S
DNOA 16.920 1.00 P
DNOA 29.600 1.00 S
FOUH 17.450 1.00 P
FOUH 30.540 1.00 S
DQYH 18.300 1.00 P
DQYH 32.030 1.00 S
CBZA 18.950 1.00 P
CBZA 33.150 1.00 S
VOCA 21.140 1.00 P
VOCA 37.000 1.00 S
MGUS 21.630 1.00 P
MGUS 37.850 1.00 S
RAWC 23.930 1.00 P
RAWC 41.880 1.00 S
RPKV 27.440 1.00 P
RPKV 47.790 1.00 S
QYDI 27.430 1.00 P
QYDI 47.820 1.00 S
HLUH 28.980 1.00 P
HLUH 50.420 1.00 S
# 2001 02 03 04 28 20.000000 33.756 52.749  20.1  2.2 0.0 0.0 0.0       231
RHPW 10.890 1.00 P
RHPW 19.060 1.00 S
XBVK 13.820 1.00 P
XBVK 24.190 1.00 S
AVTK 17.650 1.00 P
AVTK 30.890 1.00 S
DNOA 17.950 1.00 P
DNOA 31.420 1.00 S
CBZA 18.470 1.00 P
CBZA 32.320 1.00 S
MGUS 18.930 1.00 P
MGUS 33.130 1.00 S
RAWC 20.100 1.00 P
RAWC 35.170 1.00 S
APSL 20.220 1.00 P
APSL 35.390 1.00 S
DQYH 22.090 1.00 P
DQYH 38.660 1.00 S
VOCA 22.830 1.00 P
VOCA 39.950 1.00 S
RPKV 30.890 1.00 P
RPKV 53.260 1.00 S
QYDI 30.950 1.00 P
QYDI 53.480 1.00 S
HLUH 32.330 1.00 P
HLUH 55.710 1.00 S
