# 2001 02 03 01 55 30.000000 33.745 52.695  18.0  1.2 0.0 0.0 0.0       100
RHPW 11.440 1.00 P
RHPW 20.020 1.00 S
XBVK 14.180 1.00 P
XBVK 24.810 1.00 S
LUEX 15.010 1.00 P
LUEX 26.260 1.00 S
AVTK 17.220 1.00 P
AVTK 30.140 1.00 S
DNOA 18.910 1.00 P
DNOA 33.100 1.00 S
MGUS 19.920 1.00 P
MGUS 34.860 1.00 S
RAWC 20.960 1.00 P
RAWC 36.680 1.00 S
APSL 21.310 1.00 P
APSL 37.300 1.00 S
DQYH 22.000 1.00 P
DQYH 38.500 1.00 S
FOUH 21.830 1.00 P
FOUH 38.210 1.00 S
VOCA 23.590 1.00 P
VOCA 41.290 1.00 S
RPKV 31.050 1.00 P
RPKV 53.510 1.00 S
QYDI 31.270 1.00 P
QYDI 54.040 1.00 S
HLUH 32.450 1.00 P
HLUH 55.920 1.00 S
# 2001 02 03 01 56 40.000000 33.938 52.852  22.6  1.5 0.0 0.0 0.0       101
XBVK 10.620 1.00 P
XBVK 18.580 1.00 S
DNOA 14.300 1.00 P
DNOA 25.030 1.00 S
LUEX 16.780 1.00 P
LUEX 29.370 1.00 S
MGUS 17.410 1.00 P
MGUS 30.470 1.00 S
APSL 17.550 1.00 P
APSL 30.720 1.00 S
AVTK 18.080 1.00 P
AVTK 31.630 1.00 S
FOUH 18.200 1.00 P
FOUH 31.850 1.00 S
VOCA 19.550 1.00 P
VOCA 34.210 1.00 S
RAWC 19.770 1.00 P
RAWC 34.600 1.00 S
CBZA 20.240 1.00 P
CBZA 35.410 1.00 S
DQYH 21.010 1.00 P
DQYH 36.770 1.00 S
QYDI 28.390 1.00 P
QYDI 49.250 1.00 S
HLUH 30.870 1.00 P
HLUH 53.190 1.00 S
# 2001 02 03 01 57 50.000000 34.079 52.596  15.2  0.8 0.0 0.0 0.0       102
RHPW  7.170 1.00 P
RHPW 12.540 1.00 S
XBVK  7.750 1.00 P
XBVK 13.560 1.00 S
LUEX 14.420 1.00 P
LUEX 25.230 1.00 S
AVTK 14.970 1.00 P
AVTK 26.190 1.00 S
FOUH 17.030 1.00 P
FOUH 29.800 1.00 S
DNOA 17.110 1.00 P
DNOA 29.940 1.00 S
DQYH 17.700 1.00 P
DQYH 30.980 1.00 S
CBZA 19.110 1.00 P
CBZA 33.450 1.00 S
VOCA 21.020 1.00 P
VOCA 36.780 1.00 S
APSL 21.460 1.00 P
APSL 37.550 1.00 S
MGUS 22.240 1.00 P
MGUS 38.930 1.00 S
RAWC 24.590 1.00 P
RAWC 43.030 1.00 S
RPKV 26.940 1.00 P
HLUH 28.490 1.00 P
HLUH 49.590 1.00 S
# 2001 02 03 01 59 00.000000 33.735 52.620  15.9  2.5 0.0 0.0 0.0       103
LUEX 14.210 1.00 P
LUEX 24.870 1.00 S
XBVK 14.750 1.00 P
XBVK 25.820 1.00 S
AVTK 16.630 1.00 P
AVTK 29.100 1.00 S
CBZA 16.940 1.00 P
CBZA 29.640 1.00 S
DNOA 20.110 1.00 P
DNOA 35.190 1.00 S
MGUS 21.100 1.00 P
MGUS 36.930 1.00 S
DQYH 21.790 1.00 P
DQYH 38.140 1.00 S
RAWC 22.060 1.00 P
RAWC 38.600 1.00 S
APSL 22.520 1.00 P
APSL 39.420 1.00 S
FOUH 22.440 1.00 P
FOUH 39.260 1.00 S
VOCA 24.700 1.00 P
VOCA 43.220 1.00 S
RPKV 31.250 1.00 P
RPKV 53.860 1.00 S
HLUH 32.600 1.00 P
HLUH 56.210 1.00 S
# 2001 02 03 02 00 10.000000 34.087 52.867  22.9  0.7 0.0 0.0 0.0       104
RHPW  5.490 1.00 P
RHPW  9.610 1.00 S
XBVK  8.490 1.00 P
XBVK 14.860 1.00 S
DNOA 12.660 1.00 P
DNOA 22.160 1.00 S
FOUH 15.970 1.00 P
FOUH 27.940 1.00 S
APSL 16.780 1.00 P
APSL 29.370 1.00 S
LUEX 17.510 1.00 P
LUEX 30.640 1.00 S
VOCA 17.610 1.00 P
VOCA 30.830 1.00 S
MGUS 17.910 1.00 P
MGUS 31.350 1.00 S
AVTK 18.330 1.00 P
AVTK 32.070 1.00 S
DQYH 20.310 1.00 P
DQYH 35.550 1.00 S
RAWC 20.970 1.00 P
RAWC 36.700 1.00 S
CBZA 21.160 1.00 P
CBZA 37.030 1.00 S
QYDI 26.530 1.00 P
QYDI 46.170 1.00 S
RPKV 27.710 1.00 P
RPKV 47.980 1.00 S
# 2001 02 03 02 01 20.000000 33.698 52.441  10.6  1.0 0.0 0.0 0.0       105
LUEX 12.040 1.00 P
LUEX 21.060 1.00 S
CBZA 14.670 1.00 P
CBZA 25.670 1.00 S
RHPW 15.420 1.00 P
RHPW 26.980 1.00 S
AVTK 15.280 1.00 P
AVTK 26.740 1.00 S
XBVK 17.200 1.00 P
XBVK 30.090 1.00 S
DQYH 22.000 1.00 P
DQYH 38.500 1.00 S
DNOA 23.290 1.00 P
DNOA 40.760 1.00 S
MGUS 24.400 1.00 P
MGUS 42.700 1.00 S
FOUH 24.690 1.00 P
FOUH 43.210 1.00 S
APSL 25.880 1.00 P
APSL 45.280 1.00 S
VOCA 27.540 1.00 P
VOCA 48.190 1.00 S
RPKV 31.930 1.00 P
RPKV 55.370 1.00 S
QYDI 33.080 1.00 P
QYDI 57.120 1.00 S
HLUH 33.000 1.00 P
HLUH 57.030 1.00 S
# 2001 02 03 02 02 30.000000 34.127 52.244   5.6  1.9 0.0 0.0 0.0       106
AVTK  8.970 1.00 P
AVTK 15.690 1.00 S
XBVK 12.080 1.00 P
XBVK 21.140 1.00 S
DQYH 13.910 1.00 P
DQYH 24.350 1.00 S
RHPW 14.200 1.00 P
RHPW 24.850 1.00 S
FOUH 20.280 1.00 P
FOUH 35.500 1.00 S
DNOA 23.620 1.00 P
DNOA 41.340 1.00 S
RPKV 26.540 1.00 P
RPKV 46.450 1.00 S
VOCA 26.380 1.00 P
VOCA 46.160 1.00 S
HLUH 27.760 1.00 P
HLUH 48.580 1.00 S
APSL 27.800 1.00 P
APSL 48.640 1.00 S
QYDI 28.100 1.00 P
QYDI 49.150 1.00 S
MGUS 28.370 1.00 P
MGUS 49.640 1.00 S
RAWC 30.520 1.00 P
RAWC 53.220 1.00 S
# 2001 02 03 02 03 40.000000 33.733 52.598  14.8  0.9 0.0 0.0 0.0       107
RHPW 12.580 1.00 P
RHPW 22.010 1.00 S
LUEX 14.100 1.00 P
LUEX 24.680 1.00 S
XBVK 15.000 1.00 P
XBVK 26.240 1.00 S
AVTK 16.620 1.00 P
AVTK 29.080 1.00 S
CBZA 16.780 1.00 P
CBZA 29.360 1.00 S
DNOA 20.410 1.00 P
DNOA 35.710 1.00 S
MGUS 21.500 1.00 P
MGUS 37.620 1.00 S
DQYH 21.950 1.00 P
DQYH 38.410 1.00 S
RAWC 22.410 1.00 P
RAWC 39.230 1.00 S
FOUH 22.710 1.00 P
FOUH 39.750 1.00 S
APSL 22.880 1.00 P
APSL 40.050 1.00 S
VOCA 24.970 1.00 P
VOCA 43.700 1.00 S
RPKV 31.450 1.00 P
RPKV 54.210 1.00 S
QYDI 31.840 1.00 P
QYDI 54.980 1.00 S
HLUH 32.790 1.00 P
HLUH 56.560 1.00 S
# 2001 02 03 02 04 50.000000 33.853 52.640  15.6  2.1 0.0 0.0 0.0       108
RHPW  9.780 1.00 P
RHPW 17.120 1.00 S
XBVK 12.420 1.00 P
XBVK 21.730 1.00 S
LUEX 14.300 1.00 P
LUEX 25.030 1.00 S
AVTK 16.300 1.00 P
AVTK 28.530 1.00 S
CBZA 17.910 1.00 P
DNOA 18.470 1.00 P
DNOA 32.320 1.00 S
DQYH 20.740 1.00 P
DQYH 36.290 1.00 S
FOUH 20.760 1.00 P
FOUH 36.320 1.00 S
MGUS 20.860 1.00 P
MGUS 36.500 1.00 S
APSL 21.630 1.00 P
APSL 37.850 1.00 S
RAWC 22.370 1.00 P
RAWC 39.150 1.00 S
VOCA 23.140 1.00 P
RPKV 29.970 1.00 P
RPKV 51.720 1.00 S
QYDI 30.110 1.00 P
QYDI 52.070 1.00 S
HLUH 31.410 1.00 P
HLUH 54.210 1.00 S
# 2001 02 03 02 06 00.000000 33.686 52.541  13.8  2.4 0.0 0.0 0.0       109
LUEX 13.490 1.00 P
LUEX 23.600 1.00 S
RHPW 13.940 1.00 P
RHPW 24.400 1.00 S
CBZA 15.870 1.00 P
CBZA 27.770 1.00 S
XBVK 16.140 1.00 P
XBVK 28.240 1.00 S
AVTK 16.280 1.00 P
AVTK 28.490 1.00 S
DNOA 21.510 1.00 P
DNOA 37.640 1.00 S
DQYH 22.130 1.00 P
DQYH 38.720 1.00 S
MGUS 22.440 1.00 P
MGUS 39.270 1.00 S
RAWC 23.150 1.00 P
RAWC 40.520 1.00 S
FOUH 23.640 1.00 P
FOUH 41.380 1.00 S
APSL 23.950 1.00 P
APSL 41.910 1.00 S
VOCA 26.040 1.00 P
VOCA 45.560 1.00 S
QYDI 32.460 1.00 P
QYDI 56.000 1.00 S
HLUH 33.010 1.00 P
HLUH 57.090 1.00 S
# 2001 02 03 02 07 10.000000 33.724 52.480  12.6  1.7 0.0 0.0 0.0       110
LUEX 12.280 1.00 P
LUEX 21.490 1.00 S
RHPW 14.100 1.00 P
RHPW 24.680 1.00 S
CBZA 15.170 1.00 P
CBZA 26.550 1.00 S
AVTK 15.130 1.00 P
AVTK 26.480 1.00 S
XBVK 16.030 1.00 P
XBVK 28.040 1.00 S
DQYH 21.420 1.00 P
DQYH 37.490 1.00 S
DNOA 22.110 1.00 P
DNOA 38.690 1.00 S
MGUS 23.560 1.00 P
MGUS 41.240 1.00 S
FOUH 23.610 1.00 P
FOUH 41.320 1.00 S
RAWC 24.380 1.00 P
APSL 24.810 1.00 P
APSL 43.410 1.00 S
VOCA 26.360 1.00 P
VOCA 46.140 1.00 S
RPKV 31.240 1.00 P
RPKV 54.170 1.00 S
QYDI 32.210 1.00 P
QYDI 55.590 1.00 S
HLUH 32.360 1.00 P
HLUH 55.940 1.00 S
# 2001 02 03 02 08 20.000000 33.827 52.209   3.9  3.4 0.0 0.0 0.0       111
LUEX  5.950 1.00 P
LUEX 10.410 1.00 S
AVTK 10.290 1.00 P
AVTK 18.010 1.00 S
CBZA 11.960 1.00 P
CBZA 20.930 1.00 S
XBVK 17.590 1.00 P
XBVK 30.770 1.00 S
DQYH 19.570 1.00 P
DQYH 34.250 1.00 S
FOUH 25.140 1.00 P
FOUH 44.000 1.00 S
DNOA 26.070 1.00 P
DNOA 45.630 1.00 S
MGUS 28.750 1.00 P
MGUS 50.280 1.00 S
APSL 29.420 1.00 P
APSL 51.480 1.00 S
VOCA 29.720 1.00 P
VOCA 52.020 1.00 S
RPKV 30.770 1.00 P
RPKV 53.610 1.00 S
HLUH 31.690 1.00 P
HLUH 55.020 1.00 S
QYDI 32.620 1.00 P
QYDI 56.490 1.00 S
# 2001 02 03 02 09 30.000000 33.774 52.463  11.5  1.5 0.0 0.0 0.0       112
LUEX 12.020 1.00 P
LUEX 21.030 1.00 S
RHPW 13.580 1.00 P
RHPW 23.770 1.00 S
AVTK 14.760 1.00 P
AVTK 25.830 1.00 S
CBZA 15.390 1.00 P
CBZA 26.940 1.00 S
DQYH 21.050 1.00 P
DQYH 36.830 1.00 S
DNOA 22.070 1.00 P
DNOA 38.620 1.00 S
FOUH 23.270 1.00 P
FOUH 40.730 1.00 S
MGUS 23.780 1.00 P
MGUS 41.620 1.00 S
RAWC 24.850 1.00 P
RAWC 43.480 1.00 S
VOCA 26.180 1.00 P
VOCA 45.820 1.00 S
RPKV 30.930 1.00 P
RPKV 53.630 1.00 S
QYDI 31.820 1.00 P
QYDI 55.000 1.00 S
HLUH 32.080 1.00 P
HLUH 55.500 1.00 S
# 2001 02 03 02 10 40.000000 33.861 52.948  24.8  1.6 0.0 0.0 0.0       113
RHPW  8.850 1.00 P
RHPW 15.480 1.00 S
XBVK 12.560 1.00 P
XBVK 21.980 1.00 S
DNOA 14.130 1.00 P
DNOA 24.730 1.00 S
MGUS 15.590 1.00 P
MGUS 27.280 1.00 S
RAWC 17.780 1.00 P
RAWC 31.110 1.00 S
LUEX 17.970 1.00 P
LUEX 31.440 1.00 S
AVTK 19.430 1.00 P
AVTK 34.000 1.00 S
VOCA 19.700 1.00 P
VOCA 34.470 1.00 S
CBZA 21.050 1.00 P
CBZA 36.820 1.00 S
DQYH 22.580 1.00 P
DQYH 39.510 1.00 S
QYDI 29.540 1.00 P
QYDI 51.210 1.00 S
RPKV 30.430 1.00 P
RPKV 52.430 1.00 S
HLUH 32.240 1.00 P
HLUH 55.390 1.00 S
# 2001 02 03 02 11 50.000000 33.591 52.662  17.3  3.1 0.0 0.0 0.0       114
RHPW 14.570 1.00 P
RHPW 25.500 1.00 S
LUEX 15.590 1.00 P
CBZA 17.030 1.00 P
CBZA 29.790 1.00 S
XBVK 17.030 1.00 P
XBVK 29.810 1.00 S
AVTK 18.260 1.00 P
AVTK 31.950 1.00 S
RAWC 20.790 1.00 P
RAWC 36.370 1.00 S
MGUS 20.500 1.00 P
MGUS 35.870 1.00 S
DNOA 21.020 1.00 P
DNOA 36.790 1.00 S
DQYH 23.710 1.00 P
DQYH 41.490 1.00 S
FOUH 24.280 1.00 P
FOUH 42.480 1.00 S
VOCA 25.770 1.00 P
VOCA 45.080 1.00 S
RPKV 33.020 1.00 P
RPKV 56.560 1.00 S
QYDI 33.500 1.00 P
QYDI 57.430 1.00 S
HLUH 34.290 1.00 P
HLUH 58.770 1.00 S
# 2001 02 03 02 13 00.000000 33.870 52.716  18.5  2.5 0.0 0.0 0.0       115
RHPW  8.910 1.00 P
RHPW 15.590 1.00 S
XBVK 11.830 1.00 P
XBVK 20.700 1.00 S
LUEX 15.120 1.00 P
LUEX 26.460 1.00 S
AVTK 16.860 1.00 P
AVTK 29.500 1.00 S
DNOA 17.100 1.00 P
DNOA 29.930 1.00 S
CBZA 18.600 1.00 P
CBZA 32.560 1.00 S
MGUS 19.580 1.00 P
MGUS 34.260 1.00 S
FOUH 20.050 1.00 P
FOUH 35.090 1.00 S
APSL 20.180 1.00 P
APSL 35.310 1.00 S
DQYH 20.900 1.00 P
DQYH 36.570 1.00 S
RAWC 21.190 1.00 P
RAWC 37.070 1.00 S
VOCA 22.040 1.00 P
VOCA 38.560 1.00 S
RPKV 29.730 1.00 P
RPKV 51.310 1.00 S
QYDI 29.650 1.00 P
QYDI 51.320 1.00 S
HLUH 31.210 1.00 P
HLUH 53.860 1.00 S
# 2001 02 03 02 14 10.000000 34.035 52.756  19.7  1.8 0.0 0.0 0.0       116
RHPW  5.950 1.00 P
RHPW 10.400 1.00 S
XBVK  8.500 1.00 P
XBVK 14.880 1.00 S
DNOA 14.760 1.00 P
DNOA 25.830 1.00 S
LUEX 15.930 1.00 P
LUEX 27.880 1.00 S
AVTK 16.840 1.00 P
AVTK 29.460 1.00 S
FOUH 16.900 1.00 P
APSL 18.870 1.00 P
APSL 33.030 1.00 S
DQYH 19.540 1.00 P
DQYH 34.190 1.00 S
MGUS 19.390 1.00 P
MGUS 33.930 1.00 S
VOCA 19.510 1.00 P
CBZA 19.820 1.00 P
CBZA 34.680 1.00 S
RAWC 21.950 1.00 P
RAWC 38.420 1.00 S
QYDI 27.300 1.00 P
QYDI 47.470 1.00 S
RPKV 27.900 1.00 P
RPKV 48.390 1.00 S
HLUH 29.630 1.00 P
HLUH 51.210 1.00 S
# 2001 02 03 02 15 20.000000 33.843 52.451  10.2  1.2 0.0 0.0 0.0       117
LUEX 11.510 1.00 P
LUEX 20.140 1.00 S
RHPW 12.870 1.00 P
RHPW 22.520 1.00 S
AVTK 14.220 1.00 P
AVTK 24.880 1.00 S
XBVK 14.230 1.00 P
XBVK 24.910 1.00 S
DQYH 20.260 1.00 P
DQYH 35.450 1.00 S
DNOA 21.970 1.00 P
DNOA 38.460 1.00 S
FOUH 22.620 1.00 P
FOUH 39.580 1.00 S
MGUS 24.300 1.00 P
MGUS 42.520 1.00 S
APSL 25.090 1.00 P
APSL 43.900 1.00 S
RAWC 25.620 1.00 P
RAWC 44.830 1.00 S
VOCA 25.970 1.00 P
VOCA 45.450 1.00 S
RPKV 30.260 1.00 P
RPKV 52.600 1.00 S
QYDI 31.170 1.00 P
QYDI 53.970 1.00 S
HLUH 31.470 1.00 P
HLUH 54.540 1.00 S
# 2001 02 03 02 16 30.000000 33.671 52.841  21.8  2.1 0.0 0.0 0.0       118
RHPW 12.480 1.00 P
XBVK 15.710 1.00 P
XBVK 27.490 1.00 S
LUEX 17.250 1.00 P
LUEX 30.190 1.00 S
MGUS 17.610 1.00 P
MGUS 30.820 1.00 S
DNOA 18.070 1.00 P
DNOA 31.630 1.00 S
RAWC 18.280 1.00 P
RAWC 31.990 1.00 S
CBZA 19.380 1.00 P
CBZA 33.920 1.00 S
AVTK 19.320 1.00 P
AVTK 33.820 1.00 S
APSL 19.560 1.00 P
APSL 34.240 1.00 S
FOUH 22.450 1.00 P
FOUH 39.280 1.00 S
VOCA 23.240 1.00 P
VOCA 40.660 1.00 S
DQYH 23.770 1.00 P
DQYH 41.520 1.00 S
RPKV 32.500 1.00 P
QYDI 32.280 1.00 P
QYDI 55.410 1.00 S
HLUH 33.930 1.00 P
HLUH 58.110 1.00 S
# 2001 02 03 02 17 40.000000 34.012 52.480  12.1  1.7 0.0 0.0 0.0       119
RHPW  9.950 1.00 P
RHPW 17.410 1.00 S
XBVK 10.050 1.00 P
XBVK 17.600 1.00 S
AVTK 13.240 1.00 P
AVTK 23.170 1.00 S
CBZA 17.260 1.00 P
CBZA 30.210 1.00 S
DQYH 17.410 1.00 P
DQYH 30.470 1.00 S
FOUH 19.180 1.00 P
FOUH 33.560 1.00 S
DNOA 19.830 1.00 P
DNOA 34.700 1.00 S
APSL 23.790 1.00 P
APSL 41.640 1.00 S
VOCA 23.620 1.00 P
VOCA 41.340 1.00 S
RAWC 26.130 1.00 P
RAWC 45.720 1.00 S
RPKV 27.610 1.00 P
RPKV 48.110 1.00 S
QYDI 28.220 1.00 P
QYDI 49.230 1.00 S
HLUH 28.930 1.00 P
HLUH 50.470 1.00 S
# 2001 02 03 02 18 50.000000 33.582 52.724  19.0  2.9 0.0 0.0 0.0       120
RHPW 14.450 1.00 P
RHPW 25.290 1.00 S
LUEX 16.300 1.00 P
LUEX 28.530 1.00 S
XBVK 17.080 1.00 P
XBVK 29.900 1.00 S
CBZA 17.880 1.00 P
CBZA 31.290 1.00 S
AVTK 18.870 1.00 P
AVTK 33.020 1.00 S
RAWC 19.700 1.00 P
RAWC 34.480 1.00 S
MGUS 19.530 1.00 P
MGUS 34.170 1.00 S
DNOA 20.450 1.00 P
DNOA 35.790 1.00 S
APSL 21.840 1.00 P
APSL 38.220 1.00 S
DQYH 24.190 1.00 P
DQYH 42.240 1.00 S
FOUH 24.140 1.00 P
FOUH 42.250 1.00 S
VOCA 25.320 1.00 P
VOCA 44.280 1.00 S
RPKV 33.280 1.00 P
RPKV 56.880 1.00 S
QYDI 33.570 1.00 P
QYDI 57.380 1.00 S
HLUH 34.590 1.00 P
HLUH 59.180 1.00 S
# 2001 02 03 02 20 00.000000 33.920 52.619  16.0  2.2 0.0 0.0 0.0       121
XBVK 11.150 1.00 P
XBVK 19.510 1.00 S
LUEX 13.970 1.00 P
LUEX 24.440 1.00 S
CBZA 17.930 1.00 P
CBZA 31.380 1.00 S
DNOA 18.030 1.00 P
DNOA 31.560 1.00 S
DQYH 19.710 1.00 P
DQYH 34.490 1.00 S
FOUH 19.780 1.00 P
FOUH 34.610 1.00 S
MGUS 21.340 1.00 P
MGUS 37.350 1.00 S
APSL 21.600 1.00 P
APSL 37.810 1.00 S
VOCA 22.600 1.00 P
VOCA 39.550 1.00 S
RAWC 23.080 1.00 P
RAWC 40.380 1.00 S
RPKV 29.090 1.00 P
RPKV 50.300 1.00 S
QYDI 29.230 1.00 P
QYDI 50.620 1.00 S
HLUH 30.490 1.00 P
HLUH 52.830 1.00 S
# 2001 02 03 02 21 10.000000 33.921 52.358   8.1  1.1 0.0 0.0 0.0       122
LUEX  9.370 1.00 P
LUEX 16.390 1.00 S
AVTK 11.770 1.00 P
AVTK 20.600 1.00 S
RHPW 13.420 1.00 P
RHPW 23.480 1.00 S
XBVK 13.360 1.00 P
XBVK 23.390 1.00 S
CBZA 15.410 1.00 P
CBZA 26.970 1.00 S
DQYH 18.440 1.00 P
DQYH 32.270 1.00 S
FOUH 22.130 1.00 P
FOUH 38.720 1.00 S
DNOA 22.980 1.00 P
DNOA 40.210 1.00 S
MGUS 26.130 1.00 P
MGUS 45.720 1.00 S
APSL 26.380 1.00 P
APSL 46.170 1.00 S
VOCA 26.630 1.00 P
VOCA 46.610 1.00 S
RAWC 27.780 1.00 P
RAWC 48.580 1.00 S
RPKV 29.260 1.00 P
RPKV 51.100 1.00 S
HLUH 30.410 1.00 P
QYDI 30.390 1.00 P
QYDI 52.750 1.00 S
# 2001 02 03 02 22 20.000000 33.853 52.319   7.7  1.5 0.0 0.0 0.0       123
LUEX  8.460 1.00 P
LUEX 14.800 1.00 S
AVTK 11.830 1.00 P
AVTK 20.700 1.00 S
CBZA 14.180 1.00 P
CBZA 24.820 1.00 S
RHPW 15.040 1.00 P
RHPW 26.330 1.00 S
XBVK 15.350 1.00 P
XBVK 26.860 1.00 S
DQYH 19.400 1.00 P
DQYH 33.940 1.00 S
FOUH 23.460 1.00 P
FOUH 41.060 1.00 S
DNOA 23.970 1.00 P
DNOA 41.940 1.00 S
MGUS 26.620 1.00 P
MGUS 46.590 1.00 S
APSL 27.230 1.00 P
APSL 47.660 1.00 S
VOCA 27.710 1.00 P
VOCA 48.490 1.00 S
RAWC 27.970 1.00 P
RAWC 48.910 1.00 S
RPKV 30.170 1.00 P
RPKV 52.540 1.00 S
HLUH 31.230 1.00 P
HLUH 54.130 1.00 S
QYDI 31.440 1.00 P
QYDI 54.490 1.00 S
# 2001 02 03 02 23 30.000000 33.605 53.004  27.0  5.0 0.0 0.0 0.0       124
RHPW 13.530 1.00 P
RHPW 23.670 1.00 S
MGUS 15.100 1.00 P
MGUS 26.430 1.00 S
RAWC 15.430 1.00 P
RAWC 27.010 1.00 S
XBVK 16.850 1.00 P
XBVK 29.480 1.00 S
DNOA 17.270 1.00 P
DNOA 30.230 1.00 S
APSL 17.830 1.00 P
APSL 31.200 1.00 S
LUEX 19.090 1.00 P
LUEX 33.400 1.00 S
CBZA 20.700 1.00 P
CBZA 36.220 1.00 S
AVTK 20.980 1.00 P
AVTK 36.690 1.00 S
VOCA 22.650 1.00 P
VOCA 39.480 1.00 S
FOUH 23.030 1.00 P
FOUH 40.250 1.00 S
DQYH 24.970 1.00 P
DQYH 43.340 1.00 S
QYDI 32.970 1.00 P
QYDI 56.380 1.00 S
RPKV 33.480 1.00 P
HLUH 35.020 1.00 P
HLUH 59.640 1.00 S
# 2001 02 03 02 24 40.000000 33.917 52.547  14.4  1.8 0.0 0.0 0.0       125
RHPW  9.940 1.00 P
RHPW 17.400 1.00 S
XBVK 11.600 1.00 P
XBVK 20.300 1.00 S
LUEX 12.930 1.00 P
LUEX 22.640 1.00 S
AVTK 14.630 1.00 P
AVTK 25.600 1.00 S
CBZA 17.080 1.00 P
CBZA 29.880 1.00 S
DQYH 19.280 1.00 P
DNOA 19.210 1.00 P
DNOA 33.620 1.00 S
FOUH 20.330 1.00 P
FOUH 35.580 1.00 S
MGUS 22.440 1.00 P
MGUS 39.270 1.00 S
APSL 22.760 1.00 P
APSL 39.830 1.00 S
VOCA 23.520 1.00 P
VOCA 41.170 1.00 S
RAWC 24.070 1.00 P
RAWC 42.120 1.00 S
RPKV 28.970 1.00 P
QYDI 29.490 1.00 P
QYDI 51.110 1.00 S
HLUH 30.290 1.00 P
HLUH 52.680 1.00 S
# 2001 02 03 02 25 50.000000 34.122 52.513  12.9  1.4 0.0 0.0 0.0       126
XBVK  7.550 1.00 P
XBVK 13.210 1.00 S
RHPW  8.360 1.00 P
RHPW 14.630 1.00 S
LUEX 13.550 1.00 P
LUEX 23.710 1.00 S
AVTK 13.770 1.00 P
AVTK 24.100 1.00 S
FOUH 17.060 1.00 P
FOUH 29.860 1.00 S
DNOA 18.430 1.00 P
DNOA 32.250 1.00 S
CBZA 18.780 1.00 P
CBZA 32.860 1.00 S
VOCA 21.920 1.00 P
VOCA 38.360 1.00 S
APSL 22.870 1.00 P
APSL 40.010 1.00 S
MGUS 23.760 1.00 P
MGUS 41.580 1.00 S
RPKV 26.530 1.00 P
RPKV 46.340 1.00 S
RAWC 26.060 1.00 P
RAWC 45.590 1.00 S
QYDI 26.710 1.00 P
QYDI 46.680 1.00 S
HLUH 28.030 1.00 P
HLUH 48.910 1.00 S
# 2001 02 03 02 27 00.000000 33.928 52.399   9.6  2.3 0.0 0.0 0.0       127
LUEX 10.320 1.00 P
LUEX 18.060 1.00 S
RHPW 12.500 1.00 P
RHPW 21.880 1.00 S
AVTK 12.560 1.00 P
AVTK 21.970 1.00 S
XBVK 12.760 1.00 P
XBVK 22.330 1.00 S
CBZA 15.910 1.00 P
CBZA 27.840 1.00 S
DQYH 18.410 1.00 P
DQYH 32.210 1.00 S
FOUH 21.480 1.00 P
FOUH 37.590 1.00 S
DNOA 22.080 1.00 P
DNOA 38.640 1.00 S
MGUS 25.320 1.00 P
MGUS 44.310 1.00 S
APSL 25.570 1.00 P
APSL 44.750 1.00 S
VOCA 25.820 1.00 P
VOCA 45.190 1.00 S
RAWC 27.000 1.00 P
RAWC 47.240 1.00 S
RPKV 28.910 1.00 P
RPKV 50.450 1.00 S
QYDI 29.950 1.00 P
QYDI 52.000 1.00 S
HLUH 30.110 1.00 P
HLUH 52.490 1.00 S
# 2001 02 03 02 28 10.000000 33.652 52.545  13.5  2.0 0.0 0.0 0.0       128
LUEX 13.810 1.00 P
RHPW 14.510 1.00 P
RHPW 25.390 1.00 S
CBZA 15.850 1.00 P
CBZA 27.740 1.00 S
AVTK 16.710 1.00 P
AVTK 29.240 1.00 S
XBVK 16.750 1.00 P
XBVK 29.310 1.00 S
DNOA 21.830 1.00 P
DNOA 38.210 1.00 S
MGUS 22.420 1.00 P
MGUS 39.240 1.00 S
RAWC 23.040 1.00 P
RAWC 40.320 1.00 S
APSL 24.150 1.00 P
APSL 42.260 1.00 S
FOUH 24.180 1.00 P
FOUH 42.320 1.00 S
VOCA 26.420 1.00 P
VOCA 46.230 1.00 S
RPKV 32.380 1.00 P
RPKV 55.730 1.00 S
QYDI 32.980 1.00 P
QYDI 56.800 1.00 S
HLUH 33.510 1.00 P
HLUH 57.880 1.00 S
# 2001 02 03 02 29 20.000000 33.691 52.394   9.7  2.1 0.0 0.0 0.0       129
LUEX 11.180 1.00 P
LUEX 19.570 1.00 S
CBZA 13.900 1.00 P
CBZA 24.330 1.00 S
AVTK 14.880 1.00 P
AVTK 26.030 1.00 S
RHPW 16.240 1.00 P
RHPW 28.410 1.00 S
XBVK 17.800 1.00 P
XBVK 31.140 1.00 S
DQYH 21.970 1.00 P
DNOA 23.950 1.00 P
DNOA 41.910 1.00 S
FOUH 25.210 1.00 P
FOUH 44.120 1.00 S
MGUS 25.210 1.00 P
MGUS 44.120 1.00 S
RAWC 25.840 1.00 P
RAWC 45.200 1.00 S
APSL 26.600 1.00 P
APSL 46.550 1.00 S
VOCA 28.130 1.00 P
VOCA 49.220 1.00 S
RPKV 32.050 1.00 P
RPKV 55.560 1.00 S
HLUH 33.070 1.00 P
HLUH 57.140 1.00 S
QYDI 33.370 1.00 P
QYDI 57.630 1.00 S
# 2001 02 03 02 30 30.000000 33.977 52.587  14.5  0.8 0.0 0.0 0.0       130
RHPW  8.450 1.00 P
RHPW 14.790 1.00 S
XBVK  9.970 1.00 P
XBVK 17.440 1.00 S
LUEX 13.800 1.00 P
LUEX 24.150 1.00 S
AVTK 15.050 1.00 P
AVTK 26.340 1.00 S
DNOA 18.110 1.00 P
DNOA 31.690 1.00 S
CBZA 18.180 1.00 P
CBZA 31.820 1.00 S
DQYH 18.920 1.00 P
DQYH 33.110 1.00 S
FOUH 19.020 1.00 P
FOUH 33.280 1.00 S
APSL 21.950 1.00 P
APSL 38.420 1.00 S
MGUS 22.050 1.00 P
MGUS 38.580 1.00 S
RAWC 24.000 1.00 P
RAWC 41.990 1.00 S
RPKV 28.320 1.00 P
RPKV 49.200 1.00 S
QYDI 28.510 1.00 P
QYDI 49.630 1.00 S
# 2001 02 03 02 31 40.000000 33.778 52.766  20.0  1.4 0.0 0.0 0.0       131
RHPW 10.520 1.00 P
RHPW 18.410 1.00 S
XBVK 13.550 1.00 P
XBVK 23.710 1.00 S
LUEX 15.870 1.00 P
LUEX 27.780 1.00 S
DNOA 17.520 1.00 P
DNOA 30.660 1.00 S
AVTK 17.820 1.00 P
AVTK 31.180 1.00 S
MGUS 18.610 1.00 P
MGUS 32.570 1.00 S
CBZA 18.840 1.00 P
CBZA 32.970 1.00 S
APSL 19.890 1.00 P
APSL 34.810 1.00 S
RAWC 19.920 1.00 P
RAWC 34.860 1.00 S
FOUH 21.070 1.00 P
FOUH 36.880 1.00 S
DQYH 22.090 1.00 P
DQYH 38.650 1.00 S
VOCA 22.480 1.00 P
VOCA 39.340 1.00 S
RPKV 30.810 1.00 P
RPKV 53.150 1.00 S
QYDI 30.750 1.00 P
QYDI 53.190 1.00 S
# 2001 02 03 02 32 50.000000 33.777 52.494  12.3  1.4 0.0 0.0 0.0       132
LUEX 12.430 1.00 P
LUEX 21.750 1.00 S
RHPW 13.080 1.00 P
RHPW 22.880 1.00 S
XBVK 15.010 1.00 P
XBVK 26.270 1.00 S
AVTK 15.030 1.00 P
AVTK 26.300 1.00 S
CBZA 15.790 1.00 P
DQYH 20.980 1.00 P
DQYH 36.720 1.00 S
DNOA 21.610 1.00 P
DNOA 37.820 1.00 S
FOUH 22.960 1.00 P
FOUH 40.180 1.00 S
MGUS 23.310 1.00 P
APSL 24.450 1.00 P
APSL 42.790 1.00 S
RAWC 24.420 1.00 P
RAWC 42.720 1.00 S
VOCA 25.790 1.00 P
VOCA 45.140 1.00 S
RPKV 30.830 1.00 P
RPKV 53.460 1.00 S
QYDI 31.640 1.00 P
QYDI 54.660 1.00 S
HLUH 32.010 1.00 P
HLUH 55.380 1.00 S
