# 2001 02 03 04 29 30.000000 33.612 52.679  17.7  2.7 0.0 0.0 0.0       232
LUEX 15.620 1.00 P
LUEX 27.330 1.00 S
CBZA 17.330 1.00 P
CBZA 30.320 1.00 S
AVTK 18.180 1.00 P
AVTK 31.810 1.00 S
MGUS 20.160 1.00 P
MGUS 35.270 1.00 S
RAWC 20.550 1.00 P
RAWC 35.970 1.00 S
DNOA 20.460 1.00 P
DNOA 35.800 1.00 S
APSL 22.230 1.00 P
APSL 38.900 1.00 S
DQYH 23.510 1.00 P
DQYH 41.140 1.00 S
FOUH 23.800 1.00 P
FOUH 41.650 1.00 S
VOCA 25.230 1.00 P
VOCA 44.140 1.00 S
RPKV 32.710 1.00 P
RPKV 56.050 1.00 S
QYDI 33.110 1.00 P
QYDI 56.770 1.00 S
HLUH 34.020 1.00 P
HLUH 58.320 1.00 S
# 2001 02 03 04 30 40.000000 33.586 52.562  14.2  1.9 0.0 0.0 0.0       233
LUEX 14.770 1.00 P
RHPW 15.480 1.00 P
RHPW 27.080 1.00 S
CBZA 15.980 1.00 P
CBZA 27.960 1.00 S
AVTK 17.780 1.00 P
AVTK 31.120 1.00 S
XBVK 17.790 1.00 P
XBVK 31.130 1.00 S
DNOA 22.270 1.00 P
DNOA 38.960 1.00 S
RAWC 22.380 1.00 P
RAWC 39.160 1.00 S
MGUS 22.070 1.00 P
MGUS 38.620 1.00 S
APSL 24.200 1.00 P
APSL 42.360 1.00 S
FOUH 25.090 1.00 P
FOUH 43.910 1.00 S
VOCA 26.920 1.00 P
VOCA 47.100 1.00 S
RPKV 33.310 1.00 P
RPKV 57.090 1.00 S
QYDI 33.960 1.00 P
QYDI 58.230 1.00 S
HLUH 34.500 1.00 P
HLUH 59.140 1.00 S
# 2001 02 03 04 31 50.000000 34.134 52.683  17.4  0.8 0.0 0.0 0.0       234
RHPW  5.600 1.00 P
RHPW  9.800 1.00 S
XBVK  6.440 1.00 P
XBVK 11.270 1.00 S
DNOA 15.270 1.00 P
DNOA 26.720 1.00 S
FOUH 15.490 1.00 P
FOUH 27.110 1.00 S
LUEX 15.740 1.00 P
LUEX 27.550 1.00 S
AVTK 16.070 1.00 P
AVTK 28.130 1.00 S
VOCA 19.250 1.00 P
VOCA 33.690 1.00 S
APSL 19.810 1.00 P
APSL 34.660 1.00 S
CBZA 20.050 1.00 P
CBZA 35.090 1.00 S
MGUS 21.140 1.00 P
MGUS 36.990 1.00 S
RAWC 23.770 1.00 P
RAWC 41.590 1.00 S
QYDI 26.140 1.00 P
QYDI 45.550 1.00 S
RPKV 26.540 1.00 P
RPKV 46.370 1.00 S
HLUH 28.370 1.00 P
HLUH 49.280 1.00 S
# 2001 02 03 04 33 00.000000 33.662 52.597  14.6  2.7 0.0 0.0 0.0       235
LUEX 14.550 1.00 P
LUEX 25.460 1.00 S
XBVK 16.300 1.00 P
XBVK 28.530 1.00 S
CBZA 16.540 1.00 P
CBZA 28.950 1.00 S
AVTK 17.250 1.00 P
AVTK 30.190 1.00 S
MGUS 21.570 1.00 P
MGUS 37.740 1.00 S
RAWC 22.180 1.00 P
RAWC 38.820 1.00 S
DQYH 22.860 1.00 P
DQYH 40.000 1.00 S
APSL 23.340 1.00 P
APSL 40.840 1.00 S
FOUH 23.780 1.00 P
FOUH 41.620 1.00 S
VOCA 25.750 1.00 P
VOCA 45.070 1.00 S
RPKV 32.390 1.00 P
RPKV 55.690 1.00 S
QYDI 32.840 1.00 P
QYDI 56.630 1.00 S
HLUH 33.690 1.00 P
HLUH 57.940 1.00 S
# 2001 02 03 04 34 10.000000 33.895 52.521  13.0  4.0 0.0 0.0 0.0       236
RHPW 10.650 1.00 P
RHPW 18.640 1.00 S
XBVK 12.220 1.00 P
XBVK 21.380 1.00 S
LUEX 12.640 1.00 P
LUEX 22.120 1.00 S
AVTK 14.490 1.00 P
AVTK 25.360 1.00 S
CBZA 16.830 1.00 P
CBZA 29.450 1.00 S
DQYH 19.430 1.00 P
DQYH 34.000 1.00 S
DNOA 19.880 1.00 P
DNOA 34.790 1.00 S
FOUH 20.910 1.00 P
FOUH 36.600 1.00 S
VOCA 24.080 1.00 P
VOCA 42.150 1.00 S
RAWC 24.470 1.00 P
RAWC 42.820 1.00 S
RPKV 29.210 1.00 P
RPKV 50.790 1.00 S
QYDI 29.920 1.00 P
QYDI 51.810 1.00 S
HLUH 30.500 1.00 P
HLUH 53.080 1.00 S
# 2001 02 03 04 35 20.000000 33.476 52.630  16.2  2.6 0.0 0.0 0.0       237
LUEX 16.460 1.00 P
LUEX 28.800 1.00 S
RHPW 16.690 1.00 P
RHPW 29.210 1.00 S
CBZA 16.930 1.00 P
CBZA 29.620 1.00 S
AVTK 19.420 1.00 P
AVTK 33.990 1.00 S
XBVK 19.090 1.00 P
XBVK 33.410 1.00 S
RAWC 21.130 1.00 P
RAWC 36.980 1.00 S
MGUS 21.530 1.00 P
MGUS 37.680 1.00 S
APSL 24.010 1.00 P
APSL 42.020 1.00 S
DQYH 25.110 1.00 P
DQYH 43.840 1.00 S
FOUH 26.250 1.00 P
FOUH 45.780 1.00 S
VOCA 27.430 1.00 P
VOCA 47.820 1.00 S
RPKV 34.490 1.00 P
QYDI 35.120 1.00 P
QYDI 60.040 1.00 S
HLUH 35.670 1.00 P
HLUH 61.130 1.00 S
# 2001 02 03 04 36 30.000000 34.175 52.578  14.9  3.7 0.0 0.0 0.0       238
XBVK  6.110 1.00 P
XBVK 10.690 1.00 S
RHPW  7.320 1.00 P
RHPW 12.820 1.00 S
LUEX 14.740 1.00 P
LUEX 25.800 1.00 S
AVTK 14.720 1.00 P
AVTK 25.760 1.00 S
DQYH 16.590 1.00 P
DQYH 29.030 1.00 S
DNOA 16.930 1.00 P
DNOA 29.630 1.00 S
CBZA 19.610 1.00 P
CBZA 34.330 1.00 S
VOCA 20.390 1.00 P
VOCA 35.680 1.00 S
APSL 21.640 1.00 P
APSL 37.880 1.00 S
MGUS 23.080 1.00 P
MGUS 40.390 1.00 S
RPKV 25.800 1.00 P
RPKV 45.110 1.00 S
QYDI 25.690 1.00 P
QYDI 44.910 1.00 S
HLUH 27.460 1.00 P
HLUH 47.900 1.00 S
# 2001 02 03 04 37 40.000000 33.790 52.488  11.7  4.0 0.0 0.0 0.0       239
LUEX 12.290 1.00 P
LUEX 21.510 1.00 S
RHPW 13.010 1.00 P
RHPW 22.760 1.00 S
XBVK 14.780 1.00 P
XBVK 25.870 1.00 S
AVTK 14.840 1.00 P
AVTK 25.980 1.00 S
CBZA 15.840 1.00 P
CBZA 27.710 1.00 S
DQYH 20.800 1.00 P
DQYH 36.400 1.00 S
DNOA 21.630 1.00 P
DNOA 37.860 1.00 S
FOUH 22.840 1.00 P
FOUH 39.970 1.00 S
MGUS 23.550 1.00 P
MGUS 41.210 1.00 S
APSL 24.570 1.00 P
APSL 42.990 1.00 S
RAWC 24.720 1.00 P
RAWC 43.250 1.00 S
VOCA 25.750 1.00 P
VOCA 45.070 1.00 S
RPKV 30.670 1.00 P
RPKV 53.200 1.00 S
QYDI 31.520 1.00 P
QYDI 54.460 1.00 S
HLUH 31.850 1.00 P
HLUH 55.120 1.00 S
# 2001 02 03 04 38 50.000000 33.639 52.647  16.5  2.9 0.0 0.0 0.0       240
RHPW 13.780 1.00 P
RHPW 24.110 1.00 S
LUEX 15.170 1.00 P
LUEX 26.550 1.00 S
XBVK 16.350 1.00 P
XBVK 28.610 1.00 S
CBZA 17.030 1.00 P
CBZA 29.800 1.00 S
AVTK 17.790 1.00 P
AVTK 31.130 1.00 S
DNOA 20.550 1.00 P
DNOA 35.970 1.00 S
MGUS 20.630 1.00 P
MGUS 36.100 1.00 S
APSL 22.590 1.00 P
APSL 39.540 1.00 S
DQYH 23.220 1.00 P
DQYH 40.630 1.00 S
FOUH 23.670 1.00 P
FOUH 41.430 1.00 S
VOCA 25.270 1.00 P
VOCA 44.210 1.00 S
RPKV 32.490 1.00 P
RPKV 55.760 1.00 S
HLUH 33.820 1.00 P
HLUH 58.030 1.00 S
# 2001 02 03 04 40 00.000000 33.785 52.547  13.6  2.4 0.0 0.0 0.0       241
RHPW 12.160 1.00 P
RHPW 21.280 1.00 S
XBVK 14.350 1.00 P
XBVK 25.110 1.00 S
CBZA 16.480 1.00 P
CBZA 28.850 1.00 S
DNOA 20.630 1.00 P
DNOA 36.100 1.00 S
DQYH 20.990 1.00 P
DQYH 36.730 1.00 S
FOUH 22.320 1.00 P
FOUH 39.060 1.00 S
MGUS 22.330 1.00 P
MGUS 39.080 1.00 S
APSL 23.470 1.00 P
APSL 41.060 1.00 S
RAWC 23.520 1.00 P
RAWC 41.160 1.00 S
VOCA 24.960 1.00 P
VOCA 43.690 1.00 S
RPKV 30.710 1.00 P
RPKV 53.080 1.00 S
QYDI 31.240 1.00 P
QYDI 53.950 1.00 S
HLUH 31.950 1.00 P
HLUH 55.310 1.00 S
# 2001 02 03 04 41 10.000000 33.906 52.785  20.8  1.7 0.0 0.0 0.0       242
RHPW  8.000 1.00 P
RHPW 13.990 1.00 S
XBVK 11.170 1.00 P
XBVK 19.550 1.00 S
AVTK 17.400 1.00 P
AVTK 30.450 1.00 S
MGUS 18.490 1.00 P
MGUS 32.360 1.00 S
APSL 18.940 1.00 P
APSL 33.140 1.00 S
FOUH 19.110 1.00 P
FOUH 33.440 1.00 S
CBZA 19.330 1.00 P
CBZA 33.820 1.00 S
RAWC 20.440 1.00 P
RAWC 35.770 1.00 S
DQYH 20.870 1.00 P
DQYH 36.520 1.00 S
VOCA 20.890 1.00 P
VOCA 36.550 1.00 S
QYDI 29.020 1.00 P
QYDI 50.240 1.00 S
RPKV 29.350 1.00 P
RPKV 50.680 1.00 S
HLUH 30.920 1.00 P
HLUH 53.350 1.00 S
# 2001 02 03 04 42 20.000000 33.747 52.556  14.1  1.9 0.0 0.0 0.0       243
RHPW 12.690 1.00 P
RHPW 22.210 1.00 S
LUEX 13.410 1.00 P
LUEX 23.460 1.00 S
XBVK 14.960 1.00 P
XBVK 26.180 1.00 S
AVTK 15.920 1.00 P
AVTK 27.860 1.00 S
CBZA 16.360 1.00 P
CBZA 28.630 1.00 S
DNOA 20.760 1.00 P
DNOA 36.330 1.00 S
DQYH 21.460 1.00 P
DQYH 37.560 1.00 S
MGUS 22.110 1.00 P
MGUS 38.680 1.00 S
FOUH 22.680 1.00 P
FOUH 39.700 1.00 S
RAWC 23.080 1.00 P
RAWC 40.390 1.00 S
APSL 23.400 1.00 P
APSL 40.950 1.00 S
VOCA 25.180 1.00 P
VOCA 44.070 1.00 S
RPKV 31.130 1.00 P
RPKV 53.730 1.00 S
QYDI 31.640 1.00 P
QYDI 54.630 1.00 S
HLUH 32.370 1.00 P
HLUH 55.980 1.00 S
# 2001 02 03 04 43 30.000000 33.839 52.629  16.1  1.3 0.0 0.0 0.0       244
XBVK 12.760 1.00 P
XBVK 22.330 1.00 S
LUEX 14.060 1.00 P
LUEX 24.610 1.00 S
AVTK 16.130 1.00 P
AVTK 28.230 1.00 S
CBZA 17.540 1.00 P
CBZA 30.690 1.00 S
DNOA 18.790 1.00 P
DNOA 32.890 1.00 S
DQYH 20.740 1.00 P
FOUH 20.990 1.00 P
FOUH 36.730 1.00 S
MGUS 20.950 1.00 P
MGUS 36.660 1.00 S
APSL 21.830 1.00 P
APSL 38.200 1.00 S
RAWC 22.320 1.00 P
RAWC 39.060 1.00 S
VOCA 23.450 1.00 P
VOCA 41.040 1.00 S
RPKV 30.060 1.00 P
RPKV 51.850 1.00 S
QYDI 30.250 1.00 P
QYDI 52.300 1.00 S
HLUH 31.480 1.00 P
HLUH 54.310 1.00 S
# 2001 02 03 04 44 40.000000 33.722 52.425  10.5  2.1 0.0 0.0 0.0       245
LUEX 11.550 1.00 P
LUEX 20.220 1.00 S
CBZA 14.670 1.00 P
CBZA 25.680 1.00 S
AVTK 14.770 1.00 P
AVTK 25.850 1.00 S
RHPW 14.970 1.00 P
RHPW 26.200 1.00 S
XBVK 16.700 1.00 P
XBVK 29.230 1.00 S
DQYH 21.550 1.00 P
DQYH 37.710 1.00 S
DNOA 23.030 1.00 P
DNOA 40.300 1.00 S
FOUH 24.280 1.00 P
FOUH 42.500 1.00 S
MGUS 24.530 1.00 P
MGUS 42.930 1.00 S
RAWC 25.290 1.00 P
RAWC 44.250 1.00 S
APSL 25.790 1.00 P
APSL 45.130 1.00 S
VOCA 27.170 1.00 P
VOCA 47.560 1.00 S
RPKV 31.500 1.00 P
RPKV 54.620 1.00 S
QYDI 32.600 1.00 P
QYDI 56.330 1.00 S
HLUH 32.580 1.00 P
HLUH 56.300 1.00 S
# 2001 02 03 04 45 50.000000 33.840 52.616  15.6  2.8 0.0 0.0 0.0       246
RHPW 10.340 1.00 P
RHPW 18.100 1.00 S
XBVK 12.830 1.00 P
XBVK 22.450 1.00 S
LUEX 13.810 1.00 P
LUEX 24.170 1.00 S
AVTK 15.940 1.00 P
AVTK 27.890 1.00 S
CBZA 17.410 1.00 P
CBZA 30.460 1.00 S
DNOA 19.080 1.00 P
DNOA 33.390 1.00 S
FOUH 21.100 1.00 P
FOUH 36.930 1.00 S
MGUS 21.260 1.00 P
MGUS 37.210 1.00 S
APSL 22.140 1.00 P
APSL 38.740 1.00 S
RAWC 22.660 1.00 P
RAWC 39.660 1.00 S
VOCA 23.660 1.00 P
VOCA 41.400 1.00 S
RPKV 30.030 1.00 P
RPKV 51.820 1.00 S
QYDI 30.320 1.00 P
QYDI 52.420 1.00 S
HLUH 31.410 1.00 P
HLUH 54.250 1.00 S
# 2001 02 03 04 47 00.000000 33.678 52.687  18.0  2.1 0.0 0.0 0.0       247
RHPW 12.770 1.00 P
RHPW 22.360 1.00 S
LUEX 15.350 1.00 P
LUEX 26.860 1.00 S
XBVK 15.410 1.00 P
XBVK 26.970 1.00 S
CBZA 17.600 1.00 P
CBZA 30.800 1.00 S
AVTK 17.690 1.00 P
AVTK 30.960 1.00 S
MGUS 19.970 1.00 P
MGUS 34.940 1.00 S
RAWC 20.660 1.00 P
RAWC 36.160 1.00 S
APSL 21.690 1.00 P
APSL 37.960 1.00 S
DQYH 22.800 1.00 P
DQYH 39.900 1.00 S
FOUH 22.830 1.00 P
FOUH 39.950 1.00 S
VOCA 24.360 1.00 P
VOCA 42.620 1.00 S
QYDI 32.200 1.00 P
QYDI 55.460 1.00 S
HLUH 33.270 1.00 P
HLUH 57.170 1.00 S
# 2001 02 03 04 48 10.000000 34.066 52.385   8.7  2.7 0.0 0.0 0.0       248
XBVK 10.070 1.00 P
XBVK 17.620 1.00 S
LUEX 11.220 1.00 P
LUEX 19.630 1.00 S
RHPW 11.200 1.00 P
RHPW 19.600 1.00 S
AVTK 11.850 1.00 P
AVTK 20.730 1.00 S
CBZA 17.410 1.00 P
CBZA 30.460 1.00 S
FOUH 19.330 1.00 P
FOUH 33.820 1.00 S
VOCA 24.560 1.00 P
VOCA 42.980 1.00 S
APSL 25.400 1.00 P
APSL 44.450 1.00 S
MGUS 25.820 1.00 P
MGUS 45.180 1.00 S
RPKV 27.300 1.00 P
RPKV 47.760 1.00 S
RAWC 27.990 1.00 P
RAWC 48.930 1.00 S
QYDI 28.190 1.00 P
QYDI 49.260 1.00 S
HLUH 28.610 1.00 P
HLUH 50.060 1.00 S
# 2001 02 03 04 49 20.000000 33.841 52.688  17.8  1.8 0.0 0.0 0.0       249
RHPW  9.630 1.00 P
RHPW 16.850 1.00 S
XBVK 12.420 1.00 P
XBVK 21.740 1.00 S
LUEX 14.840 1.00 P
LUEX 25.960 1.00 S
AVTK 16.770 1.00 P
AVTK 29.350 1.00 S
DNOA 17.850 1.00 P
DNOA 31.250 1.00 S
CBZA 18.250 1.00 P
CBZA 31.950 1.00 S
MGUS 19.930 1.00 P
MGUS 34.870 1.00 S
FOUH 20.580 1.00 P
FOUH 36.010 1.00 S
APSL 20.780 1.00 P
APSL 36.370 1.00 S
DQYH 21.130 1.00 P
DQYH 36.970 1.00 S
RAWC 21.390 1.00 P
RAWC 37.430 1.00 S
VOCA 22.640 1.00 P
VOCA 39.620 1.00 S
RPKV 30.020 1.00 P
RPKV 51.790 1.00 S
QYDI 30.030 1.00 P
QYDI 51.960 1.00 S
HLUH 31.480 1.00 P
HLUH 54.310 1.00 S
# 2001 02 03 04 50 30.000000 33.816 52.479  11.5  1.5 0.0 0.0 0.0       250
RHPW 12.760 1.00 P
RHPW 22.330 1.00 S
XBVK 14.400 1.00 P
XBVK 25.200 1.00 S
AVTK 14.550 1.00 P
AVTK 25.460 1.00 S
CBZA 15.820 1.00 P
CBZA 27.680 1.00 S
DQYH 20.420 1.00 P
DQYH 35.730 1.00 S
DNOA 21.670 1.00 P
DNOA 37.920 1.00 S
FOUH 22.580 1.00 P
FOUH 39.510 1.00 S
MGUS 23.720 1.00 P
MGUS 41.520 1.00 S
APSL 24.690 1.00 P
APSL 43.200 1.00 S
RAWC 25.030 1.00 P
RAWC 43.800 1.00 S
RPKV 30.330 1.00 P
RPKV 52.650 1.00 S
QYDI 31.240 1.00 P
QYDI 54.050 1.00 S
HLUH 31.530 1.00 P
HLUH 54.590 1.00 S
# 2001 02 03 04 51 40.000000 33.797 52.744  19.1  0.9 0.0 0.0 0.0       251
RHPW 10.360 1.00 P
RHPW 18.130 1.00 S
XBVK 13.240 1.00 P
XBVK 23.160 1.00 S
LUEX 15.490 1.00 P
LUEX 27.100 1.00 S
DNOA 17.850 1.00 P
AVTK 17.390 1.00 P
AVTK 30.440 1.00 S
CBZA 18.610 1.00 P
CBZA 32.560 1.00 S
MGUS 19.100 1.00 P
MGUS 33.430 1.00 S
APSL 20.290 1.00 P
APSL 35.500 1.00 S
RAWC 20.390 1.00 P
RAWC 35.680 1.00 S
FOUH 21.020 1.00 P
FOUH 36.780 1.00 S
DQYH 21.710 1.00 P
DQYH 38.000 1.00 S
VOCA 22.660 1.00 P
VOCA 39.660 1.00 S
RPKV 30.520 1.00 P
RPKV 52.630 1.00 S
QYDI 30.580 1.00 P
QYDI 52.890 1.00 S
HLUH 31.960 1.00 P
HLUH 55.120 1.00 S
# 2001 02 03 04 52 50.000000 33.661 52.356   8.7  2.8 0.0 0.0 0.0       252
LUEX 10.810 1.00 P
LUEX 18.920 1.00 S
CBZA 13.140 1.00 P
CBZA 23.000 1.00 S
AVTK 14.890 1.00 P
AVTK 26.060 1.00 S
RHPW 17.270 1.00 P
RHPW 30.220 1.00 S
XBVK 18.630 1.00 P
XBVK 32.600 1.00 S
DQYH 22.230 1.00 P
DQYH 38.900 1.00 S
DNOA 24.890 1.00 P
DNOA 43.550 1.00 S
FOUH 25.920 1.00 P
FOUH 45.360 1.00 S
MGUS 25.810 1.00 P
MGUS 45.160 1.00 S
APSL 27.420 1.00 P
APSL 47.970 1.00 S
VOCA 29.070 1.00 P
VOCA 50.870 1.00 S
RPKV 32.420 1.00 P
RPKV 56.170 1.00 S
HLUH 33.400 1.00 P
HLUH 57.700 1.00 S
QYDI 33.850 1.00 P
QYDI 58.470 1.00 S
# 2001 02 03 04 54 00.000000 33.860 52.298   6.3  1.7 0.0 0.0 0.0       253
LUEX  8.130 1.00 P
LUEX 14.230 1.00 S
AVTK 11.410 1.00 P
AVTK 19.970 1.00 S
CBZA 14.020 1.00 P
CBZA 24.540 1.00 S
RHPW 15.340 1.00 P
RHPW 26.840 1.00 S
XBVK 15.380 1.00 P
XBVK 26.910 1.00 S
DQYH 19.380 1.00 P
DQYH 33.910 1.00 S
FOUH 23.670 1.00 P
FOUH 41.430 1.00 S
DNOA 24.300 1.00 P
DNOA 42.530 1.00 S
MGUS 27.130 1.00 P
MGUS 47.470 1.00 S
APSL 27.650 1.00 P
APSL 48.390 1.00 S
VOCA 28.010 1.00 P
VOCA 49.010 1.00 S
RAWC 28.480 1.00 P
RAWC 49.800 1.00 S
RPKV 30.290 1.00 P
RPKV 52.850 1.00 S
HLUH 31.350 1.00 P
HLUH 54.420 1.00 S
QYDI 31.700 1.00 P
QYDI 54.980 1.00 S
# 2001 02 03 04 55 10.000000 33.646 52.476  11.9  1.2 0.0 0.0 0.0       254
LUEX 13.030 1.00 P
LUEX 22.800 1.00 S
CBZA 14.960 1.00 P
CBZA 26.180 1.00 S
RHPW 15.380 1.00 P
RHPW 26.910 1.00 S
AVTK 16.200 1.00 P
AVTK 28.350 1.00 S
XBVK 17.410 1.00 P
XBVK 30.480 1.00 S
DNOA 22.850 1.00 P
DNOA 39.990 1.00 S
MGUS 23.510 1.00 P
MGUS 41.140 1.00 S
RAWC 24.070 1.00 P
FOUH 24.810 1.00 P
FOUH 43.420 1.00 S
APSL 25.270 1.00 P
APSL 44.210 1.00 S
VOCA 27.300 1.00 P
VOCA 47.780 1.00 S
RPKV 32.460 1.00 P
RPKV 56.180 1.00 S
QYDI 33.420 1.00 P
QYDI 57.510 1.00 S
HLUH 33.540 1.00 P
HLUH 57.990 1.00 S
# 2001 02 03 04 56 20.000000 33.544 52.457  11.8  1.7 0.0 0.0 0.0       255
LUEX 13.760 1.00 P
CBZA 14.530 1.00 P
CBZA 25.430 1.00 S
RHPW 17.090 1.00 P
RHPW 29.910 1.00 S
AVTK 17.140 1.00 P
AVTK 30.000 1.00 S
XBVK 19.020 1.00 P
XBVK 33.280 1.00 S
DQYH 23.850 1.00 P
DQYH 41.730 1.00 S
RAWC 24.010 1.00 P
RAWC 42.020 1.00 S
DNOA 24.000 1.00 P
DNOA 42.000 1.00 S
MGUS 23.910 1.00 P
MGUS 41.840 1.00 S
APSL 25.960 1.00 P
APSL 45.420 1.00 S
FOUH 26.300 1.00 P
FOUH 46.010 1.00 S
VOCA 28.560 1.00 P
VOCA 49.770 1.00 S
RPKV 33.700 1.00 P
RPKV 57.890 1.00 S
HLUH 34.710 1.00 P
HLUH 59.590 1.00 S
QYDI 34.670 1.00 P
QYDI 59.310 1.00 S
# 2001 02 03 04 57 30.000000 33.577 52.651  16.7  2.3 0.0 0.0 0.0       256
RHPW 14.850 1.00 P
RHPW 25.990 1.00 S
LUEX 15.510 1.00 P
LUEX 27.140 1.00 S
XBVK 17.300 1.00 P
XBVK 30.270 1.00 S
AVTK 18.240 1.00 P
AVTK 31.910 1.00 S
RAWC 21.020 1.00 P
RAWC 36.780 1.00 S
MGUS 20.780 1.00 P
MGUS 36.370 1.00 S
DNOA 21.270 1.00 P
DNOA 37.210 1.00 S
APSL 22.960 1.00 P
APSL 40.190 1.00 S
DQYH 23.750 1.00 P
DQYH 41.540 1.00 S
FOUH 24.540 1.00 P
FOUH 42.940 1.00 S
VOCA 26.000 1.00 P
VOCA 45.480 1.00 S
RPKV 33.090 1.00 P
RPKV 56.650 1.00 S
QYDI 33.640 1.00 P
QYDI 57.640 1.00 S
HLUH 34.330 1.00 P
HLUH 58.830 1.00 S
# 2001 02 03 04 58 40.000000 33.846 52.744  19.5  2.1 0.0 0.0 0.0       257
RHPW  9.250 1.00 P
RHPW 16.180 1.00 S
XBVK 12.230 1.00 P
XBVK 21.400 1.00 S
LUEX 15.320 1.00 P
LUEX 26.810 1.00 S
DNOA 17.020 1.00 P
DNOA 29.790 1.00 S
AVTK 17.170 1.00 P
AVTK 30.050 1.00 S
CBZA 18.760 1.00 P
CBZA 32.840 1.00 S
MGUS 19.080 1.00 P
MGUS 33.380 1.00 S
FOUH 20.210 1.00 P
FOUH 35.360 1.00 S
RAWC 20.640 1.00 P
RAWC 36.120 1.00 S
DQYH 21.200 1.00 P
DQYH 37.110 1.00 S
RPKV 29.890 1.00 P
RPKV 51.570 1.00 S
QYDI 29.820 1.00 P
QYDI 51.590 1.00 S
HLUH 31.380 1.00 P
HLUH 54.130 1.00 S
# 2001 02 03 04 59 50.000000 33.755 52.687  17.9  1.4 0.0 0.0 0.0       258
RHPW 11.270 1.00 P
RHPW 19.720 1.00 S
XBVK 13.930 1.00 P
XBVK 24.380 1.00 S
LUEX 14.980 1.00 P
LUEX 26.220 1.00 S
AVTK 17.110 1.00 P
AVTK 29.950 1.00 S
CBZA 17.900 1.00 P
CBZA 31.320 1.00 S
DNOA 18.760 1.00 P
DNOA 32.830 1.00 S
MGUS 19.920 1.00 P
MGUS 34.860 1.00 S
RAWC 21.010 1.00 P
RAWC 36.770 1.00 S
APSL 21.190 1.00 P
APSL 37.090 1.00 S
DQYH 21.870 1.00 P
DQYH 38.280 1.00 S
FOUH 21.680 1.00 P
FOUH 37.930 1.00 S
VOCA 23.500 1.00 P
VOCA 41.120 1.00 S
RPKV 30.900 1.00 P
RPKV 53.260 1.00 S
QYDI 31.080 1.00 P
QYDI 53.720 1.00 S
HLUH 32.310 1.00 P
HLUH 55.690 1.00 S
# 2001 02 03 05 01 00.000000 33.844 52.739  19.7  1.4 0.0 0.0 0.0       259
RHPW  9.330 1.00 P
RHPW 16.320 1.00 S
XBVK 12.260 1.00 P
XBVK 21.460 1.00 S
LUEX 15.190 1.00 P
LUEX 26.580 1.00 S
DNOA 17.080 1.00 P
DNOA 29.880 1.00 S
CBZA 18.640 1.00 P
CBZA 32.620 1.00 S
MGUS 19.130 1.00 P
MGUS 33.470 1.00 S
APSL 20.000 1.00 P
APSL 35.000 1.00 S
FOUH 20.230 1.00 P
FOUH 35.400 1.00 S
RAWC 20.660 1.00 P
RAWC 36.150 1.00 S
DQYH 21.150 1.00 P
DQYH 37.020 1.00 S
VOCA 22.030 1.00 P
VOCA 38.560 1.00 S
RPKV 29.880 1.00 P
RPKV 51.540 1.00 S
QYDI 29.830 1.00 P
QYDI 51.610 1.00 S
HLUH 31.350 1.00 P
HLUH 54.080 1.00 S
# 2001 02 03 05 02 10.000000 33.731 52.525  13.4  1.0 0.0 0.0 0.0       260
LUEX 12.940 1.00 P
LUEX 22.650 1.00 S
RHPW 13.590 1.00 P
RHPW 23.770 1.00 S
XBVK 15.670 1.00 P
XBVK 27.420 1.00 S
AVTK 15.700 1.00 P
AVTK 27.470 1.00 S
DQYH 21.590 1.00 P
DQYH 37.790 1.00 S
MGUS 22.820 1.00 P
MGUS 39.930 1.00 S
FOUH 23.290 1.00 P
FOUH 40.760 1.00 S
RAWC 23.660 1.00 P
RAWC 41.410 1.00 S
APSL 24.170 1.00 P
APSL 42.300 1.00 S
VOCA 25.930 1.00 P
VOCA 45.380 1.00 S
RPKV 31.360 1.00 P
RPKV 54.290 1.00 S
QYDI 32.080 1.00 P
QYDI 55.390 1.00 S
HLUH 32.510 1.00 P
HLUH 56.240 1.00 S
# 2001 02 03 05 03 20.000000 33.761 52.580  14.9  1.4 0.0 0.0 0.0       261
RHPW 12.130 1.00 P
RHPW 21.230 1.00 S
LUEX 13.630 1.00 P
LUEX 23.850 1.00 S
XBVK 14.400 1.00 P
XBVK 25.200 1.00 S
AVTK 16.020 1.00 P
AVTK 28.030 1.00 S
CBZA 16.570 1.00 P
CBZA 29.010 1.00 S
DNOA 20.270 1.00 P
DNOA 35.480 1.00 S
DQYH 21.370 1.00 P
DQYH 37.400 1.00 S
MGUS 21.740 1.00 P
MGUS 38.040 1.00 S
FOUH 22.280 1.00 P
FOUH 38.980 1.00 S
RAWC 22.750 1.00 P
RAWC 39.820 1.00 S
APSL 22.920 1.00 P
APSL 40.110 1.00 S
VOCA 24.750 1.00 P
VOCA 43.310 1.00 S
RPKV 30.960 1.00 P
RPKV 53.370 1.00 S
QYDI 31.340 1.00 P
QYDI 54.130 1.00 S
HLUH 32.260 1.00 P
HLUH 55.720 1.00 S
# 2001 02 03 05 04 30.000000 33.545 52.450  11.2  5.2 0.0 0.0 0.0       262
CBZA 14.510 1.00 P
CBZA 25.400 1.00 S
AVTK 17.280 1.00 P
AVTK 30.240 1.00 S
RHPW 17.470 1.00 P
RHPW 30.570 1.00 S
XBVK 19.350 1.00 P
XBVK 33.860 1.00 S
DQYH 24.110 1.00 P
DQYH 42.190 1.00 S
RAWC 24.220 1.00 P
RAWC 42.390 1.00 S
DNOA 24.410 1.00 P
DNOA 42.710 1.00 S
MGUS 24.200 1.00 P
MGUS 42.350 1.00 S
APSL 26.300 1.00 P
APSL 46.030 1.00 S
VOCA 28.930 1.00 P
VOCA 50.380 1.00 S
RPKV 33.960 1.00 P
RPKV 58.350 1.00 S
HLUH 34.940 1.00 P
HLUH 59.940 1.00 S
QYDI 34.970 1.00 P
QYDI 59.840 1.00 S
# 2001 02 03 05 05 40.000000 33.794 52.686  18.1  0.4 0.0 0.0 0.0       263
RHPW 10.460 1.00 P
RHPW 18.300 1.00 S
XBVK 13.130 1.00 P
XBVK 22.980 1.00 S
LUEX 14.850 1.00 P
LUEX 25.990 1.00 S
CBZA 18.040 1.00 P
CBZA 31.570 1.00 S
DNOA 18.290 1.00 P
MGUS 19.880 1.00 P
MGUS 34.790 1.00 S
APSL 20.960 1.00 P
APSL 36.680 1.00 S
RAWC 21.190 1.00 P
RAWC 37.090 1.00 S
FOUH 21.070 1.00 P
FOUH 36.870 1.00 S
DQYH 21.390 1.00 P
DQYH 37.430 1.00 S
VOCA 23.040 1.00 P
VOCA 40.320 1.00 S
RPKV 30.370 1.00 P
RPKV 52.360 1.00 S
QYDI 30.490 1.00 P
QYDI 52.710 1.00 S
HLUH 31.800 1.00 P
HLUH 54.830 1.00 S
# 2001 02 03 05 06 50.000000 33.917 52.740  19.3  2.1 0.0 0.0 0.0       264
RHPW  7.900 1.00 P
RHPW 13.830 1.00 S
XBVK 10.840 1.00 P
XBVK 18.960 1.00 S
LUEX 15.320 1.00 P
LUEX 26.800 1.00 S
DNOA 16.210 1.00 P
DNOA 28.360 1.00 S
AVTK 16.870 1.00 P
AVTK 29.520 1.00 S
FOUH 19.080 1.00 P
FOUH 33.390 1.00 S
MGUS 19.320 1.00 P
MGUS 33.800 1.00 S
APSL 19.630 1.00 P
APSL 34.360 1.00 S
DQYH 20.460 1.00 P
DQYH 35.810 1.00 S
VOCA 21.180 1.00 P
VOCA 37.070 1.00 S
RAWC 21.300 1.00 P
RAWC 37.270 1.00 S
RPKV 29.080 1.00 P
RPKV 50.220 1.00 S
QYDI 28.880 1.00 P
QYDI 50.010 1.00 S
HLUH 30.620 1.00 P
HLUH 52.840 1.00 S
