 2020  1 1  036 53.9 L  33.988  52.689 27.2       7 0.0 1.1L                   1
 GAP=                      1.8     1.5  0.0                                    E
 Action:ARG 23-12-09 18:57 OP:OBSP STATUS:               ID:20200101003653     I
 STAT SP IPHASW D HRMM SECON CODA AMPLIT PERI AZIMU VELO AIN AR TRES W  DIS CAZ7
 RHPW    IP   0A   037  2.01                                           24.7  35 
 RHPW    ES   0A   037  8.02                                           24.7  35 
 XBVK    IP   0A   037  4.90                                           40.1 357 
 XBVK    ES   0A   037 13.07                                           40.1 357 
 LUEX    IP   0A   037  9.07                                           69.4 261 
 LUEX    ES   0A   037 20.38                                           69.4 261 
 CBZA    IP   0A   037 13.25                                           94.7 245 
 CBZA    ES   0A   037 27.69                                           94.7 245 
 VOCA    IP   0A   037 15.09                                            107  42 
 VOCA    ES   0A   037 30.91                                            107  42 
 RPKV    IP   0A   037 22.94                                            162 328 
 RPKV    ES   0A   037 44.07                                            162 328 
 QYDI    IP   0A   037 22.66                                            163 347 
 QYDI    ES   0A   037 43.45                                            163 347 
 RHPW     IAML A   037  2.01        40.4                                        
 XBVK     IAML A   037  4.90        22.0                                        
 LUEX     IAML A   037  9.07        10.5                                        
 CBZA     IAML A   037 13.25         6.7                                        
 VOCA     IAML A   037 15.09         5.5                                        
 RPKV     IAML A   037 22.94         2.7                                        
 QYDI     IAML A   037 22.66         2.7                                        
                                                                                

 2020  1 1  038 56.1 L  33.588  52.344 14.8       7 0.0 0.5L                   1
 GAP=                      1.7     1.4  0.0                                    E
 Action:ARG 23-12-09 18:57 OP:OBSP STATUS:               ID:20200101003856     I
 STAT SP IPHASW D HRMM SECON CODA AMPLIT PERI AZIMU VELO AIN AR TRES W  DIS CAZ7
 CBZA    IP   0A   039  9.44                                           52.5 267 
 CBZA    ES   0A   039 18.77                                           52.5 267 
 AVTK    IP   0A   039 11.85                                           63.5 316 
 AVTK    ES   0A   039 22.99                                           63.5 316 
 RHPW    IP   0A   039 15.02                                           74.5  39 
 RHPW    ES   0A   039 28.53                                           74.5  39 
 DQYH    IP   0A   039 19.90                                            106 335 
 DQYH    ES   0A   039 37.07                                            106 335 
 DNOA    IP   0A   039 21.79                                            123  51 
 DNOA    ES   0A   039 40.35                                            123  51 
 RAWC    IP   0A   039 22.89                                            133  99 
 RAWC    ES   0A   039 42.31                                            133  99 
 VOCA    IP   0A   039 25.72                                            157  42 
 VOCA    ES   0A   039 47.15                                            157  42 
 CBZA     IAML A   039  9.44         3.9                                        
 AVTK     IAML A   039 11.85         3.1                                        
 RHPW     IAML A   039 15.02         2.4                                        
 DQYH     IAML A   039 19.90         1.4                                        
 DNOA     IAML A   039 21.79         1.1                                        
 RAWC     IAML A   039 22.89         1.0                                        
 VOCA     IAML A   039 25.72         0.7                                        
                                                                                

