 2020  1 1  0 0  0.4 L  33.868  52.418 14.5       7 0.0 4.1L                   1
 GAP=                      3.5     2.9  0.0                                    E
 Action:ARG 23-12-09 18:57 OP:OBSP STATUS:               ID:20200101000000     I
 STAT SP IPHASW D HRMM SECON CODA AMPLIT PERI AZIMU VELO AIN AR TRES W  DIS CAZ7
 XBVK    IP   0A   0 0 14.88                                           57.0  26 
 XBVK    ES   0A   0 0 26.04                                           57.0  26 
 DQYH    IP   0A   0 0 20.68                                           87.0 324 
 DQYH    ES   0A   0 0 36.19                                           87.0 324 
 MGUS    IP   0A   0 0 25.83                                            125  93 
 MGUS    ES   0A   0 0 45.21                                            125  93 
 VOCA    IP   0A   0 0 26.95                                            134  47 
 VOCA    ES   0A   0 0 47.16                                            134  47 
 RAWC    IP   0A   0 0 26.82                                            134 111 
 RAWC    ES   0A   0 0 46.94                                            134 111 
 QYDI    IP   0A   0 0 31.77                                            170 357 
 QYDI    ES   0A   0 0 54.97                                            170 357 
 HLUH    IP   0A   0 0 32.03                                            172 331 
 HLUH    ES   0A   0 0 55.51                                            172 331 
 XBVK     IAML A   0 0 14.88     13415.6                                        
 DQYH     IAML A   0 0 20.68      7353.0                                        
 MGUS     IAML A   0 0 25.83      4168.3                                        
 VOCA     IAML A   0 0 26.95      3701.4                                        
 RAWC     IAML A   0 0 26.82      3689.5                                        
 QYDI     IAML A   0 0 31.77      2415.1                                        
 HLUH     IAML A   0 0 32.03      2375.1                                        
                                                                                

 2020  1 1  0 2  1.6 L  33.558  52.410 15.0       7 0.0 2.2L                   1
 GAP=                      2.1     1.7  0.0                                    E
 Action:ARG 23-12-09 18:57 OP:OBSP STATUS:               ID:20200101000201     I
 STAT SP IPHASW D HRMM SECON CODA AMPLIT PERI AZIMU VELO AIN AR TRES W  DIS CAZ7
 CBZA    IP   0A   0 2 16.21                                           57.7 275 
 CBZA    ES   0A   0 2 26.11                                           57.7 275 
 AVTK    IP   0A   0 2 19.14                                           72.9 318 
 AVTK    ES   0A   0 2 31.24                                           72.9 318 
 DQYH    IP   0A   0 2 26.54                                            116 335 
 DQYH    ES   0A   0 2 44.19                                            116 335 
 RAWC    IP   0A   0 2 27.52                                            127  96 
 RAWC    ES   0A   0 2 45.92                                            127  96 
 MGUS    IP   0A   0 2 27.99                                            128  78 
 MGUS    ES   0A   0 2 46.72                                            128  78 
 APSL    IP   0A   0 2 29.43                                            141  62 
 APSL    ES   0A   0 2 49.12                                            141  62 
 HLUH    IP   0A   0 2 37.06                                            202 336 
 HLUH    ES   0A   0 3  1.50                                            202 336 
 CBZA     IAML A   0 2 16.21       186.2                                        
 AVTK     IAML A   0 2 19.14       134.4                                        
 DQYH     IAML A   0 2 26.54        66.5                                        
 RAWC     IAML A   0 2 27.52        56.8                                        
 MGUS     IAML A   0 2 27.99        56.0                                        
 APSL     IAML A   0 2 29.43        47.6                                        
 HLUH     IAML A   0 2 37.06        24.6                                        
                                                                                

 2020  1 1  0 4  4.3 L  33.478  52.418 18.5       7 0.0 4.3L                   1
 GAP=                      5.6     4.7  0.0                                    E
 Action:ARG 23-12-09 18:57 OP:OBSP STATUS:               ID:20200101000404     I
 STAT SP IPHASW D HRMM SECON CODA AMPLIT PERI AZIMU VELO AIN AR TRES W  DIS CAZ7
 RHPW    IP   0A   0 4 23.97                                           77.4  31 
 RHPW    ES   0A   0 4 37.45                                           77.4  31 
 DQYH    IP   0A   0 4 29.87                                            117 334 
 DQYH    ES   0A   0 4 47.77                                            117 334 
 DNOA    IP   0A   0 4 30.04                                            123  46 
 DNOA    ES   0A   0 4 48.01                                            123  46 
 MGUS    IP   0A   0 4 30.40                                            126  77 
 MGUS    ES   0A   0 4 48.69                                            126  77 
 FOUH    IP   0A   0 4 32.87                                            139  13 
 FOUH    ES   0A   0 4 53.01                                            139  13 
 APSL    IP   0A   0 4 31.93                                            139  61 
 APSL    ES   0A   0 4 51.32                                            139  61 
 HLUH    IP   0A   0 4 40.29                                            204 335 
 HLUH    ES   0A   0 5  4.87                                            204 335 
 RHPW     IAML A   0 4 23.97     12968.5                                        
 DQYH     IAML A   0 4 29.87      6808.1                                        
 DNOA     IAML A   0 4 30.04      6243.6                                        
 MGUS     IAML A   0 4 30.40      6092.3                                        
 FOUH     IAML A   0 4 32.87      5161.7                                        
 APSL     IAML A   0 4 31.93      5135.6                                        
 HLUH     IAML A   0 4 40.29      2540.1                                        
                                                                                

 2020  1 1  0 6  8.1 L  34.040  52.833 21.9       7 0.0 1.0L                   1
 GAP=                      1.2     1.0  0.0                                    E
 Action:ARG 23-12-09 18:57 OP:OBSP STATUS:               ID:20200101000608     I
 STAT SP IPHASW D HRMM SECON CODA AMPLIT PERI AZIMU VELO AIN AR TRES W  DIS CAZ7
 LUEX    IP   0A   0 6 26.02                                           82.0 255 
 LUEX    ES   0A   0 6 38.79                                           82.0 255 
 AVTK    IP   0A   0 6 27.01                                           87.7 269 
 AVTK    ES   0A   0 6 40.52                                           87.7 269 
 MGUS    IP   0A   0 6 27.90                                           91.8 109 
 MGUS    ES   0A   0 6 42.07                                           91.8 109 
 VOCA    IP   0A   0 6 27.82                                           92.4  41 
 VOCA    ES   0A   0 6 41.93                                           92.4  41 
 DQYH    IP   0A   0 6 29.72                                            101 299 
 DQYH    ES   0A   0 6 45.26                                            101 299 
 CBZA    IP   0A   0 6 29.94                                            108 242 
 CBZA    ES   0A   0 6 45.64                                            108 242 
 RAWC    IP   0A   0 6 30.49                                            111 128 
 RAWC    ES   0A   0 6 46.61                                            111 128 
 LUEX     IAML A   0 6 26.02         7.2                                        
 AVTK     IAML A   0 6 27.01         6.5                                        
 MGUS     IAML A   0 6 27.90         6.1                                        
 VOCA     IAML A   0 6 27.82         6.0                                        
 DQYH     IAML A   0 6 29.72         5.3                                        
 CBZA     IAML A   0 6 29.94         4.7                                        
 RAWC     IAML A   0 6 30.49         4.5                                        
                                                                                

 2020  1 1  0 8 10.4 L  33.951  52.555  3.2       7 0.0 1.7L                   1
 GAP=                      1.1     0.9  0.0                                    E
 Action:ARG 23-12-09 18:57 OP:OBSP STATUS:               ID:20200101000810     I
 STAT SP IPHASW D HRMM SECON CODA AMPLIT PERI AZIMU VELO AIN AR TRES W  DIS CAZ7
 XBVK    IP   0A   0 8 22.43                                           38.6  21 
 XBVK    ES   0A   0 8 30.25                                           38.6  21 
 CBZA    IP   0A   0 8 31.26                                           82.3 237 
 CBZA    ES   0A   0 8 45.70                                           82.3 237 
 DNOA    IP   0A   0 8 32.87                                           87.9  65 
 DNOA    ES   0A   0 8 48.53                                           87.9  65 
 FOUH    IP   0A   0 8 33.83                                           88.2  14 
 FOUH    ES   0A   0 8 50.22                                           88.2  14 
 APSL    IP   0A   0 8 36.44                                            114  81 
 APSL    ES   0A   0 8 54.77                                            114  81 
 MGUS    IP   0A   0 8 36.94                                            116 101 
 MGUS    ES   0A   0 8 55.64                                            116 101 
 RAWC    IP   0A   0 8 38.58                                            131 119 
 RAWC    ES   0A   0 8 58.51                                            131 119 
 XBVK     IAML A   0 8 22.43        98.1                                        
 CBZA     IAML A   0 8 31.26        35.0                                        
 DNOA     IAML A   0 8 32.87        31.8                                        
 FOUH     IAML A   0 8 33.83        31.6                                        
 APSL     IAML A   0 8 36.44        21.1                                        
 MGUS     IAML A   0 8 36.94        20.6                                        
 RAWC     IAML A   0 8 38.58        16.9                                        
                                                                                

 2020  1 1  010 15.6 L  33.964  52.708 37.9       7 0.0 2.3L                   1
 GAP=                      1.7     1.4  0.0                                    E
 Action:ARG 23-12-09 18:57 OP:OBSP STATUS:               ID:20200101001015     I
 STAT SP IPHASW D HRMM SECON CODA AMPLIT PERI AZIMU VELO AIN AR TRES W  DIS CAZ7
 RHPW    IP   0A   010 25.59                                           38.0   8 
 RHPW    ES   0A   010 33.54                                           38.0   8 
 LUEX    IP   0A   010 31.11                                           78.0 275 
 LUEX    ES   0A   010 43.19                                           78.0 275 
 DNOA    IP   0A   010 31.40                                           79.5  43 
 DNOA    ES   0A   010 43.70                                           79.5  43 
 CBZA    IP   0A   010 34.04                                           97.6 257 
 CBZA    ES   0A   010 48.33                                           97.6 257 
 VOCA    IP   0A   010 36.22                                            115  33 
 VOCA    ES   0A   010 52.14                                            115  33 
 QYDI    IP   0A   010 44.94                                            182 345 
 QYDI    ES   0A   011  6.24                                            182 345 
 HLUH    IP   0A   010 46.74                                            197 323 
 HLUH    ES   0A   011  9.48                                            197 323 
 RHPW     IAML A   010 25.59       330.7                                        
 LUEX     IAML A   010 31.11       125.2                                        
 DNOA     IAML A   010 31.40       121.7                                        
 CBZA     IAML A   010 34.04        89.7                                        
 VOCA     IAML A   010 36.22        68.6                                        
 QYDI     IAML A   010 44.94        30.9                                        
 HLUH     IAML A   010 46.74        26.6                                        
                                                                                

 2020  1 1  012 16.8 L  33.589  52.544 12.4       7 0.0 2.7L                   1
 GAP=                      3.7     3.1  0.0                                    E
 Action:ARG 23-12-09 18:57 OP:OBSP STATUS:               ID:20200101001216     I
 STAT SP IPHASW D HRMM SECON CODA AMPLIT PERI AZIMU VELO AIN AR TRES W  DIS CAZ7
 LUEX    IP   0A   012 32.22                                           67.9 315 
 LUEX    ES   0A   012 42.88                                           67.9 315 
 AVTK    IP   0A   012 36.07                                           88.0 320 
 AVTK    ES   0A   012 49.63                                           88.0 320 
 MGUS    IP   0A   012 41.45                                            125  71 
 MGUS    ES   0A   012 59.03                                            125  71 
 DQYH    IP   0A   012 42.45                                            131 334 
 DQYH    ES   0A   013  0.77                                            131 334 
 APSL    IP   0A   012 43.58                                            142  56 
 APSL    ES   0A   013  2.73                                            142  56 
 VOCA    IP   0A   012 46.50                                            166  33 
 VOCA    ES   0A   013  7.23                                            166  33 
 RPKV    IP   0A   012 51.98                                            208 342 
 RPKV    ES   0A   013 16.37                                            208 342 
 LUEX     IAML A   012 32.22       390.4                                        
 AVTK     IAML A   012 36.07       267.9                                        
 MGUS     IAML A   012 41.45       154.4                                        
 DQYH     IAML A   012 42.45       142.1                                        
 APSL     IAML A   012 43.58       124.2                                        
 VOCA     IAML A   012 46.50        93.6                                        
 RPKV     IAML A   012 51.98        61.2                                        
                                                                                

 2020  1 1  014 20.2 L  33.865  52.760 26.9       7 0.0 2.0L                   1
 GAP=                      2.0     1.7  0.0                                    E
 Action:ARG 23-12-09 18:57 OP:OBSP STATUS:               ID:20200101001420     I
 STAT SP IPHASW D HRMM SECON CODA AMPLIT PERI AZIMU VELO AIN AR TRES W  DIS CAZ7
 RHPW    IP   0A   014 29.91                                           29.7  18 
 RHPW    ES   0A   014 36.60                                           29.7  18 
 XBVK    IP   0A   014 33.19                                           48.6 351 
 XBVK    ES   0A   014 42.33                                           48.6 351 
 LUEX    IP   0A   014 36.56                                           73.6 268 
 LUEX    ES   0A   014 48.23                                           73.6 268 
 AVTK    IP   0A   014 38.50                                           83.7 282 
 AVTK    ES   0A   014 51.62                                           83.7 282 
 MGUS    IP   0A   014 39.72                                           93.3  97 
 MGUS    ES   0A   014 53.75                                           93.3  97 
 RAWC    IP   0A   014 41.31                                            106 119 
 RAWC    ES   0A   014 56.53                                            106 119 
 HLUH    IP   0A   014 51.94                                            187 322 
 HLUH    ES   0A   015 14.25                                            187 322 
 RHPW     IAML A   014 29.91       225.0                                        
 XBVK     IAML A   014 33.19       119.7                                        
 LUEX     IAML A   014 36.56        67.7                                        
 AVTK     IAML A   014 38.50        56.2                                        
 MGUS     IAML A   014 39.72        47.8                                        
 RAWC     IAML A   014 41.31        38.9                                        
 HLUH     IAML A   014 51.94        14.6                                        
                                                                                

 2020  1 1  016 24.3 L  34.029  52.660 28.3       7 0.0 2.3L                   1
 GAP=                      1.8     1.5  0.0                                    E
 Action:ARG 23-12-09 18:57 OP:OBSP STATUS:               ID:20200101001624     I
 STAT SP IPHASW D HRMM SECON CODA AMPLIT PERI AZIMU VELO AIN AR TRES W  DIS CAZ7
 XBVK    IP   0A   016 34.03                                           35.2   0 
 XBVK    ES   0A   016 41.55                                           35.2   0 
 LUEX    IP   0A   016 39.35                                           68.3 257 
 LUEX    ES   0A   016 50.85                                           68.3 257 
 DNOA    IP   0A   016 40.76                                           74.7  62 
 DNOA    ES   0A   016 53.34                                           74.7  62 
 FOUH    IP   0A   016 43.35                                           85.0   5 
 FOUH    ES   0A   016 57.89                                           85.0   5 
 APSL    IP   0A   016 44.49                                            100  81 
 APSL    ES   0A   016 59.85                                            100  81 
 VOCA    IP   0A   016 45.21                                            105  44 
 VOCA    ES   0A   017  1.12                                            105  44 
 HLUH    IP   0A   016 54.37                                            172 321 
 HLUH    ES   0A   017 16.56                                            172 321 
 XBVK     IAML A   016 34.03       397.0                                        
 LUEX     IAML A   016 39.35       164.6                                        
 DNOA     IAML A   016 40.76       145.0                                        
 FOUH     IAML A   016 43.35       120.1                                        
 APSL     IAML A   016 44.49        93.6                                        
 VOCA     IAML A   016 45.21        87.0                                        
 HLUH     IAML A   016 54.37        37.2                                        
                                                                                

