 2020  1 1  018 24.9 L  33.682  52.635 18.1       7 0.0 2.2L                   1
 GAP=                      3.2     2.7  0.0                                    E
 Action:ARG 23-12-09 18:57 OP:OBSP STATUS:               ID:20200101001824     I
 STAT SP IPHASW D HRMM SECON CODA AMPLIT PERI AZIMU VELO AIN AR TRES W  DIS CAZ7
 LUEX    IP   0A   018 40.72                                           64.3 286 
 LUEX    ES   0A   018 51.01                                           64.3 286 
 AVTK    IP   0A   018 43.67                                           79.6 298 
 AVTK    ES   0A   018 56.17                                           79.6 298 
 CBZA    IP   0A   018 43.39                                           79.9 262 
 CBZA    ES   0A   018 55.69                                           79.9 262 
 DNOA    IP   0A   018 46.78                                           98.6  46 
 DNOA    ES   0A   019  1.62                                           98.6  46 
 APSL    IP   0A   018 48.74                                            114  64 
 APSL    ES   0A   019  5.05                                            114  64 
 FOUH    IP   0A   018 50.34                                            117   6 
 FOUH    ES   0A   019  7.86                                            117   6 
 HLUH    IP   0A   018 59.49                                            197 328 
 HLUH    ES   0A   019 22.92                                            197 328 
 LUEX     IAML A   018 40.72       135.7                                        
 AVTK     IAML A   018 43.67       100.3                                        
 CBZA     IAML A   018 43.39        99.8                                        
 DNOA     IAML A   018 46.78        72.8                                        
 APSL     IAML A   018 48.74        57.2                                        
 FOUH     IAML A   018 50.34        54.2                                        
 HLUH     IAML A   018 59.49        21.9                                        
                                                                                

 2020  1 1  020 29.9 L  33.805  52.523 22.8       7 0.0 3.7L                   1
 GAP=                      2.5     2.1  0.0                                    E
 Action:ARG 23-12-09 18:57 OP:OBSP STATUS:               ID:20200101002029     I
 STAT SP IPHASW D HRMM SECON CODA AMPLIT PERI AZIMU VELO AIN AR TRES W  DIS CAZ7
 RHPW    IP   0A   020 42.77                                           48.4  37 
 RHPW    ES   0A   020 52.35                                           48.4  37 
 LUEX    IP   0A   020 42.74                                           54.3 278 
 LUEX    ES   0A   020 52.30                                           54.3 278 
 CBZA    IP   0A   020 46.01                                           74.2 253 
 CBZA    ES   0A   020 58.03                                           74.2 253 
 DNOA    IP   0A   020 50.70                                           98.2  53 
 DNOA    ES   0A   021  6.23                                           98.2  53 
 APSL    IP   0A   020 53.24                                            117  70 
 APSL    ES   0A   021 10.68                                            117  70 
 RPKV    IP   0A   021  0.70                                            172 336 
 RPKV    ES   0A   021 23.17                                            172 336 
 QYDI    IP   0A   021  1.19                                            179 353 
 QYDI    ES   0A   021 23.68                                            179 353 
 RHPW     IAML A   020 42.77      6257.6                                        
 LUEX     IAML A   020 42.74      5367.4                                        
 CBZA     IAML A   020 46.01      3483.3                                        
 DNOA     IAML A   020 50.70      2297.6                                        
 APSL     IAML A   020 53.24      1706.5                                        
 RPKV     IAML A   021  0.70       889.6                                        
 QYDI     IAML A   021  1.19       827.8                                        
                                                                                

 2020  1 1  022 32.9 L  33.734  52.394 20.2       7 0.0 1.6L                   1
 GAP=                      1.8     1.5  0.0                                    E
 Action:ARG 23-12-09 18:57 OP:OBSP STATUS:               ID:20200101002232     I
 STAT SP IPHASW D HRMM SECON CODA AMPLIT PERI AZIMU VELO AIN AR TRES W  DIS CAZ7
 LUEX    IP   0A   022 43.89                                           44.2 290 
 LUEX    ES   0A   022 52.06                                           44.2 290 
 CBZA    IP   0A   022 46.99                                           60.4 256 
 CBZA    ES   0A   022 57.49                                           60.4 256 
 XBVK    IP   0A   022 50.47                                           70.6  20 
 XBVK    ES   0A   023  3.58                                           70.6  20 
 MGUS    IP   0A   022 57.97                                            123  87 
 MGUS    ES   0A   023 16.69                                            123  87 
 RAWC    IP   0A   022 58.34                                            129 105 
 RAWC    ES   0A   023 17.35                                            129 105 
 APSL    IP   0A   022 58.83                                            132  69 
 APSL    ES   0A   023 18.15                                            132  69 
 HLUH    IP   0A   023  5.81                                            185 333 
 HLUH    ES   0A   023 29.71                                            185 333 
 LUEX     IAML A   022 43.89        66.6                                        
 CBZA     IAML A   022 46.99        43.9                                        
 XBVK     IAML A   022 50.47        35.3                                        
 MGUS     IAML A   022 57.97        14.8                                        
 RAWC     IAML A   022 58.34        13.9                                        
 APSL     IAML A   022 58.83        13.4                                        
 HLUH     IAML A   023  5.81         7.3                                        
                                                                                

 2020  1 1  024 35.2 L  33.591  52.521 28.2       7 0.0 0.3L                   1
 GAP=                      3.3     2.7  0.0                                    E
 Action:ARG 23-12-09 18:57 OP:OBSP STATUS:               ID:20200101002435     I
 STAT SP IPHASW D HRMM SECON CODA AMPLIT PERI AZIMU VELO AIN AR TRES W  DIS CAZ7
 RHPW    IP   0A   024 51.37                                           64.9  28 
 RHPW    ES   0A   025  2.90                                           64.9  28 
 CBZA    IP   0A   024 50.85                                           69.9 268 
 CBZA    ES   0A   025  1.98                                           69.9 268 
 AVTK    IP   0A   024 52.29                                           76.5 307 
 AVTK    ES   0A   025  4.50                                           76.5 307 
 DNOA    IP   0A   024 57.64                                            111  46 
 DNOA    ES   0A   025 13.87                                            111  46 
 MGUS    IP   0A   024 58.14                                            115  81 
 MGUS    ES   0A   025 14.74                                            115  81 
 APSL    IP   0A   024 59.59                                            126  63 
 APSL    ES   0A   025 17.28                                            126  63 
 VOCA    IP   0A   025  1.85                                            146  37 
 VOCA    ES   0A   025 21.03                                            146  37 
 RHPW     IAML A   024 51.37         1.9                                        
 CBZA     IAML A   024 50.85         1.7                                        
 AVTK     IAML A   024 52.29         1.5                                        
 DNOA     IAML A   024 57.64         0.8                                        
 MGUS     IAML A   024 58.14         0.8                                        
 APSL     IAML A   024 59.59         0.7                                        
 VOCA     IAML A   025  1.85         0.5                                        
                                                                                

 2020  1 1  026 38.6 L  33.729  52.411 30.2       7 0.0 2.5L                   1
 GAP=                      3.2     2.7  0.0                                    E
 Action:ARG 23-12-09 18:57 OP:OBSP STATUS:               ID:20200101002638     I
 STAT SP IPHASW D HRMM SECON CODA AMPLIT PERI AZIMU VELO AIN AR TRES W  DIS CAZ7
 RHPW    IP   0A   026 52.45                                           51.7  37 
 RHPW    ES   0A   027  2.54                                           51.7  37 
 XBVK    IP   0A   026 54.37                                           62.7  14 
 XBVK    ES   0A   027  5.91                                           62.7  14 
 DNOA    IP   0A   027  0.21                                            101  53 
 DNOA    ES   0A   027 16.12                                            101  53 
 MGUS    IP   0A   027  1.82                                            115  89 
 MGUS    ES   0A   027 18.93                                            115  89 
 RPKV    IP   0A   027  9.65                                            173 337 
 RPKV    ES   0A   027 32.11                                            173 337 
 QYDI    IP   0A   027 10.31                                            181 354 
 QYDI    ES   0A   027 32.93                                            181 354 
 HLUH    IP   0A   027 10.79                                            185 330 
 HLUH    ES   0A   027 33.93                                            185 330 
 RHPW     IAML A   026 52.45       419.9                                        
 XBVK     IAML A   026 54.37       323.2                                        
 DNOA     IAML A   027  0.21       159.8                                        
 MGUS     IAML A   027  1.82       131.2                                        
 RPKV     IAML A   027  9.65        64.4                                        
 QYDI     IAML A   027 10.31        59.4                                        
 HLUH     IAML A   027 10.79        56.8                                        
                                                                                

 2020  1 1  028 41.4 L  34.045  52.556  5.1       7 0.0 5.0L                   1
 GAP=                      1.1     0.9  0.0                                    E
 Action:ARG 23-12-09 18:57 OP:OBSP STATUS:               ID:20200101002841     I
 STAT SP IPHASW D HRMM SECON CODA AMPLIT PERI AZIMU VELO AIN AR TRES W  DIS CAZ7
 XBVK    IP   0A   028 49.47                                           27.5  29 
 XBVK    ES   0A   028 55.08                                           27.5  29 
 RHPW    IP   0A   028 50.49                                           29.9  82 
 RHPW    ES   0A   028 56.85                                           29.9  82 
 LUEX    IP   0A   028 56.67                                           59.3 243 
 LUEX    ES   0A   029  7.67                                           59.3 243 
 DQYH    IP   0A   029  1.67                                           76.0 305 
 DQYH    ES   0A   029 16.45                                           76.0 305 
 DNOA    IP   0A   029  2.54                                           82.9  73 
 DNOA    ES   0A   029 17.96                                           82.9  73 
 VOCA    IP   0A   029  6.24                                            107  53 
 VOCA    ES   0A   029 24.45                                            107  53 
 APSL    IP   0A   029  6.75                                            112  87 
 APSL    ES   0A   029 25.32                                            112  87 
 XBVK     IAML A   028 49.47      26.2e4                                        
 RHPW     IAML A   028 50.49      23.6e4                                        
 LUEX     IAML A   028 56.67     97181.6                                        
 DQYH     IAML A   029  1.67     68667.5                                        
 DNOA     IAML A   029  2.54     60539.9                                        
 VOCA     IAML A   029  6.24     40473.3                                        
 APSL     IAML A   029  6.75     37885.9                                        
                                                                                

 2020  1 1  030 43.2 L  33.787  52.646 17.5       7 0.0 0.8L                   1
 GAP=                      3.8     3.2  0.0                                    E
 Action:ARG 23-12-09 18:57 OP:OBSP STATUS:               ID:20200101003043     I
 STAT SP IPHASW D HRMM SECON CODA AMPLIT PERI AZIMU VELO AIN AR TRES W  DIS CAZ7
 LUEX    IP   0A   030 58.79                                           63.1 274 
 LUEX    ES   0A   031  9.14                                           63.1 274 
 CBZA    IP   0A   031  2.28                                           84.1 252 
 CBZA    ES   0A   031 15.25                                           84.1 252 
 DQYH    IP   0A   031  6.43                                            103 316 
 DQYH    ES   0A   031 22.50                                            103 316 
 FOUH    IP   0A   031  6.84                                            104   6 
 FOUH    ES   0A   031 23.26                                            104   6 
 APSL    IP   0A   031  6.15                                            108  71 
 APSL    ES   0A   031 22.02                                            108  71 
 RPKV    IP   0A   031 15.19                                            173 333 
 RPKV    ES   0A   031 37.17                                            173 333 
 HLUH    IP   0A   031 16.51                                            186 326 
 HLUH    ES   0A   031 39.36                                            186 326 
 LUEX     IAML A   030 58.79         5.5                                        
 CBZA     IAML A   031  2.28         3.6                                        
 DQYH     IAML A   031  6.43         2.6                                        
 FOUH     IAML A   031  6.84         2.6                                        
 APSL     IAML A   031  6.15         2.4                                        
 RPKV     IAML A   031 15.19         1.1                                        
 HLUH     IAML A   031 16.51         1.0                                        
                                                                                

 2020  1 1  032 46.7 L  33.864  52.674 17.3       7 0.0 3.7L                   1
 GAP=                      0.9     0.7  0.0                                    E
 Action:ARG 23-12-09 18:57 OP:OBSP STATUS:               ID:20200101003246     I
 STAT SP IPHASW D HRMM SECON CODA AMPLIT PERI AZIMU VELO AIN AR TRES W  DIS CAZ7
 LUEX    IP   0A   033  2.37                                           65.4 267 
 LUEX    ES   0A   033 13.15                                           65.4 267 
 DNOA    IP   0A   033  5.66                                           82.1  55 
 DNOA    ES   0A   033 18.90                                           82.1  55 
 CBZA    IP   0A   033  6.26                                           88.9 248 
 CBZA    ES   0A   033 19.96                                           88.9 248 
 FOUH    IP   0A   033  8.72                                           97.1   5 
 FOUH    ES   0A   033 24.29                                           97.1   5 
 MGUS    IP   0A   033  8.53                                            101  97 
 MGUS    ES   0A   033 23.93                                            101  97 
 APSL    IP   0A   033  8.63                                            104  74 
 APSL    ES   0A   033 24.10                                            104  74 
 RAWC    IP   0A   033 10.07                                            114 117 
 RAWC    ES   0A   033 26.63                                            114 117 
 LUEX     IAML A   033  2.37      4768.2                                        
 DNOA     IAML A   033  5.66      3443.4                                        
 CBZA     IAML A   033  6.26      3063.1                                        
 FOUH     IAML A   033  8.72      2677.8                                        
 MGUS     IAML A   033  8.53      2496.5                                        
 APSL     IAML A   033  8.63      2406.9                                        
 RAWC     IAML A   033 10.07      2074.6                                        
                                                                                

 2020  1 1  034 49.3 L  33.507  52.653 26.4       7 0.0 3.6L                   1
 GAP=                      2.8     2.3  0.0                                    E
 Action:ARG 23-12-09 18:57 OP:OBSP STATUS:               ID:20200101003449     I
 STAT SP IPHASW D HRMM SECON CODA AMPLIT PERI AZIMU VELO AIN AR TRES W  DIS CAZ7
 RHPW    IP   0A   035  6.25                                           66.3  15 
 RHPW    ES   0A   035 17.69                                           66.3  15 
 LUEX    IP   0A   035  5.81                                           73.3 297 
 LUEX    ES   0A   035 16.91                                           73.3 297 
 CBZA    IP   0A   035  7.55                                           82.7 273 
 CBZA    ES   0A   035 19.96                                           82.7 273 
 AVTK    IP   0A   035  9.03                                           90.7 305 
 AVTK    ES   0A   035 22.55                                           90.7 305 
 RAWC    IP   0A   035 10.47                                            102  98 
 RAWC    ES   0A   035 25.06                                            102  98 
 DQYH    IP   0A   035 14.57                                            127 324 
 DQYH    ES   0A   035 32.24                                            127 324 
 QYDI    IP   0A   035 23.77                                            205 351 
 QYDI    ES   0A   035 46.94                                            205 351 
 RHPW     IAML A   035  6.25      3743.3                                        
 LUEX     IAML A   035  5.81      3251.5                                        
 CBZA     IAML A   035  7.55      2729.0                                        
 AVTK     IAML A   035  9.03      2379.9                                        
 RAWC     IAML A   035 10.47      1959.2                                        
 DQYH     IAML A   035 14.57      1389.8                                        
 QYDI     IAML A   035 23.77       580.0                                        
                                                                                

