 2001  2 3  024 30.0 L  33.269  52.524 12.9      11 0.0 3.2l                   1
 Action:ARG 24-03-13 14:54 OP:OBSP STATUS:               ID:20010203002430     I
 STAT SP IPHASW D HRMM SECON CODA AMPLIT PERI AZIMU VELO AIN AR TRES W  DIS CAZ7
 CBZA    IP   0A   024 47.19                                           78.7 298 
 CBZA    ES   0A   025  0.08                                           78.7 298 
 LUEX    IP   0A   024 48.21                                           84.7 322 
 LUEX    ES   0A   025  1.86                                           84.7 322 
 RHPW    IP   0A   024 51.03                                            102  17 
 AVTK    IP   0A   024 51.44                                            105 325 
 AVTK    ES   0A   025  7.52                                            105 325 
 RAWC    IP   0A   024 53.14                                            116  81 
 RAWC    ES   0A   025 10.50                                            116  81 
 XBVK    IP   0A   024 53.27                                            118   7 
 APSL    IP   0A   024 57.55                                            150  49 
 APSL    ES   0A   025 18.15                                            150  49 
 FOUH    IP   0A   024 59.81                                            168   7 
 FOUH    ES   0A   025 21.68                                            168   7 
 VOCA    IP   0A   025  1.09                                            180  29 
 VOCA    ES   0A   025 23.94                                            180  29 
 RPKV    IP   0A   025  7.31                                            227 342 
 RPKV    ES   0A   025 33.87                                            227 342 
 HLUH    IP   0A   025  8.24                                            236 337 
 HLUH    ES   0A   025 35.30                                            236 337 
 RAWC     IAML A   024 53.14       655.6                                        
 XBVK     IAML A   024 53.27       639.9                                        
 VOCA     IAML A   025  1.09       306.2                                        
 AVTK     IAML A   024 51.44       771.6                                        
 HLUH     IAML A   025  8.24       177.7                                        
 CBZA     IAML A   024 47.19      1200.5                                        
                                                                                

 2001  2 3  025 40.0 L  34.046  52.940 24.9      11 0.0 1.0l                   1
 Action:ARG 24-03-13 14:54 OP:OBSP STATUS:               ID:20010203002540     I
 STAT SP IPHASW D HRMM SECON CODA AMPLIT PERI AZIMU VELO AIN AR TRES W  DIS CAZ7
 XBVK    IP   0A   025 49.58                                           39.0 323 
 XBVK    ES   0A   025 56.77                                           39.0 323 
 DNOA    IP   0A   025 52.03                                           52.9  54 
 DNOA    ES   0A   026  1.05                                           52.9  54 
 APSL    IP   0A   025 55.83                                           76.7  81 
 APSL    ES   0A   026  7.70                                           76.7  81 
 MGUS    IP   0A   025 56.68                                           81.5 110 
 FOUH    IP   0A   025 56.60                                           82.1 349 
 FOUH    ES   0A   026  9.06                                           82.1 349 
 LUEX    IP   0A   025 58.12                                           91.8 258 
 LUEX    ES   0A   026 11.71                                           91.8 258 
 RAWC    IP   0A   025 59.78                                            103 131 
 RAWC    ES   0A   026 14.61                                            103 131 
 DQYH    IP   0A   026  1.06                                            111 297 
 DQYH    ES   0A   026 16.85                                            111 297 
 CBZA    IP   0A   026  1.67                                            117 245 
 CBZA    ES   0A   026 17.90                                            117 245 
 RPKV    IP   0A   026  8.23                                            167 321 
 RPKV    ES   0A   026 28.77                                            167 321 
 HLUH    IP   0A   026 10.19                                            185 315 
 RPKV     IAML A   026  8.23         2.0                                        
 FOUH     IAML A   025 56.60         6.5                                        
 LUEX     IAML A   025 58.12         5.5                                        
 DQYH     IAML A   026  1.06         4.1                                        
                                                                                

 2001  2 3  026 50.0 L  33.755  52.547 14.1      13 0.0 0.8l                   1
 Action:ARG 24-03-13 14:54 OP:OBSP STATUS:               ID:20010203002650     I
 STAT SP IPHASW D HRMM SECON CODA AMPLIT PERI AZIMU VELO AIN AR TRES W  DIS CAZ7
 RHPW    IP   0A   027  2.62                                           52.6  33 
 RHPW    ES   0A   027 12.09                                           52.6  33 
 XBVK    IP   0A   027  4.83                                           64.9  11 
 XBVK    ES   0A   027 15.95                                           64.9  11 
 CBZA    IP   0A   027  6.26                                           72.8 257 
 CBZA    ES   0A   027 18.46                                           72.8 257 
 DNOA    IP   0A   027 10.76                                            101  51 
 DNOA    ES   0A   027 26.34                                            101  51 
 DQYH    IP   0A   027 11.24                                            104 323 
 MGUS    IP   0A   027 12.27                                            112  88 
 MGUS    ES   0A   027 28.96                                            112  88 
 FOUH    IP   0A   027 12.58                                            114  10 
 FOUH    ES   0A   027 29.51                                            114  10 
 RAWC    IP   0A   027 13.27                                            118 107 
 APSL    IP   0A   027 13.46                                            120  68 
 APSL    ES   0A   027 31.06                                            120  68 
 VOCA    IP   0A   027 15.14                                            134  40 
 VOCA    ES   0A   027 34.00                                            134  40 
 RPKV    IP   0A   027 20.94                                            177 336 
 RPKV    ES   0A   027 43.43                                            177 336 
 QYDI    IP   0A   027 21.47                                            184 353 
 QYDI    ES   0A   027 44.34                                            184 353 
 HLUH    IP   0A   027 22.15                                            189 330 
 HLUH    ES   0A   027 45.63                                            189 330 
 VOCA     IAML A   027 15.14         1.8                                        
 APSL     IAML A   027 13.46         2.2                                        
 QYDI     IAML A   027 21.47         1.0                                        
 CBZA     IAML A   027  6.26         4.7                                        
 RHPW     IAML A   027  2.62         7.3                                        
 XBVK     IAML A   027  4.83         5.5                                        
                                                                                

 2001  2 3  028  0.0 L  33.817  52.248  4.6      12 0.0 1.4l                   1
 Action:ARG 24-03-13 14:54 OP:OBSP STATUS:               ID:20010203002800     I
 STAT SP IPHASW D HRMM SECON CODA AMPLIT PERI AZIMU VELO AIN AR TRES W  DIS CAZ7
 LUEX    IP   0A   028  7.02                                           26.6 283 
 LUEX    ES   0A   028 12.29                                           26.6 283 
 AVTK    IP   0A   028 11.15                                           42.9 307 
 AVTK    ES   0A   028 19.52                                           42.9 307 
 CBZA    IP   0A   028 12.57                                           48.9 241 
 CBZA    ES   0A   028 21.99                                           48.9 241 
 RHPW    IP   0A   028 17.16                                           67.9  57 
 RHPW    ES   0A   028 30.04                                           67.9  57 
 XBVK    IP   0A   028 17.27                                           69.9  35 
 XBVK    ES   0A   028 30.22                                           69.9  35 
 DQYH    IP   0A   028 20.00                                           84.1 335 
 DQYH    ES   0A   028 35.00                                           84.1 335 
 FOUH    IP   0A   028 25.00                                            116  24 
 FOUH    ES   0A   028 43.75                                            116  24 
 DNOA    IP   0A   028 25.65                                            120  61 
 DNOA    ES   0A   028 44.90                                            120  61 
 MGUS    IP   0A   028 28.17                                            140  91 
 MGUS    ES   0A   028 49.31                                            140  91 
 RAWC    IP   0A   028 29.25                                            147 106 
 RAWC    ES   0A   028 51.16                                            147 106 
 VOCA    IP   0A   028 29.39                                            149  49 
 VOCA    ES   0A   028 51.43                                            149  49 
 QYDI    IP   0A   028 32.69                                            176   2 
 QYDI    ES   0A   028 56.54                                            176   2 
 MGUS     IAML A   028 28.17         6.7                                        
 RHPW     IAML A   028 17.16        20.7                                        
 QYDI     IAML A   028 32.69         4.5                                        
 XBVK     IAML A   028 17.27        19.9                                        
 DQYH     IAML A   028 20.00        15.2                                        
 DNOA     IAML A   028 25.65         8.7                                        
                                                                                

 2001  2 3  029 10.0 L  34.117  52.872 23.0      10 0.0 1.4l                   1
 Action:ARG 24-03-13 14:54 OP:OBSP STATUS:               ID:20010203002910     I
 STAT SP IPHASW D HRMM SECON CODA AMPLIT PERI AZIMU VELO AIN AR TRES W  DIS CAZ7
 RHPW    IP   0A   029 15.28                                           3.46 349 
 RHPW    ES   0A   029 19.24                                           3.46 349 
 FOUH    IP   0A   029 25.27                                           73.3 353 
 FOUH    ES   0A   029 36.72                                           73.3 353 
 APSL    IP   0A   029 26.79                                           82.3  87 
 APSL    ES   0A   029 39.39                                           82.3  87 
 MGUS    IP   0A   029 28.33                                           90.3 113 
 MGUS    ES   0A   029 42.08                                           90.3 113 
 AVTK    IP   0A   029 28.37                                           92.1 265 
 AVTK    ES   0A   029 42.14                                           92.1 265 
 DQYH    IP   0A   029 29.97                                            101 295 
 DQYH    ES   0A   029 44.96                                            101 295 
 RAWC    IP   0A   029 31.53                                            113 132 
 RAWC    ES   0A   029 47.67                                            113 132 
 CBZA    IP   0A   029 31.41                                            115 241 
 QYDI    IP   0A   029 35.94                                            151 340 
 QYDI    ES   0A   029 55.15                                            151 340 
 HLUH    IP   0A   029 39.09                                            175 315 
 HLUH    ES   0A   030  0.22                                            175 315 
 FOUH     IAML A   029 25.27        21.2                                        
 DQYH     IAML A   029 29.97        13.0                                        
 MGUS     IAML A   029 28.33        15.6                                        
                                                                                

 2001  2 3  030 20.0 L  33.704  52.724 18.9      11 0.0 0.7l                   1
 Action:ARG 24-03-13 14:54 OP:OBSP STATUS:               ID:20010203003020     I
 STAT SP IPHASW D HRMM SECON CODA AMPLIT PERI AZIMU VELO AIN AR TRES W  DIS CAZ7
 RHPW    IP   0A   030 32.19                                           51.0  14 
 RHPW    ES   0A   030 41.32                                           51.0  14 
 XBVK    IP   0A   030 34.93                                           69.4 357 
 XBVK    ES   0A   030 46.13                                           69.4 357 
 LUEX    IP   0A   030 35.66                                           72.5 285 
 LUEX    ES   0A   030 47.40                                           72.5 285 
 CBZA    IP   0A   030 38.11                                           88.0 263 
 CBZA    ES   0A   030 51.69                                           88.0 263 
 DNOA    IP   0A   030 38.96                                           93.3  42 
 DNOA    ES   0A   030 53.18                                           93.3  42 
 MGUS    IP   0A   030 39.41                                           96.7  84 
 MGUS    ES   0A   030 53.96                                           96.7  84 
 RAWC    IP   0A   030 40.24                                            101 107 
 RAWC    ES   0A   030 55.42                                            101 107 
 DQYH    IP   0A   030 42.74                                            119 318 
 DQYH    ES   0A   030 59.80                                            119 318 
 VOCA    IP   0A   030 43.79                                            129  33 
 VOCA    ES   0A   031  1.63                                            129  33 
 RPKV    IP   0A   030 51.69                                            189 333 
 RPKV    ES   0A   031 14.59                                            189 333 
 HLUH    IP   0A   030 53.10                                            202 326 
 HLUH    ES   0A   031 16.97                                            202 326 
 RAWC     IAML A   030 40.24         2.3                                        
 DQYH     IAML A   030 42.74         1.7                                        
 DNOA     IAML A   030 38.96         2.6                                        
 MGUS     IAML A   030 39.41         2.4                                        
 HLUH     IAML A   030 53.10         0.7                                        
                                                                                

 2001  2 3  031 30.0 L  33.720  52.514 13.3      13 0.0 1.6l                   1
 Action:ARG 24-03-13 14:54 OP:OBSP STATUS:               ID:20010203003130     I
 STAT SP IPHASW D HRMM SECON CODA AMPLIT PERI AZIMU VELO AIN AR TRES W  DIS CAZ7
 LUEX    IP   0A   031 42.91                                           53.4 288 
 LUEX    ES   0A   031 52.60                                           53.4 288 
 RHPW    IP   0A   031 43.59                                           57.5  34 
 CBZA    IP   0A   031 45.73                                           69.0 259 
 XBVK    IP   0A   031 45.73                                           69.4  13 
 XBVK    ES   0A   031 57.52                                           69.4  13 
 AVTK    IP   0A   031 45.68                                           69.4 302 
 AVTK    ES   0A   031 57.44                                           69.4 302 
 DQYH    IP   0A   031 51.64                                            105 325 
 DQYH    ES   0A   032  7.88                                            105 325 
 DNOA    IP   0A   031 51.51                                            106  50 
 DNOA    ES   0A   032  7.64                                            106  50 
 MGUS    IP   0A   031 52.81                                            115  86 
 MGUS    ES   0A   032  9.92                                            115  86 
 FOUH    IP   0A   031 53.32                                            119  11 
 APSL    IP   0A   031 54.13                                            124  67 
 VOCA    IP   0A   031 55.88                                            139  40 
 VOCA    ES   0A   032 15.30                                            139  40 
 RPKV    IP   0A   032  1.39                                            179 338 
 RPKV    ES   0A   032 24.31                                            179 338 
 QYDI    IP   0A   032  2.11                                            187 354 
 QYDI    ES   0A   032 25.41                                            187 354 
 MGUS     IAML A   031 52.81        16.5                                        
 LUEX     IAML A   031 42.91        51.2                                        
 QYDI     IAML A   032  2.11         7.0                                        
 CBZA     IAML A   031 45.73        35.9                                        
 AVTK     IAML A   031 45.68        35.6                                        
 XBVK     IAML A   031 45.73        35.7                                        
                                                                                

