 2001  2 3  0 0  0.0 L  33.850  52.613 15.5      10 0.0 4.1l                   1
 Action:ARG 24-03-13 14:54 OP:OBSP STATUS:               ID:20010203000000     I
 STAT SP IPHASW D HRMM SECON CODA AMPLIT PERI AZIMU VELO AIN AR TRES W  DIS CAZ7
 RHPW    IP   0A   0 0 10.20                                           40.5  35 
 RHPW    ES   0A   0 0 17.85                                           40.5  35 
 XBVK    IP   0A   0 0 12.61                                           53.6   7 
 XBVK    ES   0A   0 0 22.07                                           53.6   7 
 DNOA    IP   0A   0 0 18.95                                           90.2  54 
 DNOA    ES   0A   0 0 33.17                                           90.2  54 
 FOUH    IP   0A   0 0 20.94                                            103   8 
 FOUH    ES   0A   0 0 36.65                                            103   8 
 MGUS    IP   0A   0 0 21.32                                            106  93 
 MGUS    ES   0A   0 0 37.32                                            106  93 
 RAWC    IP   0A   0 0 22.82                                            116 113 
 RAWC    ES   0A   0 0 39.93                                            116 113 
 VOCA    IP   0A   0 0 23.54                                            122  41 
 VOCA    ES   0A   0 0 41.20                                            122  41 
 RPKV    IP   0A   0 0 29.90                                            170 333 
 RPKV    ES   0A   0 0 51.61                                            170 333 
 QYDI    IP   0A   0 0 30.17                                            174 351 
 QYDI    ES   0A   0 0 52.17                                            174 351 
 HLUH    IP   0A   0 0 31.28                                            183 326 
 HLUH    ES   0A   0 0 54.04                                            183 326 
 MGUS     IAML A   0 0 21.32      5378.1                                        
 VOCA     IAML A   0 0 23.54      4287.1                                        
 RAWC     IAML A   0 0 22.82      4652.2                                        
 RPKV     IAML A   0 0 29.90      2434.7                                        
 HLUH     IAML A   0 0 31.28      2113.4                                        
                                                                                

 2001  2 3  0 1 10.0 L  33.466  52.676 17.7      11 0.0 2.2l                   1
 Action:ARG 24-03-13 14:54 OP:OBSP STATUS:               ID:20010203000110     I
 STAT SP IPHASW D HRMM SECON CODA AMPLIT PERI AZIMU VELO AIN AR TRES W  DIS CAZ7
 LUEX    IP   0A   0 1 26.88                                           79.7 304 
 LUEX    ES   0A   0 1 39.54                                           79.7 304 
 CBZA    IP   0A   0 1 27.48                                           84.5 281 
 CBZA    ES   0A   0 1 40.60                                           84.5 281 
 XBVK    IP   0A   0 1 28.88                                           95.7   0 
 AVTK    IP   0A   0 1 29.59                                           98.4 311 
 AVTK    ES   0A   0 1 44.28                                           98.4 311 
 RAWC    IP   0A   0 1 30.33                                            101  92 
 RAWC    ES   0A   0 1 45.58                                            101  92 
 DNOA    IP   0A   0 1 32.27                                            116  35 
 DNOA    ES   0A   0 1 48.96                                            116  35 
 DQYH    IP   0A   0 1 35.16                                            137 327 
 DQYH    ES   0A   0 1 53.89                                            137 327 
 FOUH    IP   0A   0 1 35.91                                            145   3 
 FOUH    ES   0A   0 1 55.15                                            145   3 
 VOCA    IP   0A   0 1 36.94                                            154  29 
 RPKV    IP   0A   0 1 44.43                                            211 337 
 RPKV    ES   0A   0 2  8.88                                            211 337 
 HLUH    IP   0A   0 1 45.66                                            223 331 
 HLUH    ES   0A   0 2 11.06                                            223 331 
 VOCA     IAML A   0 1 36.94        40.9                                        
 HLUH     IAML A   0 1 45.66        20.2                                        
 RPKV     IAML A   0 1 44.43        22.6                                        
 XBVK     IAML A   0 1 28.88        90.0                                        
 CBZA     IAML A   0 1 27.48       108.4                                        
                                                                                

 2001  2 3  0 2 20.0 L  33.870  52.886 23.1      10 0.0 4.3l                   1
 Action:ARG 24-03-13 14:54 OP:OBSP STATUS:               ID:20010203000220     I
 STAT SP IPHASW D HRMM SECON CODA AMPLIT PERI AZIMU VELO AIN AR TRES W  DIS CAZ7
 DNOA    IP   0A   0 2 34.89                                           69.6  43 
 DNOA    ES   0A   0 2 46.05                                           69.6  43 
 MGUS    IP   0A   0 2 36.74                                           81.8  96 
 MGUS    ES   0A   0 2 49.29                                           81.8  96 
 LUEX    IP   0A   0 2 37.16                                           84.9 270 
 LUEX    ES   0A   0 2 50.03                                           84.9 270 
 APSL    IP   0A   0 2 37.48                                           86.5  69 
 APSL    ES   0A   0 2 50.59                                           86.5  69 
 RAWC    IP   0A   0 2 38.69                                           95.5 121 
 RAWC    ES   0A   0 2 52.71                                           95.5 121 
 VOCA    IP   0A   0 2 40.33                                            106  31 
 VOCA    ES   0A   0 2 55.58                                            106  31 
 CBZA    IP   0A   0 2 40.43                                            106 254 
 CBZA    ES   0A   0 2 55.75                                            106 254 
 DQYH    IP   0A   0 2 42.01                                            117 307 
 DQYH    ES   0A   0 2 58.51                                            117 307 
 QYDI    IP   0A   0 2 49.51                                            178 343 
 QYDI    ES   0A   0 3 11.17                                            178 343 
 HLUH    IP   0A   0 2 51.91                                            196 320 
 HLUH    ES   0A   0 3 15.00                                            196 320 
 VOCA     IAML A   0 2 40.33      8075.8                                        
 APSL     IAML A   0 2 37.48     11012.6                                        
 DNOA     IAML A   0 2 34.89     15103.7                                        
 DQYH     IAML A   0 2 42.01      6871.0                                        
 CBZA     IAML A   0 2 40.43      8038.6                                        
 HLUH     IAML A   0 2 51.91      2744.3                                        
                                                                                

 2001  2 3  0 3 30.0 L  33.999  52.532 13.6      12 0.0 1.0l                   1
 Action:ARG 24-03-13 14:54 OP:OBSP STATUS:               ID:20010203000330     I
 STAT SP IPHASW D HRMM SECON CODA AMPLIT PERI AZIMU VELO AIN AR TRES W  DIS CAZ7
 RHPW    IP   0A   0 3 39.15                                           34.9  61 
 LUEX    IP   0A   0 3 43.00                                           53.9 255 
 AVTK    IP   0A   0 3 44.05                                           60.8 275 
 AVTK    ES   0A   0 3 54.59                                           60.8 275 
 DQYH    IP   0A   0 3 48.19                                           83.1 312 
 DQYH    ES   0A   0 4  1.83                                           83.1 312 
 DNOA    IP   0A   0 3 48.94                                           88.3  65 
 DNOA    ES   0A   0 4  3.14                                           88.3  65 
 FOUH    IP   0A   0 3 49.04                                           88.9  14 
 APSL    IP   0A   0 3 52.83                                            114  81 
 APSL    ES   0A   0 4  9.95                                            114  81 
 VOCA    IP   0A   0 3 53.01                                            116  49 
 VOCA    ES   0A   0 4 10.27                                            116  49 
 RAWC    IP   0A   0 3 55.12                                            130 118 
 RAWC    ES   0A   0 4 13.96                                            130 118 
 RPKV    IP   0A   0 3 57.87                                            151 333 
 RPKV    ES   0A   0 4 18.51                                            151 333 
 QYDI    IP   0A   0 3 58.27                                            157 352 
 QYDI    ES   0A   0 4 19.33                                            157 352 
 HLUH    IP   0A   0 3 59.24                                            165 325 
 HLUH    ES   0A   0 4 20.97                                            165 325 
 RAWC     IAML A   0 3 55.12         3.5                                        
 LUEX     IAML A   0 3 43.00        13.0                                        
 AVTK     IAML A   0 3 44.05        11.0                                        
 HLUH     IAML A   0 3 59.24         2.3                                        
 DQYH     IAML A   0 3 48.19         7.1                                        
                                                                                

 2001  2 3  0 4 40.0 L  33.652  52.538 13.5      12 0.0 1.7l                   1
 Action:ARG 24-03-13 14:54 OP:OBSP STATUS:               ID:20010203000440     I
 STAT SP IPHASW D HRMM SECON CODA AMPLIT PERI AZIMU VELO AIN AR TRES W  DIS CAZ7
 LUEX    IP   0A   0 4 53.67                                           58.2 295 
 LUEX    ES   0A   0 5  3.91                                           58.2 295 
 RHPW    IP   0A   0 4 54.59                                           62.9  28 
 RHPW    ES   0A   0 5  5.52                                           62.9  28 
 CBZA    IP   0A   0 4 55.70                                           70.3 266 
 CBZA    ES   0A   0 5  7.48                                           70.3 266 
 AVTK    IP   0A   0 4 56.59                                           75.4 306 
 AVTK    ES   0A   0 5  9.04                                           75.4 306 
 XBVK    IP   0A   0 4 56.78                                           76.4  10 
 XBVK    ES   0A   0 5  9.37                                           76.4  10 
 DNOA    IP   0A   0 5  1.94                                            109  46 
 DNOA    ES   0A   0 5 18.39                                            109  46 
 MGUS    IP   0A   0 5  2.54                                            114  82 
 MGUS    ES   0A   0 5 19.45                                            114  82 
 RAWC    IP   0A   0 5  3.16                                            116 102 
 RAWC    ES   0A   0 5 20.52                                            116 102 
 APSL    IP   0A   0 5  4.27                                            125  63 
 APSL    ES   0A   0 5 22.47                                            125  63 
 VOCA    IP   0A   0 5  6.50                                            144  37 
 VOCA    ES   0A   0 5 26.38                                            144  37 
 RPKV    IP   0A   0 5 12.34                                            187 338 
 HLUH    IP   0A   0 5 13.45                                            198 331 
 HLUH    ES   0A   0 5 37.82                                            198 331 
 HLUH     IAML A   0 5 13.45         7.9                                        
 RPKV     IAML A   0 5 12.34         8.9                                        
 LUEX     IAML A   0 4 53.67        57.2                                        
 MGUS     IAML A   0 5  2.54        21.1                                        
 DNOA     IAML A   0 5  1.94        22.6                                        
 AVTK     IAML A   0 4 56.59        39.8                                        
 RHPW     IAML A   0 4 54.59        51.4                                        
 CBZA     IAML A   0 4 55.70        44.0                                        
 VOCA     IAML A   0 5  6.50        14.3                                        
                                                                                

 2001  2 3  0 5 50.0 L  33.895  52.670 17.0      13 0.0 2.3l                   1
 Action:ARG 24-03-13 14:54 OP:OBSP STATUS:               ID:20010203000550     I
 STAT SP IPHASW D HRMM SECON CODA AMPLIT PERI AZIMU VELO AIN AR TRES W  DIS CAZ7
 RHPW    IP   0A   0 5 58.73                                           33.4  32 
 RHPW    ES   0A   0 6  5.27                                           33.4  32 
 XBVK    IP   0A   0 6  1.31                                           48.1   2 
 XBVK    ES   0A   0 6  9.80                                           48.1   2 
 LUEX    IP   0A   0 6  4.62                                           64.9 268 
 LUEX    ES   0A   0 6 15.58                                           64.9 268 
 AVTK    IP   0A   0 6  6.37                                           75.2 283 
 AVTK    ES   0A   0 6 18.64                                           75.2 283 
 DNOA    IP   0A   0 6  7.48                                           82.9  54 
 DNOA    ES   0A   0 6 20.60                                           82.9  54 
 CBZA    IP   0A   0 6  8.34                                           88.2 249 
 FOUH    IP   0A   0 6  9.80                                           98.0   5 
 FOUH    ES   0A   0 6 24.64                                           98.0   5 
 DQYH    IP   0A   0 6 10.31                                            100 312 
 DQYH    ES   0A   0 6 25.53                                            100 312 
 MGUS    IP   0A   0 6 10.46                                            101  96 
 RAWC    IP   0A   0 6 12.20                                            114 116 
 RAWC    ES   0A   0 6 28.84                                            114 116 
 VOCA    IP   0A   0 6 12.20                                            115  40 
 VOCA    ES   0A   0 6 28.85                                            115  40 
 QYDI    IP   0A   0 6 19.32                                            170 349 
 QYDI    ES   0A   0 6 40.76                                            170 349 
 HLUH    IP   0A   0 6 20.81                                            182 324 
 HLUH    ES   0A   0 6 43.20                                            182 324 
 VOCA     IAML A   0 6 12.20        68.6                                        
 XBVK     IAML A   0 6  1.31       244.0                                        
 CBZA     IAML A   0 6  8.34       104.5                                        
 HLUH     IAML A   0 6 20.81        31.0                                        
 QYDI     IAML A   0 6 19.32        35.1                                        
                                                                                

 2001  2 3  0 7  0.0 L  33.842  52.538 13.6      12 0.0 2.7l                   1
 Action:ARG 24-03-13 14:54 OP:OBSP STATUS:               ID:20010203000700     I
 STAT SP IPHASW D HRMM SECON CODA AMPLIT PERI AZIMU VELO AIN AR TRES W  DIS CAZ7
 RHPW    IP   0A   0 7 11.31                                           45.5  41 
 RHPW    ES   0A   0 7 19.79                                           45.5  41 
 LUEX    IP   0A   0 7 12.79                                           52.9 274 
 LUEX    ES   0A   0 7 22.38                                           52.9 274 
 AVTK    IP   0A   0 7 15.01                                           65.3 290 
 AVTK    ES   0A   0 7 26.27                                           65.3 290 
 DQYH    IP   0A   0 7 20.25                                           96.2 320 
 DQYH    ES   0A   0 7 35.43                                           96.2 320 
 FOUH    IP   0A   0 7 21.73                                            105  11 
 FOUH    ES   0A   0 7 38.02                                            105  11 
 MGUS    IP   0A   0 7 22.52                                            113  92 
 MGUS    ES   0A   0 7 39.41                                            113  92 
 APSL    IP   0A   0 7 23.37                                            118  73 
 RAWC    IP   0A   0 7 23.88                                            122 111 
 RAWC    ES   0A   0 7 41.78                                            122 111 
 VOCA    IP   0A   0 7 24.56                                            128  43 
 VOCA    ES   0A   0 7 42.98                                            128  43 
 RPKV    IP   0A   0 7 30.03                                            168 335 
 RPKV    ES   0A   0 7 52.05                                            168 335 
 QYDI    IP   0A   0 7 30.63                                            174 353 
 QYDI    ES   0A   0 7 52.95                                            174 353 
 HLUH    IP   0A   0 7 31.29                                            180 328 
 DQYH     IAML A   0 7 20.25       234.2                                        
 FOUH     IAML A   0 7 21.73       202.2                                        
 LUEX     IAML A   0 7 12.79       549.8                                        
 RPKV     IAML A   0 7 30.03        92.3                                        
 AVTK     IAML A   0 7 15.01       411.5                                        
 APSL     IAML A   0 7 23.37       169.7                                        
                                                                                

