 2001  2 3  0 8 10.0 L  33.519  52.704 18.5      13 0.0 2.0l                   1
 Action:ARG 24-03-13 14:54 OP:OBSP STATUS:               ID:20010203000810     I
 STAT SP IPHASW D HRMM SECON CODA AMPLIT PERI AZIMU VELO AIN AR TRES W  DIS CAZ7
 RHPW    IP   0A   0 8 25.54                                           71.5  11 
 RHPW    ES   0A   0 8 37.20                                           71.5  11 
 LUEX    IP   0A   0 8 26.59                                           78.8 300 
 LUEX    ES   0A   0 8 39.03                                           78.8 300 
 XBVK    IP   0A   0 8 28.09                                           89.9 359 
 AVTK    IP   0A   0 8 29.20                                           96.7 307 
 AVTK    ES   0A   0 8 43.61                                           96.7 307 
 RAWC    IP   0A   0 8 29.95                                           99.2  95 
 RAWC    ES   0A   0 8 44.92                                           99.2  95 
 MGUS    IP   0A   0 8 30.12                                            102  73 
 DNOA    IP   0A   0 8 31.44                                            110  35 
 DNOA    ES   0A   0 8 47.52                                            110  35 
 APSL    IP   0A   0 8 32.62                                            120  54 
 DQYH    IP   0A   0 8 34.65                                            134 325 
 DQYH    ES   0A   0 8 53.02                                            134 325 
 FOUH    IP   0A   0 8 35.10                                            139   2 
 FOUH    ES   0A   0 8 53.90                                            139   2 
 VOCA    IP   0A   0 8 36.21                                            148  29 
 VOCA    ES   0A   0 8 55.72                                            148  29 
 RPKV    IP   0A   0 8 43.84                                            207 336 
 HLUH    IP   0A   0 8 45.10                                            219 330 
 HLUH    ES   0A   0 9 10.08                                            219 330 
 AVTK     IAML A   0 8 29.20        45.2                                        
 DQYH     IAML A   0 8 34.65        26.8                                        
 LUEX     IAML A   0 8 26.59        61.4                                        
 MGUS     IAML A   0 8 30.12        41.3                                        
 APSL     IAML A   0 8 32.62        32.2                                        
 RHPW     IAML A   0 8 25.54        70.7                                        
 XBVK     IAML A   0 8 28.09        50.5                                        
                                                                                

 2001  2 3  0 9 20.0 L  33.620  52.655 17.2      13 0.0 2.3l                   1
 Action:ARG 24-03-13 14:54 OP:OBSP STATUS:               ID:20010203000920     I
 STAT SP IPHASW D HRMM SECON CODA AMPLIT PERI AZIMU VELO AIN AR TRES W  DIS CAZ7
 RHPW    IP   0A   0 9 34.20                                           61.8  18 
 RHPW    ES   0A   0 9 44.86                                           61.8  18 
 LUEX    IP   0A   0 9 35.29                                           69.6 294 
 LUEX    ES   0A   0 9 46.75                                           69.6 294 
 XBVK    IP   0A   0 9 36.64                                           78.7   2 
 XBVK    ES   0A   0 9 49.12                                           78.7   2 
 CBZA    IP   0A   0 9 36.95                                           81.0 269 
 CBZA    ES   0A   0 9 49.66                                           81.0 269 
 MGUS    IP   0A   0 9 40.59                                            104  79 
 DNOA    IP   0A   0 9 40.84                                            104  41 
 DNOA    ES   0A   0 9 56.47                                            104  41 
 RAWC    IP   0A   0 9 41.02                                            105 101 
 APSL    IP   0A   0 9 42.65                                            117  60 
 APSL    ES   0A   0 9 59.64                                            117  60 
 DQYH    IP   0A   0 9 43.35                                            122 323 
 FOUH    IP   0A   0 9 43.95                                            128   5 
 VOCA    IP   0A   0 9 45.56                                            141  33 
 VOCA    ES   0A   010  4.72                                            141  33 
 RPKV    IP   0A   0 9 52.66                                            194 336 
 RPKV    ES   0A   010 15.99                                            194 336 
 HLUH    IP   0A   0 9 53.95                                            207 329 
 HLUH    ES   0A   010 18.21                                            207 329 
 CBZA     IAML A   0 9 36.95       129.0                                        
 XBVK     IAML A   0 9 36.64       134.5                                        
 RAWC     IAML A   0 9 41.02        86.5                                        
 DQYH     IAML A   0 9 43.35        68.2                                        
 APSL     IAML A   0 9 42.65        72.4                                        
 VOCA     IAML A   0 9 45.56        53.7                                        
 LUEX     IAML A   0 9 35.29       160.4                                        
                                                                                

 2001  2 3  010 30.0 L  34.112  52.530 13.8      12 0.0 2.2l                   1
 Action:ARG 24-03-13 14:54 OP:OBSP STATUS:               ID:20010203001030     I
 STAT SP IPHASW D HRMM SECON CODA AMPLIT PERI AZIMU VELO AIN AR TRES W  DIS CAZ7
 XBVK    IP   0A   010 37.59                                           28.1  31 
 LUEX    IP   0A   010 43.66                                           58.3 243 
 AVTK    IP   0A   010 43.85                                           60.7 263 
 AVTK    ES   0A   010 54.24                                           60.7 263 
 FOUH    IP   0A   010 46.98                                           76.8  17 
 FOUH    ES   0A   010 59.71                                           76.8  17 
 DNOA    IP   0A   010 48.12                                           84.1  73 
 CBZA    IP   0A   010 48.77                                           89.0 231 
 CBZA    ES   0A   011  2.85                                           89.0 231 
 VOCA    IP   0A   010 51.65                                            108  54 
 VOCA    ES   0A   011  7.89                                            108  54 
 APSL    IP   0A   010 52.61                                            113  87 
 APSL    ES   0A   011  9.56                                            113  87 
 RAWC    IP   0A   010 55.90                                            137 123 
 RAWC    ES   0A   011 15.30                                            137 123 
 RPKV    IP   0A   010 56.37                                            140 331 
 RPKV    ES   0A   011 16.04                                            140 331 
 QYDI    IP   0A   010 56.57                                            144 352 
 QYDI    ES   0A   011 16.42                                            144 352 
 HLUH    IP   0A   010 57.86                                            155 323 
 HLUH    ES   0A   011 18.61                                            155 323 
 FOUH     IAML A   010 46.98       105.6                                        
 VOCA     IAML A   010 51.65        62.3                                        
 CBZA     IAML A   010 48.77        85.1                                        
 DNOA     IAML A   010 48.12        92.6                                        
 AVTK     IAML A   010 43.85       147.3                                        
 RAWC     IAML A   010 55.90        42.4                                        
                                                                                

 2001  2 3  011 40.0 L  33.944  52.932 24.4      11 0.0 3.7l                   1
 Action:ARG 24-03-13 14:54 OP:OBSP STATUS:               ID:20010203001140     I
 STAT SP IPHASW D HRMM SECON CODA AMPLIT PERI AZIMU VELO AIN AR TRES W  DIS CAZ7
 RHPW    IP   0A   011 47.48                                           23.5 344 
 RHPW    ES   0A   011 53.10                                           23.5 344 
 XBVK    IP   0A   011 51.08                                           48.2 332 
 XBVK    ES   0A   011 59.39                                           48.2 332 
 DNOA    IP   0A   011 53.38                                           60.7  45 
 DNOA    ES   0A   012  3.42                                           60.7  45 
 MGUS    IP   0A   011 56.17                                           78.9 102 
 MGUS    ES   0A   012  8.30                                           78.9 102 
 APSL    IP   0A   011 56.36                                           79.8  73 
 LUEX    IP   0A   011 57.75                                           89.5 265 
 LUEX    ES   0A   012 11.07                                           89.5 265 
 RAWC    IP   0A   011 58.70                                           96.4 126 
 RAWC    ES   0A   012 12.73                                           96.4 126 
 AVTK    IP   0A   011 58.97                                           98.2 277 
 AVTK    ES   0A   012 13.20                                           98.2 277 
 CBZA    IP   0A   012  1.07                                            112 251 
 CBZA    ES   0A   012 16.85                                            112 251 
 DQYH    IP   0A   012  1.79                                            116 302 
 DQYH    ES   0A   012 18.14                                            116 302 
 QYDI    IP   0A   012  8.52                                            171 341 
 QYDI    ES   0A   012 29.52                                            171 341 
 XBVK     IAML A   011 51.08      6290.0                                        
 RAWC     IAML A   011 58.70      2363.0                                        
 QYDI     IAML A   012  8.52       898.4                                        
 MGUS     IAML A   011 56.17      3185.6                                        
                                                                                

 2001  2 3  012 50.0 L  33.401  52.535 12.8      11 0.0 1.6l                   1
 Action:ARG 24-03-13 14:54 OP:OBSP STATUS:               ID:20010203001250     I
 STAT SP IPHASW D HRMM SECON CODA AMPLIT PERI AZIMU VELO AIN AR TRES W  DIS CAZ7
 CBZA    IP   0A   013  6.36                                           73.7 288 
 CBZA    ES   0A   013 18.63                                           73.7 288 
 LUEX    IP   0A   013  6.65                                           74.3 315 
 RHPW    IP   0A   013  8.93                                           88.4  20 
 RHPW    ES   0A   013 23.13                                           88.4  20 
 AVTK    IP   0A   013  9.86                                           94.4 319 
 RAWC    IP   0A   013 12.91                                            114  88 
 RAWC    ES   0A   013 30.10                                            114  88 
 MGUS    IP   0A   013 13.74                                            121  69 
 MGUS    ES   0A   013 31.55                                            121  69 
 DNOA    IP   0A   013 14.90                                            130  37 
 DNOA    ES   0A   013 33.56                                            130  37 
 VOCA    IP   0A   013 19.48                                            167  31 
 VOCA    ES   0A   013 41.27                                            167  31 
 RPKV    IP   0A   013 25.76                                            213 341 
 RPKV    ES   0A   013 51.36                                            213 341 
 QYDI    IP   0A   013 26.67                                            223 354 
 QYDI    ES   0A   013 52.71                                            223 354 
 HLUH    IP   0A   013 26.82                                            223 335 
 HLUH    ES   0A   013 53.13                                            223 335 
 RHPW     IAML A   013  8.93        25.5                                        
 AVTK     IAML A   013  9.86        23.1                                        
 DNOA     IAML A   013 14.90        13.8                                        
 RAWC     IAML A   013 12.91        17.1                                        
 RPKV     IAML A   013 25.76         5.6                                        
 HLUH     IAML A   013 26.82         5.0                                        
                                                                                

 2001  2 3  014  0.0 L  33.767  52.577 14.5      13 0.0 0.3l                   1
 Action:ARG 24-03-13 14:54 OP:OBSP STATUS:               ID:20010203001400     I
 STAT SP IPHASW D HRMM SECON CODA AMPLIT PERI AZIMU VELO AIN AR TRES W  DIS CAZ7
 RHPW    IP   0A   014 12.17                                           50.0  32 
 RHPW    ES   0A   014 21.30                                           50.0  32 
 LUEX    IP   0A   014 13.56                                           57.6 282 
 LUEX    ES   0A   014 23.73                                           57.6 282 
 XBVK    IP   0A   014 14.52                                           63.1   9 
 AVTK    IP   0A   014 16.00                                           72.0 296 
 AVTK    ES   0A   014 28.01                                           72.0 296 
 CBZA    IP   0A   014 16.63                                           75.8 256 
 CBZA    ES   0A   014 29.11                                           75.8 256 
 DNOA    IP   0A   014 20.45                                           98.4  50 
 DNOA    ES   0A   014 35.78                                           98.4  50 
 DQYH    IP   0A   014 21.32                                            104 321 
 DQYH    ES   0A   014 37.32                                            104 321 
 MGUS    IP   0A   014 21.85                                            109  88 
 MGUS    ES   0A   014 38.24                                            109  88 
 APSL    IP   0A   014 23.10                                            117  68 
 APSL    ES   0A   014 40.42                                            117  68 
 VOCA    IP   0A   014 24.90                                            132  39 
 VOCA    ES   0A   014 43.57                                            132  39 
 RPKV    IP   0A   014 30.97                                            177 336 
 RPKV    ES   0A   014 53.44                                            177 336 
 QYDI    IP   0A   014 31.41                                            183 352 
 QYDI    ES   0A   014 54.25                                            183 352 
 HLUH    IP   0A   014 32.24                                            189 329 
 HLUH    ES   0A   014 55.74                                            189 329 
 CBZA     IAML A   014 16.63         1.5                                        
 RPKV     IAML A   014 30.97         0.4                                        
 APSL     IAML A   014 23.10         0.8                                        
 XBVK     IAML A   014 14.52         1.9                                        
 RHPW     IAML A   014 12.17         2.7                                        
 DQYH     IAML A   014 21.32         0.9                                        
                                                                                

 2001  2 3  015 10.0 L  33.779  52.648 17.4      12 0.0 2.5l                   1
 Action:ARG 24-03-13 14:54 OP:OBSP STATUS:               ID:20010203001510     I
 STAT SP IPHASW D HRMM SECON CODA AMPLIT PERI AZIMU VELO AIN AR TRES W  DIS CAZ7
 RHPW    IP   0A   015 21.10                                           45.7  25 
 XBVK    IP   0A   015 23.66                                           61.1   3 
 XBVK    ES   0A   015 33.91                                           61.1   3 
 DNOA    IP   0A   015 29.01                                           92.5  48 
 DNOA    ES   0A   015 43.26                                           92.5  48 
 MGUS    IP   0A   015 30.37                                            103  89 
 MGUS    ES   0A   015 45.64                                            103  89 
 DQYH    IP   0A   015 31.38                                            108 318 
 DQYH    ES   0A   015 47.41                                            108 318 
 APSL    IP   0A   015 31.62                                            110  68 
 APSL    ES   0A   015 47.83                                            110  68 
 RAWC    IP   0A   015 31.60                                            110 110 
 FOUH    IP   0A   015 31.48                                            111   6 
 FOUH    ES   0A   015 47.59                                            111   6 
 VOCA    IP   0A   015 33.62                                            126  37 
 RPKV    IP   0A   015 40.57                                            178 333 
 RPKV    ES   0A   016  2.69                                            178 333 
 QYDI    IP   0A   015 40.80                                            183 350 
 QYDI    ES   0A   016  3.22                                            183 350 
 HLUH    IP   0A   015 41.98                                            191 327 
 HLUH    ES   0A   016  5.12                                            191 327 
 RAWC     IAML A   015 31.60       139.2                                        
 VOCA     IAML A   015 33.62       111.7                                        
 RHPW     IAML A   015 21.10       495.1                                        
 XBVK     IAML A   015 23.66       334.8                                        
 MGUS     IAML A   015 30.37       155.7                                        
 DQYH     IAML A   015 31.38       144.8                                        
 QYDI     IAML A   015 40.80        58.3                                        
 RPKV     IAML A   015 40.57        61.0                                        
                                                                                

