 2001  2 3  050 10.0 L  33.428  52.873 22.9      10 0.0 1.9l                   1
 Action:ARG 24-03-13 14:54 OP:OBSP STATUS:               ID:20010203005010     I
 STAT SP IPHASW D HRMM SECON CODA AMPLIT PERI AZIMU VELO AIN AR TRES W  DIS CAZ7
 RHPW    IP   0A   050 26.58                                           79.9 359 
 RHPW    ES   0A   050 39.01                                           79.9 359 
 MGUS    IP   0A   050 28.27                                           91.6  64 
 MGUS    ES   0A   050 41.98                                           91.6  64 
 CBZA    IP   0A   050 29.77                                            103 281 
 DNOA    IP   0A   050 30.95                                            111  26 
 DNOA    ES   0A   050 46.65                                            111  26 
 APSL    IP   0A   050 31.41                                            114  45 
 APSL    ES   0A   050 47.47                                            114  45 
 FOUH    IP   0A   050 35.86                                            149 356 
 FOUH    ES   0A   050 55.17                                            149 356 
 VOCA    IP   0A   050 36.01                                            150  22 
 VOCA    ES   0A   050 55.32                                            150  22 
 DQYH    IP   0A   050 36.23                                            151 322 
 DQYH    ES   0A   050 55.55                                            151 322 
 RPKV    IP   0A   050 45.20                                            222 333 
 RPKV    ES   0A   051 10.02                                            222 333 
 QYDI    IP   0A   050 45.35                                            225 347 
 QYDI    ES   0A   051 10.22                                            225 347 
 FOUH     IAML A   050 35.86        19.1                                        
 CBZA     IAML A   050 29.77        35.2                                        
 DNOA     IAML A   050 30.95        31.4                                        
                                                                                

 2001  2 3  051 20.0 L  33.640  52.581 14.4      10 0.0 0.9l                   1
 Action:ARG 24-03-13 14:54 OP:OBSP STATUS:               ID:20010203005120     I
 STAT SP IPHASW D HRMM SECON CODA AMPLIT PERI AZIMU VELO AIN AR TRES W  DIS CAZ7
 RHPW    IP   0A   051 34.40                                           62.2  24 
 RHPW    ES   0A   051 45.21                                           62.2  24 
 LUEX    IP   0A   051 34.41                                           62.4 294 
 LUEX    ES   0A   051 45.21                                           62.4 294 
 XBVK    IP   0A   051 36.77                                           77.1   7 
 XBVK    ES   0A   051 49.34                                           77.1   7 
 AVTK    IP   0A   051 37.17                                           79.5 305 
 AVTK    ES   0A   051 50.04                                           79.5 305 
 DNOA    IP   0A   051 41.51                                            107  44 
 DNOA    ES   0A   051 57.64                                            107  44 
 RAWC    IP   0A   051 42.40                                            112 101 
 RAWC    ES   0A   051 59.20                                            112 101 
 DQYH    IP   0A   051 42.93                                            116 325 
 DQYH    ES   0A   052  0.12                                            116 325 
 FOUH    IP   0A   051 44.16                                            127   8 
 FOUH    ES   0A   052  2.27                                            127   8 
 QYDI    IP   0A   051 53.10                                            197 353 
 QYDI    ES   0A   052 16.99                                            197 353 
 HLUH    IP   0A   051 53.80                                            201 331 
 HLUH    ES   0A   052 18.14                                            201 331 
 FOUH     IAML A   051 44.16         2.8                                        
 LUEX     IAML A   051 34.41         8.1                                        
 HLUH     IAML A   051 53.80         1.2                                        
                                                                                

 2001  2 3  052 30.0 L  33.980  52.686 17.6      13 0.0 2.8l                   1
 Action:ARG 24-03-13 14:54 OP:OBSP STATUS:               ID:20010203005230     I
 STAT SP IPHASW D HRMM SECON CODA AMPLIT PERI AZIMU VELO AIN AR TRES W  DIS CAZ7
 RHPW    IP   0A   052 37.16                                           24.9  41 
 RHPW    ES   0A   052 42.54                                           24.9  41 
 XBVK    IP   0A   052 39.66                                           38.6   0 
 LUEX    IP   0A   052 45.08                                           67.5 260 
 AVTK    IP   0A   052 46.34                                           75.2 276 
 AVTK    ES   0A   052 58.59                                           75.2 276 
 FOUH    IP   0A   052 48.29                                           88.4   5 
 FOUH    ES   0A   053  2.01                                           88.4   5 
 CBZA    IP   0A   052 48.95                                           93.4 244 
 CBZA    ES   0A   053  3.16                                           93.4 244 
 DQYH    IP   0A   052 49.71                                           95.3 308 
 DQYH    ES   0A   053  4.48                                           95.3 308 
 APSL    IP   0A   052 50.16                                            101  79 
 APSL    ES   0A   053  5.28                                            101  79 
 MGUS    IP   0A   052 50.26                                            101 102 
 MGUS    ES   0A   053  5.46                                            101 102 
 VOCA    IP   0A   052 51.00                                            107  43 
 VOCA    ES   0A   053  6.76                                            107  43 
 RPKV    IP   0A   052 58.52                                            160 329 
 RPKV    ES   0A   053 19.35                                            160 329 
 QYDI    IP   0A   052 58.27                                            161 348 
 QYDI    ES   0A   053 19.05                                            161 348 
 HLUH    IP   0A   053  0.09                                            175 322 
 HLUH    ES   0A   053 22.01                                            175 322 
 VOCA     IAML A   052 51.00       294.6                                        
 QYDI     IAML A   052 58.27       148.3                                        
 DQYH     IAML A   052 49.71       356.0                                        
 HLUH     IAML A   053  0.09       127.4                                        
 XBVK     IAML A   052 39.66      1241.9                                        
 RPKV     IAML A   052 58.52       150.1                                        
 APSL     IAML A   052 50.16       325.2                                        
                                                                                

 2001  2 3  053 40.0 L  33.697  52.785 20.9      11 0.0 2.3l                   1
 Action:ARG 24-03-13 14:54 OP:OBSP STATUS:               ID:20010203005340     I
 STAT SP IPHASW D HRMM SECON CODA AMPLIT PERI AZIMU VELO AIN AR TRES W  DIS CAZ7
 RHPW    IP   0A   053 52.08                                           50.6   8 
 RHPW    ES   0A   054  1.15                                           50.6   8 
 XBVK    IP   0A   053 55.09                                           70.6 352 
 XBVK    ES   0A   054  6.41                                           70.6 352 
 LUEX    IP   0A   053 56.28                                           78.2 284 
 LUEX    ES   0A   054  8.50                                           78.2 284 
 DNOA    IP   0A   053 58.41                                           90.1  39 
 DNOA    ES   0A   054 12.22                                           90.1  39 
 MGUS    IP   0A   053 58.46                                           91.1  83 
 MGUS    ES   0A   054 12.31                                           91.1  83 
 AVTK    IP   0A   053 58.47                                           92.7 295 
 AVTK    ES   0A   054 12.31                                           92.7 295 
 APSL    IP   0A   054  0.25                                            103  61 
 APSL    ES   0A   054 15.44                                            103  61 
 DQYH    IP   0A   054  3.05                                            123 317 
 DQYH    ES   0A   054 20.33                                            123 317 
 VOCA    IP   0A   054  3.34                                            127  30 
 QYDI    IP   0A   054 11.87                                            194 347 
 QYDI    ES   0A   054 34.79                                            194 347 
 HLUH    IP   0A   054 13.27                                            206 325 
 HLUH    ES   0A   054 37.17                                            206 325 
 LUEX     IAML A   053 56.28       143.6                                        
 AVTK     IAML A   053 58.47       111.5                                        
 APSL     IAML A   054  0.25        94.8                                        
                                                                                

 2001  2 3  054 50.0 L  33.730  52.546 12.8      13 0.0 0.7l                   1
 Action:ARG 24-03-13 14:54 OP:OBSP STATUS:               ID:20010203005450     I
 STAT SP IPHASW D HRMM SECON CODA AMPLIT PERI AZIMU VELO AIN AR TRES W  DIS CAZ7
 RHPW    IP   0A   055  3.32                                           55.0  32 
 RHPW    ES   0A   055 13.31                                           55.0  32 
 LUEX    IP   0A   055  3.51                                           55.8 286 
 LUEX    ES   0A   055 13.65                                           55.8 286 
 XBVK    IP   0A   055  5.60                                           67.7  11 
 XBVK    ES   0A   055 17.30                                           67.7  11 
 AVTK    IP   0A   055  6.20                                           71.4 300 
 CBZA    IP   0A   055  6.26                                           72.1 259 
 CBZA    ES   0A   055 18.45                                           72.1 259 
 DNOA    IP   0A   055 11.37                                            103  50 
 DNOA    ES   0A   055 27.40                                            103  50 
 DQYH    IP   0A   055 11.97                                            106 324 
 DQYH    ES   0A   055 28.45                                            106 324 
 FOUH    IP   0A   055 13.33                                            117  10 
 FOUH    ES   0A   055 30.83                                            117  10 
 RAWC    IP   0A   055 13.39                                            118 106 
 RAWC    ES   0A   055 30.94                                            118 106 
 APSL    IP   0A   055 13.91                                            121  67 
 APSL    ES   0A   055 31.84                                            121  67 
 RPKV    IP   0A   055 21.68                                            179 337 
 RPKV    ES   0A   055 44.70                                            179 337 
 QYDI    IP   0A   055 22.21                                            187 353 
 QYDI    ES   0A   055 45.62                                            187 353 
 HLUH    IP   0A   055 22.88                                            191 330 
 AVTK     IAML A   055  6.20         4.2                                        
 APSL     IAML A   055 13.91         1.8                                        
 RHPW     IAML A   055  3.32         6.0                                        
 RAWC     IAML A   055 13.39         1.9                                        
                                                                                

 2001  2 3  056  0.0 L  33.708  52.560 14.8      10 0.0 3.2l                   1
 Action:ARG 24-03-13 14:54 OP:OBSP STATUS:               ID:20010203005600     I
 STAT SP IPHASW D HRMM SECON CODA AMPLIT PERI AZIMU VELO AIN AR TRES W  DIS CAZ7
 RHPW    IP   0A   056 13.25                                           56.4  29 
 RHPW    ES   0A   056 23.19                                           56.4  29 
 LUEX    IP   0A   056 13.63                                           57.8 288 
 LUEX    ES   0A   056 23.85                                           57.8 288 
 AVTK    IP   0A   056 16.27                                           73.7 301 
 AVTK    ES   0A   056 28.47                                           73.7 301 
 DQYH    IP   0A   056 21.90                                            109 324 
 DQYH    ES   0A   056 38.32                                            109 324 
 MGUS    IP   0A   056 21.92                                            111  85 
 MGUS    ES   0A   056 38.35                                            111  85 
 FOUH    IP   0A   056 23.10                                            119   9 
 FOUH    ES   0A   056 40.43                                            119   9 
 APSL    IP   0A   056 23.41                                            121  66 
 APSL    ES   0A   056 40.97                                            121  66 
 VOCA    IP   0A   056 25.44                                            138  38 
 VOCA    ES   0A   056 44.53                                            138  38 
 RPKV    IP   0A   056 31.55                                            182 337 
 RPKV    ES   0A   056 54.41                                            182 337 
 HLUH    IP   0A   056 32.78                                            194 330 
 HLUH    ES   0A   056 56.65                                            194 330 
 MGUS     IAML A   056 21.92       651.9                                        
 APSL     IAML A   056 23.41       571.4                                        
 HLUH     IAML A   056 32.78       246.4                                        
                                                                                

 2001  2 3  057 10.0 L  33.681  52.677 17.5      12 0.0 1.7l                   1
 Action:ARG 24-03-13 14:54 OP:OBSP STATUS:               ID:20010203005710     I
 STAT SP IPHASW D HRMM SECON CODA AMPLIT PERI AZIMU VELO AIN AR TRES W  DIS CAZ7
 RHPW    IP   0A   057 22.81                                           54.8  18 
 RHPW    ES   0A   057 32.42                                           54.8  18 
 LUEX    IP   0A   057 25.20                                           69.0 288 
 LUEX    ES   0A   057 36.60                                           69.0 288 
 XBVK    IP   0A   057 25.35                                           71.9   0 
 XBVK    ES   0A   057 36.87                                           71.9   0 
 AVTK    IP   0A   057 27.57                                           84.6 299 
 AVTK    ES   0A   057 40.74                                           84.6 299 
 DNOA    IP   0A   057 29.74                                           98.2  43 
 DNOA    ES   0A   057 44.54                                           98.2  43 
 MGUS    IP   0A   057 30.19                                            101  83 
 MGUS    ES   0A   057 45.34                                            101  83 
 RAWC    IP   0A   057 30.90                                            105 105 
 APSL    IP   0A   057 31.86                                            112  62 
 APSL    ES   0A   057 48.26                                            112  62 
 DQYH    IP   0A   057 32.72                                            118 321 
 DQYH    ES   0A   057 49.76                                            118 321 
 VOCA    IP   0A   057 34.48                                            134  34 
 VOCA    ES   0A   057 52.83                                            134  34 
 RPKV    IP   0A   057 41.87                                            189 334 
 RPKV    ES   0A   058  4.80                                            189 334 
 HLUH    IP   0A   057 43.24                                            202 328 
 MGUS     IAML A   057 30.19        21.8                                        
 HLUH     IAML A   057 43.24         6.5                                        
 AVTK     IAML A   057 27.57        28.7                                        
 DQYH     IAML A   057 32.72        17.1                                        
                                                                                

 2001  2 3  058 20.0 L  33.658  52.610 15.3      10 0.0 1.5l                   1
 Action:ARG 24-03-13 14:54 OP:OBSP STATUS:               ID:20010203005820     I
 STAT SP IPHASW D HRMM SECON CODA AMPLIT PERI AZIMU VELO AIN AR TRES W  DIS CAZ7
 RHPW    IP   0A   058 33.95                                           59.3  23 
 RHPW    ES   0A   058 44.41                                           59.3  23 
 LUEX    IP   0A   058 34.58                                           64.1 292 
 LUEX    ES   0A   058 45.52                                           64.1 292 
 XBVK    IP   0A   058 36.31                                           74.8   5 
 AVTK    IP   0A   058 37.25                                           80.6 302 
 AVTK    ES   0A   058 50.18                                           80.6 302 
 DNOA    IP   0A   058 41.09                                            104  44 
 DNOA    ES   0A   058 56.91                                            104  44 
 DQYH    IP   0A   058 42.79                                            116 324 
 DQYH    ES   0A   058 59.89                                            116 324 
 FOUH    IP   0A   058 43.76                                            124   7 
 FOUH    ES   0A   059  1.58                                            124   7 
 VOCA    IP   0A   058 45.74                                            139  35 
 VOCA    ES   0A   059  5.05                                            139  35 
 QYDI    IP   0A   058 52.82                                            195 352 
 QYDI    ES   0A   059 16.55                                            195 352 
 HLUH    IP   0A   058 53.62                                            201 330 
 HLUH    ES   0A   059 17.78                                            201 330 
 QYDI     IAML A   058 52.82         4.5                                        
 DQYH     IAML A   058 42.79        11.2                                        
 DNOA     IAML A   058 41.09        13.4                                        
                                                                                

