 2001  2 3  059 30.0 L  33.944  52.402 10.2      12 0.0 3.3l                   1
 Action:ARG 24-03-13 14:54 OP:OBSP STATUS:               ID:20010203005930     I
 STAT SP IPHASW D HRMM SECON CODA AMPLIT PERI AZIMU VELO AIN AR TRES W  DIS CAZ7
 LUEX    IP   0A   059 40.52                                           40.9 259 
 LUEX    ES   0A   059 48.40                                           40.9 259 
 AVTK    IP   0A   059 42.52                                           49.9 283 
 AVTK    ES   0A   059 51.92                                           49.9 283 
 XBVK    IP   0A   059 42.40                                           50.2  31 
 CBZA    IP   0A   059 45.93                                           68.4 237 
 CBZA    ES   0A   059 57.88                                           68.4 237 
 DQYH    IP   0A   059 48.13                                           79.4 322 
 DQYH    ES   0A   1 0  1.72                                           79.4 322 
 FOUH    IP   0A   059 51.20                                           98.3  20 
 DNOA    IP   0A   059 51.85                                            101  65 
 DNOA    ES   0A   1 0  8.24                                            101  65 
 MGUS    IP   0A   059 55.20                                            127  97 
 MGUS    ES   0A   1 0 14.09                                            127  97 
 APSL    IP   0A   059 55.34                                            127  79 
 APSL    ES   0A   1 0 14.35                                            127  79 
 RAWC    IP   0A   059 56.85                                            138 114 
 RAWC    ES   0A   1 0 16.97                                            138 114 
 QYDI    IP   0A   059 59.71                                            162 357 
 QYDI    ES   0A   1 0 21.60                                            162 357 
 HLUH    IP   0A   059 59.90                                            164 330 
 HLUH    ES   0A   1 0 22.14                                            164 330 
 HLUH     IAML A   059 59.90       389.4                                        
 DQYH     IAML A   059 48.13      1262.8                                        
 AVTK     IAML A   059 42.52      2407.2                                        
 APSL     IAML A   059 55.34       604.8                                        
                                                                                

 2001  2 3  1 0 40.0 L  33.832  52.805 21.2      11 0.0 2.2l                   1
 Action:ARG 24-03-13 14:54 OP:OBSP STATUS:               ID:20010203010040     I
 STAT SP IPHASW D HRMM SECON CODA AMPLIT PERI AZIMU VELO AIN AR TRES W  DIS CAZ7
 RHPW    IP   0A   1 0 49.15                                           35.6   8 
 XBVK    IP   0A   1 0 52.44                                           56.2 349 
 XBVK    ES   0A   1 1  1.78                                           56.2 349 
 LUEX    IP   0A   1 0 56.19                                           77.6 273 
 LUEX    ES   0A   1 1  8.33                                           77.6 273 
 DNOA    IP   0A   1 0 56.31                                           77.9  45 
 DNOA    ES   0A   1 1  8.55                                           77.9  45 
 AVTK    IP   0A   1 0 57.93                                           89.1 286 
 AVTK    ES   0A   1 1 11.39                                           89.1 286 
 APSL    IP   0A   1 0 58.89                                           95.1  68 
 RAWC    IP   0A   1 0 59.63                                           99.9 116 
 RAWC    ES   0A   1 1 14.36                                           99.9 116 
 VOCA    IP   0A   1 1  1.43                                            113  33 
 VOCA    ES   0A   1 1 17.51                                            113  33 
 QYDI    IP   0A   1 1  9.90                                            180 345 
 QYDI    ES   0A   1 1 31.76                                            180 345 
 RPKV    IP   0A   1 1 10.25                                            180 329 
 RPKV    ES   0A   1 1 32.21                                            180 329 
 HLUH    IP   0A   1 1 11.77                                            195 322 
 HLUH    ES   0A   1 1 34.80                                            195 322 
 AVTK     IAML A   1 0 57.93        89.7                                        
 RPKV     IAML A   1 1 10.25        27.6                                        
 APSL     IAML A   1 0 58.89        81.4                                        
 VOCA     IAML A   1 1  1.43        61.6                                        
                                                                                

 2001  2 3  1 1 50.0 L  33.702  52.517 12.5      11 0.0 2.6l                   1
 Action:ARG 24-03-13 14:54 OP:OBSP STATUS:               ID:20010203010150     I
 STAT SP IPHASW D HRMM SECON CODA AMPLIT PERI AZIMU VELO AIN AR TRES W  DIS CAZ7
 LUEX    IP   0A   1 2  3.24                                           54.3 290 
 LUEX    ES   0A   1 2 13.17                                           54.3 290 
 CBZA    IP   0A   1 2  5.77                                           68.9 261 
 CBZA    ES   0A   1 2 17.60                                           68.9 261 
 DNOA    IP   0A   1 2 11.87                                            107  49 
 DNOA    ES   0A   1 2 28.28                                            107  49 
 DQYH    IP   0A   1 2 12.17                                            107 326 
 DQYH    ES   0A   1 2 28.79                                            107 326 
 MGUS    IP   0A   1 2 12.88                                            115  85 
 MGUS    ES   0A   1 2 30.05                                            115  85 
 RAWC    IP   0A   1 2 13.66                                            119 104 
 RAWC    ES   0A   1 2 31.40                                            119 104 
 FOUH    IP   0A   1 2 13.80                                            121  11 
 FOUH    ES   0A   1 2 31.65                                            121  11 
 APSL    IP   0A   1 2 14.39                                            125  66 
 APSL    ES   0A   1 2 32.67                                            125  66 
 RPKV    IP   0A   1 2 21.92                                            181 338 
 RPKV    ES   0A   1 2 45.19                                            181 338 
 QYDI    IP   0A   1 2 22.60                                            189 354 
 HLUH    IP   0A   1 2 23.07                                            193 331 
 HLUH    ES   0A   1 2 47.20                                            193 331 
 LUEX     IAML A   1 2  3.24       455.3                                        
 HLUH     IAML A   1 2 23.07        60.9                                        
 QYDI     IAML A   1 2 22.60        62.9                                        
 MGUS     IAML A   1 2 12.88       150.1                                        
 APSL     IAML A   1 2 14.39       132.2                                        
                                                                                

 2001  2 3  1 3  0.0 L  33.865  52.317  6.8      13 0.0 2.0l                   1
 Action:ARG 24-03-13 14:54 OP:OBSP STATUS:               ID:20010203010300     I
 STAT SP IPHASW D HRMM SECON CODA AMPLIT PERI AZIMU VELO AIN AR TRES W  DIS CAZ7
 LUEX    IP   0A   1 3  8.38                                           32.2 271 
 LUEX    ES   0A   1 3 14.66                                           32.2 271 
 CBZA    IP   0A   1 3 14.39                                           57.1 240 
 RHPW    IP   0A   1 3 14.97                                           59.6  58 
 RHPW    ES   0A   1 3 26.20                                           59.6  58 
 XBVK    IP   0A   1 3 15.08                                           61.8  33 
 XBVK    ES   0A   1 3 26.39                                           61.8  33 
 FOUH    IP   0A   1 3 23.40                                            109  22 
 FOUH    ES   0A   1 3 40.94                                            109  22 
 DNOA    IP   0A   1 3 24.03                                            112  62 
 DNOA    ES   0A   1 3 42.06                                            112  62 
 MGUS    IP   0A   1 3 26.92                                            134  93 
 APSL    IP   0A   1 3 27.38                                            137  76 
 APSL    ES   0A   1 3 47.92                                            137  76 
 VOCA    IP   0A   1 3 27.73                                            141  49 
 RAWC    IP   0A   1 3 28.31                                            143 109 
 RAWC    ES   0A   1 3 49.50                                            143 109 
 RPKV    IP   0A   1 3 30.13                                            158 342 
 RPKV    ES   0A   1 3 52.57                                            158 342 
 HLUH    IP   0A   1 3 31.21                                            168 334 
 HLUH    ES   0A   1 3 54.18                                            168 334 
 QYDI    IP   0A   1 3 31.39                                            170   0 
 QYDI    ES   0A   1 3 54.44                                            170   0 
 QYDI     IAML A   1 3 31.39        17.6                                        
 RHPW     IAML A   1 3 14.97        92.0                                        
 HLUH     IAML A   1 3 31.21        18.1                                        
 VOCA     IAML A   1 3 27.73        24.7                                        
 MGUS     IAML A   1 3 26.92        27.0                                        
 APSL     IAML A   1 3 27.38        26.1                                        
                                                                                

 2001  2 3  1 4 10.0 L  33.820  52.654 17.9      11 0.0 2.2l                   1
 Action:ARG 24-03-13 14:54 OP:OBSP STATUS:               ID:20010203010410     I
 STAT SP IPHASW D HRMM SECON CODA AMPLIT PERI AZIMU VELO AIN AR TRES W  DIS CAZ7
 RHPW    IP   0A   1 4 20.30                                           41.3  28 
 RHPW    ES   0A   1 4 28.02                                           41.3  28 
 XBVK    IP   0A   1 4 22.78                                           56.5   3 
 XBVK    ES   0A   1 4 32.36                                           56.5   3 
 LUEX    IP   0A   1 4 24.17                                           63.8 275 
 LUEX    ES   0A   1 4 34.79                                           63.8 275 
 AVTK    IP   0A   1 4 26.24                                           76.2 289 
 AVTK    ES   0A   1 4 38.42                                           76.2 289 
 CBZA    IP   0A   1 4 27.56                                           84.2 254 
 CBZA    ES   0A   1 4 40.73                                           84.2 254 
 DNOA    IP   0A   1 4 28.50                                           89.1  50 
 DNOA    ES   0A   1 4 42.37                                           89.1  50 
 DQYH    IP   0A   1 4 30.77                                            105 316 
 DQYH    ES   0A   1 4 46.34                                            105 316 
 APSL    IP   0A   1 4 31.40                                            108  70 
 APSL    ES   0A   1 4 47.46                                            108  70 
 RAWC    IP   0A   1 4 31.82                                            112 112 
 RAWC    ES   0A   1 4 48.19                                            112 112 
 RPKV    IP   0A   1 4 39.90                                            174 333 
 RPKV    ES   0A   1 5  1.56                                            174 333 
 QYDI    IP   0A   1 4 40.14                                            178 350 
 QYDI    ES   0A   1 5  2.07                                            178 350 
 AVTK     IAML A   1 4 26.24       126.6                                        
 LUEX     IAML A   1 4 24.17       163.0                                        
 XBVK     IAML A   1 4 22.78       192.5                                        
 RHPW     IAML A   1 4 20.30       291.2                                        
 DNOA     IAML A   1 4 28.50       100.7                                        
 RPKV     IAML A   1 4 39.90        32.8                                        
                                                                                

 2001  2 3  1 5 20.0 L  33.973  52.589 14.7      11 0.0 0.9l                   1
 Action:ARG 24-03-13 14:54 OP:OBSP STATUS:               ID:20010203010520     I
 STAT SP IPHASW D HRMM SECON CODA AMPLIT PERI AZIMU VELO AIN AR TRES W  DIS CAZ7
 XBVK    IP   0A   1 5 30.07                                           40.5  13 
 XBVK    ES   0A   1 5 37.63                                           40.5  13 
 AVTK    IP   0A   1 5 35.07                                           66.3 277 
 AVTK    ES   0A   1 5 46.38                                           66.3 277 
 DNOA    IP   0A   1 5 38.05                                           84.8  62 
 DNOA    ES   0A   1 5 51.59                                           84.8  62 
 CBZA    IP   0A   1 5 38.13                                           85.0 241 
 CBZA    ES   0A   1 5 51.72                                           85.0 241 
 DQYH    IP   0A   1 5 38.95                                           88.9 312 
 DQYH    ES   0A   1 5 53.17                                           88.9 312 
 FOUH    IP   0A   1 5 39.08                                           90.5  10 
 FOUH    ES   0A   1 5 53.38                                           90.5  10 
 APSL    IP   0A   1 5 41.86                                            110  79 
 VOCA    IP   0A   1 5 42.38                                            114  46 
 VOCA    ES   0A   1 5 59.17                                            114  46 
 RAWC    IP   0A   1 5 44.02                                            124 118 
 RAWC    ES   0A   1 6  2.03                                            124 118 
 RPKV    IP   0A   1 5 48.34                                            156 332 
 RPKV    ES   0A   1 6  9.22                                            156 332 
 HLUH    IP   0A   1 5 49.75                                            170 324 
 VOCA     IAML A   1 5 42.38         2.8                                        
 RPKV     IAML A   1 5 48.34         1.7                                        
 DQYH     IAML A   1 5 38.95         4.2                                        
 APSL     IAML A   1 5 41.86         3.0                                        
                                                                                

 2001  2 3  1 6 30.0 L  33.810  52.816 21.5      13 0.0 2.9l                   1
 Action:ARG 24-03-13 14:54 OP:OBSP STATUS:               ID:20010203010630     I
 STAT SP IPHASW D HRMM SECON CODA AMPLIT PERI AZIMU VELO AIN AR TRES W  DIS CAZ7
 XBVK    IP   0A   1 6 43.06                                           58.7 348 
 XBVK    ES   0A   1 6 52.85                                           58.7 348 
 LUEX    IP   0A   1 6 46.40                                           78.8 275 
 LUEX    ES   0A   1 6 58.70                                           78.8 275 
 DNOA    IP   0A   1 6 46.46                                           78.9  43 
 DNOA    ES   0A   1 6 58.81                                           78.9  43 
 MGUS    IP   0A   1 6 47.71                                           87.8  91 
 MGUS    ES   0A   1 7  0.99                                           87.8  91 
 AVTK    IP   0A   1 6 48.22                                           90.8 287 
 AVTK    ES   0A   1 7  1.88                                           90.8 287 
 APSL    IP   0A   1 6 48.86                                           95.0  66 
 APSL    ES   0A   1 7  3.01                                           95.0  66 
 CBZA    IP   0A   1 6 49.49                                           98.4 257 
 FOUH    IP   0A   1 6 50.43                                            107 358 
 FOUH    ES   0A   1 7  5.75                                            107 358 
 VOCA    IP   0A   1 6 51.60                                            115  32 
 VOCA    ES   0A   1 7  7.80                                            115  32 
 DQYH    IP   0A   1 6 52.10                                            116 311 
 DQYH    ES   0A   1 7  8.67                                            116 311 
 QYDI    IP   0A   1 7  0.28                                            182 345 
 QYDI    ES   0A   1 7 22.41                                            182 345 
 RPKV    IP   0A   1 7  0.66                                            182 329 
 HLUH    IP   0A   1 7  2.18                                            197 323 
 HLUH    ES   0A   1 7 25.51                                            197 323 
 FOUH     IAML A   1 6 50.43       364.8                                        
 APSL     IAML A   1 6 48.86       438.5                                        
 QYDI     IAML A   1 7  0.28       144.8                                        
 VOCA     IAML A   1 6 51.60       324.6                                        
 CBZA     IAML A   1 6 49.49       415.4                                        
                                                                                

