 2001  2 3  042  0.0 L  33.759  52.635 16.3      11 0.0 0.7l                   1
 Action:ARG 24-03-13 14:54 OP:OBSP STATUS:               ID:20010203004200     I
 STAT SP IPHASW D HRMM SECON CODA AMPLIT PERI AZIMU VELO AIN AR TRES W  DIS CAZ7
 LUEX    IP   0A   042 14.28                                           63.0 281 
 LUEX    ES   0A   042 24.99                                           63.0 281 
 XBVK    IP   0A   042 14.08                                           63.4   4 
 XBVK    ES   0A   042 24.65                                           63.4   4 
 AVTK    IP   0A   042 16.54                                           77.2 294 
 AVTK    ES   0A   042 28.95                                           77.2 294 
 CBZA    IP   0A   042 17.28                                           80.8 258 
 CBZA    ES   0A   042 30.24                                           80.8 258 
 DNOA    IP   0A   042 19.47                                           94.9  48 
 DNOA    ES   0A   042 34.07                                           94.9  48 
 DQYH    IP   0A   042 21.52                                            108 319 
 DQYH    ES   0A   042 37.67                                            108 319 
 APSL    IP   0A   042 22.03                                            112  67 
 APSL    ES   0A   042 38.55                                            112  67 
 FOUH    IP   0A   042 21.88                                            113   6 
 FOUH    ES   0A   042 38.30                                            113   6 
 VOCA    IP   0A   042 24.08                                            129  37 
 VOCA    ES   0A   042 42.14                                            129  37 
 RPKV    IP   0A   042 30.84                                            180 334 
 RPKV    ES   0A   042 53.15                                            180 334 
 QYDI    IP   0A   042 31.12                                            184 351 
 QYDI    ES   0A   042 53.77                                            184 351 
 FOUH     IAML A   042 21.88         1.9                                        
 XBVK     IAML A   042 14.08         4.4                                        
 RPKV     IAML A   042 30.84         0.8                                        
 DQYH     IAML A   042 21.52         2.0                                        
 QYDI     IAML A   042 31.12         0.8                                        
                                                                                

 2001  2 3  043 10.0 L  33.677  52.465 11.4      13 0.0 2.3l                   1
 Action:ARG 24-03-13 14:54 OP:OBSP STATUS:               ID:20010203004310     I
 STAT SP IPHASW D HRMM SECON CODA AMPLIT PERI AZIMU VELO AIN AR TRES W  DIS CAZ7
 LUEX    IP   0A   043 22.65                                           50.9 295 
 LUEX    ES   0A   043 32.14                                           50.9 295 
 CBZA    IP   0A   043 24.94                                           63.8 263 
 CBZA    ES   0A   043 36.15                                           63.8 263 
 RHPW    IP   0A   043 25.12                                           64.0  35 
 RHPW    ES   0A   043 36.46                                           64.0  35 
 AVTK    IP   0A   043 25.75                                           68.4 307 
 AVTK    ES   0A   043 37.56                                           68.4 307 
 XBVK    IP   0A   043 27.10                                           75.2  15 
 DQYH    IP   0A   043 32.30                                            107 329 
 DQYH    ES   0A   043 49.02                                            107 329 
 DNOA    IP   0A   043 32.83                                            112  50 
 DNOA    ES   0A   043 49.95                                            112  50 
 MGUS    IP   0A   043 33.78                                            120  84 
 MGUS    ES   0A   043 51.62                                            120  84 
 RAWC    IP   0A   043 34.45                                            123 102 
 RAWC    ES   0A   043 52.78                                            123 102 
 VOCA    IP   0A   043 37.19                                            146  40 
 VOCA    ES   0A   043 57.58                                            146  40 
 RPKV    IP   0A   043 42.11                                            182 340 
 RPKV    ES   0A   044  5.66                                            182 340 
 QYDI    IP   0A   043 43.09                                            192 356 
 QYDI    ES   0A   044  7.07                                            192 356 
 HLUH    IP   0A   043 43.20                                            193 333 
 HLUH    ES   0A   044  7.40                                            193 333 
 AVTK     IAML A   043 25.75       172.7                                        
 DQYH     IAML A   043 32.30        88.4                                        
 RAWC     IAML A   043 34.45        70.0                                        
 DNOA     IAML A   043 32.83        81.7                                        
 RHPW     IAML A   043 25.12       189.2                                        
 LUEX     IAML A   043 22.65       258.2                                        
 MGUS     IAML A   043 33.78        73.0                                        
 RPKV     IAML A   043 42.11        35.4                                        
                                                                                

 2001  2 3  044 20.0 L  33.903  52.674 17.2      11 0.0 2.6l                   1
 Action:ARG 24-03-13 14:54 OP:OBSP STATUS:               ID:20010203004420     I
 STAT SP IPHASW D HRMM SECON CODA AMPLIT PERI AZIMU VELO AIN AR TRES W  DIS CAZ7
 LUEX    IP   0A   044 34.70                                           65.3 267 
 LUEX    ES   0A   044 45.72                                           65.3 267 
 AVTK    IP   0A   044 36.37                                           75.4 282 
 CBZA    IP   0A   044 38.45                                           88.8 248 
 CBZA    ES   0A   044 52.28                                           88.8 248 
 DQYH    IP   0A   044 40.23                                           99.9 312 
 DQYH    ES   0A   044 55.40                                           99.9 312 
 MGUS    IP   0A   044 40.37                                            101  97 
 MGUS    ES   0A   044 55.64                                            101  97 
 APSL    IP   0A   044 40.73                                            104  74 
 APSL    ES   0A   044 56.29                                            104  74 
 RAWC    IP   0A   044 42.14                                            114 117 
 RAWC    ES   0A   044 58.74                                            114 117 
 VOCA    IP   0A   044 42.02                                            114  41 
 VOCA    ES   0A   044 58.54                                            114  41 
 RPKV    IP   0A   044 49.21                                            167 331 
 RPKV    ES   0A   045 10.43                                            167 331 
 QYDI    IP   0A   044 49.15                                            169 349 
 QYDI    ES   0A   045 10.48                                            169 349 
 HLUH    IP   0A   044 50.69                                            181 324 
 HLUH    ES   0A   045 13.00                                            181 324 
 VOCA     IAML A   044 42.02       162.3                                        
 RPKV     IAML A   044 49.21        84.8                                        
 DQYH     IAML A   044 40.23       201.9                                        
 QYDI     IAML A   044 49.15        82.7                                        
 CBZA     IAML A   044 38.45       241.5                                        
                                                                                

 2001  2 3  045 30.0 L  33.644  52.837 22.1      11 0.0 2.0l                   1
 Action:ARG 24-03-13 14:54 OP:OBSP STATUS:               ID:20010203004530     I
 STAT SP IPHASW D HRMM SECON CODA AMPLIT PERI AZIMU VELO AIN AR TRES W  DIS CAZ7
 RHPW    IP   0A   045 42.88                                           56.0   2 
 RHPW    ES   0A   045 52.55                                           56.0   2 
 XBVK    IP   0A   045 46.09                                           77.2 349 
 XBVK    ES   0A   045 58.15                                           77.2 349 
 LUEX    IP   0A   045 47.28                                           84.5 287 
 LUEX    ES   0A   046  0.24                                           84.5 287 
 MGUS    IP   0A   045 47.66                                           87.2  79 
 MGUS    ES   0A   046  0.91                                           87.2  79 
 RAWC    IP   0A   045 48.19                                           89.6 105 
 RAWC    ES   0A   046  1.83                                           89.6 105 
 DNOA    IP   0A   045 48.41                                           92.0  34 
 DNOA    ES   0A   046  2.22                                           92.0  34 
 AVTK    IP   0A   045 49.40                                           99.7 297 
 AVTK    ES   0A   046  3.96                                           99.7 297 
 VOCA    IP   0A   045 53.53                                            130  27 
 VOCA    ES   0A   046 11.17                                            130  27 
 RPKV    IP   0A   046  2.69                                            199 331 
 QYDI    IP   0A   046  2.59                                            201 346 
 QYDI    ES   0A   046 25.80                                            201 346 
 HLUH    IP   0A   046  4.11                                            213 325 
 HLUH    ES   0A   046 28.34                                            213 325 
 RPKV     IAML A   046  2.69        13.1                                        
 XBVK     IAML A   045 46.09        64.3                                        
 QYDI     IAML A   046  2.59        13.0                                        
 DNOA     IAML A   045 48.41        49.7                                        
 VOCA     IAML A   045 53.53        28.6                                        
 HLUH     IAML A   046  4.11        11.4                                        
                                                                                

 2001  2 3  046 40.0 L  33.700  52.444 10.6      12 0.0 2.2l                   1
 Action:ARG 24-03-13 14:54 OP:OBSP STATUS:               ID:20010203004640     I
 STAT SP IPHASW D HRMM SECON CODA AMPLIT PERI AZIMU VELO AIN AR TRES W  DIS CAZ7
 LUEX    IP   0A   046 52.10                                           48.1 293 
 LUEX    ES   0A   047  1.18                                           48.1 293 
 RHPW    IP   0A   046 55.26                                           63.2  37 
 RHPW    ES   0A   047  6.71                                           63.2  37 
 AVTK    IP   0A   046 55.30                                           65.2 306 
 AVTK    ES   0A   047  6.77                                           65.2 306 
 XBVK    IP   0A   046 57.09                                           73.3  17 
 XBVK    ES   0A   047  9.91                                           73.3  17 
 DQYH    IP   0A   047  2.00                                            104 329 
 DQYH    ES   0A   047 18.50                                            104 329 
 MGUS    IP   0A   047  4.34                                            122  85 
 MGUS    ES   0A   047 22.59                                            122  85 
 RAWC    IP   0A   047  5.06                                            126 103 
 RAWC    ES   0A   047 23.85                                            126 103 
 APSL    IP   0A   047  5.81                                            131  67 
 APSL    ES   0A   047 25.16                                            131  67 
 VOCA    IP   0A   047  7.45                                            145  41 
 VOCA    ES   0A   047 28.03                                            145  41 
 RPKV    IP   0A   047 11.92                                            179 340 
 RPKV    ES   0A   047 35.35                                            179 340 
 QYDI    IP   0A   047 13.01                                            189 356 
 QYDI    ES   0A   047 36.98                                            189 356 
 HLUH    IP   0A   047 12.99                                            190 333 
 HLUH    ES   0A   047 37.02                                            190 333 
 XBVK     IAML A   046 57.09       134.1                                        
 APSL     IAML A   047  5.81        54.4                                        
 RHPW     IAML A   046 55.26       165.3                                        
 AVTK     IAML A   046 55.30       158.0                                        
 DQYH     IAML A   047  2.00        79.5                                        
                                                                                

 2001  2 3  047 50.0 L  33.990  52.439 10.7      10 0.0 1.3l                   1
 Action:ARG 24-03-13 14:54 OP:OBSP STATUS:               ID:20010203004750     I
 STAT SP IPHASW D HRMM SECON CODA AMPLIT PERI AZIMU VELO AIN AR TRES W  DIS CAZ7
 LUEX    IP   0A   048  1.52                                           45.3 253 
 LUEX    ES   0A   048 10.16                                           45.3 253 
 AVTK    IP   0A   048  2.78                                           52.3 277 
 AVTK    ES   0A   048 12.37                                           52.3 277 
 CBZA    IP   0A   048  6.73                                           74.1 235 
 CBZA    ES   0A   048 19.28                                           74.1 235 
 DQYH    IP   0A   048  7.60                                           77.7 317 
 DQYH    ES   0A   048 20.80                                           77.7 317 
 FOUH    IP   0A   048 10.04                                           92.3  19 
 FOUH    ES   0A   048 25.07                                           92.3  19 
 APSL    IP   0A   048 14.68                                            123  81 
 APSL    ES   0A   048 33.19                                            123  81 
 VOCA    IP   0A   048 14.67                                            123  51 
 VOCA    ES   0A   048 33.17                                            123  51 
 RAWC    IP   0A   048 16.69                                            138 116 
 RAWC    ES   0A   048 36.70                                            138 116 
 QYDI    IP   0A   048 18.89                                            157 356 
 QYDI    ES   0A   048 40.36                                            157 356 
 HLUH    IP   0A   048 19.35                                            161 328 
 HLUH    ES   0A   048 41.23                                            161 328 
 HLUH     IAML A   048 19.35         3.9                                        
 DQYH     IAML A   048  7.60        12.5                                        
 CBZA     IAML A   048  6.73        13.4                                        
 LUEX     IAML A   048  1.52        26.2                                        
                                                                                

 2001  2 3  049  0.0 L  33.808  52.573 13.7      12 0.0 1.6l                   1
 Action:ARG 24-03-13 14:54 OP:OBSP STATUS:               ID:20010203004900     I
 STAT SP IPHASW D HRMM SECON CODA AMPLIT PERI AZIMU VELO AIN AR TRES W  DIS CAZ7
 LUEX    IP   0A   049 13.39                                           56.4 277 
 LUEX    ES   0A   049 23.43                                           56.4 277 
 XBVK    IP   0A   049 13.82                                           58.7  10 
 XBVK    ES   0A   049 24.19                                           58.7  10 
 CBZA    IP   0A   049 16.89                                           76.6 253 
 CBZA    ES   0A   049 29.56                                           76.6 253 
 DNOA    IP   0A   049 20.21                                           95.9  53 
 DNOA    ES   0A   049 35.37                                           95.9  53 
 DQYH    IP   0A   049 20.88                                            101 320 
 DQYH    ES   0A   049 36.54                                            101 320 
 FOUH    IP   0A   049 21.97                                            108   9 
 FOUH    ES   0A   049 38.45                                            108   9 
 MGUS    IP   0A   049 22.06                                            110  91 
 MGUS    ES   0A   049 38.61                                            110  91 
 APSL    IP   0A   049 23.12                                            116  70 
 APSL    ES   0A   049 40.47                                            116  70 
 RAWC    IP   0A   049 23.36                                            118 110 
 RAWC    ES   0A   049 40.89                                            118 110 
 RPKV    IP   0A   049 30.56                                            172 335 
 RPKV    ES   0A   049 52.81                                            172 335 
 QYDI    IP   0A   049 31.01                                            178 352 
 QYDI    ES   0A   049 53.59                                            178 352 
 HLUH    IP   0A   049 31.83                                            185 328 
 HLUH    ES   0A   049 55.11                                            185 328 
 DQYH     IAML A   049 20.88        16.8                                        
 RAWC     IAML A   049 23.36        13.0                                        
 LUEX     IAML A   049 13.39        38.9                                        
 XBVK     IAML A   049 13.82        36.8                                        
 MGUS     IAML A   049 22.06        14.6                                        
                                                                                

