 2001  2 3  016 20.0 L  33.599  52.468 12.1      13 0.0 5.0l                   1
 Action:ARG 24-03-13 14:54 OP:OBSP STATUS:               ID:20010203001620     I
 STAT SP IPHASW D HRMM SECON CODA AMPLIT PERI AZIMU VELO AIN AR TRES W  DIS CAZ7
 LUEX    IP   0A   016 33.32                                           55.4 303 
 CBZA    IP   0A   016 34.66                                           63.6 271 
 CBZA    ES   0A   016 45.65                                           63.6 271 
 RHPW    IP   0A   016 36.23                                           71.2  31 
 XBVK    IP   0A   016 38.18                                           83.5  14 
 XBVK    ES   0A   016 51.81                                           83.5  14 
 DQYH    IP   0A   016 43.22                                            114 331 
 DQYH    ES   0A   017  0.64                                            114 331 
 DNOA    IP   0A   016 43.37                                            118  46 
 DNOA    ES   0A   017  0.90                                            118  46 
 MGUS    IP   0A   016 43.60                                            121  79 
 MGUS    ES   0A   017  1.30                                            121  79 
 RAWC    IP   0A   016 43.96                                            122  98 
 FOUH    IP   0A   016 45.53                                            133  12 
 FOUH    ES   0A   017  4.67                                            133  12 
 APSL    IP   0A   016 45.58                                            134  62 
 VOCA    IP   0A   016 47.89                                            152  38 
 VOCA    ES   0A   017  8.79                                            152  38 
 RPKV    IP   0A   016 53.04                                            190 341 
 RPKV    ES   0A   017 17.05                                            190 341 
 QYDI    IP   0A   016 54.03                                            200 356 
 QYDI    ES   0A   017 18.40                                            200 356 
 CBZA     IAML A   016 34.66     88290.7                                        
 RHPW     IAML A   016 36.23     75420.9                                        
 XBVK     IAML A   016 38.18     59923.5                                        
 LUEX     IAML A   016 33.32      10.7e4                                        
 QYDI     IAML A   016 54.03     13561.4                                        
                                                                                

 2001  2 3  017 30.0 L  33.596  52.812 20.7      10 0.0 0.8l                   1
 Action:ARG 24-03-13 14:54 OP:OBSP STATUS:               ID:20010203001730     I
 STAT SP IPHASW D HRMM SECON CODA AMPLIT PERI AZIMU VELO AIN AR TRES W  DIS CAZ7
 LUEX    IP   0A   017 47.37                                           84.1 291 
 LUEX    ES   0A   018  0.40                                           84.1 291 
 MGUS    IP   0A   017 48.20                                           90.6  76 
 MGUS    ES   0A   018  1.84                                           90.6  76 
 CBZA    IP   0A   017 49.08                                           95.7 271 
 CBZA    ES   0A   018  3.39                                           95.7 271 
 DNOA    IP   0A   017 49.39                                           97.7  34 
 DNOA    ES   0A   018  3.93                                           97.7  34 
 AVTK    IP   0A   017 49.69                                            100 300 
 AVTK    ES   0A   018  4.46                                            100 300 
 APSL    IP   0A   017 50.58                                            106  55 
 APSL    ES   0A   018  6.01                                            106  55 
 FOUH    IP   0A   017 53.67                                            130 358 
 FOUH    ES   0A   018 11.43                                            130 358 
 DQYH    IP   0A   017 54.48                                            133 319 
 DQYH    ES   0A   018 12.62                                            133 319 
 VOCA    IP   0A   017 54.47                                            135  27 
 VOCA    ES   0A   018 12.79                                            135  27 
 RPKV    IP   0A   018  3.35                                            203 332 
 RPKV    ES   0A   018 26.96                                            203 332 
 APSL     IAML A   017 50.58         2.5                                        
 MGUS     IAML A   017 48.20         3.2                                        
 AVTK     IAML A   017 49.69         2.8                                        
 DQYH     IAML A   017 54.48         1.7                                        
                                                                                

 2001  2 3  018 40.0 L  33.669  52.772 19.8      11 0.0 3.7l                   1
 Action:ARG 24-03-13 14:54 OP:OBSP STATUS:               ID:20010203001840     I
 STAT SP IPHASW D HRMM SECON CODA AMPLIT PERI AZIMU VELO AIN AR TRES W  DIS CAZ7
 XBVK    IP   0A   018 55.66                                           73.6 354 
 XBVK    ES   0A   019  7.41                                           73.6 354 
 LUEX    IP   0A   018 56.43                                           77.9 287 
 LUEX    ES   0A   019  8.75                                           77.9 287 
 CBZA    IP   0A   018 58.64                                           92.1 266 
 CBZA    ES   0A   019 12.62                                           92.1 266 
 MGUS    IP   0A   018 58.71                                           92.8  81 
 MGUS    ES   0A   019 12.74                                           92.8  81 
 AVTK    IP   0A   018 58.67                                           93.0 297 
 AVTK    ES   0A   019 12.68                                           93.0 297 
 DNOA    IP   0A   018 58.87                                           93.4  38 
 DNOA    ES   0A   019 13.02                                           93.4  38 
 RAWC    IP   0A   018 59.37                                           96.2 106 
 RAWC    ES   0A   019 13.89                                           96.2 106 
 APSL    IP   0A   019  0.60                                            105  59 
 APSL    ES   0A   019 16.05                                            105  59 
 FOUH    IP   0A   019  2.71                                            122   0 
 FOUH    ES   0A   019 19.75                                            122   0 
 DQYH    IP   0A   019  3.45                                            124 318 
 DQYH    ES   0A   019 21.03                                            124 318 
 RPKV    IP   0A   019 12.33                                            194 332 
 RPKV    ES   0A   019 35.51                                            194 332 
 FOUH     IAML A   019  2.71      1849.3                                        
 RPKV     IAML A   019 12.33       809.1                                        
 RAWC     IAML A   018 59.37      2718.1                                        
 MGUS     IAML A   018 58.71      2871.2                                        
                                                                                

 2001  2 3  019 50.0 L  33.736  52.482 12.3      13 0.0 3.6l                   1
 Action:ARG 24-03-13 14:54 OP:OBSP STATUS:               ID:20010203001950     I
 STAT SP IPHASW D HRMM SECON CODA AMPLIT PERI AZIMU VELO AIN AR TRES W  DIS CAZ7
 LUEX    IP   0A   020  2.34                                           50.0 287 
 LUEX    ES   0A   020 11.59                                           50.0 287 
 RHPW    IP   0A   020  4.00                                           57.9  37 
 RHPW    ES   0A   020 14.50                                           57.9  37 
 AVTK    IP   0A   020  5.20                                           65.9 302 
 AVTK    ES   0A   020 16.60                                           65.9 302 
 CBZA    IP   0A   020  5.29                                           66.4 257 
 CBZA    ES   0A   020 16.76                                           66.4 257 
 XBVK    IP   0A   020  5.94                                           68.5  16 
 DNOA    IP   0A   020 12.17                                            107  52 
 DNOA    ES   0A   020 28.80                                            107  52 
 FOUH    IP   0A   020 13.59                                            118  13 
 FOUH    ES   0A   020 31.29                                            118  13 
 MGUS    IP   0A   020 13.55                                            118  87 
 MGUS    ES   0A   020 31.21                                            118  87 
 APSL    IP   0A   020 14.85                                            126  68 
 APSL    ES   0A   020 33.49                                            126  68 
 VOCA    IP   0A   020 16.40                                            140  41 
 VOCA    ES   0A   020 36.19                                            140  41 
 RPKV    IP   0A   020 21.25                                            176 339 
 QYDI    IP   0A   020 22.19                                            185 355 
 QYDI    ES   0A   020 45.59                                            185 355 
 HLUH    IP   0A   020 22.38                                            188 331 
 LUEX     IAML A   020  2.34      5502.4                                        
 FOUH     IAML A   020 13.59      1570.5                                        
 QYDI     IAML A   020 22.19       709.3                                        
 RHPW     IAML A   020  4.00      4520.2                                        
 XBVK     IAML A   020  5.94      3581.4                                        
 DNOA     IAML A   020 12.17      1832.9                                        
                                                                                

 2001  2 3  021  0.0 L  33.799  52.779 20.0      12 0.0 1.1l                   1
 Action:ARG 24-03-13 14:54 OP:OBSP STATUS:               ID:20010203002100     I
 STAT SP IPHASW D HRMM SECON CODA AMPLIT PERI AZIMU VELO AIN AR TRES W  DIS CAZ7
 RHPW    IP   0A   021 10.08                                           39.6  11 
 RHPW    ES   0A   021 17.63                                           39.6  11 
 XBVK    IP   0A   021 13.28                                           59.4 351 
 XBVK    ES   0A   021 23.23                                           59.4 351 
 LUEX    IP   0A   021 16.04                                           75.5 276 
 LUEX    ES   0A   021 28.06                                           75.5 276 
 DNOA    IP   0A   021 17.15                                           82.2  44 
 DNOA    ES   0A   021 30.02                                           82.2  44 
 AVTK    IP   0A   021 17.97                                           88.0 288 
 AVTK    ES   0A   021 31.44                                           88.0 288 
 MGUS    IP   0A   021 18.39                                           91.2  90 
 MGUS    ES   0A   021 32.18                                           91.2  90 
 CBZA    IP   0A   021 19.10                                           94.8 257 
 CBZA    ES   0A   021 33.42                                           94.8 257 
 APSL    IP   0A   021 19.57                                           98.7  66 
 APSL    ES   0A   021 34.25                                           98.7  66 
 DQYH    IP   0A   021 22.14                                            114 313 
 DQYH    ES   0A   021 38.75                                            114 313 
 VOCA    IP   0A   021 22.18                                            118  33 
 VOCA    ES   0A   021 38.82                                            118  33 
 RPKV    IP   0A   021 30.79                                            182 330 
 RPKV    ES   0A   021 53.13                                            182 330 
 QYDI    IP   0A   021 30.59                                            183 346 
 QYDI    ES   0A   021 52.93                                            183 346 
 RHPW     IAML A   021 10.08        22.4                                        
 DQYH     IAML A   021 22.14         4.9                                        
 DNOA     IAML A   021 17.15         8.3                                        
 LUEX     IAML A   021 16.04         9.3                                        
                                                                                

 2001  2 3  022 10.0 L  33.790  52.563 13.6      11 0.0 0.5l                   1
 Action:ARG 24-03-13 14:54 OP:OBSP STATUS:               ID:20010203002210     I
 STAT SP IPHASW D HRMM SECON CODA AMPLIT PERI AZIMU VELO AIN AR TRES W  DIS CAZ7
 RHPW    IP   0A   022 21.81                                           48.6  35 
 RHPW    ES   0A   022 30.67                                           48.6  35 
 XBVK    IP   0A   022 24.11                                           60.9  11 
 XBVK    ES   0A   022 34.69                                           60.9  11 
 AVTK    IP   0A   022 25.76                                           69.7 294 
 AVTK    ES   0A   022 37.59                                           69.7 294 
 CBZA    IP   0A   022 26.84                                           75.1 254 
 CBZA    ES   0A   022 39.48                                           75.1 254 
 DNOA    IP   0A   022 30.32                                           97.9  52 
 DNOA    ES   0A   022 45.56                                           97.9  52 
 DQYH    IP   0A   022 31.06                                            102 321 
 DQYH    ES   0A   022 46.86                                            102 321 
 MGUS    IP   0A   022 32.08                                            111  90 
 MGUS    ES   0A   022 48.63                                            111  90 
 RAWC    IP   0A   022 33.28                                            118 109 
 RAWC    ES   0A   022 50.74                                            118 109 
 RPKV    IP   0A   022 40.70                                            174 336 
 RPKV    ES   0A   023  2.97                                            174 336 
 QYDI    IP   0A   022 41.16                                            180 353 
 QYDI    ES   0A   023  3.84                                            180 353 
 HLUH    IP   0A   022 42.00                                            186 329 
 HLUH    ES   0A   023  5.31                                            186 329 
 RPKV     IAML A   022 40.70         0.6                                        
 MGUS     IAML A   022 32.08         1.3                                        
 AVTK     IAML A   022 25.76         2.7                                        
 RAWC     IAML A   022 33.28         1.2                                        
 RHPW     IAML A   022 21.81         4.4                                        
                                                                                

 2001  2 3  023 20.0 L  34.029  52.869 23.0      13 0.0 3.3l                   1
 Action:ARG 24-03-13 14:54 OP:OBSP STATUS:               ID:20010203002320     I
 STAT SP IPHASW D HRMM SECON CODA AMPLIT PERI AZIMU VELO AIN AR TRES W  DIS CAZ7
 RHPW    IP   0A   023 25.98                                           13.3 358 
 XBVK    IP   0A   023 29.20                                           37.2 333 
 XBVK    ES   0A   023 36.10                                           37.2 333 
 FOUH    IP   0A   023 36.89                                           83.1 354 
 FOUH    ES   0A   023 49.56                                           83.1 354 
 APSL    IP   0A   023 37.09                                           83.5  81 
 APSL    ES   0A   023 49.91                                           83.5  81 
 LUEX    IP   0A   023 37.09                                           85.1 258 
 LUEX    ES   0A   023 49.90                                           85.1 258 
 MGUS    IP   0A   023 37.63                                           87.0 107 
 MGUS    ES   0A   023 50.85                                           87.0 107 
 AVTK    IP   0A   023 38.01                                           91.7 271 
 AVTK    ES   0A   023 51.51                                           91.7 271 
 VOCA    IP   0A   023 38.36                                           92.5  38 
 DQYH    IP   0A   023 40.55                                            106 300 
 DQYH    ES   0A   023 55.97                                            106 300 
 RAWC    IP   0A   023 40.45                                            106 128 
 RAWC    ES   0A   023 55.78                                            106 128 
 CBZA    IP   0A   023 40.70                                            110 245 
 CBZA    ES   0A   023 56.22                                            110 245 
 QYDI    IP   0A   023 47.23                                            160 341 
 QYDI    ES   0A   024  7.34                                            160 341 
 RPKV    IP   0A   023 48.22                                            165 323 
 RPKV    ES   0A   024  8.75                                            165 323 
 CBZA     IAML A   023 40.70       779.4                                        
 XBVK     IAML A   023 29.20      3618.0                                        
 VOCA     IAML A   023 38.36      1033.5                                        
 RAWC     IAML A   023 40.45       827.9                                        
 RPKV     IAML A   023 48.22       394.4                                        
 FOUH     IAML A   023 36.89      1212.6                                        
                                                                                

