 2001  2 3  032 40.0 L  33.491  52.553 13.8      11 0.0 1.1l                   1
 Action:ARG 24-03-13 14:54 OP:OBSP STATUS:               ID:20010203003240     I
 STAT SP IPHASW D HRMM SECON CODA AMPLIT PERI AZIMU VELO AIN AR TRES W  DIS CAZ7
 LUEX    IP   0A   032 55.51                                           68.9 308 
 LUEX    ES   0A   033  7.14                                           68.9 308 
 CBZA    IP   0A   032 56.00                                           72.8 280 
 CBZA    ES   0A   033  8.01                                           72.8 280 
 RHPW    IP   0A   032 57.03                                           78.5  21 
 RHPW    ES   0A   033  9.80                                           78.5  21 
 AVTK    IP   0A   032 58.67                                           88.2 314 
 AVTK    ES   0A   033 12.68                                           88.2 314 
 XBVK    IP   0A   032 59.30                                           93.8   7 
 MGUS    IP   0A   033  2.66                                            116  73 
 MGUS    ES   0A   033 19.66                                            116  73 
 DNOA    IP   0A   033  3.43                                            121  40 
 DNOA    ES   0A   033 21.00                                            121  40 
 APSL    IP   0A   033  4.95                                            133  56 
 APSL    ES   0A   033 23.65                                            133  56 
 FOUH    IP   0A   033  6.52                                            143   8 
 FOUH    ES   0A   033 26.36                                            143   8 
 VOCA    IP   0A   033  8.03                                            158  33 
 VOCA    ES   0A   033 28.86                                            158  33 
 RPKV    IP   0A   033 14.34                                            204 340 
 RPKV    ES   0A   033 38.87                                            204 340 
 DNOA     IAML A   033  3.43         4.5                                        
 AVTK     IAML A   032 58.67         7.4                                        
 MGUS     IAML A   033  2.66         4.7                                        
 RHPW     IAML A   032 57.03         8.7                                        
 FOUH     IAML A   033  6.52         3.4                                        
 CBZA     IAML A   032 56.00         9.7                                        
                                                                                

 2001  2 3  033 50.0 L  33.668  52.261  5.4      11 0.0 2.2l                   1
 Action:ARG 24-03-13 14:54 OP:OBSP STATUS:               ID:20010203003350     I
 STAT SP IPHASW D HRMM SECON CODA AMPLIT PERI AZIMU VELO AIN AR TRES W  DIS CAZ7
 LUEX    IP   0A   033 59.15                                           35.4 310 
 LUEX    ES   0A   034  6.01                                           35.4 310 
 CBZA    IP   0A   034  1.55                                           44.9 261 
 CBZA    ES   0A   034 10.20                                           44.9 261 
 AVTK    IP   0A   034  3.98                                           55.3 320 
 XBVK    IP   0A   034  9.55                                           83.3  28 
 DQYH    IP   0A   034 12.26                                           99.9 338 
 DQYH    ES   0A   034 28.95                                           99.9 338 
 DNOA    IP   0A   034 16.37                                            128  55 
 DNOA    ES   0A   034 36.14                                            128  55 
 FOUH    IP   0A   034 16.68                                            131  21 
 FOUH    ES   0A   034 36.68                                            131  21 
 MGUS    IP   0A   034 17.48                                            139  84 
 MGUS    ES   0A   034 38.08                                            139  84 
 RAWC    IP   0A   034 17.98                                            142 100 
 RAWC    ES   0A   034 38.95                                            142 100 
 RPKV    IP   0A   034 22.73                                            177 345 
 RPKV    ES   0A   034 46.71                                            177 345 
 HLUH    IP   0A   034 23.67                                            186 338 
 HLUH    ES   0A   034 48.20                                            186 338 
 AVTK     IAML A   034  3.98       190.7                                        
 DQYH     IAML A   034 12.26        81.5                                        
 FOUH     IAML A   034 16.68        52.2                                        
 RAWC     IAML A   034 17.98        45.7                                        
 HLUH     IAML A   034 23.67        28.0                                        
                                                                                

 2001  2 3  035  0.0 L  33.338  52.763 19.9      11 0.0 1.8l                   1
 Action:ARG 24-03-13 14:54 OP:OBSP STATUS:               ID:20010203003500     I
 STAT SP IPHASW D HRMM SECON CODA AMPLIT PERI AZIMU VELO AIN AR TRES W  DIS CAZ7
 RAWC    IP   0A   035 18.95                                           93.8  83 
 RAWC    ES   0A   035 33.17                                           93.8  83 
 CBZA    IP   0A   035 19.23                                           96.0 288 
 CBZA    ES   0A   035 33.65                                           96.0 288 
 MGUS    IP   0A   035 20.57                                            105  61 
 XBVK    IP   0A   035 21.02                                            110 356 
 XBVK    ES   0A   035 36.79                                            110 356 
 DNOA    IP   0A   035 23.27                                            124  28 
 DNOA    ES   0A   035 40.72                                            124  28 
 APSL    IP   0A   035 23.82                                            128  45 
 APSL    ES   0A   035 41.66                                            128  45 
 FOUH    IP   0A   035 27.41                                            159   0 
 FOUH    ES   0A   035 47.80                                            159   0 
 VOCA    IP   0A   035 28.09                                            163  24 
 VOCA    ES   0A   035 48.69                                            163  24 
 RPKV    IP   0A   035 36.26                                            227 337 
 RPKV    ES   0A   036  1.90                                            227 337 
 QYDI    IP   0A   035 36.64                                            233 350 
 QYDI    ES   0A   036  2.39                                            233 350 
 HLUH    IP   0A   035 37.52                                            239 331 
 HLUH    ES   0A   036  4.04                                            239 331 
 RAWC     IAML A   035 18.95        33.9                                        
 MGUS     IAML A   035 20.57        28.4                                        
 QYDI     IAML A   035 36.64         6.7                                        
 RPKV     IAML A   035 36.26         7.1                                        
                                                                                

 2001  2 3  036 10.0 L  33.985  52.750 19.9      12 0.0 2.3l                   1
 Action:ARG 24-03-13 14:54 OP:OBSP STATUS:               ID:20010203003610     I
 STAT SP IPHASW D HRMM SECON CODA AMPLIT PERI AZIMU VELO AIN AR TRES W  DIS CAZ7
 RHPW    IP   0A   036 16.75                                           21.0  30 
 RHPW    ES   0A   036 21.81                                           21.0  30 
 XBVK    IP   0A   036 19.50                                           38.5 351 
 XBVK    ES   0A   036 26.63                                           38.5 351 
 DNOA    IP   0A   036 25.30                                           71.2  57 
 DNOA    ES   0A   036 36.78                                           71.2  57 
 AVTK    IP   0A   036 26.79                                           80.9 275 
 AVTK    ES   0A   036 39.38                                           80.9 275 
 FOUH    IP   0A   036 27.82                                           87.5   1 
 FOUH    ES   0A   036 41.18                                           87.5   1 
 APSL    IP   0A   036 29.12                                           95.2  79 
 APSL    ES   0A   036 43.45                                           95.2  79 
 MGUS    IP   0A   036 29.22                                           96.4 103 
 MGUS    ES   0A   036 43.64                                           96.4 103 
 CBZA    IP   0A   036 29.39                                           98.9 245 
 CBZA    ES   0A   036 43.94                                           98.9 245 
 DQYH    IP   0A   036 29.86                                           99.6 305 
 DQYH    ES   0A   036 44.75                                           99.6 305 
 VOCA    IP   0A   036 30.21                                            103  41 
 VOCA    ES   0A   036 45.36                                            103  41 
 RAWC    IP   0A   036 31.54                                            112 123 
 RAWC    ES   0A   036 47.70                                            112 123 
 HLUH    IP   0A   036 39.99                                            178 320 
 HLUH    ES   0A   037  1.78                                            178 320 
 HLUH     IAML A   036 39.99        33.7                                        
 RHPW     IAML A   036 16.75       721.4                                        
 FOUH     IAML A   036 27.82       110.6                                        
                                                                                

 2001  2 3  037 20.0 L  34.133  52.404  9.8      13 0.0 1.3l                   1
 Action:ARG 24-03-13 14:54 OP:OBSP STATUS:               ID:20010203003720     I
 STAT SP IPHASW D HRMM SECON CODA AMPLIT PERI AZIMU VELO AIN AR TRES W  DIS CAZ7
 XBVK    IP   0A   037 28.82                                           34.0  50 
 XBVK    ES   0A   037 35.44                                           34.0  50 
 RHPW    IP   0A   037 30.73                                           42.6  87 
 RHPW    ES   0A   037 38.77                                           42.6  87 
 AVTK    IP   0A   037 32.34                                           49.5 259 
 AVTK    ES   0A   037 41.59                                           49.5 259 
 LUEX    IP   0A   037 32.37                                           49.5 234 
 LUEX    ES   0A   037 41.65                                           49.5 234 
 DQYH    IP   0A   037 35.46                                           64.3 310 
 DQYH    ES   0A   037 47.05                                           64.3 310 
 FOUH    IP   0A   037 38.10                                           78.9  25 
 FOUH    ES   0A   037 51.68                                           78.9  25 
 DNOA    IP   0A   037 40.56                                           94.7  76 
 DNOA    ES   0A   037 55.98                                           94.7  76 
 VOCA    IP   0A   037 43.69                                            117  58 
 VOCA    ES   0A   038  1.46                                            117  58 
 APSL    IP   0A   037 44.93                                            125  89 
 APSL    ES   0A   038  3.63                                            125  89 
 MGUS    IP   0A   037 45.70                                            131 106 
 MGUS    ES   0A   038  4.98                                            131 106 
 RPKV    IP   0A   037 46.30                                            133 335 
 RPKV    ES   0A   038  6.02                                            133 335 
 QYDI    IP   0A   037 47.07                                            141 356 
 QYDI    ES   0A   038  7.33                                            141 356 
 HLUH    IP   0A   037 47.66                                            146 326 
 MGUS     IAML A   037 45.70         6.0                                        
 DNOA     IAML A   037 40.56        10.2                                        
 XBVK     IAML A   037 28.82        41.3                                        
 LUEX     IAML A   037 32.37        25.5                                        
 APSL     IAML A   037 44.93         6.5                                        
 DQYH     IAML A   037 35.46        17.9                                        
 RHPW     IAML A   037 30.73        31.0                                        
 VOCA     IAML A   037 43.69         7.3                                        
                                                                                

 2001  2 3  038 30.0 L  33.794  52.965 25.6      10 0.0 1.5l                   1
 Action:ARG 24-03-13 14:54 OP:OBSP STATUS:               ID:20010203003830     I
 STAT SP IPHASW D HRMM SECON CODA AMPLIT PERI AZIMU VELO AIN AR TRES W  DIS CAZ7
 XBVK    IP   0A   038 43.72                                           64.6 336 
 XBVK    ES   0A   038 54.01                                           64.6 336 
 DNOA    IP   0A   038 44.92                                           71.6  34 
 DNOA    ES   0A   038 56.10                                           71.6  34 
 APSL    IP   0A   038 46.75                                           83.4  62 
 APSL    ES   0A   038 59.31                                           83.4  62 
 RAWC    IP   0A   038 47.12                                           84.9 118 
 RAWC    ES   0A   038 59.95                                           84.9 118 
 LUEX    IP   0A   038 48.14                                           92.7 275 
 LUEX    ES   0A   039  1.75                                           92.7 275 
 AVTK    IP   0A   038 49.71                                            104 286 
 AVTK    ES   0A   039  4.49                                            104 286 
 VOCA    IP   0A   038 50.51                                            109  26 
 VOCA    ES   0A   039  5.89                                            109  26 
 FOUH    IP   0A   038 50.34                                            110 351 
 FOUH    ES   0A   039  5.60                                            110 351 
 CBZA    IP   0A   038 50.88                                            111 259 
 CBZA    ES   0A   039  6.53                                            111 259 
 HLUH    IP   0A   039  2.94                                            207 320 
 HLUH    ES   0A   039 26.31                                            207 320 
 LUEX     IAML A   038 48.14        17.3                                        
 HLUH     IAML A   039  2.94         4.3                                        
 XBVK     IAML A   038 43.72        29.2                                        
 APSL     IAML A   038 46.75        20.3                                        
                                                                                

 2001  2 3  039 40.0 L  33.483  52.463 11.5      11 0.0 1.2l                   1
 Action:ARG 24-03-13 14:54 OP:OBSP STATUS:               ID:20010203003940     I
 STAT SP IPHASW D HRMM SECON CODA AMPLIT PERI AZIMU VELO AIN AR TRES W  DIS CAZ7
 CBZA    IP   0A   039 54.95                                           64.7 282 
 CBZA    ES   0A   040  6.16                                           64.7 282 
 RHPW    IP   0A   039 58.08                                           82.7  26 
 RHPW    ES   0A   040 11.64                                           82.7  26 
 AVTK    IP   0A   039 58.16                                           83.1 319 
 AVTK    ES   0A   040 11.77                                           83.1 319 
 XBVK    IP   0A   040  0.13                                           96.1  12 
 XBVK    ES   0A   040 15.22                                           96.1  12 
 RAWC    IP   0A   040  3.92                                            121  92 
 RAWC    ES   0A   040 21.86                                            121  92 
 DNOA    IP   0A   040  4.78                                            127  42 
 DNOA    ES   0A   040 23.36                                            127  42 
 APSL    IP   0A   040  6.44                                            140  58 
 APSL    ES   0A   040 26.26                                            140  58 
 VOCA    IP   0A   040  9.28                                            163  35 
 VOCA    ES   0A   040 30.99                                            163  35 
 RPKV    IP   0A   040 14.64                                            202 342 
 RPKV    ES   0A   040 39.49                                            202 342 
 HLUH    IP   0A   040 15.65                                            212 335 
 HLUH    ES   0A   040 41.16                                            212 335 
 QYDI    IP   0A   040 15.63                                            213 356 
 QYDI    ES   0A   040 40.94                                            213 356 
 HLUH     IAML A   040 15.65         1.8                                        
 APSL     IAML A   040  6.44         4.0                                        
 CBZA     IAML A   039 54.95        13.1                                        
 RPKV     IAML A   040 14.64         2.0                                        
                                                                                

 2001  2 3  040 50.0 L  33.857  52.614 15.2      11 0.0 0.6l                   1
 Action:ARG 24-03-13 14:54 OP:OBSP STATUS:               ID:20010203004050     I
 STAT SP IPHASW D HRMM SECON CODA AMPLIT PERI AZIMU VELO AIN AR TRES W  DIS CAZ7
 RHPW    IP   0A   041  0.06                                           39.8  35 
 RHPW    ES   0A   041  7.60                                           39.8  35 
 XBVK    IP   0A   041  2.45                                           52.8   7 
 XBVK    ES   0A   041 11.79                                           52.8   7 
 LUEX    IP   0A   041  3.78                                           59.8 272 
 LUEX    ES   0A   041 14.12                                           59.8 272 
 CBZA    IP   0A   041  7.54                                           81.9 250 
 CBZA    ES   0A   041 20.70                                           81.9 250 
 DNOA    IP   0A   041  8.84                                           89.6  54 
 DQYH    IP   0A   041 10.38                                           99.6 316 
 DQYH    ES   0A   041 25.67                                           99.6 316 
 APSL    IP   0A   041 12.08                                            110  73 
 RAWC    IP   0A   041 12.88                                            117 113 
 RAWC    ES   0A   041 30.04                                            117 113 
 VOCA    IP   0A   041 13.44                                            122  41 
 VOCA    ES   0A   041 31.02                                            122  41 
 RPKV    IP   0A   041 19.82                                            169 333 
 RPKV    ES   0A   041 41.48                                            169 333 
 QYDI    IP   0A   041 20.09                                            173 351 
 QYDI    ES   0A   041 42.04                                            173 351 
 XBVK     IAML A   041  2.45         5.1                                        
 VOCA     IAML A   041 13.44         1.5                                        
 LUEX     IAML A   041  3.78         4.3                                        
 CBZA     IAML A   041  7.54         2.7                                        
                                                                                

