 2012  811 2121 14.1 L  38.451  46.799 17.2      22 0.0 2.7L                   1
 GAP=53                    0.6     0.5  0.6                                    E
 Action:ARG 24-03-13 16:02 OP:OBSP STATUS:               ID:20120811212114     I
 STAT SP IPHASW D HRMM SECON CODA AMPLIT PERI AZIMU VELO AIN AR TRES W  DIS CAZ7
 TVRZ    IP   0A  2121 18.07                                           13.9 301 
 TAHR    IP   0A  2121 19.19                                           22.3  75 
 HRS     IPg  0A  2121 19.26                                           24.8 122 
 HRS     ESg  0A  2121 23.07                                           24.8 122 
 FTB     IP   0A  2121 24.74                                           59.1 217 
 TABZ    IPg  0A  2121 24.97                                           59.6 224 
 TABZ    ES   0A  2121 32.86                                           59.6 224 
 TBZ     IPg  0A  2121 24.57                                           61.6 248 
 TBZ     ESg  0A  2121 32.51                                           61.6 248 
 BST     IPg  0A  2121 27.81                                           82.3 174 
 BST     ES   0A  2121 39.25                                           82.3 174 
 ORD     ES   0A  2121 40.33                                           89.0 307 
 MRD     IPg  0A  2121 31.41                                            100 287 
 MRD     ESg  0A  2121 43.57                                            100 287 
 SRB     IPg  2A  2121 30.13                                            101 131 
 SRB     ESg  0A  2121 44.31                                            101 131 
 GRMI    IP   0A  2121 31.52                                            103  66 
 SHB     IPg  0A  2121 31.83                                            105 260 
 SHB     ESg  0A  2121 45.39                                            105 260 
 AZR     IP   0A  2121 32.81                                            111 220 
 LRK     IP   0A  2121 36.57                                            135  79 
 SBZ     ES   0A  2121 57.25                                            152 314 
 GLBA    IP   0A  2121 40.81                                            164  56 
 SAAT    IP   0A  2121 47.53                                            211  41 
 ZRD     IP   0A  2121 48.16                                            218  20 
 GANJ    IP   0A  2121 51.92                                            247 350 
 GANJ    ES   0A  2122 20.08                                            247 350 
 ZNJK    IP   0A  2121 53.62                                            257 139 
 ZNJK    ES   0A  2122 23.02                                            257 139 
 GNI     ES   0A  2122 22.68                                            260 317 
 VANB    IP   0A  2121 58.23                                            298 274 
 VANB    ES   0A  2122 30.98                                            298 274 
 ZNJK     IAML A  2121 53.62        42.4                                        
 GLBA     IAML A  2121 40.81       104.6                                        
 AZR      IAML A  2121 32.81       203.9                                        
 TVRZ     IAML A  2121 18.07      3126.1                                        
 FTB      IAML A  2121 24.74       515.3                                        
 GANJ     IAML A  2121 51.92        45.8                                        
 ZRD      IAML A  2121 48.16        60.5                                        
 GRMI     IAML A  2121 31.52       228.0                                        
                                                                                

 2012  811 2133 50.8 L  38.452  46.853 18.3      23 0.0 3.1L                   1
 GAP=97                    0.7     0.5  0.6                                    E
 Action:ARG 24-03-13 16:02 OP:OBSP STATUS:               ID:20120811213350     I
 STAT SP IPHASW D HRMM SECON CODA AMPLIT PERI AZIMU VELO AIN AR TRES W  DIS CAZ7
 TVRZ    IP   0A  2133 55.40                                           17.3 294 
 TAHR    IP   0A  2133 55.25                                           18.6  72 
 TAHR    ES   0A  2133 58.65                                           18.6  72 
 HRS     IPg  0A  2133 55.62                                           21.6 128 
 HRS     ESg  0A  2133 59.18                                           21.6 128 
 FTB     IP   0A  2134  1.97                                           61.5 220 
 TABZ    IPg  0A  2134  2.12                                           62.3 227 
 TABZ    ESg  0A  2134 10.72                                           62.3 227 
 TBZ     IPg  0A  2134  1.80                                           65.1 249 
 TBZ     ESg  0A  2134 10.04                                           65.1 249 
 BST     IPg  0A  2134  4.40                                           82.1 177 
 BST     ESg  0A  2134 14.42                                           82.1 177 
 SRB     IPg  0A  2134  7.78                                           98.8 133 
 SRB     ESg  0A  2134 20.64                                           98.8 133 
 GRMI    IP   0A  2134  7.34                                            100  65 
 MRD     IPg  0A  2134  8.36                                            104 287 
 MRD     ESg  0A  2134 21.46                                            104 287 
 SHB     IPg  0A  2134  8.96                                            108 261 
 SHB     ESg  0A  2134 23.46                                            108 261 
 HSH     IP   0A  2134 12.65                                            131 163 
 NAX     IP   0A  2134 14.28                                            143 305 
 SBZ     ES   0A  2134 34.98                                            154 313 
 ASTR    IP   0A  2134 18.20                                            170  84 
 ASTR    ES   0A  2134 38.83                                            170  84 
 LKRN    IP   0A  2134 18.32                                            171  79 
 LKRN    ES   0A  2134 39.03                                            171  79 
 SAAT    IP   0A  2134 23.58                                            208  40 
 MAKU    IP   0A  2134 24.55                                            213 299 
 ZRD     ES   0A  2134 49.70                                            216  19 
 GANJ    ES   0A  2134 56.82                                            247 349 
 ZNJK    IP   0A  2134 29.67                                            254 139 
 GNI     ES   0A  2135  0.07                                            263 316 
 VANB    IP   0A  2134 35.63                                            302 274 
 FTB      IAML A  2134  1.97      1225.2                                        
 LKRN     IAML A  2134 18.32       244.2                                        
 TAHR     IAML A  2133 55.25      5562.8                                        
 TVRZ     IAML A  2133 55.40      6067.6                                        
 TBZ      IAML A  2134  2.57      1130.9                                        
 HRS      IAML A  2133 55.81      4642.3                                        
 HSH      IAML A  2134 12.65       390.0                                        
                                                                                

 2012  811 22 4 32.4 L  38.410  46.705 14.1      23 0.0 3.7L                   1
 GAP=52                    0.9     0.7  1.3                                    E
 Action:ARG 24-03-13 16:02 OP:OBSP STATUS:               ID:20120811220432     I
 STAT SP IPHASW D HRMM SECON CODA AMPLIT PERI AZIMU VELO AIN AR TRES W  DIS CAZ7
 TVRZ    ES   0A  22 4 37.83                                           10.3 346 
 HRS     IPg  0A  22 4 37.92                                           32.1 109 
 HRS     ESg  0A  22 4 42.60                                           32.1 109 
 TAHR    IP   0A  22 4 38.26                                           32.1  74 
 TAHR    ES   0A  22 4 42.80                                           32.1  74 
 TABZ    ES   0A  22 4 48.68                                           51.2 219 
 FTB     IP   0A  22 4 41.61                                           51.4 211 
 TBZ     IPg  0A  22 4 41.18                                           51.8 247 
 TBZ     ES   0A  22 4 48.82                                           51.8 247 
 BST     IPg  0A  22 4 45.65                                           81.0 167 
 BST     ESg  0A  22 4 56.69                                           81.0 167 
 MRD     IPg  0A  22 4 47.78                                           92.9 291 
 SHB     IPg  0A  22 4 48.62                                           95.3 261 
 AZR     IP   0A  22 4 50.11                                            102 217 
 AZR     ES   0A  22 5  3.54                                            102 217 
 SRB     IPg  0A  22 4 49.83                                            107 127 
 GRMI    IPg  0A  22 4 51.74                                            113  66 
 GRMI    ES   0A  22 5  5.90                                            113  66 
 NAX     IP   0A  22 4 54.99                                            134 309 
 LRK     ES   0A  22 5 14.54                                            145  79 
 SBZ     IP   0A  22 4 56.98                                            147 318 
 SBZ     ES   0A  22 5 15.57                                            147 318 
 GLBA    IP   0A  22 5  0.74                                            173  57 
 GLBA    ES   0A  22 5 22.15                                            173  57 
 LKRN    ES   0A  22 5 24.98                                            184  79 
 MAKU    IPn  0A  22 5  4.55                                            203 301 
 BRDA    IP   0A  22 5  6.00                                            209  11 
 SAAT    IP   0A  22 5  7.42                                            219  42 
 GNI     IP   0A  22 5 11.96                                            256 319 
 GNI     ES   0A  22 5 41.48                                            256 319 
 ZNJK    IPn  0A  22 5 14.45                                            261 137 
 VANB    IP   0A  22 5 15.96                                            289 275 
 VANB    ES   0A  22 5 48.40                                            289 275 
 SRB      IAML A  22 4 50.53      2158.1                                        
 SAAT     IAML A  22 5  7.42       597.2                                        
 VANB     IAML A  22 5 15.96       324.1                                        
 FTB      IAML A  22 4 41.61      6212.2                                        
 ZNJK     IAML A  22 5 12.74       408.9                                        
 SBZ      IAML A  22 4 56.98      1269.2                                        
 SHB      IAML A  22 4 48.74      2586.7                                        
 AZR      IAML A  22 4 50.11      2298.1                                        
 GRMI     IAML A  22 4 51.46      1977.1                                        
 NAX      IAML A  22 4 54.99      1492.8                                        
                                                                                

 2012  811 2212 46.9 L  38.411  46.748 16.2      22 0.0 3.3L                   1
 GAP=44                    0.7     0.5  0.7                                    E
 Action:ARG 24-03-13 16:02 OP:OBSP STATUS:               ID:20120811221246     I
 STAT SP IPHASW D HRMM SECON CODA AMPLIT PERI AZIMU VELO AIN AR TRES W  DIS CAZ7
 HRS     IPg  0A  2212 52.41                                           27.2 112 
 HRS     ESg  0A  2212 56.19                                           27.2 112 
 TAHR    IP   0A  2212 52.45                                           27.2  71 
 TAHR    ES   0A  2212 56.77                                           27.2  71 
 FTB     IP   0A  2212 56.76                                           54.3 215 
 TBZ     IPg  0A  2212 56.51                                           56.6 249 
 TBZ     ESg  0A  2213  3.79                                           56.6 249 
 BST     IPg  0A  2213  0.42                                           80.0 171 
 ORD     IP   0A  2213  2.11                                           87.6 311 
 MRD     IPg  0A  2213  2.93                                           97.8 290 
 MRD     ES   0A  2213 16.28                                           97.8 290 
 SHB     IPg  0A  2213  3.57                                            100 262 
 SHB     ESg  0A  2213 17.27                                            100 262 
 SRB     IPg  0A  2213  4.17                                            102 129 
 SRB     ES   0A  2213 17.80                                            102 129 
 AZR     ES   0A  2213 18.62                                            106 219 
 GRMI    IPg  0A  2213  5.27                                            108  65 
 SBZ     IP   0A  2213 11.86                                            151 316 
 GLBA    IP   0A  2213 14.65                                            169  56 
 GLBA    ES   0A  2213 35.62                                            169  56 
 ASTR    ES   0A  2213 37.53                                            178  84 
 LKRN    IP   0A  2213 15.99                                            179  78 
 LKRN    ES   0A  2213 37.95                                            179  78 
 MAKU    IPn  0A  2213 18.51                                            208 300 
 MAKU    ES   0A  2213 45.09                                            208 300 
 SAAT    ES   0A  2213 46.85                                            216  41 
 ZRD     IP   0A  2213 21.76                                            222  20 
 GANJ    IP   0A  2213 25.19                                            250 351 
 ZNJK    IPn  0A  2213 27.12                                            258 138 
 ZNJK    ES   0A  2213 55.91                                            258 138 
 GNI     IP   0A  2213 26.53                                            259 318 
 VANB    IP   0A  2213 30.64                                            294 274 
 VANB    ES   0A  2214  3.18                                            294 274 
 ORD      IAML A  2213  2.11      1169.5                                        
 GNI      IAML A  2213 26.53       165.4                                        
 VANB     IAML A  2213 30.64       123.6                                        
 TBZ      IAML A  2212 57.06      2174.2                                        
 GRMI     IAML A  2213  5.23       842.8                                        
 FTB      IAML A  2212 56.76      2302.8                                        
 MAKU     IAML A  2213 20.18       264.7                                        
 ZNJK     IAML A  2213 26.43       167.9                                        
 HRS      IAML A  2212 52.48      5586.3                                        
 GANJ     IAML A  2213 25.19       178.7                                        
 SHB      IAML A  2213  3.89       949.4                                        
 SBZ      IAML A  2213 11.86       484.1                                        
                                                                                

 2012  811 2340 52.8 L  38.477  46.800 14.6      25 0.0 2.2L                   1
 GAP=61                    0.3     0.2  0.3                                    E
 Action:ARG 24-03-13 16:02 OP:OBSP STATUS:               ID:20120811234052     I
 STAT SP IPHASW D HRMM SECON CODA AMPLIT PERI AZIMU VELO AIN AR TRES W  DIS CAZ7
 TVRZ    IP   0A  2340 56.21                                           10.7 289 
 TAHR    IP   0A  2340 57.32                                           23.5  85 
 TAHR    ES   0A  2341  0.79                                           23.5  85 
 HRS     IPg  0A  2340 58.28                                           28.4 126 
 FTB     IP   0A  2341  3.69                                           61.0 214 
 FTB     ES   0A  2341 11.93                                           61.0 214 
 TABZ    IP   0A  2341  3.72                                           61.0 221 
 TBZ     IPg  0A  2341  2.77                                           61.3 244 
 TBZ     ES   0A  2341 12.15                                           61.3 244 
 ORD     ES   0A  2341 19.02                                           85.4 306 
 BST     ES   0A  2341 18.81                                           86.2 173 
 MRD     IPg  0A  2341  9.16                                           98.0 286 
 GRMI    ES   0A  2341 23.50                                            103  68 
 SHB     IPg  0A  2341 10.69                                            103 258 
 SHB     ESg  0A  2341 23.45                                            103 258 
 SRB     IPg  0A  2341 10.53                                            105 132 
 AZR     IP   0A  2341 12.02                                            112 218 
 HSH     IP   0A  2341 15.40                                            136 161 
 HSH     ES   0A  2341 32.43                                            136 161 
 NAX     IP   0A  2341 15.69                                            136 305 
 LRK     IP   0A  2341 15.35                                            137  81 
 LRK     ES   0A  2341 32.34                                            137  81 
 ASTR    ES   0A  2341 42.53                                            175  86 
 BRDA    IP   0A  2341 25.24                                            201   9 
 MAKU    IP   0A  2341 26.33                                            207 298 
 MAKU    ES   0A  2341 51.37                                            207 298 
 SAAT    ES   0A  2341 51.40                                            209  42 
 ZRD     IP   0A  2341 26.99                                            215  20 
 GANJ    IP   0A  2341 30.69                                            244 350 
 GNI     IP   0A  2341 32.33                                            256 317 
 GNI     ES   0A  2342  1.75                                            256 317 
 ZNJK    ES   0A  2342  2.65                                            261 139 
 VANB    IP   0A  2341 37.27                                            296 273 
 NAX      IAML A  2341 15.69        46.0                                        
 TAHR     IAML A  2340 57.32       529.4                                        
 TBZ      IAML A  2341  3.82       154.8                                        
 BRDA     IAML A  2341 25.24        22.4                                        
 GANJ     IAML A  2341 30.69        15.0                                        
 AZR      IAML A  2341 12.02        63.0                                        
 SHB      IAML A  2341 10.71        71.6                                        
                                                                                

