 2012  811 1223 15.3 L  38.417  46.806  1.9      25 0.0 6.5L                   1
 GAP=44                    1.0     0.8  2.4                                    E
 Action:ARG 24-03-13 16:02 OP:OBSP STATUS:               ID:20120811122315     I
 STAT SP IPHASW D HRMM SECON CODA AMPLIT PERI AZIMU VELO AIN AR TRES W  DIS CAZ7
 TVRZ    ES   0A  1223 20.52                                           15.7 308 
 TAHR    ES   0A  1223 23.13                                           22.7  68 
 HRS     IPg  0A  1223 19.51                                           23.1 118 
 HRS     ES   0A  1223 23.25                                           23.1 118 
 FTB     IP   0A  1223 25.62                                           57.3 219 
 TBZ     IPg  0A  1223 26.20                                           61.1 250 
 BST     IPg  0A  1223 28.66                                           79.7 174 
 ORD     IPg  0A  1223 30.70                                           91.0 308 
 SRB     ES   0A  1223 45.38                                           99.7 130 
 MRD     IPg  0A  1223 32.20                                            102 289 
 MRD     ES   0A  1223 45.49                                            102 289 
 GRMI    IPg  0A  1223 32.55                                            104  64 
 SHB     IPg  0A  1223 33.34                                            105 262 
 AZR     IP   0A  1223 34.19                                            109 221 
 HSH     IP   0A  1223 37.41                                            129 161 
 LRK     IPg  0A  1223 37.80                                            135  78 
 NAX     IPg  0A  1223 38.70                                            141 306 
 NAX     ES   0A  1223 56.81                                            141 306 
 SBZ     ES   0A  1224  0.31                                            154 315 
 GLBA    IPg  0A  1223 43.80                                            165  55 
 GLBA    ES   0A  1224  4.44                                            165  55 
 ASTR    IP   0A  1223 44.60                                            173  84 
 LKRN    ES   0A  1224  6.96                                            174  78 
 BRDA    IPn  0A  1223 50.20                                            207   8 
 BRDA    ES   0A  1224 15.48                                            207   8 
 SAAT    IPn  0A  1223 49.40                                            212  40 
 SAAT    ES   0A  1224 17.50                                            212  40 
 ZRD     IPn  0A  1223 52.10                                            220  19 
 ZRD     ES   0A  1224 18.79                                            220  19 
 GANJ    IPn  0A  1223 54.70                                            251 350 
 GANJ    ES   0A  1224 25.30                                            251 350 
 ZNJK    IPn  0A  1223 55.20                                            254 138 
 VANB    ES   0A  1224 35.44                                            299 274 
 GRMI     IAML A  1223 33.29      14.2e5                                        
 HRS      IAML A  1223 19.89      10.8e6                                        
 SAAT     IAML A  1223 50.92      40.2e4                                        
 NAX      IAML A  1223 39.06      85.7e4                                        
 GANJ     IAML A  1223 55.49      28.2e4                                        
 BRDA     IAML A  1223 49.73      42.2e4                                        
 LRK      IAML A  1223 38.43      92.2e4                                        
 AZR      IAML A  1223 34.19      13.2e5                                        
 TBZ      IAML A  1223 26.02      31.1e5                                        
                                                                                

 2012  811 1228 46.3 L  38.431  46.783 21.7      24 0.0 3.5L                   1
 GAP=50                    0.3     0.2  0.3                                    E
 Action:ARG 24-03-13 16:02 OP:OBSP STATUS:               ID:20120811122846     I
 STAT SP IPHASW D HRMM SECON CODA AMPLIT PERI AZIMU VELO AIN AR TRES W  DIS CAZ7
 TVRZ    IP   0A  1228 50.61                                           11.2 306 
 TVRZ    ES   0A  1228 53.99                                           11.2 306 
 HRS     IPg  0A  1228 51.99                                           27.5 120 
 HRS     ES   0A  1228 56.37                                           27.5 120 
 FTB     ES   0A  1229  4.26                                           57.8 214 
 TABZ    IP   0A  1228 56.55                                           58.0 222 
 TABZ    ES   0A  1229  4.39                                           58.0 222 
 TBZ     IPg  0A  1228 56.26                                           59.1 247 
 BST     IPg  0A  1229  0.16                                           83.2 172 
 BST     ES   0A  1229 10.80                                           83.2 172 
 MRD     IPg  0A  1229  2.27                                           97.9 288 
 SHB     IPg  0A  1229  3.64                                            102 260 
 SRB     IP   0A  1229  3.32                                            104 131 
 GRMI    IP   0A  1229  3.84                                            105  67 
 GRMI    ES   0A  1229 17.15                                            105  67 
 HSH     IP   0A  1229  7.98                                            133 160 
 NAX     ES   0A  1229 26.18                                            137 306 
 LRK     ES   0A  1229 25.85                                            138  80 
 SBZ     ES   0A  1229 29.42                                            149 315 
 GLBA    IP   0A  1229 13.16                                            166  57 
 ASTR    IP   0A  1229 14.62                                            176  85 
 BRDA    IP   0A  1229 18.67                                            205   9 
 MAKU    ES   0A  1229 43.76                                            207 299 
 SAAT    IP   0A  1229 19.59                                            212  41 
 SAAT    ES   0A  1229 44.49                                            212  41 
 ZRD     IP   0A  1229 20.34                                            218  20 
 GANJ    IP   0A  1229 23.95                                            247 351 
 GANJ    ES   0A  1229 52.03                                            247 351 
 GNI     IP   0A  1229 25.37                                            258 317 
 GNI     ES   0A  1229 54.49                                            258 317 
 ZNJK    IP   0A  1229 25.18                                            259 138 
 ZNJK    ES   0A  1229 54.17                                            259 138 
 VANB    IP   0A  1229 29.98                                            295 274 
 GLBA     IAML A  1229 13.16       644.9                                        
 GANJ     IAML A  1229 23.95       291.4                                        
 ASTR     IAML A  1229 14.62       576.8                                        
 ZRD      IAML A  1229 20.34       380.1                                        
 ZNJK     IAML A  1229 25.18       262.3                                        
 HRS      IAML A  1228 51.97      8704.6                                        
 BRDA     IAML A  1229 18.67       432.3                                        
 SAAT     IAML A  1229 19.59       402.2                                        
 MRD      IAML A  1229  2.98      1567.3                                        
                                                                                

 2012  811 1249 15.7 L  38.386  46.691 11.1      17 0.0 4.6L                   1
 GAP=83                    1.3     1.0  2.0                                    E
 Action:ARG 24-03-13 16:02 OP:OBSP STATUS:               ID:20120811124915     I
 STAT SP IPHASW D HRMM SECON CODA AMPLIT PERI AZIMU VELO AIN AR TRES W  DIS CAZ7
 HRS     IPg  0A  1249 21.23                                           32.1 104 
 HRS     ESg  0A  1249 25.91                                           32.1 104 
 TAHR    ES   0A  1249 26.52                                           33.5  71 
 FTB     ES   0A  1249 30.68                                           49.1 211 
 TBZ     IPg  0A  1249 23.92                                           50.3 249 
 TBZ     ES   0A  1249 31.16                                           50.3 249 
 BST     IPg  0A  1249 29.06                                           78.9 167 
 BST     ES   0A  1249 39.16                                           78.9 167 
 ORD     ES   0A  1249 41.56                                           84.8 314 
 MRD     IPg  0A  1249 30.69                                           93.1 292 
 MRD     ES   0A  1249 43.78                                           93.1 292 
 SHB     IPg  0A  1249 31.48                                           94.3 262 
 SHB     ESg  0A  1249 43.98                                           94.3 262 
 SRB     IPg  0A  1249 33.24                                            106 126 
 LRK     IPg  0A  1249 40.00                                            146  78 
 LRK     ES   0A  1249 58.35                                            146  78 
 GLBA    IPg  0A  1249 45.20                                            175  56 
 GLBA    ES   0A  1250  6.32                                            175  56 
 ASTR    IPg  0A  1249 46.40                                            184  83 
 ASTR    ES   0A  1250  8.40                                            184  83 
 LKRN    ES   0A  1250  8.80                                            185  78 
 MAKU    ES   0A  1250 13.91                                            204 302 
 BRDA    IPn  0A  1249 50.90                                            212  11 
 SAAT    IPn  0A  1249 50.60                                            221  42 
 GNI     IPn  0A  1249 56.00                                            257 319 
 GNI     ES   0A  1250 25.32                                            257 319 
 HRS      IAML A  1249 21.44     90707.1                                        
 MRD      IAML A  1249 31.66     21312.7                                        
 GLBA     IAML A  1249 44.54      7350.0                                        
 BST      IAML A  1249 29.02     27244.0                                        
 GNI      IAML A  1249 55.57      3363.2                                        
                                                                                

 2012  811 1314  5.5 L  38.384  46.670  6.6      24 0.0 4.4L                   1
 GAP=84                    1.1     0.9  2.1                                    E
 Action:ARG 24-03-13 16:02 OP:OBSP STATUS:               ID:20120811131405     I
 STAT SP IPHASW D HRMM SECON CODA AMPLIT PERI AZIMU VELO AIN AR TRES W  DIS CAZ7
 TVRZ    ES   0A  1314 10.01                                           12.9 358 
 HRS     IPg  0A  1314 11.23                                           33.2 103 
 FTB     ES   0A  1314 19.77                                           47.9 210 
 TBZ     IPg  0A  1314 14.01                                           48.8 249 
 TBZ     ES   0A  1314 20.09                                           48.8 249 
 BST     IPg  0A  1314 19.07                                           78.6 165 
 MRD     IPg  0A  1314 20.65                                           92.1 293 
 MRD     ES   0A  1314 32.94                                           92.1 293 
 SHB     IPg  0A  1314 21.38                                           93.0 263 
 AZR     ES   0A  1314 34.57                                           99.4 217 
 SRB     IPg  0A  1314 23.16                                            107 125 
 SRB     ES   0A  1314 36.88                                            107 125 
 GRMI    IPg  2A  1314 24.77                                            116  65 
 GRMI    ES   0A  1314 40.05                                            116  65 
 NAX     IPg  0A  1314 28.40                                            134 310 
 LRK     IPg  0A  1314 30.40                                            148  78 
 LRK     ES   0A  1314 49.21                                            148  78 
 SBZ     IPg  0A  1314 30.00                                            148 319 
 GLBA    IPg  0A  1314 35.40                                            177  57 
 GLBA    ES   0A  1314 57.65                                            177  57 
 ASTR    IPg  0A  1314 36.40                                            185  83 
 ASTR    ES   0A  1315  0.05                                            185  83 
 LKRN    ES   0A  1315  0.46                                            187  78 
 MAKU    IPn  2A  1314 37.85                                            203 302 
 MAKU    ES   0A  1315  4.95                                            203 302 
 BRDA    ES   0A  1315  7.34                                            212  11 
 SAAT    IPn  0A  1314 40.70                                            222  42 
 ZRD     IPn  0A  1314 42.00                                            227  22 
 GANJ    IPn  0A  1314 44.70                                            252 353 
 GNI     IPn  2A  1314 47.40                                            257 320 
 ZNJK    IPn  2A  1314 46.49                                            260 136 
 VANB    ES   0A  1315 23.19                                            287 275 
 GLBA     IAML A  1314 35.30      4568.9                                        
 BST      IAML A  1314 18.69     17264.0                                        
 LRK      IAML A  1314 30.48      6309.2                                        
 GNI      IAML A  1314 46.54      2129.6                                        
 SBZ      IAML A  1314 30.59      6296.7                                        
 ZNJK     IAML A  1314 46.92      2062.0                                        
 GANJ     IAML A  1314 45.92      2215.2                                        
 HRS      IAML A  1314 11.35     54772.2                                        
 ASTR     IAML A  1314 36.67      4162.6                                        
                                                                                

 2012  811 1323 15.9 L  38.492  46.728  8.7      23 0.0 3.7L                   1
 GAP=54                    0.4     0.3  0.6                                    E
 Action:ARG 24-03-13 16:02 OP:OBSP STATUS:               ID:20120811132315     I
 STAT SP IPHASW D HRMM SECON CODA AMPLIT PERI AZIMU VELO AIN AR TRES W  DIS CAZ7
 TAHR    IP   0A  1323 19.97                                           29.4  88 
 HRS     IPg  0A  1323 20.93                                           34.0 122 
 HRS     ES   0A  1323 25.50                                           34.0 122 
 TBZ     IP   0A  1323 25.00                                           56.5 241 
 TABZ    IP   0A  1323 25.33                                           58.1 215 
 FTB     ES   0A  1323 33.37                                           58.8 208 
 BST     IPg  0A  1323 29.91                                           88.1 169 
 MRD     IPg  0A  1323 30.00                                           91.9 286 
 MRD     ES   0A  1323 42.74                                           91.9 286 
 SHB     IPg  0A  1323 31.79                                           98.3 257 
 GRMI    IPg  2A  1323 34.20                                            109  70 
 GRMI    ES   0A  1323 46.83                                            109  70 
 AZR     IP   0A  1323 33.86                                            109 215 
 AZR     ES   0A  1323 48.08                                            109 215 
 SRB     IPg  0A  1323 33.09                                            110 130 
 SRB     ES   0A  1323 47.59                                            110 130 
 NAX     IP   0A  1323 37.09                                            130 306 
 HSH     ES   0A  1323 56.38                                            139 159 
 LRK     ES   0A  1323 56.61                                            142  82 
 GLBA    IP   0A  1323 42.82                                            168  59 
 GLBA    ES   0A  1324  3.75                                            168  59 
 LKRN    IP   0A  1323 44.87                                            181  81 
 LKRN    ES   0A  1324  7.35                                            181  81 
 MAKU    IP   0A  1323 48.23                                            201 299 
 BRDA    IP   0A  1323 47.82                                            201  11 
 SAAT    ES   0A  1324 15.23                                            212  43 
 ZRD     IP   0A  1323 49.84                                            216  22 
 ZRD     ES   0A  1324 15.87                                            216  22 
 GNI     IP   0A  1323 54.48                                            251 318 
 ZNJK    IP   0A  1323 56.37                                            266 138 
 ZNJK    ES   0A  1324 27.16                                            266 138 
 VANB    IP   0A  1323 59.39                                            290 273 
 VANB    ES   0A  1324 32.36                                            290 273 
 NAX      IAML A  1323 37.09      1558.6                                        
 LKRN     IAML A  1323 44.87       867.1                                        
 SRB      IAML A  1323 33.58      2049.3                                        
 VANB     IAML A  1323 59.39       321.5                                        
 GLBA     IAML A  1323 42.82       999.6                                        
 ZRD      IAML A  1323 49.84       614.4                                        
 BRDA     IAML A  1323 47.82       707.3                                        
                                                                                

