 2012  811 16 0 50.4 L  38.409  46.785 13.5      24 0.0 4.0L                   1
 GAP=78                    1.0     0.8  1.2                                    E
 Action:ARG 24-03-13 16:02 OP:OBSP STATUS:               ID:20120811160050     I
 STAT SP IPHASW D HRMM SECON CODA AMPLIT PERI AZIMU VELO AIN AR TRES W  DIS CAZ7
 TVRZ    ES   0A  16 0 57.12                                           14.1 316 
 HRS     IPg  0A  16 0 55.23                                           25.3 114 
 HRS     ESg  0A  16 0 58.95                                           25.3 114 
 FTB     ES   0A  16 1  7.83                                           55.4 217 
 TBZ     IPg  0A  16 1  0.75                                           58.5 250 
 BST     IPg  0A  16 1  3.78                                           79.6 172 
 BST     ES   0A  16 1 14.37                                           79.6 172 
 ORD     IPg  0A  16 1  4.90                                           89.2 310 
 MRD     IPg  0A  16 1  6.97                                           99.7 289 
 SRB     IPg  0A  16 1  7.11                                            101 129 
 SRB     ES   0A  16 1 20.32                                            101 129 
 SHB     IPg  0A  16 1  7.86                                            102 262 
 SHB     ES   0A  16 1 21.25                                            102 262 
 GRMI    IPg  0A  16 1  8.31                                            106  65 
 GRMI    ES   0A  16 1 21.81                                            106  65 
 AZR     ES   0A  16 1 22.53                                            107 220 
 HSH     ES   0A  16 1 28.18                                            130 160 
 LRK     IPg  0A  16 1 13.60                                            138  78 
 NAX     IPg  0A  16 1 13.50                                            140 307 
 SBZ     IPg  0A  16 1 16.00                                            152 316 
 GLBA    IPg  0A  16 1 18.70                                            167  56 
 ASTR    IPg  0A  16 1 19.40                                            176  84 
 ASTR    ES   0A  16 1 40.35                                            176  84 
 BRDA    IPn  0A  16 1 25.30                                            208   9 
 MAKU    IPn  0A  16 1 24.02                                            210 300 
 SAAT    IPn  0A  16 1 24.60                                            214  40 
 SAAT    ES   0A  16 1 50.01                                            214  40 
 ZRD     IPn  0A  16 1 26.70                                            221  20 
 GANJ    IPn  0A  16 1 29.90                                            251 351 
 GANJ    ES   0A  16 1 57.89                                            251 351 
 ZNJK    IPn  0A  16 1 29.83                                            256 138 
 ZNJK    ES   0A  16 1 59.03                                            256 138 
 GNI     ES   0A  16 2  0.32                                            261 318 
 BRDA     IAML A  16 1 23.69      1322.8                                        
 ORD      IAML A  16 1  5.89      5705.1                                        
 BST      IAML A  16 1  4.01      6755.9                                        
 GRMI     IAML A  16 1  8.26      4335.7                                        
 HRS      IAML A  16 0 55.27     30583.3                                        
 ASTR     IAML A  16 1 18.86      1830.8                                        
 NAX      IAML A  16 1 13.76      2770.2                                        
 GLBA     IAML A  16 1 17.63      2008.9                                        
                                                                                

 2012  811 1615  4.1 L  38.425  46.666 14.9      24 0.0 2.7L                   1
 GAP=50                    0.5     0.4  0.6                                    E
 Action:ARG 24-03-13 16:02 OP:OBSP STATUS:               ID:20120811161504     I
 STAT SP IPHASW D HRMM SECON CODA AMPLIT PERI AZIMU VELO AIN AR TRES W  DIS CAZ7
 TVRZ    ES   0A  1615 10.00                                           9.14 355 
 TAHR    IP   0A  1615 10.66                                           33.6  76 
 HRS     IPg  0A  1615 10.18                                           34.0 109 
 HRS     ESg  0A  1615 15.43                                           34.0 109 
 TBZ     IPg  0A  1615 12.54                                           50.5 245 
 TBZ     ESg  0A  1615 19.38                                           50.5 245 
 FTB     IP   0A  1615 13.58                                           51.3 208 
 ORD     ES   0A  1615 28.63                                           81.8 313 
 BST     IPg  0A  1615 17.63                                           82.3 166 
 BST     ESg  0A  1615 28.81                                           82.3 166 
 MRD     IPg  0A  1615 19.48                                           90.9 291 
 SHB     IPg  0A  1615 20.46                                           93.8 260 
 SHB     ESg  0A  1615 32.05                                           93.8 260 
 AZR     ES   0A  1615 35.09                                            102 216 
 SRB     IPg  0A  1615 22.53                                            109 127 
 SRB     ES   0A  1615 36.75                                            109 127 
 GRMI    ES   0A  1615 38.26                                            114  67 
 NAX     IP   0A  1615 25.92                                            132 309 
 HSH     IP   0A  1615 26.57                                            134 157 
 SBZ     IP   0A  1615 27.97                                            145 318 
 LRK     IP   0A  1615 28.46                                            147  79 
 GLBA    IP   0A  1615 32.88                                            174  58 
 ASTR    ES   0A  1615 56.86                                            185  84 
 LKRN    IP   0A  1615 34.42                                            186  79 
 LKRN    ES   0A  1615 57.24                                            186  79 
 MAKU    IP   0A  1615 36.55                                            201 301 
 MAKU    ES   0A  1616  0.91                                            201 301 
 SAAT    IP   0A  1615 39.05                                            220  42 
 GANJ    IP   0A  1615 42.25                                            247 353 
 ZNJK    IP   0A  1615 44.51                                            263 136 
 ZNJK    ES   0A  1616 14.57                                            263 136 
 VANB    IP   0A  1615 47.10                                            287 274 
 VANB    ES   0A  1616 19.03                                            287 274 
 FTB      IAML A  1615 13.58       622.8                                        
 SHB      IAML A  1615 20.12       265.4                                        
 SRB      IAML A  1615 22.71       209.8                                        
 GLBA     IAML A  1615 32.88        93.4                                        
 BST      IAML A  1615 18.46       322.6                                        
 MAKU     IAML A  1615 36.55        70.9                                        
 LRK      IAML A  1615 28.46       127.3                                        
                                                                                

 2012  811 1621 53.1 L  38.422  46.664 14.4      21 0.0 4.1L                   1
 GAP=109                   2.4     1.9  3.1                                    E
 Action:ARG 24-03-13 16:02 OP:OBSP STATUS:               ID:20120811162153     I
 STAT SP IPHASW D HRMM SECON CODA AMPLIT PERI AZIMU VELO AIN AR TRES W  DIS CAZ7
 HRS     IPg  0A  1621 59.43                                           34.9 107 
 TAHR    ES   0A  1622  5.27                                           35.2  75 
 TBZ     IPg  0A  1622  1.74                                           48.9 246 
 TABZ    ES   0A  1622  8.39                                           49.1 216 
 BST     IPg  0A  1622  6.86                                           81.5 165 
 ORD     ES   0A  1622 17.13                                           81.6 314 
 MRD     IPg  0A  1622  8.33                                           90.1 292 
 SHB     IPg  0A  1622  9.20                                           92.3 261 
 SRB     IPg  0A  1622 11.16                                            109 126 
 SRB     ES   0A  1622 25.36                                            109 126 
 GRMI    IPg  0A  1622 12.98                                            116  67 
 GRMI    ES   0A  1622 27.17                                            116  67 
 HSH     ES   0A  1622 31.73                                            133 156 
 SBZ     ES   0A  1622 34.34                                            145 319 
 GLBA    ES   0A  1622 43.37                                            176  57 
 ASTR    ES   0A  1622 45.81                                            186  84 
 MAKU    IPg  0A  1622 25.75                                            201 301 
 BRDA    ES   0A  1622 50.71                                            210  12 
 ZRD     ES   0A  1622 54.08                                            225  22 
 GANJ    ES   0A  1622 59.20                                            247 353 
 GNI     IPn  2A  1622 34.70                                            254 319 
 GNI     ES   0A  1623  0.18                                            254 319 
 ZNJK    IPn  0A  1622 34.10                                            263 136 
 VANB    ES   0A  1623  6.73                                            286 275 
 SHB      IAML A  1622  8.40      6827.1                                        
 SRB      IAML A  1622 11.40      5240.0                                        
 BST      IAML A  1622  6.95      8215.3                                        
 ZNJK     IAML A  1622 32.92      1010.2                                        
 HRS      IAML A  1621 59.91     25768.5                                        
 GRMI     IAML A  1622 12.44      4767.4                                        
                                                                                

 2012  811 1634 32.6 L  38.441  46.659 13.5      22 0.0 3.3L                   1
 GAP=40                    0.6     0.5  0.9                                    E
 Action:ARG 24-03-13 16:02 OP:OBSP STATUS:               ID:20120811163432     I
 STAT SP IPHASW D HRMM SECON CODA AMPLIT PERI AZIMU VELO AIN AR TRES W  DIS CAZ7
 TVRZ    IP   0A  1634 35.45                                           7.67   1 
 HRS     IPg  0A  1634 38.77                                           35.4 111 
 HRS     ESg  0A  1634 43.74                                           35.4 111 
 TBZ     IPg  0A  1634 41.18                                           50.3 243 
 TBZ     ES   0A  1634 48.34                                           50.3 243 
 TABZ    ES   0A  1634 48.98                                           51.4 215 
 FTB     IP   0A  1634 42.04                                           52.2 207 
 ORD     IP   0A  1634 46.12                                           80.2 313 
 BST     IPg  0A  1634 46.37                                           83.9 166 
 BST     ESg  0A  1634 57.55                                           83.9 166 
 MRD     IPg  0A  1634 47.88                                           89.6 290 
 MRD     ES   0A  1634 59.25                                           89.6 290 
 SHB     IPg  0A  1634 48.63                                           93.1 259 
 AZR     IP   0A  1634 50.27                                            103 215 
 SRB     IPg  0A  1634 50.86                                            110 127 
 SRB     ES   0A  1635  5.73                                            110 127 
 GRMI    IPg  0A  1634 52.18                                            114  68 
 NAX     ES   0A  1635 10.31                                            130 309 
 SBZ     IP   0A  1634 56.11                                            144 318 
 SBZ     ES   0A  1635 13.89                                            144 318 
 LRK     IP   0A  1634 57.18                                            147  80 
 LRK     ES   0A  1635 15.76                                            147  80 
 GLBA    IP   0A  1635  1.29                                            174  58 
 GLBA    ES   0A  1635 22.96                                            174  58 
 ASTR    IP   0A  1635  2.95                                            186  85 
 ASTR    ES   0A  1635 25.87                                            186  85 
 MAKU    IPg  0A  1635  5.19                                            200 301 
 MAKU    ES   0A  1635 28.87                                            200 301 
 ZRD     IP   0A  1635  7.58                                            222  22 
 GANJ    IP   0A  1635 10.52                                            247 353 
 ZNJK    IPn  0A  1635 13.71                                            265 137 
 ZNJK    ES   0A  1635 43.67                                            265 137 
 VANB    ES   0A  1635 47.43                                            286 274 
 BST      IAML A  1634 47.21      1248.1                                        
 ORD      IAML A  1634 46.12      1333.8                                        
 SBZ      IAML A  1634 56.11       526.8                                        
 MAKU     IAML A  1635  4.70       286.3                                        
 HRS      IAML A  1634 39.33      4020.9                                        
 ASTR     IAML A  1635  2.95       330.4                                        
 ZNJK     IAML A  1635 13.32       158.0                                        
 GLBA     IAML A  1635  1.29       371.8                                        
                                                                                

 2012  811 1737 58.5 L  38.399  46.871 21.7      23 0.0 2.1L                   1
 GAP=75                    0.5     0.4  0.4                                    E
 Action:ARG 24-03-13 16:02 OP:OBSP STATUS:               ID:20120811173758     I
 STAT SP IPHASW D HRMM SECON CODA AMPLIT PERI AZIMU VELO AIN AR TRES W  DIS CAZ7
 HRS     IPg  0A  1738  2.86                                           17.6 124 
 HRS     ESg  0A  1738  6.55                                           17.6 124 
 TAHR    IP   0A  1738  3.38                                           17.8  59 
 TAHR    ES   0A  1738  7.18                                           17.8  59 
 TVRZ    IP   0A  1738  3.68                                           21.1 300 
 TVRZ    ES   0A  1738  7.71                                           21.1 300 
 TBZ     IPg  0A  1738  9.71                                           66.4 253 
 TBZ     ESg  0A  1738 17.71                                           66.4 253 
 BST     IPg  0A  1738 11.69                                           78.6 179 
 BST     ESg  0A  1738 21.86                                           78.6 179 
 SRB     ES   0A  1738 26.84                                           94.7 132 
 GRMI    IP   0A  1738 15.30                                           99.3  63 
 MRD     IPg  0A  1738 16.21                                            107 288 
 SHB     IPg  0A  1738 16.79                                            110 263 
 SHB     ESg  0A  1738 31.18                                            110 263 
 AZR     ES   0A  1738 30.91                                            112 224 
 HSH     ES   0A  1738 35.30                                            127 164 
 LRK     IP   0A  1738 20.00                                            130  77 
 NAX     IP   0A  1738 22.62                                            147 305 
 NAX     ES   0A  1738 40.87                                            147 305 
 SBZ     IP   0A  1738 24.48                                            158 314 
 GLBA    IP   0A  1738 24.79                                            161  54 
 LKRN    IP   0A  1738 25.97                                            169  77 
 BRDA    IP   0A  1738 31.03                                            207   7 
 SAAT    ES   0A  1738 56.32                                            209  39 
 MAKU    IP   0A  1738 32.45                                            217 299 
 ZRD     IP   0A  1738 32.56                                            219  18 
 ZRD     ES   0A  1738 58.03                                            219  18 
 ZNJK    IP   0A  1738 36.67                                            250 139 
 GANJ    IP   0A  1738 36.78                                            253 349 
 GANJ    ES   0A  1739  5.33                                            253 349 
 VANB    IP   0A  1738 43.04                                            305 274 
 VANB    ES   0A  1739 16.14                                            305 274 
 TAHR     IAML A  1738  3.38       586.6                                        
 NAX      IAML A  1738 22.62        32.0                                        
 GANJ     IAML A  1738 36.78        11.1                                        
 GLBA     IAML A  1738 24.79        27.3                                        
 BRDA     IAML A  1738 31.03        16.8                                        
 VANB     IAML A  1738 43.04         7.2                                        
 SBZ      IAML A  1738 24.48        27.9                                        
                                                                                

