 2012  811 1342 11.7 L  38.404  46.676 10.9      23 0.0 4.0L                   1
 GAP=81                    1.7     1.3  2.3                                    E
 Action:ARG 24-03-13 16:02 OP:OBSP STATUS:               ID:20120811134211     I
 STAT SP IPHASW D HRMM SECON CODA AMPLIT PERI AZIMU VELO AIN AR TRES W  DIS CAZ7
 TVRZ    ES   0A  1342 17.12                                           10.8 354 
 HRS     IPg  0A  1342 17.03                                           33.3 107 
 HRS     ESg  0A  1342 22.31                                           33.3 107 
 FTB     ES   0A  1342 27.14                                           50.0 210 
 TBZ     IPg  0A  1342 20.34                                           50.1 247 
 BST     IPg  0A  1342 25.21                                           80.6 166 
 ORD     IPg  0A  1342 25.10                                           83.1 314 
 MRD     IPg  0A  1342 27.35                                           91.8 292 
 MRD     ES   0A  1342 39.38                                           91.8 292 
 SHB     IPg  0A  1342 27.42                                           93.8 261 
 SHB     ES   0A  1342 39.67                                           93.8 261 
 AZR     ES   0A  1342 41.84                                            101 217 
 SRB     IPg  0A  1342 29.22                                            107 126 
 SRB     ES   0A  1342 44.29                                            107 126 
 GRMI    ES   0A  1342 45.94                                            114  66 
 NAX     IPg  0A  1342 33.80                                            133 309 
 NAX     ES   0A  1342 51.13                                            133 309 
 SBZ     IPg  0A  1342 35.80                                            147 318 
 SBZ     ES   0A  1342 54.81                                            147 318 
 LRK     IPg  2A  1342 35.80                                            147  79 
 GLBA    IPg  0A  1342 41.10                                            175  57 
 ASTR    IPg  0A  1342 42.40                                            185  84 
 LKRN    IPg  0A  1342 42.50                                            186  78 
 BRDA    IPn  0A  1342 47.10                                            210  11 
 SAAT    IPn  0A  1342 46.90                                            221  42 
 SAAT    ES   0A  1343 13.35                                            221  42 
 ZRD     ES   0A  1343 13.97                                            225  22 
 GANJ    IPn  0A  1342 51.10                                            250 353 
 GNI     IPn  2A  1342 53.20                                            254 319 
 GNI     ES   0A  1343 20.71                                            254 319 
 ZNJK    ES   0A  1343 22.22                                            262 136 
 SBZ      IAML A  1342 36.20      2544.4                                        
 BST      IAML A  1342 25.44      6633.9                                        
 SAAT     IAML A  1342 46.92      1174.0                                        
 GLBA     IAML A  1342 40.49      1850.0                                        
 GNI      IAML A  1342 51.18       857.3                                        
 BRDA     IAML A  1342 45.40      1295.7                                        
 HRS      IAML A  1342 17.85     21768.6                                        
                                                                                

 2012  811 1414 53.7 L  38.499  46.706 26.3      24 0.0 2.8L                   1
 GAP=55                    0.4     0.3  0.6                                    E
 Action:ARG 24-03-13 16:02 OP:OBSP STATUS:               ID:20120811141453     I
 STAT SP IPHASW D HRMM SECON CODA AMPLIT PERI AZIMU VELO AIN AR TRES W  DIS CAZ7
 TVRZ    IP   0A  1414 58.31                                           2.96 304 
 TAHR    ES   0A  1415  5.50                                           31.0  89 
 HRS     IPg  0A  1415  1.13                                           35.7 122 
 HRS     ESg  0A  1415  6.43                                           35.7 122 
 TBZ     IPg  0A  1415  3.57                                           55.5 239 
 TABZ    IP   0A  1415  4.40                                           57.9 214 
 TABZ    ES   0A  1415 12.50                                           57.9 214 
 FTB     IP   0A  1415  4.53                                           58.7 206 
 ORD     IP   0A  1415  7.36                                           78.2 308 
 ORD     ES   0A  1415 17.67                                           78.2 308 
 BST     IPg  0A  1415  8.72                                           89.2 168 
 BST     ESg  0A  1415 19.80                                           89.2 168 
 MRD     IPg  0A  1415  8.42                                           90.2 286 
 SHB     IPg  0A  1415 10.53                                           96.9 256 
 SHB     ES   0A  1415 22.53                                           96.9 256 
 AZR     IP   0A  1415 12.19                                            109 214 
 AZR     ES   0A  1415 26.14                                            109 214 
 GRMI    IP   0A  1415 11.90                                            110  70 
 GRMI    ES   0A  1415 25.62                                            110  70 
 SRB     IP   0A  1415 12.47                                            112 130 
 HSH     IP   0A  1415 16.98                                            140 159 
 HSH     ES   0A  1415 34.51                                            140 159 
 SBZ     ES   0A  1415 34.38                                            141 315 
 ASTR    ES   0A  1415 44.38                                            183  86 
 LKRN    IP   0A  1415 22.76                                            183  81 
 LKRN    ES   0A  1415 44.46                                            183  81 
 MAKU    IP   0A  1415 25.05                                            199 299 
 BRDA    IP   0A  1415 24.84                                            201  11 
 SAAT    ES   0A  1415 50.84                                            213  43 
 ZRD     IP   0A  1415 26.73                                            216  22 
 GNI     IP   0A  1415 31.14                                            250 318 
 ZNJK    IP   0A  1415 33.53                                            267 138 
 VANB    ES   0A  1416  7.49                                            288 273 
 FTB      IAML A  1415  4.53       653.8                                        
 TVRZ     IAML A  1414 58.31     22995.2                                        
 ZNJK     IAML A  1415 33.53        48.8                                        
 MAKU     IAML A  1415 25.05        91.2                                        
 TABZ     IAML A  1415  4.40       667.3                                        
 GRMI     IAML A  1415 11.90       259.8                                        
 SRB      IAML A  1415 12.47       251.8                                        
 HRS      IAML A  1415  1.19      1255.0                                        
                                                                                

 2012  811 1425 15.4 L  38.431  46.676 10.1      18 0.0 4.3L                   1
 GAP=110                   0.9     0.7  2.2                                    E
 Action:ARG 24-03-13 16:02 OP:OBSP STATUS:               ID:20120811142515     I
 STAT SP IPHASW D HRMM SECON CODA AMPLIT PERI AZIMU VELO AIN AR TRES W  DIS CAZ7
 TVRZ    ES   0A  1425 19.97                                           7.08 351 
 TAHR    ES   0A  1425 25.84                                           32.9  80 
 HRS     IPg  0A  1425 21.35                                           34.5 113 
 HRS     ESg  0A  1425 26.27                                           34.5 113 
 TBZ     IPg  0A  1425 24.13                                           51.7 243 
 FTB     ES   0A  1425 31.39                                           53.4 208 
 BST     IPg  0A  1425 29.13                                           84.2 167 
 BST     ESg  0A  1425 40.51                                           84.2 167 
 MRD     IPg  0A  1425 30.57                                           90.5 289 
 SHB     IPg  0A  1425 31.44                                           94.5 259 
 SHB     ES   0A  1425 43.40                                           94.5 259 
 AZR     ES   0A  1425 46.12                                            104 216 
 SRB     IPg  0A  1425 33.29                                            110 128 
 SRB     ES   0A  1425 47.73                                            110 128 
 GRMI    IPg  2A  1425 34.95                                            113  68 
 GRMI    ES   0A  1425 49.17                                            113  68 
 NAX     ES   0A  1425 54.31                                            131 308 
 SBZ     ES   0A  1425 57.90                                            144 317 
 ASTR    ES   0A  1426  8.38                                            184  85 
 LKRN    ES   0A  1426  8.64                                            185  80 
 MAKU    IPn  2A  1425 48.11                                            200 300 
 MAKU    ES   0A  1426 12.84                                            200 300 
 GNI     IPn  0A  1425 57.00                                            253 319 
 ZNJK    IPn  2A  1425 56.43                                            264 137 
 SRB      IAML A  1425 33.79      8230.5                                        
 SHB      IAML A  1425 31.31     10445.9                                        
 HRS      IAML A  1425 21.45     41505.8                                        
 ZNJK     IAML A  1425 56.05      1584.3                                        
 TBZ      IAML A  1425 24.21     24554.1                                        
 BST      IAML A  1425 29.47     12400.8                                        
                                                                                

 2012  811 1455 57.3 L  38.429  46.741  6.2      25 0.0 3.1L                   1
 GAP=43                    0.4     0.3  0.6                                    E
 Action:ARG 24-03-13 16:02 OP:OBSP STATUS:               ID:20120811145557     I
 STAT SP IPHASW D HRMM SECON CODA AMPLIT PERI AZIMU VELO AIN AR TRES W  DIS CAZ7
 TVRZ    IP   0A  1455 59.62                                           9.55 315 
 TAHR    ES   0A  1456  5.80                                           27.2  78 
 HRS     IPg  0A  1456  2.39                                           29.5 118 
 HRS     ESg  0A  1456  6.53                                           29.5 118 
 TABZ    IP   0A  1456  6.69                                           56.4 220 
 FTB     IP   0A  1456  6.71                                           56.5 213 
 TBZ     IPg  0A  1456  6.75                                           57.0 246 
 TBZ     ESg  0A  1456 13.67                                           57.0 246 
 BST     IPg  0A  1456 10.95                                           83.4 171 
 BST     ESg  0A  1456 22.37                                           83.4 171 
 ORD     ES   0A  1456 22.58                                           84.7 309 
 MRD     IPg  0A  1456 13.71                                           95.8 288 
 SHB     IPg  0A  1456 14.52                                            100 260 
 SHB     ES   0A  1456 26.63                                            100 260 
 SRB     IPg  0A  1456 14.46                                            105 130 
 GRMI    IP   0A  1456 15.53                                            108  67 
 AZR     IP   0A  1456 15.20                                            108 218 
 HSH     IP   0A  1456 19.58                                            134 159 
 LRK     IP   0A  1456 20.91                                            140  80 
 LRK     ES   0A  1456 38.69                                            140  80 
 GLBA    ES   0A  1456 46.77                                            168  57 
 ASTR    IP   0A  1456 27.12                                            179  85 
 LKRN    ES   0A  1456 49.85                                            179  79 
 BRDA    IP   0A  1456 31.20                                            205  10 
 BRDA    ES   0A  1456 56.67                                            205  10 
 SAAT    IP   0A  1456 32.62                                            214  42 
 ZRD     ES   0A  1456 59.93                                            219  21 
 GANJ    IP   0A  1456 36.55                                            247 351 
 GANJ    ES   0A  1457  5.80                                            247 351 
 GNI     ES   0A  1457  7.89                                            256 318 
 ZNJK    IP   0A  1456 38.18                                            261 138 
 ZNJK    ES   0A  1457  8.62                                            261 138 
 VANB    IP   0A  1456 42.10                                            293 274 
 TVRZ     IAML A  1455 59.62     12135.6                                        
 LRK      IAML A  1456 20.91       345.3                                        
 VANB     IAML A  1456 42.10        78.8                                        
 TABZ     IAML A  1456  6.69      1378.8                                        
 SAAT     IAML A  1456 32.62       157.7                                        
 TBZ      IAML A  1456  6.83      1360.2                                        
 SRB      IAML A  1456 14.85       552.8                                        
 MRD      IAML A  1456 13.45       645.2                                        
 HRS      IAML A  1456  2.37      3188.3                                        
 GRMI     IAML A  1456 15.53       535.1                                        
                                                                                

 2012  811 1521 14.7 L  38.429  46.783 13.3      25 0.0 4.7L                   1
 GAP=110                   1.8     1.4  1.9                                    E
 Action:ARG 24-03-13 16:02 OP:OBSP STATUS:               ID:20120811152114     I
 STAT SP IPHASW D HRMM SECON CODA AMPLIT PERI AZIMU VELO AIN AR TRES W  DIS CAZ7
 TVRZ    ES   0A  1521 21.23                                           13.7 307 
 HRS     IPg  0A  1521 19.53                                           25.1 119 
 FTB     ES   0A  1521 32.84                                           57.7 217 
 TBZ     IPg  0A  1521 25.34                                           60.3 249 
 BST     ES   0A  1521 39.78                                           81.4 174 
 ORD     IPg  2A  1521 29.20                                           88.9 308 
 ORD     ES   0A  1521 40.91                                           88.9 308 
 MRD     IPg  0A  1521 31.27                                            100 288 
 SRB     IPg  0A  1521 31.52                                            101 131 
 SRB     ES   0A  1521 45.38                                            101 131 
 SHB     IPg  0A  1521 32.40                                            104 261 
 GRMI    IPg  2A  1521 32.43                                            104  66 
 AZR     ES   0A  1521 47.14                                            109 220 
 HSH     ES   0A  1521 53.45                                            131 161 
 LRK     IPg  0A  1521 37.70                                            137  79 
 LRK     ES   0A  1521 54.86                                            137  79 
 SBZ     IPg  0A  1521 39.60                                            152 315 
 SBZ     ES   0A  1521 57.87                                            152 315 
 GLBA    IPg  0A  1521 42.90                                            165  56 
 GLBA    ES   0A  1522  2.32                                            165  56 
 ASTR    IPg  0A  1521 43.20                                            175  84 
 LKRN    IPg  0A  1521 43.80                                            176  79 
 BRDA    IPn  0A  1521 49.60                                            206   9 
 MAKU    IPn  2A  1521 48.14                                            210 299 
 MAKU    ES   0A  1522 12.78                                            210 299 
 SAAT    IPn  2A  1521 48.30                                            212  41 
 ZRD     IPn  0A  1521 50.70                                            219  20 
 ZRD     ES   0A  1522 14.76                                            219  20 
 GANJ    IPn  0A  1521 53.70                                            247 350 
 ZNJK    IPn  2A  1521 54.65                                            257 138 
 ZNJK    ES   0A  1522 23.79                                            257 138 
 GNI     IPn  0A  1521 56.70                                            260 317 
 VANB    IPn  0A  1522  1.30                                            297 274 
 VANB    ES   0A  1522 31.47                                            297 274 
 SAAT     IAML A  1521 48.44      6380.4                                        
 GLBA     IAML A  1521 41.83     10307.5                                        
 SBZ      IAML A  1521 39.28     12033.9                                        
 MAKU     IAML A  1521 47.92      6532.8                                        
 MRD      IAML A  1521 31.44     23962.1                                        
 ORD      IAML A  1521 29.59     28748.4                                        
 GRMI     IAML A  1521 32.56     22367.0                                        
 TBZ      IAML A  1521 25.16     50103.8                                        
 ZRD      IAML A  1521 49.05      5980.0                                        
 GNI      IAML A  1521 54.09      4127.7                                        
                                                                                

