 2012  811 2029 18.3 L  38.385  46.851  0.5      24 0.0 2.6L                   1
 GAP=47                    0.4     0.3  0.7                                    E
 Action:ARG 24-03-13 16:02 OP:OBSP STATUS:               ID:20120811202918     I
 STAT SP IPHASW D HRMM SECON CODA AMPLIT PERI AZIMU VELO AIN AR TRES W  DIS CAZ7
 HRS     IPg  0A  2029 21.31                                           17.1 114 
 HRS     ESg  0A  2029 24.23                                           17.1 114 
 TAHR    IP   0A  2029 22.52                                           20.3  53 
 TVRZ    IP   0A  2029 22.38                                           21.9 308 
 FTB     IP   0A  2029 28.63                                           57.7 225 
 FTB     ES   0A  2029 36.15                                           57.7 225 
 TBZ     IPg  0A  2029 29.47                                           64.6 255 
 TBZ     ES   0A  2029 37.84                                           64.6 255 
 BST     IPg  0A  2029 30.94                                           75.6 178 
 BST     ES   0A  2029 41.46                                           75.6 178 
 SRB     IP   0A  2029 34.77                                           93.5 131 
 SRB     ESg  0A  2029 46.44                                           93.5 131 
 MRD     IPg  0A  2029 36.66                                            107 290 
 MRD     ES   0A  2029 50.12                                            107 290 
 SHB     IPg  0A  2029 37.41                                            109 264 
 AZR     ES   0A  2029 51.18                                            109 224 
 HSH     IP   0A  2029 39.90                                            123 163 
 HSH     ES   0A  2029 55.88                                            123 163 
 LRK     ES   0A  2029 58.06                                            132  76 
 NAX     ES   0A  2030  1.57                                            148 306 
 SBZ     IP   0A  2029 45.16                                            160 315 
 GLBA    IP   0A  2029 46.14                                            163  53 
 ASTR    IP   0A  2029 47.34                                            169  82 
 LKRN    IP   0A  2029 47.58                                            171  77 
 LKRN    ES   0A  2030  9.32                                            171  77 
 BRDA    IP   0A  2029 53.26                                            210   7 
 SAAT    IP   0A  2029 53.89                                            212  38 
 SAAT    ES   0A  2030 20.32                                            212  38 
 MAKU    ES   0A  2030 21.22                                            218 300 
 ZRD     IP   0A  2029 55.00                                            222  18 
 GANJ    IP   0A  2029 59.11                                            254 349 
 GNI     ES   0A  2030 31.96                                            268 317 
 VANB    IP   0A  2030  5.17                                            304 275 
 SHB      IAML A  2029 36.95       165.7                                        
 HSH      IAML A  2029 39.90       134.4                                        
 BRDA     IAML A  2029 53.26        51.5                                        
 SRB      IAML A  2029 34.77       211.8                                        
 GANJ     IAML A  2029 59.11        34.1                                        
 TAHR     IAML A  2029 22.52      1582.5                                        
 HRS      IAML A  2029 22.11      1948.4                                        
 TBZ      IAML A  2029 29.59       362.0                                        
 GLBA     IAML A  2029 46.14        83.7                                        
 VANB     IAML A  2030  5.17        22.8                                        
                                                                                

 2012  811 2037 27.6 L  38.462  46.798 19.6      24 0.0 2.3L                   1
 GAP=44                    0.3     0.2  0.4                                    E
 Action:ARG 24-03-13 16:02 OP:OBSP STATUS:               ID:20120811203727     I
 STAT SP IPHASW D HRMM SECON CODA AMPLIT PERI AZIMU VELO AIN AR TRES W  DIS CAZ7
 TVRZ    ES   0A  2037 34.81                                           11.0 294 
 TAHR    ES   0A  2037 36.42                                           23.7  82 
 HRS     IPg  0A  2037 33.35                                           27.9 125 
 FTB     IP   0A  2037 38.26                                           60.1 214 
 TABZ    IP   0A  2037 38.30                                           60.2 221 
 TABZ    ES   0A  2037 46.48                                           60.2 221 
 TBZ     IPg  0A  2037 37.65                                           60.8 245 
 BST     IP   0A  2037 41.97                                           85.2 173 
 ORD     IP   0A  2037 42.34                                           85.9 307 
 ORD     ES   0A  2037 53.55                                           85.9 307 
 MRD     IPg  0A  2037 44.06                                           98.2 286 
 SHB     IPg  0A  2037 45.38                                            103 259 
 SHB     ESg  0A  2037 58.30                                            103 259 
 SRB     IPg  0A  2037 45.27                                            104 132 
 AZR     ES   0A  2038  0.39                                            111 219 
 HSH     IP   0A  2037 49.63                                            135 161 
 HSH     ES   0A  2038  6.30                                            135 161 
 SBZ     IP   0A  2037 51.96                                            148 314 
 SBZ     ES   0A  2038 10.39                                            148 314 
 GLBA    ES   0A  2038 14.01                                            164  57 
 ASTR    IP   0A  2037 55.61                                            175  85 
 ASTR    ES   0A  2038 16.77                                            175  85 
 BRDA    IP   0A  2037 59.69                                            202   9 
 MAKU    ES   0A  2038 25.16                                            207 299 
 SAAT    IP   0A  2038  0.60                                            210  41 
 SAAT    ES   0A  2038 25.30                                            210  41 
 ZRD     IP   0A  2038  1.28                                            216  20 
 GANJ    IP   0A  2038  5.07                                            245 350 
 GNI     IP   0A  2038  6.62                                            257 317 
 GNI     ES   0A  2038 35.72                                            257 317 
 ZNJK    IP   0A  2038  6.83                                            260 139 
 ZNJK    ES   0A  2038 36.09                                            260 139 
 VANB    IP   0A  2038 11.40                                            296 273 
 ZNJK     IAML A  2038  6.83        16.4                                        
 FTB      IAML A  2037 38.26       200.4                                        
 SAAT     IAML A  2038  0.60        25.9                                        
 BRDA     IAML A  2037 59.69        27.9                                        
 ORD      IAML A  2037 42.34       120.5                                        
 SHB      IAML A  2037 45.08        90.5                                        
 BST      IAML A  2037 41.97       122.0                                        
 ASTR     IAML A  2037 55.61        36.8                                        
 MRD      IAML A  2037 44.26        98.4                                        
                                                                                

 2012  811 2045 46.6 L  38.411  46.684 11.7      23 0.0 2.9L                   1
 GAP=50                    1.0     0.8  1.1                                    E
 Action:ARG 24-03-13 16:02 OP:OBSP STATUS:               ID:20120811204546     I
 STAT SP IPHASW D HRMM SECON CODA AMPLIT PERI AZIMU VELO AIN AR TRES W  DIS CAZ7
 TVRZ    IP   0A  2045 49.76                                           9.79 351 
 TAHR    IP   0A  2045 52.88                                           33.0  75 
 HRS     IPg  0A  2045 52.04                                           33.1 109 
 HRS     ESg  0A  2045 57.11                                           33.1 109 
 TABZ    IPg  0A  2045 55.12                                           50.8 218 
 TBZ     IPg  0A  2045 54.88                                           51.0 246 
 TBZ     ESg  0A  2046  2.08                                           51.0 246 
 BST     IPg  0A  2045 59.88                                           81.5 167 
 BST     ESg  0A  2046 10.75                                           81.5 167 
 MRD     IPg  0A  2046  1.40                                           91.8 291 
 MRD     ESg  0A  2046 15.10                                           91.8 291 
 SHB     IPg  0A  2046  2.18                                           94.4 261 
 SHB     ESg  0A  2046 15.18                                           94.4 261 
 AZR     IP   0A  2046  4.51                                            102 217 
 SRB     IPg  0A  2046  3.88                                            108 127 
 SRB     ESg  0A  2046 20.62                                            108 127 
 NAX     IP   0A  2046  9.29                                            133 309 
 HSH     IP   0A  2046  9.25                                            133 157 
 HSH     ES   0A  2046 26.23                                            133 157 
 LRK     ES   0A  2046 29.36                                            146  79 
 SBZ     ES   0A  2046 29.84                                            146 318 
 ASTR    ES   0A  2046 39.43                                            184  84 
 MAKU    IP   0A  2046 19.81                                            202 301 
 BRDA    IP   0A  2046 20.35                                            209  11 
 BRDA    ES   0A  2046 45.49                                            209  11 
 SAAT    IP   0A  2046 21.95                                            219  42 
 SAAT    ES   0A  2046 48.24                                            219  42 
 ZRD     IP   0A  2046 22.26                                            224  22 
 GANJ    IP   0A  2046 25.27                                            247 352 
 GNI     IP   0A  2046 26.28                                            254 319 
 ZNJK    ES   0A  2046 57.48                                            262 137 
 VANB    IP   0A  2046 30.18                                            288 274 
 VANB    ES   0A  2047  2.47                                            288 274 
 BST      IAML A  2046  0.88       517.9                                        
 MRD      IAML A  2046  2.69       433.9                                        
 BRDA     IAML A  2046 20.35       104.1                                        
 SHB      IAML A  2046  2.92       415.9                                        
 GANJ     IAML A  2046 25.27        72.0                                        
 TVRZ     IAML A  2045 49.76      7446.9                                        
 GNI      IAML A  2046 26.28        68.4                                        
                                                                                

 2012  811 2113 21.4 L  38.441  46.670 10.0      22 0.0 2.4L                   1
 GAP=41                    0.4     0.3  0.6                                    E
 Action:ARG 24-03-13 16:02 OP:OBSP STATUS:               ID:20120811211321     I
 STAT SP IPHASW D HRMM SECON CODA AMPLIT PERI AZIMU VELO AIN AR TRES W  DIS CAZ7
 TVRZ    IP   0A  2113 23.87                                           8.34 357 
 HRS     IPg  0A  2113 27.06                                           34.6 110 
 HRS     ESg  0A  2113 32.28                                           34.6 110 
 TBZ     IPg  0A  2113 30.10                                           50.5 244 
 TBZ     ES   0A  2113 36.99                                           50.5 244 
 FTB     IP   0A  2113 30.68                                           51.9 208 
 ORD     IP   0A  2113 34.95                                           81.0 313 
 ORD     ES   0A  2113 45.27                                           81.0 313 
 BST     IPg  0A  2113 34.94                                           83.1 166 
 BST     ES   0A  2113 46.67                                           83.1 166 
 MRD     IPg  0A  2113 36.32                                           90.3 290 
 MRD     ES   0A  2113 48.10                                           90.3 290 
 SHB     IPg  0A  2113 37.22                                           93.5 260 
 SRB     IPg  0A  2113 40.06                                            109 127 
 SRB     ES   0A  2113 54.34                                            109 127 
 GRMI    ES   0A  2113 55.54                                            114  68 
 NAX     IP   0A  2113 43.29                                            131 309 
 NAX     ES   0A  2113 59.85                                            131 309 
 HSH     IP   0A  2113 44.31                                            135 157 
 SBZ     IP   0A  2113 45.35                                            144 318 
 SBZ     ES   0A  2114  3.47                                            144 318 
 LRK     IP   0A  2113 46.03                                            147  80 
 LRK     ES   0A  2114  4.65                                            147  80 
 ASTR    IP   0A  2113 51.80                                            185  84 
 LKRN    IP   0A  2113 52.00                                            186  79 
 LKRN    ES   0A  2114 15.09                                            186  79 
 BRDA    ES   0A  2114 20.01                                            208  11 
 SAAT    IP   0A  2113 56.64                                            219  43 
 SAAT    ES   0A  2114 23.01                                            219  43 
 ZRD     IP   0A  2113 56.83                                            222  22 
 GANJ    ES   0A  2114 28.47                                            247 353 
 ZNJK    IP   0A  2114  2.34                                            264 137 
 VANB    IP   0A  2114  4.75                                            287 274 
 MRD      IAML A  2113 36.57       140.8                                        
 NAX      IAML A  2113 43.29        77.4                                        
 LKRN     IAML A  2113 52.00        41.4                                        
 LRK      IAML A  2113 46.03        63.7                                        
 SRB      IAML A  2113 40.14       104.0                                        
                                                                                

 2012  811 2118 35.1 L  38.440  46.719 18.4      23 0.0 2.6L                   1
 GAP=52                    0.6     0.5  0.8                                    E
 Action:ARG 24-03-13 16:02 OP:OBSP STATUS:               ID:20120811211835     I
 STAT SP IPHASW D HRMM SECON CODA AMPLIT PERI AZIMU VELO AIN AR TRES W  DIS CAZ7
 HRS     IPg  0A  2118 41.26                                           31.9 116 
 HRS     ESg  0A  2118 46.47                                           31.9 116 
 TBZ     IPg  0A  2118 44.41                                           54.7 244 
 TBZ     ESg  0A  2118 51.63                                           54.7 244 
 TABZ    IP   0A  2118 45.02                                           54.9 218 
 FTB     IP   0A  2118 45.04                                           55.3 210 
 BST     IPg  0A  2118 49.03                                           84.1 169 
 BST     ESg  0A  2119  0.13                                           84.1 169 
 MRD     IPg  0A  2118 50.87                                           93.2 288 
 MRD     ESg  0A  2119  2.59                                           93.2 288 
 SHB     IPg  0A  2118 51.91                                           97.6 259 
 SHB     ESg  0A  2119  5.59                                           97.6 259 
 AZR     ES   0A  2119  6.43                                            106 217 
 SRB     IPg  0A  2118 53.19                                            108 129 
 SRB     ESg  0A  2119  7.59                                            108 129 
 GRMI    ES   0A  2119  7.24                                            110  68 
 NAX     ES   0A  2119 14.17                                            133 307 
 HSH     IP   0A  2118 57.20                                            135 158 
 LRK     IP   0A  2118 58.49                                            143  80 
 SBZ     ES   0A  2119 17.59                                            146 316 
 GLBA    IP   0A  2119  2.72                                            170  58 
 ASTR    IP   0A  2119  4.30                                            181  85 
 ASTR    ES   0A  2119 26.19                                            181  85 
 LKRN    IP   0A  2119  4.45                                            182  80 
 MAKU    IP   0A  2119  7.78                                            203 300 
 MAKU    ES   0A  2119 32.08                                            203 300 
 SAAT    IP   0A  2119  9.06                                            215  42 
 ZRD     IP   0A  2119  9.62                                            220  21 
 ZRD     ES   0A  2119 35.29                                            220  21 
 GANJ    IP   0A  2119 13.07                                            246 352 
 ZNJK    IP   0A  2119 14.69                                            263 137 
 ZNJK    ES   0A  2119 44.05                                            263 137 
 VANB    IP   0A  2119 18.47                                            290 274 
 LKRN     IAML A  2119  4.45        68.5                                        
 SAAT     IAML A  2119  9.06        49.1                                        
 LRK      IAML A  2118 58.49       105.9                                        
 MRD      IAML A  2118 51.26       212.6                                        
 SRB      IAML A  2118 52.90       169.3                                        
 ZRD      IAML A  2119  9.62        47.1                                        
 SHB      IAML A  2118 51.90       198.4                                        
 BST      IAML A  2118 49.34       248.2                                        
 TBZ      IAML A  2118 45.15       454.7                                        
                                                                                

