 2012  811 1745 44.5 L  38.406  46.789  8.0      22 0.0 2.5L                   1
 GAP=45                    0.5     0.4  0.8                                    E
 Action:ARG 24-03-13 16:02 OP:OBSP STATUS:               ID:20120811174544     I
 STAT SP IPHASW D HRMM SECON CODA AMPLIT PERI AZIMU VELO AIN AR TRES W  DIS CAZ7
 TVRZ    IP   0A  1745 47.68                                           15.6 310 
 HRS     IPg  0A  1745 47.95                                           23.4 116 
 HRS     ESg  0A  1745 52.91                                           23.4 116 
 FTB     IP   0A  1745 53.97                                           56.7 219 
 TABZ    IPg  2A  1745 54.50                                           57.4 226 
 TABZ    ES   0A  1746  1.43                                           57.4 226 
 TBZ     IPg  0A  1745 54.33                                           60.4 251 
 TBZ     ESg  0A  1746  2.27                                           60.4 251 
 BST     IPg  0A  1745 57.28                                           79.4 174 
 BST     ESg  0A  1746  7.76                                           79.4 174 
 SRB     IP   0A  1746  1.48                                           99.8 130 
 MRD     IPg  0A  1746  1.45                                            101 289 
 SHB     IPg  0A  1746  1.77                                            104 262 
 SHB     ESg  0A  1746 15.73                                            104 262 
 GRMI    IP   0A  1746  2.30                                            104  64 
 AZR     ES   0A  1746 16.19                                            108 221 
 LRK     IP   0A  1746  7.45                                            136  78 
 LRK     ES   0A  1746 24.81                                            136  78 
 NAX     IP   0A  1746  7.99                                            141 307 
 NAX     ES   0A  1746 25.75                                            141 307 
 GLBA    IP   0A  1746 12.35                                            166  55 
 GLBA    ES   0A  1746 33.38                                            166  55 
 ASTR    ES   0A  1746 35.25                                            174  83 
 LKRN    IP   0A  1746 13.66                                            175  78 
 LKRN    ES   0A  1746 35.68                                            175  78 
 BRDA    ES   0A  1746 43.74                                            208   8 
 SAAT    IP   0A  1746 19.36                                            213  40 
 SAAT    ES   0A  1746 45.47                                            213  40 
 ZRD     IP   0A  1746 20.07                                            220  19 
 GANJ    IP   0A  1746 23.83                                            251 350 
 ZNJK    IP   0A  1746 24.56                                            254 138 
 ZNJK    ES   0A  1746 54.46                                            254 138 
 GNI     IP   0A  1746 25.32                                            262 317 
 GRMI     IAML A  1746  2.30       141.0                                        
 GNI      IAML A  1746 25.32        25.6                                        
 LRK      IAML A  1746  7.45        91.5                                        
 GLBA     IAML A  1746 12.35        64.8                                        
 NAX      IAML A  1746  7.99        85.8                                        
 HRS      IAML A  1745 48.97      1063.0                                        
 BST      IAML A  1745 57.83       214.5                                        
 TBZ      IAML A  1745 54.64       315.1                                        
 FTB      IAML A  1745 53.97       344.1                                        
                                                                                

 2012  811 1749 25.5 L  38.437  46.826 14.0      20 0.0 2.6L                   1
 GAP=45                    0.7     0.5  0.9                                    E
 Action:ARG 24-03-13 16:02 OP:OBSP STATUS:               ID:20120811174925     I
 STAT SP IPHASW D HRMM SECON CODA AMPLIT PERI AZIMU VELO AIN AR TRES W  DIS CAZ7
 HRS     IPg  0A  1749 30.05                                           22.3 120 
 HRS     ESg  0A  1749 33.63                                           22.3 120 
 FTB     IP   0A  1749 36.14                                           58.4 220 
 FTB     ES   0A  1749 44.19                                           58.4 220 
 TABZ    IPg  0A  1749 35.94                                           59.2 227 
 TABZ    ES   0A  1749 44.42                                           59.2 227 
 TBZ     IPg  0A  1749 36.31                                           62.3 250 
 TBZ     ESg  0A  1749 44.72                                           62.3 250 
 BST     IPg  0A  1749 39.01                                           80.1 175 
 BST     ESg  0A  1749 48.72                                           80.1 175 
 SRB     IPg  0A  1749 42.07                                           99.1 131 
 SRB     ESg  0A  1749 55.15                                           99.1 131 
 GRMI    IP   0A  1749 42.85                                            102  64 
 MRD     IPg  0A  1749 42.70                                            102 288 
 MRD     ESg  0A  1749 55.46                                            102 288 
 SHB     IPg  0A  1749 43.49                                            106 262 
 HSH     IP   0A  1749 47.23                                            129 162 
 NAX     IP   0A  1749 49.31                                            142 306 
 SBZ     IP   0A  1749 51.14                                            154 314 
 GLBA    IP   0A  1749 52.22                                            164  55 
 GLBA    ES   0A  1750 12.33                                            164  55 
 LKRN    IP   0A  1749 53.75                                            173  78 
 LKRN    ES   0A  1750 15.01                                            173  78 
 BRDA    IP   0A  1749 58.42                                            207   8 
 BRDA    ES   0A  1750 22.99                                            207   8 
 SAAT    IP   0A  1749 59.29                                            211  40 
 SAAT    ES   0A  1750 24.51                                            211  40 
 MAKU    IP   0A  1749 59.53                                            212 299 
 ZRD     IP   0A  1750  0.05                                            219  19 
 ZRD     ES   0A  1750 25.81                                            219  19 
 GANJ    IP   0A  1750  3.89                                            251 350 
 VANB    ES   0A  1750 43.22                                            300 274 
 GRMI     IAML A  1749 42.85       182.6                                        
 TBZ      IAML A  1749 36.63       380.5                                        
 SHB      IAML A  1749 43.45       173.5                                        
 NAX      IAML A  1749 49.31       107.0                                        
 BST      IAML A  1749 39.40       266.4                                        
 GLBA     IAML A  1749 52.22        83.2                                        
                                                                                

 2012  811 1758 33.3 L  38.379  46.797  7.6      23 0.0 4.1L                   1
 GAP=80                    0.5     0.4  0.9                                    E
 Action:ARG 24-03-13 16:02 OP:OBSP STATUS:               ID:20120811175833     I
 STAT SP IPHASW D HRMM SECON CODA AMPLIT PERI AZIMU VELO AIN AR TRES W  DIS CAZ7
 TVRZ    IP   0A  1758 36.77                                           18.9 319 
 HRS     IPg  0A  1758 37.17                                           21.5 106 
 FTB     ES   0A  1758 49.82                                           53.7 222 
 TABZ    IP   0A  1758 42.79                                           54.9 230 
 TABZ    ES   0A  1758 50.06                                           54.9 230 
 TBZ     IPg  0A  1758 43.58                                           59.6 255 
 TBZ     ES   0A  1758 51.10                                           59.6 255 
 BST     IPg  0A  1758 45.85                                           75.1 174 
 BST     ESg  0A  1758 55.43                                           75.1 174 
 ORD     IP   0A  1758 48.81                                           93.8 311 
 ORD     ES   0A  1759  0.60                                           93.8 311 
 SRB     IPg  0A  1758 49.16                                           96.8 128 
 MRD     IPg  0A  1758 50.09                                            103 291 
 SHB     IPg  0A  1758 50.91                                            104 264 
 SHB     ES   0A  1759  3.91                                            104 264 
 AZR     IP   0A  1758 51.23                                            105 223 
 AZR     ES   0A  1759  4.82                                            105 223 
 GRMI    IPg  0A  1758 51.33                                            106  62 
 GRMI    ES   0A  1759  5.17                                            106  62 
 HSH     IP   0A  1758 54.50                                            125 161 
 NAX     IP   0A  1758 57.19                                            144 308 
 NAX     ES   0A  1759 15.26                                            144 308 
 SBZ     IP   0A  1758 59.30                                            157 316 
 ASTR    IP   0A  1759  2.31                                            174  82 
 BRDA    ES   0A  1759 33.24                                            212   8 
 MAKU    IPn  0A  1759  7.05                                            214 301 
 SAAT    IP   0A  1759  8.45                                            216  39 
 SAAT    ES   0A  1759 34.75                                            216  39 
 ZRD     ES   0A  1759 36.06                                            224  19 
 ZNJK    IP   0A  1759 13.00                                            251 138 
 ZNJK    ES   0A  1759 42.64                                            251 138 
 GANJ    ES   0A  1759 42.63                                            254 350 
 GNI     IPn  0A  1759 15.40                                            266 318 
 HSH      IAML A  1758 54.50      4205.8                                        
 GNI      IAML A  1759 14.37       989.5                                        
 ZNJK     IAML A  1759 13.00      1118.4                                        
 TVRZ     IAML A  1758 36.77     54731.2                                        
 TBZ      IAML A  1758 43.39     12801.8                                        
 SAAT     IAML A  1759  8.45      1543.5                                        
 ASTR     IAML A  1759  2.31      2353.2                                        
 SRB      IAML A  1758 49.74      6349.8                                        
                                                                                

 2012  811 1813  3.1 L  38.385  46.648  2.7      24 0.0 3.0L                   1
 GAP=59                    0.4     0.3  0.7                                    E
 Action:ARG 24-03-13 16:02 OP:OBSP STATUS:               ID:20120811181303     I
 STAT SP IPHASW D HRMM SECON CODA AMPLIT PERI AZIMU VELO AIN AR TRES W  DIS CAZ7
 TVRZ    IP   0A  1813  5.81                                           12.4   3 
 HRS     IPg  0A  1813  9.19                                           34.4 103 
 HRS     ES   0A  1813 14.38                                           34.4 103 
 TAHR    IP   0A  1813  9.81                                           35.8  72 
 FTB     ES   0A  1813 17.30                                           47.8 209 
 TBZ     IPg  0A  1813 11.45                                           48.0 248 
 TBZ     ES   0A  1813 17.40                                           48.0 248 
 BST     IPg  0A  1813 16.77                                           79.5 165 
 ORD     IP   0A  1813 17.38                                           83.1 315 
 MRD     IPg  0A  1813 18.10                                           90.8 293 
 SHB     IPg  0A  1813 18.96                                           91.9 262 
 SHB     ES   0A  1813 30.17                                           91.9 262 
 AZR     IP   0A  1813 19.67                                           99.2 216 
 SRB     IPg  0A  1813 20.96                                            108 125 
 SRB     ES   0A  1813 35.43                                            108 125 
 GRMI    IPg  0A  1813 23.08                                            117  66 
 HSH     IP   0A  1813 25.32                                            132 156 
 HSH     ES   0A  1813 41.91                                            132 156 
 NAX     IP   0A  1813 25.64                                            133 310 
 NAX     ES   0A  1813 42.48                                            133 310 
 SBZ     ES   0A  1813 46.60                                            147 319 
 LRK     ES   0A  1813 47.52                                            149  78 
 ASTR    IP   0A  1813 34.71                                            187  83 
 MAKU    IPn  0A  1813 35.57                                            202 302 
 BRDA    ES   0A  1814  4.86                                            212  12 
 ZRD     ES   0A  1814  8.20                                            227  22 
 GANJ    ES   0A  1814 13.38                                            252 353 
 GNI     IP   0A  1813 43.91                                            256 320 
 GNI     ES   0A  1814 14.16                                            256 320 
 ZNJK    IPn  0A  1813 44.50                                            262 136 
 VANB    IP   0A  1813 47.39                                            286 275 
 VANB    ES   0A  1814 20.18                                            286 275 
 AZR      IAML A  1813 19.67       485.7                                        
 BST      IAML A  1813 16.58       677.0                                        
 SRB      IAML A  1813 21.62       423.4                                        
 GNI      IAML A  1813 43.91        85.6                                        
 MAKU     IAML A  1813 36.83       140.7                                        
 TVRZ     IAML A  1813  5.81      7157.4                                        
 VANB     IAML A  1813 47.39        66.2                                        
 MRD      IAML A  1813 18.54       555.5                                        
 TAHR     IAML A  1813  9.81      1982.0                                        
 HRS      IAML A  1813  9.59      2082.8                                        
                                                                                

 2012  811 1821 44.7 L  38.440  46.710 19.0      21 0.0 2.6L                   1
 GAP=55                    0.4     0.3  0.6                                    E
 Action:ARG 24-03-13 16:02 OP:OBSP STATUS:               ID:20120811182144     I
 STAT SP IPHASW D HRMM SECON CODA AMPLIT PERI AZIMU VELO AIN AR TRES W  DIS CAZ7
 TAHR    IP   0A  1821 50.80                                           31.6  78 
 HRS     IPg  0A  1821 50.86                                           32.7 112 
 HRS     ESg  0A  1821 56.06                                           32.7 112 
 TBZ     IPg  0A  1821 53.79                                           52.6 245 
 TBZ     ESg  0A  1822  0.87                                           52.6 245 
 TABZ    IP   0A  1821 54.35                                           52.8 218 
 FTB     IP   0A  1821 54.41                                           53.2 210 
 FTB     ES   0A  1822  1.85                                           53.2 210 
 BST     IPg  0A  1821 58.70                                           83.0 168 
 BST     ESg  0A  1822  9.52                                           83.0 168 
 MRD     IPg  0A  1822  0.15                                           92.2 290 
 MRD     ES   0A  1822 12.50                                           92.2 290 
 SHB     IPg  0A  1822  1.49                                           95.7 260 
 AZR     IP   0A  1822  2.35                                            104 217 
 AZR     ES   0A  1822 15.74                                            104 217 
 SRB     IPg  0A  1822  2.72                                            108 128 
 SRB     ESg  0A  1822 16.18                                            108 128 
 NAX     IP   0A  1822  6.67                                            133 308 
 NAX     ES   0A  1822 23.30                                            133 308 
 HSH     IP   0A  1822  7.03                                            134 158 
 LRK     IP   0A  1822  8.26                                            145  80 
 LRK     ES   0A  1822 26.09                                            145  80 
 SBZ     IP   0A  1822  8.59                                            146 317 
 SBZ     ES   0A  1822 26.65                                            146 317 
 GLBA    IP   0A  1822 12.34                                            172  58 
 ASTR    IP   0A  1822 14.10                                            183  84 
 ASTR    ES   0A  1822 36.27                                            183  84 
 BRDA    IP   0A  1822 17.20                                            207  11 
 SAAT    ES   0A  1822 43.90                                            217  42 
 ZRD     IP   0A  1822 19.01                                            222  22 
 ZRD     ES   0A  1822 44.67                                            222  22 
 GANJ    ES   0A  1822 50.17                                            247 352 
 ZNJK    IP   0A  1822 24.49                                            263 137 
 TAHR     IAML A  1821 50.80       924.2                                        
 TBZ      IAML A  1821 54.25       478.5                                        
 FTB      IAML A  1821 54.41       471.6                                        
 BST      IAML A  1821 59.06       253.1                                        
 ASTR     IAML A  1822 14.10        67.8                                        
 AZR      IAML A  1822  2.35       178.1                                        
 NAX      IAML A  1822  6.67       120.4                                        
 ZNJK     IAML A  1822 24.49        32.1                                        
                                                                                

