 2012  811 1912  4.7 L  38.432  46.797 18.8      22 0.0 2.9L                   1
 GAP=52                    0.6     0.5  0.8                                    E
 Action:ARG 24-03-13 16:02 OP:OBSP STATUS:               ID:20120811191204     I
 STAT SP IPHASW D HRMM SECON CODA AMPLIT PERI AZIMU VELO AIN AR TRES W  DIS CAZ7
 HRS     IPg  0A  1912 10.02                                           25.0 123 
 HRS     ESg  0A  1912 14.26                                           25.0 123 
 FTB     ES   0A  1912 22.79                                           59.3 217 
 TABZ    IPg  0A  1912 15.56                                           59.8 224 
 TABZ    ESg  0A  1912 23.94                                           59.8 224 
 TBZ     IPg  0A  1912 15.07                                           61.7 248 
 TBZ     ESg  0A  1912 22.93                                           61.7 248 
 BST     IPg  0A  1912 18.74                                           82.7 174 
 BST     ESg  0A  1912 28.80                                           82.7 174 
 ORD     IP   0A  1912 19.86                                           88.8 307 
 MRD     IPg  0A  1912 21.23                                            100 287 
 MRD     ESg  0A  1912 35.03                                            100 287 
 SRB     IPg  0A  1912 22.20                                            101 132 
 SRB     ESg  0A  1912 34.88                                            101 132 
 GRMI    ES   0A  1912 35.37                                            103  66 
 SHB     IPg  0A  1912 22.15                                            105 260 
 SHB     ESg  0A  1912 36.09                                            105 260 
 AZR     IP   0A  1912 23.00                                            111 220 
 AZR     ES   0A  1912 36.80                                            111 220 
 HSH     IP   0A  1912 26.39                                            132 162 
 LRK     IP   0A  1912 27.13                                            135  80 
 NAX     ES   0A  1912 44.99                                            139 305 
 GLBA    IP   0A  1912 31.53                                            164  56 
 ASTR    IP   0A  1912 32.94                                            173  85 
 ASTR    ES   0A  1912 54.19                                            173  85 
 LKRN    IP   0A  1912 33.10                                            174  79 
 BRDA    IP   0A  1912 37.27                                            204   8 
 ZRD     IP   0A  1912 38.91                                            217  20 
 ZNJK    IP   0A  1912 43.82                                            257 139 
 ZNJK    ES   0A  1913 12.92                                            257 139 
 GNI     IP   0A  1912 44.13                                            260 317 
 VANB    IP   0A  1912 48.67                                            298 274 
 VANB    ES   0A  1913 21.30                                            298 274 
 LKRN     IAML A  1912 33.10       148.0                                        
 MRD      IAML A  1912 21.62       376.9                                        
 SRB      IAML A  1912 21.91       370.2                                        
 TABZ     IAML A  1912 15.06       803.2                                        
 VANB     IAML A  1912 48.67        47.7                                        
 AZR      IAML A  1912 23.00       322.0                                        
 ASTR     IAML A  1912 32.94       149.3                                        
 TBZ      IAML A  1912 15.39       769.8                                        
 GNI      IAML A  1912 44.13        65.6                                        
                                                                                

 2012  811 1929 29.4 L  38.439  46.794 26.3      24 0.0 2.6L                   1
 GAP=67                    0.3     0.2  0.4                                    E
 Action:ARG 24-03-13 16:02 OP:OBSP STATUS:               ID:20120811192929     I
 STAT SP IPHASW D HRMM SECON CODA AMPLIT PERI AZIMU VELO AIN AR TRES W  DIS CAZ7
 TAHR    IP   0A  1929 35.23                                           24.1  79 
 HRS     IPg  0A  1929 35.69                                           27.1 122 
 HRS     ESg  0A  1929 40.14                                           27.1 122 
 FTB     IP   0A  1929 39.99                                           58.7 215 
 FTB     ES   0A  1929 48.01                                           58.7 215 
 TABZ    IPg  2A  1929 39.82                                           58.9 222 
 TABZ    ES   0A  1929 48.14                                           58.9 222 
 TBZ     IPg  0A  1929 39.25                                           60.0 246 
 TBZ     ES   0A  1929 48.68                                           60.0 246 
 BST     IPg  0A  1929 43.44                                           83.7 173 
 BST     ESg  0A  1929 54.28                                           83.7 173 
 ORD     IP   0A  1929 44.45                                           86.7 308 
 ORD     ES   0A  1929 55.82                                           86.7 308 
 MRD     IPg  0A  1929 45.93                                           98.5 287 
 SHB     IPg  0A  1929 46.65                                            103 260 
 SHB     ESg  0A  1929 59.64                                            103 260 
 SRB     ES   0A  1929 59.41                                            103 131 
 GRMI    ES   0A  1929 59.99                                            104  67 
 AZR     IP   0A  1929 47.82                                            110 219 
 HSH     IP   0A  1929 51.19                                            134 161 
 NAX     IP   0A  1929 52.22                                            137 306 
 NAX     ES   0A  1930  9.42                                            137 306 
 LRK     IP   0A  1929 51.78                                            137  80 
 SBZ     IP   0A  1929 54.07                                            149 315 
 GLBA    ES   0A  1930 16.25                                            165  57 
 ASTR    ES   0A  1930 18.51                                            176  85 
 LKRN    IP   0A  1929 57.62                                            176  79 
 BRDA    IP   0A  1930  1.39                                            204   9 
 MAKU    IP   0A  1930  1.97                                            208 299 
 GNI     IP   0A  1930  8.17                                            258 317 
 GNI     ES   0A  1930 36.96                                            258 317 
 ZNJK    ES   0A  1930 36.55                                            259 138 
 VANB    IP   0A  1930 12.78                                            296 274 
 HRS      IAML A  1929 35.58      1115.2                                        
 NAX      IAML A  1929 52.22       113.6                                        
 LKRN     IAML A  1929 57.62        72.7                                        
 TAHR     IAML A  1929 35.23      1289.0                                        
 MRD      IAML A  1929 46.22       195.5                                        
 SBZ      IAML A  1929 54.07        98.2                                        
 VANB     IAML A  1930 12.78        24.3                                        
 TABZ     IAML A  1929 40.06       410.8                                        
 HSH      IAML A  1929 51.19       118.9                                        
 LRK      IAML A  1929 51.78       113.5                                        
 TBZ      IAML A  1929 40.38       400.4                                        
 BRDA     IAML A  1930  1.39        54.8                                        
 ORD      IAML A  1929 44.45       237.1                                        
                                                                                

 2012  811 1930 45.2 L  38.432  46.923 21.5      21 0.0 2.7L                   1
 GAP=57                    0.5     0.4  0.7                                    E
 Action:ARG 24-03-13 16:02 OP:OBSP STATUS:               ID:20120811193045     I
 STAT SP IPHASW D HRMM SECON CODA AMPLIT PERI AZIMU VELO AIN AR TRES W  DIS CAZ7
 TAHR    ES   0A  1930 53.11                                           11.6  56 
 HRS     IPg  0A  1930 49.73                                           15.4 145 
 HRS     ESg  0A  1930 53.00                                           15.4 145 
 TVRZ    IP   0A  1930 50.78                                           25.2 288 
 FTB     IP   0A  1930 56.96                                           66.5 226 
 FTB     ES   0A  1931  5.85                                           66.5 226 
 TABZ    IPg  2A  1930 57.22                                           68.1 232 
 TBZ     IPg  0A  1930 57.13                                           72.6 252 
 TBZ     ESg  0A  1931  5.93                                           72.6 252 
 BST     IPg  0A  1930 59.02                                           81.4 183 
 BST     ESg  0A  1931  9.34                                           81.4 183 
 SRB     IP   0A  1931  1.03                                           92.5 136 
 GRMI    IP   0A  1931  1.15                                           93.0  63 
 GRMI    ES   0A  1931 13.19                                           93.0  63 
 ORD     IP   0A  1931  1.61                                           99.2 304 
 ORD     ES   0A  1931 14.00                                           99.2 304 
 MRD     IPg  0A  1931  3.41                                            112 286 
 MRD     ESg  0A  1931 17.66                                            112 286 
 SHB     IPg  0A  1931  4.61                                            116 262 
 SHB     ESg  0A  1931 19.86                                            116 262 
 LRK     IP   0A  1931  5.93                                            123  78 
 NAX     ES   0A  1931 27.71                                            150 303 
 GLBA    IP   0A  1931 10.59                                            154  54 
 GLBA    ES   0A  1931 29.70                                            154  54 
 SBZ     IP   0A  1931 11.10                                            161 312 
 SAAT    IP   0A  1931 17.43                                            204  38 
 BRDA    IP   0A  1931 17.12                                            204   5 
 BRDA    ES   0A  1931 40.93                                            204   5 
 MAKU    IP   0A  1931 19.39                                            221 298 
 MAKU    ES   0A  1931 44.88                                            221 298 
 GANJ    IP   0A  1931 23.08                                            251 347 
 VANB    IP   0A  1931 30.45                                            310 274 
 GANJ     IAML A  1931 23.08        44.6                                        
 TVRZ     IAML A  1930 50.78      1541.1                                        
 HRS      IAML A  1930 50.06      2762.2                                        
 MRD      IAML A  1931  3.75       199.8                                        
 BRDA     IAML A  1931 17.12        69.0                                        
 SAAT     IAML A  1931 17.43        69.2                                        
 SBZ      IAML A  1931 11.10       108.3                                        
 BST      IAML A  1930 59.28       327.9                                        
                                                                                

 2012  811 1940 17.3 L  38.434  46.804 20.2      24 0.0 2.6L                   1
 GAP=74                    0.5     0.4  0.4                                    E
 Action:ARG 24-03-13 16:02 OP:OBSP STATUS:               ID:20120811194017     I
 STAT SP IPHASW D HRMM SECON CODA AMPLIT PERI AZIMU VELO AIN AR TRES W  DIS CAZ7
 TVRZ    IP   0A  1940 21.51                                           13.7 295 
 TVRZ    ES   0A  1940 24.82                                           13.7 295 
 TAHR    IP   0A  1940 22.32                                           21.5  78 
 TAHR    ES   0A  1940 26.24                                           21.5  78 
 HRS     IPg  0A  1940 22.64                                           25.2 126 
 HRS     ESg  0A  1940 26.58                                           25.2 126 
 FTB     ES   0A  1940 35.71                                           60.5 217 
 TABZ    ESg  0A  1940 36.60                                           61.0 224 
 TBZ     IPg  0A  1940 27.81                                           62.6 247 
 TBZ     ESg  0A  1940 35.99                                           62.6 247 
 BST     IPg  0A  1940 31.16                                           83.7 175 
 BST     ESg  0A  1940 41.46                                           83.7 175 
 MRD     IPg  0A  1940 34.03                                            100 287 
 SRB     IPg  0A  1940 34.54                                            102 132 
 SRB     ESg  0A  1940 48.16                                            102 132 
 GRMI    IP   0A  1940 34.55                                            102  66 
 SHB     IPg  0A  1940 35.15                                            105 260 
 SHB     ESg  0A  1940 49.08                                            105 260 
 LRK     IP   0A  1940 39.49                                            135  80 
 NAX     ES   0A  1940 57.59                                            139 305 
 SBZ     ES   0A  1941  0.83                                            151 314 
 GLBA    IP   0A  1940 43.88                                            163  56 
 ASTR    ES   0A  1941  6.43                                            173  85 
 LKRN    IP   0A  1940 45.46                                            174  79 
 SAAT    IP   0A  1940 50.51                                            209  41 
 MAKU    IP   0A  1940 50.42                                            210 299 
 MAKU    ES   0A  1941 15.21                                            210 299 
 ZRD     IP   0A  1940 51.22                                            216  20 
 GANJ    IP   0A  1940 55.03                                            247 350 
 ZNJK    IP   0A  1940 56.49                                            258 139 
 GNI     IP   0A  1940 56.62                                            259 317 
 VANB    IP   0A  1941  1.22                                            299 274 
 VANB    ES   0A  1941 33.87                                            299 274 
 LKRN     IAML A  1940 45.46        74.8                                        
 SAAT     IAML A  1940 50.51        52.1                                        
 VANB     IAML A  1941  1.22        23.8                                        
 GNI      IAML A  1940 56.62        33.0                                        
 HRS      IAML A  1940 22.94      1223.5                                        
 LRK      IAML A  1940 39.49       117.3                                        
 GRMI     IAML A  1940 34.55       184.0                                        
 BST      IAML A  1940 31.38       249.7                                        
 SHB      IAML A  1940 34.86       174.8                                        
 GLBA     IAML A  1940 43.88        84.3                                        
                                                                                

 2012  811 2010 30.2 L  38.431  46.766 14.0      23 0.0 3.4L                   1
 GAP=76                    0.7     0.5  0.7                                    E
 Action:ARG 24-03-13 16:02 OP:OBSP STATUS:               ID:20120811201030     I
 STAT SP IPHASW D HRMM SECON CODA AMPLIT PERI AZIMU VELO AIN AR TRES W  DIS CAZ7
 TVRZ    IP   0A  2010 33.52                                           12.4 318 
 TVRZ    ES   0A  2010 36.24                                           12.4 318 
 TAHR    ES   0A  2010 39.03                                           26.4  72 
 HRS     IPg  0A  2010 34.27                                           27.0 114 
 HRS     ESg  0A  2010 39.39                                           27.0 114 
 FTB     IP   0A  2010 39.99                                           55.2 215 
 TABZ    ES   0A  2010 47.67                                           55.5 223 
 TBZ     IPg  0A  2010 40.08                                           57.4 249 
 MRD     IPg  0A  2010 46.46                                           98.0 289 
 SHB     IPg  0A  2010 47.12                                            101 261 
 SRB     IPg  0A  2010 47.43                                            103 129 
 SRB     ES   0A  2011  1.27                                            103 129 
 AZR     IP   0A  2010 48.48                                            107 219 
 AZR     ES   0A  2011  2.42                                            107 219 
 GRMI    IPg  0A  2010 48.32                                            107  66 
 HSH     ES   0A  2011  8.97                                            131 160 
 NAX     IP   0A  2010 53.33                                            138 307 
 NAX     ES   0A  2011 10.90                                            138 307 
 LRK     ES   0A  2011 10.69                                            139  79 
 GLBA    IP   0A  2010 57.57                                            168  56 
 GLBA    ES   0A  2011 18.33                                            168  56 
 ASTR    IP   0A  2010 58.99                                            177  84 
 BRDA    IP   0A  2011  3.37                                            207   9 
 MAKU    IPn  0A  2011  3.05                                            208 300 
 SAAT    ES   0A  2011 30.26                                            215  41 
 ZRD     IP   0A  2011  5.12                                            221  20 
 ZRD     ES   0A  2011 31.31                                            221  20 
 GANJ    IP   0A  2011  8.59                                            250 351 
 ZNJK    IPn  0A  2011 10.36                                            258 138 
 ZNJK    ES   0A  2011 39.79                                            258 138 
 GNI     ES   0A  2011 39.83                                            259 318 
 SRB      IAML A  2010 47.82      1149.7                                        
 GLBA     IAML A  2010 57.57       500.5                                        
 MRD      IAML A  2010 47.04      1242.6                                        
 FTB      IAML A  2010 39.99      2833.1                                        
 ZRD      IAML A  2011  5.12       294.2                                        
 BRDA     IAML A  2011  3.37       334.3                                        
 GRMI     IAML A  2010 48.25      1073.3                                        
 AZR      IAML A  2010 48.48      1082.8                                        
 NAX      IAML A  2010 53.33       710.8                                        
                                                                                

