 2012  811 2358 13.6 L  38.457  46.710 11.2      20 0.0 3.4L                   1
 GAP=71                    0.7     0.5  1.2                                    E
 Action:ARG 24-03-13 16:02 OP:OBSP STATUS:               ID:20120811235813     I
 STAT SP IPHASW D HRMM SECON CODA AMPLIT PERI AZIMU VELO AIN AR TRES W  DIS CAZ7
 TVRZ    ES   0A  2358 17.60                                           5.25 327 
 HRS     IPg  0A  2358 19.34                                           34.0 118 
 HRS     ESg  0A  2358 24.14                                           34.0 118 
 TBZ     IPg  0A  2358 22.70                                           54.4 242 
 TBZ     ES   0A  2358 30.60                                           54.4 242 
 FTB     IP   0A  2358 23.41                                           56.4 208 
 MRD     IPg  0A  2358 28.84                                           91.3 287 
 MRD     ES   0A  2358 41.15                                           91.3 287 
 SHB     IPg  0A  2358 30.01                                           96.7 258 
 AZR     IP   0A  2358 31.87                                            107 215 
 SRB     IPg  0A  2358 31.36                                            110 129 
 SRB     ESg  0A  2358 46.14                                            110 129 
 GRMI    IPg  0A  2358 32.21                                            110  69 
 GRMI    ES   0A  2358 46.18                                            110  69 
 NAX     ES   0A  2358 52.68                                            131 307 
 SBZ     IP   0A  2358 37.84                                            143 316 
 SBZ     ES   0A  2358 56.17                                            143 316 
 LRK     ES   0A  2358 55.73                                            144  81 
 GLBA    ES   0A  2359  2.99                                            170  59 
 ASTR    IP   0A  2358 43.40                                            182  86 
 ASTR    ES   0A  2359  5.91                                            182  86 
 LKRN    ES   0A  2359  6.16                                            183  80 
 MAKU    IPn  0A  2358 46.19                                            201 300 
 SAAT    ES   0A  2359 14.53                                            215  43 
 ZRD     IP   0A  2358 48.82                                            218  22 
 GANJ    ES   0A  2359 20.42                                            244 352 
 ZNJK    IPn  0A  2358 54.41                                            265 138 
 SRB      IAML A  2358 31.97      1032.5                                        
 ZNJK     IAML A  2358 54.66       198.2                                        
 ZRD      IAML A  2358 48.82       301.3                                        
 MRD      IAML A  2358 29.26      1384.0                                        
 TBZ      IAML A  2358 23.23      2885.5                                        
 FTB      IAML A  2358 23.41      2748.1                                        
 AZR      IAML A  2358 31.87      1074.6                                        
                                                                                

 2012  812  010 52.8 L  38.391  46.704  5.6      24 0.0 2.5L                   1
 GAP=51                    0.4     0.3  0.7                                    E
 Action:ARG 24-03-13 16:02 OP:OBSP STATUS:               ID:20120812001052     I
 STAT SP IPHASW D HRMM SECON CODA AMPLIT PERI AZIMU VELO AIN AR TRES W  DIS CAZ7
 TVRZ    ES   0A   010 57.17                                           11.7 347 
 HRS     IPg  0A   010 58.45                                           31.6 106 
 TAHR    IP   0A   010 58.49                                           32.6  72 
 TABZ    ES   0A   011  8.16                                           50.1 220 
 FTB     ES   0A   011  8.10                                           50.2 211 
 TBZ     IPg  0A   011  1.26                                           51.2 249 
 TBZ     ES   0A   011  8.66                                           51.2 249 
 BST     IP   0A   011  6.11                                           79.6 167 
 MRD     IPg  0A   011  8.28                                           93.4 292 
 MRD     ES   0A   011 20.68                                           93.4 292 
 SHB     IPg  0A   011  9.23                                           95.1 262 
 AZR     IP   0A   011 10.02                                            101 218 
 SRB     IPg  0A   011 10.48                                            106 126 
 SRB     ES   0A   011 23.64                                            106 126 
 GRMI    ES   0A   011 26.33                                            113  66 
 LRK     IP   0A   011 17.13                                            145  78 
 LRK     ES   0A   011 35.46                                            145  78 
 SBZ     IP   0A   011 17.81                                            148 318 
 GLBA    ES   0A   011 43.98                                            174  57 
 ASTR    IP   0A   011 23.23                                            183  83 
 LKRN    IP   0A   011 23.46                                            184  78 
 LKRN    ES   0A   011 46.54                                            184  78 
 MAKU    ES   0A   011 52.27                                            204 301 
 BRDA    IP   0A   011 27.55                                            211  11 
 BRDA    ES   0A   011 53.61                                            211  11 
 SAAT    IP   0A   011 28.95                                            220  42 
 SAAT    ES   0A   011 55.92                                            220  42 
 ZRD     IP   0A   011 29.48                                            225  21 
 GANJ    IP   0A   011 32.58                                            251 352 
 GNI     IP   0A   011 33.48                                            257 319 
 VANB    IP   0A   011 37.32                                            289 275 
 VANB    ES   0A   012 10.41                                            289 275 
 LRK      IAML A   011 17.13        81.6                                        
 SHB      IAML A   011  8.95       163.7                                        
 LKRN     IAML A   011 23.46        53.0                                        
 SBZ      IAML A   011 17.81        79.1                                        
 BST      IAML A   011  6.11       213.6                                        
 GNI      IAML A   011 33.48        26.8                                        
 BRDA     IAML A   011 27.55        40.8                                        
 AZR      IAML A   011 10.02       147.5                                        
 SAAT     IAML A   011 28.95        37.3                                        
                                                                                

 2012  812  015 22.9 L  38.439  46.761 15.7      22 0.0 3.1L                   1
 GAP=67                    0.5     0.4  0.5                                    E
 Action:ARG 24-03-13 16:02 OP:OBSP STATUS:               ID:20120812001522     I
 STAT SP IPHASW D HRMM SECON CODA AMPLIT PERI AZIMU VELO AIN AR TRES W  DIS CAZ7
 TAHR    IP   0A   015 28.16                                           25.7  78 
 TAHR    ES   0A   015 32.18                                           25.7  78 
 HRS     IPg  0A   015 28.38                                           28.3 119 
 FTB     IP   0A   015 32.98                                           57.5 214 
 FTB     ES   0A   015 40.62                                           57.5 214 
 TABZ    ES   0A   015 40.67                                           57.5 221 
 TBZ     IPg  0A   015 32.89                                           58.4 246 
 TBZ     ESg  0A   015 40.59                                           58.4 246 
 BST     IP   0A   015 37.08                                           83.4 172 
 MRD     IPg  0A   015 39.11                                           97.1 288 
 SHB     IPg  0A   015 39.92                                            101 260 
 SHB     ESg  0A   015 53.44                                            101 260 
 SRB     IPg  0A   015 40.20                                            104 130 
 SRB     ESg  0A   015 54.09                                            104 130 
 GRMI    IPg  0A   015 41.21                                            106  67 
 GRMI    ES   0A   015 54.41                                            106  67 
 AZR     ES   0A   015 54.99                                            109 218 
 LRK     ES   0A   016  3.11                                            139  80 
 SBZ     IP   0A   015 47.56                                            149 315 
 GLBA    IP   0A   015 50.18                                            167  57 
 GLBA    ES   0A   016 10.72                                            167  57 
 ASTR    ES   0A   016 13.27                                            177  85 
 LKRN    IP   0A   015 51.80                                            178  79 
 MAKU    IPn  0A   015 56.09                                            206 299 
 MAKU    ES   0A   016 20.95                                            206 299 
 SAAT    ES   0A   016 22.12                                            213  41 
 GANJ    IP   0A   016  1.01                                            247 351 
 GNI     IP   0A   016  2.37                                            257 317 
 ZNJK    IPn  0A   016  3.21                                            260 138 
 VANB    IP   0A   016  6.88                                            294 274 
 VANB    ES   0A   016 39.52                                            294 274 
 MRD      IAML A   015 39.52       631.6                                        
 TAHR     IAML A   015 28.16      3765.1                                        
 TBZ      IAML A   015 33.23      1314.3                                        
 HRS      IAML A   015 28.48      3354.9                                        
 SBZ      IAML A   015 47.56       313.4                                        
 GLBA     IAML A   015 50.18       255.0                                        
 MAKU     IAML A   015 56.14       169.2                                        
                                                                                

 2012  812  034 16.6 L  38.428  46.769 17.9      18 0.0 3.8L                   1
 GAP=113                   1.3     1.0  0.9                                    E
 Action:ARG 24-03-13 16:02 OP:OBSP STATUS:               ID:20120812003416     I
 STAT SP IPHASW D HRMM SECON CODA AMPLIT PERI AZIMU VELO AIN AR TRES W  DIS CAZ7
 TVRZ    IP   0A   034 20.53                                           12.2 316 
 TVRZ    ES   0A   034 23.70                                           12.2 316 
 TAHR    ES   0A   034 26.08                                           26.2  73 
 HRS     IPg  0A   034 21.88                                           27.1 115 
 HRS     ESg  0A   034 26.04                                           27.1 115 
 FTB     IP   0A   034 26.57                                           55.6 215 
 TABZ    ES   0A   034 34.36                                           55.9 223 
 TBZ     IPg  0A   034 26.27                                           57.6 248 
 TBZ     ES   0A   034 34.70                                           57.6 248 
 ORD     ES   0A   034 42.95                                           87.3 310 
 MRD     IPg  0A   034 32.49                                           98.0 289 
 MRD     ES   0A   034 45.86                                           98.0 289 
 SHB     IPg  0A   034 33.41                                            101 261 
 SHB     ESg  0A   034 46.91                                            101 261 
 SRB     IPg  0A   034 33.79                                            103 129 
 GRMI    IPg  0A   034 34.90                                            107  66 
 GRMI    ES   0A   034 47.72                                            107  66 
 AZR     ES   0A   034 48.34                                            107 219 
 LRK     ES   0A   034 56.50                                            139  79 
 ASTR    IP   0A   034 45.07                                            177  84 
 MAKU    IPn  0A   034 49.64                                            208 300 
 MAKU    ES   0A   035 14.37                                            208 300 
 GANJ    ES   0A   035 22.58                                            247 351 
 ZNJK    IPn  0A   034 56.71                                            258 138 
 GNI     ES   0A   035 25.11                                            259 318 
 SRB      IAML A   034 33.91      2878.6                                        
 FTB      IAML A   034 26.57      7045.5                                        
 SHB      IAML A   034 33.52      2966.6                                        
 TVRZ     IAML A   034 20.53     45977.5                                        
 MAKU     IAML A   034 49.60       837.9                                        
 TBZ      IAML A   034 26.82      6713.7                                        
                                                                                

 2012  812  041 26.6 L  38.483  46.740 19.9      25 0.0 2.7L                   1
 GAP=50                    0.5     0.4  0.4                                    E
 Action:ARG 24-03-13 16:02 OP:OBSP STATUS:               ID:20120812004126     I
 STAT SP IPHASW D HRMM SECON CODA AMPLIT PERI AZIMU VELO AIN AR TRES W  DIS CAZ7
 TVRZ    IP   0A   041 30.23                                           7.54 295 
 TVRZ    ES   0A   041 33.17                                           7.54 295 
 TAHR    ES   0A   041 36.42                                           26.7  86 
 HRS     IPg  0A   041 32.59                                           31.2 123 
 HRS     ES   0A   041 37.85                                           31.2 123 
 TBZ     IPg  0A   041 35.92                                           58.6 243 
 TABZ    IP   0A   041 37.19                                           59.2 218 
 FTB     IP   0A   041 37.23                                           59.5 211 
 BST     ES   0A   041 52.58                                           86.9 171 
 MRD     IPg  0A   041 42.49                                           94.8 286 
 SHB     IPg  0A   041 43.34                                            100 258 
 SHB     ESg  0A   041 56.66                                            100 258 
 GRMI    IP   0A   041 44.49                                            106  69 
 GRMI    ES   0A   041 58.14                                            106  69 
 SRB     IPg  0A   041 44.80                                            108 131 
 SRB     ES   0A   041 58.50                                            108 131 
 AZR     IP   0A   041 45.17                                            110 217 
 HSH     IP   0A   041 49.20                                            137 160 
 LRK     ES   0A   042  6.91                                            140  81 
 SBZ     IP   0A   041 50.03                                            145 315 
 GLBA    ES   0A   042 14.29                                            166  58 
 ASTR    IP   0A   041 55.32                                            178  86 
 ASTR    ES   0A   042 17.08                                            178  86 
 LKRN    ES   0A   042 17.34                                            179  80 
 BRDA    IP   0A   041 58.41                                            202  10 
 SAAT    ES   0A   042 24.96                                            211  42 
 ZRD     IP   0A   042  0.24                                            216  21 
 GANJ    IP   0A   042  3.58                                            243 351 
 GNI     IP   0A   042  5.02                                            254 317 
 GNI     ES   0A   042 33.75                                            254 317 
 ZNJK    IP   0A   042  6.48                                            263 138 
 VANB    IP   0A   042  9.74                                            293 273 
 VANB    ES   0A   042 41.90                                            293 273 
 SBZ      IAML A   041 50.03       129.8                                        
 VANB     IAML A   042  9.74        31.4                                        
 GNI      IAML A   042  5.02        43.7                                        
 SHB      IAML A   041 43.40       237.3                                        
 FTB      IAML A   041 37.23       510.3                                        
 ASTR     IAML A   041 55.32        89.6                                        
 TBZ      IAML A   041 36.98       521.5                                        
                                                                                

