 2012  813 0358 29.0 L  38.468  46.872  4.1  New  5 0.3 2.9LNew                1
 GAP=213        0.86       7.3     6.5975.4  0.8249E+01  0.4777E+04 -0.2736E+04E
 Action:ARG 24-03-13 15:57 OP:OBSP STATUS:               ID:20120813035828     I
 STAT SP IPHASW D HRMM SECON CODA AMPLIT PERI AZIMU VELO AIN AR TRES W  DIS CAZ7
 HRS     IPg  0A   358 32.90                              91   -0.1310 22.3 138 
 HRS      IAML A   358 33.32      2780.3                               22.3 138 
 HRS     ESg  0A   358 36.12                              91    0.0510 22.3 138 
 TBZ     IPg  0A   358 39.98                              90   -0.5910 68.2 248 
 MRD     IPg  0A   358 47.03                              90    0.3210  105 285 
 SHB     IPg  0A   358 47.51                              90   -0.1610  111 260 
 SHB     ESg  0A   359  1.73                              90    0.0310  111 260 
 AZR     IPg  0A   358 49.12                              90    0.4810  117 222 
                                                                                
 2012  813 0415 52.4 L  38.398  46.682 20.0  New  8 0.3 3.7LNew                1
 GAP=134        0.77       3.8     2.5  9.2  0.1167E+01  0.1338E+02 -0.5997E+01E
 Action:ARG 24-03-13 15:57 OP:OBSP STATUS:               ID:20120813041552     I
 STAT SP IPHASW D HRMM SECON CODA AMPLIT PERI AZIMU VELO AIN AR TRES W  DIS CAZ7
 HRS     IPg  0A   415 58.58                             120   -0.3010 32.7 106 
 HRS     ESg  0A   416  3.92                             120    0.1910 32.7 106 
 TBZ     IPg  0A   416  1.27                             110   -0.2010 49.9 249 
 TBZ      IAML A   416  1.51      6450.5                               49.9 249 
 MRD     IPg  0A   416  7.74                             101   -0.4810 92.3 293 
 MRD      IAML A   416  8.30      2708.1                               92.3 293 
 MRD     ESg  0A   416 20.46                             101    0.3810 92.3 293 
 SHB     IPg  0A   416  8.48                             100    0.0210 93.8 263 
 AZR      IAML A   416  9.27      2376.2                                101 218 
 AZR     IPg  0A   416  9.86                             100    0.2810  101 218 
 GRMI    IPg  0A   416 12.00                              98    0.1110  115  66 
 MAKU     IAML A   416 25.02       694.9                                203 302 
 MAKU    IPn  0A   416 25.33                                            203 302 
 ZNJK    IPn  0A   416 34.34                                            261 137 
                                                                                
 2012  813 0522 28.8 L  38.392  46.663 20.0  New  5 0.3 2.6LNew                1
 GAP=171        0.78       5.7     6.4 20.5  0.5627E+01  0.1203E+03  0.8656E+01E
 Action:ARG 24-03-13 15:57 OP:OBSP STATUS:               ID:20120813052228     I
 STAT SP IPHASW D HRMM SECON CODA AMPLIT PERI AZIMU VELO AIN AR TRES W  DIS CAZ7
 HRS     IPg  0A   522 35.38                             118   -0.1510 34.2 104 
 HRS     ESg  0A   522 40.70                             118    0.1610 34.2 104 
 TBZ     IPg  0A   522 37.50                             111   -0.1210 48.1 249 
 MRD     IPg  0A   522 44.18                             101   -0.2610 91.0 293 
 SHB      IAML A   522 44.48       215.0                               92.0 263 
 SHB     IPg  0A   522 45.19                             101    0.5810 92.0 263 
 AZR      IAML A   522 45.44       192.0                               99.2 217 
 AZR     IPg  0A   522 45.56                             100   -0.2010 99.2 217 
                                                                                
 2012  813 0658 22.0 L  38.453  46.675 16.6  New  9 0.3 3.2LNew                1
 GAP=129        0.79       3.9     2.7 11.9  0.3892E+00  0.1743E+02 -0.1777E+02E
 Action:ARG 24-03-13 15:57 OP:OBSP STATUS:               ID:20120813065822     I
 STAT SP IPHASW D HRMM SECON CODA AMPLIT PERI AZIMU VELO AIN AR TRES W  DIS CAZ7
 HRS     IPg  0A   658 28.54                             113   -0.0910 35.4 115 
 HRS      IAML A   658 29.01      3182.5                               35.4 115 
 HRS     ESg  0A   658 33.64                             113    0.0310 35.4 115 
 TBZ     IPg  0A   658 30.97                             105   -0.2210 51.8 242 
 MRD     IPg  0A   658 37.40                              99    0.1310 89.5 289 
 SHB      IAML A   658 38.09       833.5                               94.1 259 
 SHB     IPg  0A   658 38.38                              98    0.3610 94.1 259 
 AZR     IPg  0A   658 40.07                              97    0.2510  105 215 
 SRB     IPg  0A   658 40.43                              97   -0.3710  111 128 
 GRMI    IPg  0A   658 41.51                              97    0.3710  113  69 
 MAKU     IAML A   658 54.36       228.2                                200 301 
 MAKU    IPg  0A   658 54.83                              94   -0.4710  200 301 
 ZNJK    IPn  0A   659  3.51                                            266 137 
                                                                                
 2012  813 0728 30.5 L  38.393  46.791 16.3  New 10 0.2 3.2LNew                1
 GAP=133        0.63       2.9     1.6  5.3 -0.4535E-01  0.3576E+01 -0.2940E+01E
 Action:ARG 24-03-13 15:57 OP:OBSP STATUS:               ID:20120813072830     I
 STAT SP IPHASW D HRMM SECON CODA AMPLIT PERI AZIMU VELO AIN AR TRES W  DIS CAZ7
 HRS     IPg  0A   728 35.34                             123   -0.0410 23.5 111 
 HRS      IAML A   728 35.80      5340.1                               23.5 111 
 HRS     ESg  0A   728 39.06                             123    0.0310 23.5 111 
 TBZ     IPg  0A   728 40.73                             103   -0.0610 58.7 253 
 TBZ     ESg  0A   728 48.31                             103   -0.1910 58.7 253 
 BST     IPg  0A   728 43.67                             100   -0.1210 77.3 174 
 SRB     IPg  0A   728 47.46                              98    0.1210 99.2 129 
 MRD     IPg  0A   728 47.35                              97   -0.3410  101 291 
 SHB     IPg  0A   728 47.90                              97   -0.0910  103 264 
 SHB      IAML A   728 47.93       721.1                                103 264 
 SHB     ESg  0A   729  1.68                              97    0.5810  103 264 
 AZR     IPg  0A   728 48.50                              97   -0.0210  106 222 
 GRMI    IPg  0A   728 48.68                              97    0.1310  107  64 
 GRMI     IAML A   728 48.87       689.2                                107  64 
 MAKU    IPn  0A   729  4.30                                            212 301 
 MAKU     IAML A   729  4.30       202.5                                212 301 
 ZNJK    IPn  0A   729  9.89                                            254 138 
                                                                                
 2012  813 0750 54.4 L  38.413  46.659  4.7  New  5 0.4 2.2LNew                1
 GAP=175        1.02       4.8     6.8999.9  0.1886E+02  0.1702E+05  0.4583E+04E
 Action:ARG 24-03-13 15:57 OP:OBSP STATUS:               ID:20120813075054     I
 STAT SP IPHASW D HRMM SECON CODA AMPLIT PERI AZIMU VELO AIN AR TRES W  DIS CAZ7
 HRS     IPg  0A   751  0.44                              91   -0.0910 35.1 107 
 HRS      IAML A   751  0.72       322.1                               35.1 107 
 TBZ     IPg  0A   751  2.07                              91   -0.7010 48.7 246 
 BST     IPg  0A   751  8.03                              91   -0.1410 81.6 166 
 BST     ESg  0A   751 18.81                              91    0.2910 81.6 166 
 MRD     IPg  0A   751  9.61                              90    0.0810 89.8 292 
 SHB      IAML A   751  9.80        85.8                               92.1 261 
 SHB     IPg  0A   751 10.46                              90    0.5610 92.1 261 
                                                                                
 2012  813 0816 50.0 L  38.438  46.886  5.5  New 20 0.6 4.0LNew                1
 GAP=102        1.44       5.3     2.9 57.6  0.1262E+01  0.3997E+02 -0.1898E+03E
 Action:ARG 24-03-13 15:57 OP:OBSP STATUS:               ID:20120813081650     I
 STAT SP IPHASW D HRMM SECON CODA AMPLIT PERI AZIMU VELO AIN AR TRES W  DIS CAZ7
 HRS     IPg  0A   816 53.16                              97   -0.4010 19.0 134 
 HRS      IAML A   816 53.82     43413.5                               19.0 134 
 HRS     ESg  0A   816 56.24                              97    0.0410 19.0 134 
 TBZ     IPg  0A   817  1.42                              91   -0.2210 68.2 251 
 ORD     IPg  0A   817  5.50                              91   -0.5110 94.8 305 
 ORD      IAML A   817  6.02      5183.2                               94.8 305 
 SRB     IPg  0A   817  5.55                              91   -0.7010 96.2 135 
 GRMI    IPg  0A   817  6.61                              91    0.2610 96.9  65 
 MRD     IPg  0A   817  7.59                              91   -0.5310  108 287 
 MRD     ESg  0A   817 22.15                              91    0.4710  108 287 
 SHB     IPg  0A   817  8.80                              91   -0.0510  112 262 
 SHB      IAML A   817  9.11      3990.6                                112 262 
 SHB     ESg  0A   817 24.26                              91    1.2910  112 262 
 AZR     IPg  0A   817  9.46                              91    0.0210  116 223 
 LRK      IAML A   817 11.67      3201.8                                129  79 
 LRK     IPg  0A   817 12.00                              91    0.4110  129  79 
 NAX     IPg  0A   817 13.90                              91   -0.5110  146 304 
 SBZ     IPg  0A   817 15.60                              91   -0.6710  157 313 
 GLBA     IAML A   817 16.44      2235.4                                158  55 
 GLBA    IPg  2A   817 17.80                              91    1.34 5  158  55 
 ASTR    IPg  0A   817 18.30                              91    0.4710  167  85 
 LKRN    IPg  0A   817 18.30                              91    0.3110  168  79 
 BRDA    IPn  0A   817 23.10                                            204   7 
 BRDA     IAML A   817 23.67      1378.3                                204   7 
 ZRD     IPn  0A   817 24.90                                            216  18 
 MAKU    IPn  0A   817 24.48                                            217 299 
 MAKU     IAML A   817 25.86      1220.7                                217 299 
 GANJ    IPn  0A   817 28.50                                            250 349 
 ZNJK    IPn  0A   817 29.46                                            252 140 
 ZNJK     IAML A   817 30.67       882.8                                252 140 
 GNI      IAML A   817 31.89       788.6                                265 316 
 GNI     IPn  2A   817 33.30                                            265 316 
                                                                                
 2012  813 1028 13.5 L  38.430  46.691 15.8  New  4 0.2 1.9LNew                1
 GAP=182        0.55       8.7     4.6 11.9 -0.1839E+02  0.4945E+02 -0.6532E+02E
 Action:ARG 24-03-13 15:57 OP:OBSP STATUS:               ID:20120813102813     I
 STAT SP IPHASW D HRMM SECON CODA AMPLIT PERI AZIMU VELO AIN AR TRES W  DIS CAZ7
 HRS     IPg  0A  1028 19.58                             113   -0.1510 33.1 112 
 HRS     ESg  0A  1028 24.46                             113    0.0610 33.1 112 
 TBZ     IPg  0A  1028 22.41                             104   -0.2810 52.0 246 
 TBZ      IAML A  1028 22.75        95.5                               52.0 246 
 MRD     IPg  0A  1028 29.20                              98    0.0910 91.7 290 
 SHB     IPg  0A  1028 29.64                              98   -0.0210 95.1 260 
 SHB      IAML A  1028 29.87        41.0                               95.1 260 
 SHB     ESg  0A  1028 42.08                              98    0.3010 95.1 260 
                                                                                
 2012  813 1029 31.2 L  38.415  46.650  4.1  New  6 0.3 2.2LNew                1
 GAP=175        0.72       5.2     3.2999.9  0.6451E+01  0.2905E+04  0.2232E+04E
 Action:ARG 24-03-13 15:57 OP:OBSP STATUS:               ID:20120813102931     I
 STAT SP IPHASW D HRMM SECON CODA AMPLIT PERI AZIMU VELO AIN AR TRES W  DIS CAZ7
 HRS     IPg  0A  1029 37.26                              90   -0.2310 35.9 107 
 TBZ     IPg  0A  1029 39.36                              90   -0.1410 48.1 246 
 TBZ      IAML A  1029 39.39       214.9                               48.1 246 
 MRD     IPg  0A  1029 46.10                              90   -0.1310 89.0 292 
 MRD      IAML A  1029 46.15        90.6                               89.0 292 
 SHB     IPg  0A  1029 47.02                              90    0.4110 91.3 261 
 AZR     IPg  0A  1029 47.90                              90   -0.2310  101 216 
 SRB     IPg  0A  1029 50.07                              90    0.3310  110 126 
                                                                                
 2012  813 1045 44.0 L  38.462  46.611 20.0  New 11 0.3 4.2LNew                1
 GAP=129        0.72       2.3     2.4  9.3  0.9449E+00  0.1030E+02 -0.4847E+01E
 Action:ARG 24-03-13 15:57 OP:OBSP STATUS:               ID:20120813104544     I
 STAT SP IPHASW D HRMM SECON CODA AMPLIT PERI AZIMU VELO AIN AR TRES W  DIS CAZ7
 HRS     IPg  0A  1045 51.32                             114   -0.3610 40.9 113 
 HRS     ESg  0A  1045 57.60                             114    0.1710 40.9 113 
 TBZ     IPg  0A  1045 52.55                             111   -0.1410 47.5 238 
 TBZ      IAML A  1045 53.09     21763.5                               47.5 238 
 MRD      IAML A  1045 58.61      9914.0                               84.0 290 
 MRD     IPg  0A  1045 58.71                             102    0.2410 84.0 290 
 BST     IPg  0A  1045 58.94                             101   -0.1610 87.9 164 
 BST     ESg  0A  1046 10.80                             101    0.3810 87.9 164 
 SHB     IPg  0A  1045 59.54                             101    0.2710 89.0 257 
 AZR     IPg  0A  1046  1.33                              99   -0.2110  103 213 
 SRB     IPg  0A  1046  3.36                              98   -0.3210  116 127 
 GRMI     IAML A  1046  3.89      5830.8                                118  71 
 GRMI    IPg  0A  1046  4.29                              98    0.2910  118  71 
 MAKU     IAML A  1046 15.47      2410.9                                194 301 
 MAKU    IPg  0A  1046 16.30                              95   -0.1810  194 301 
 GNI     IPn  0A  1046 25.20                                            247 320 
 ZNJK     IAML A  1046 25.05      1195.5                                270 137 
 ZNJK    IPn  0A  1046 25.83                                            270 137 
                                                                                
 2012  813 1147 52.3 L  38.453  46.864  5.0  New  4 0.3 1.8LNew                1
 GAP=208        0.63       8.7     6.4106.5  0.2847E+02  0.3499E+03 -0.3572E+03E
 Action:ARG 24-03-13 15:57 OP:OBSP STATUS:               ID:20120813114752     I
 STAT SP IPHASW D HRMM SECON CODA AMPLIT PERI AZIMU VELO AIN AR TRES W  DIS CAZ7
 HRS     IPg  0A  1147 55.89                              94   -0.3210 21.6 134 
 HRS     ESg  0A  1147 59.27                              94    0.1110 21.6 134 
 TBZ     IPg  0A  1148  3.63                              91   -0.0410 66.9 249 
 SRB     IPg  2A  1148  9.64                              91    0.73 5 98.8 135 
 MRD      IAML A  1148 10.01        27.9                                105 286 
 MRD     IPg  0A  1148 10.05                              91    0.0710  105 286 
                                                                                
 2012  813 1207 37.3 L  38.445  46.591  4.2  New  6 0.3 2.1LNew                1
 GAP=178        0.71       4.3     2.5 42.0  0.3707E+01  0.6558E+02  0.1595E+02E
 Action:ARG 24-03-13 15:57 OP:OBSP STATUS:               ID:20120813120737     I
 STAT SP IPHASW D HRMM SECON CODA AMPLIT PERI AZIMU VELO AIN AR TRES W  DIS CAZ7
 HRS     IPg  0A  12 7 44.11                              90   -0.4610 41.9 109 
 HRS      IAML A  12 7 44.96       204.0                               41.9 109 
 HRS     ESg  0A  12 7 50.15                              90    0.1310 41.9 109 
 TBZ     IPg  0A  12 7 44.95                              90   -0.1410 45.0 239 
 MRD     IPg  0A  12 7 51.30                              90   -0.0310 83.0 291 
 SHB      IAML A  12 7 51.93        74.7                               86.8 258 
 SHB     IPg  0A  12 7 52.27                              90    0.3110 86.8 258 
 AZR     IPg  0A  12 7 54.06                              90   -0.1310  100 212 
 SRB     IPg  0A  12 7 57.17                              90    0.3310  116 126 
                                                                                
 2012  813 1245 58.0 L  38.436  46.734 19.6  New 11 0.4 3.9LNew                1
 GAP=138        1.03       3.5     2.9  9.9  0.1182E+01  0.1336E+02 -0.5118E+01E
 Action:ARG 24-03-13 15:57 OP:OBSP STATUS:               ID:20120813124558     I
 STAT SP IPHASW D HRMM SECON CODA AMPLIT PERI AZIMU VELO AIN AR TRES W  DIS CAZ7
 HRS     IPg  0A  1246  3.87                             121   -0.1510 29.9 116 
 HRS     ESg  0A  1246  8.55                             121   -0.0010 29.9 116 
 TBZ     IPg  0A  1246  7.40                             107   -0.5110 55.7 247 
 TBZ      IAML A  1246  8.12      8769.9                               55.7 247 
 BST     IPg  0A  1246 11.97                             102   -0.2410 82.7 170 
 BST     ESg  0A  1246 23.13                             102    0.2310 82.7 170 
 MRD     IPg  0A  1246 13.74                             100   -0.4610 95.0 289 
 SHB     IPg  0A  1246 14.68                             100   -0.1510 98.9 260 
 SHB     ESg  0A  1246 28.28                             100    0.7910 98.9 260 
 SRB     IPg  0A  1246 15.87                              99   -0.1110  106 130 
 AZR     IPg  0A  1246 16.15                              99    0.0310  107 218 
 GRMI     IAML A  1246 16.22      3332.5                                109  67 
 GRMI    IPg  0A  1246 17.06                              99    0.5710  109  67 
 MAKU    IPn  0A  1246 31.33                                            205 300 
 GNI      IAML A  1246 36.75       677.6                                256 319 
 GNI     IPn  2A  1246 40.60                                            256 319 
 ZNJK     IAML A  1246 37.90       649.7                                261 138 
 ZNJK    IPn  0A  1246 39.43                                            261 138 
                                                                                
