 2012  811 1930 45.2 L  38.427  46.932 21.6  New  6 0.5 2.7LNew                1
 GAP=215        1.29       5.9     7.7  9.7  0.2934E+02  0.5557E+02  0.2060E+02E
 Action:ARG 24-03-13 15:57 OP:OBSP STATUS:               ID:20120811193045     I
 STAT SP IPHASW D HRMM SECON CODA AMPLIT PERI AZIMU VELO AIN AR TRES W  DIS CAZ7
 HRS     IPg  0A  1930 49.73                             141    0.0910 15.5 142 
 HRS     ESg  0A  1930 53.00                             141    0.0010 15.5 142 
 TABZ     IAML A  1930 57.16       423.6                               67.0 232 
 TABZ    IPg  2A  1930 57.22                              94    0.35 5 67.0 232 
 TBZ     IPg  0A  1930 57.13                              94   -0.4410 71.6 253 
 TBZ     ESg  0A  1931  5.93                              94   -0.9410 71.6 253 
 BST     IPg  0A  1930 59.02                              93    0.0610 80.7 183 
 BST     ESg  0A  1931  9.34                              93    0.0510 80.7 183 
 MRD     IPg  0A  1931  3.41                              91   -0.3110  112 287 
 MRD     ESg  0A  1931 17.66                              91    0.0210  112 287 
 SHB     IPg  0A  1931  4.61                              91    0.2610  116 262 
 SHB     ESg  0A  1931 19.86                              91    1.1210  116 262 
                                                                                
 2012  811 1940 17.2 L  38.446  46.807 20.0  New  7 0.4 2.6LNew                1
 GAP=197        1.15       4.3     2.9  8.8  0.4535E+01  0.6870E+01 -0.4252E+01E
 Action:ARG 24-03-13 15:57 OP:OBSP STATUS:               ID:20120811194017     I
 STAT SP IPHASW D HRMM SECON CODA AMPLIT PERI AZIMU VELO AIN AR TRES W  DIS CAZ7
 HRS     IPg  0A  1940 22.64                             127    0.0710 24.9 125 
 HRS     ESg  0A  1940 26.58                             127   -0.0410 24.9 125 
 TABZ    ESg  0A  1940 36.60                             106    0.7610 60.3 224 
 TBZ     IPg  0A  1940 27.81                             106   -0.3110 62.1 248 
 TBZ     ESg  0A  1940 35.99                             106   -0.3510 62.1 248 
 BST     IPg  0A  1940 31.16                             102   -0.3010 83.0 175 
 BST     ESg  0A  1940 41.46                             102   -0.7310 83.0 175 
 MRD     IPg  0A  1940 34.03                             100   -0.3110  101 287 
 MRD      IAML A  1940 34.20       188.4                                101 287 
 SRB     IPg  0A  1940 34.54                             100    0.0210  102 132 
 SRB     ESg  0A  1940 48.16                             100    0.6310  102 132 
 SHB     IPg  0A  1940 35.15                              99    0.0510  105 260 
 SHB     ESg  0A  1940 49.08                              99    0.5310  105 260 
                                                                                
 2012  811 2010 30.0 L  38.420  46.762 13.7  New  8 0.4 3.4LNew                1
 GAP=136        0.98       6.9     3.7 14.7  0.1231E+01  0.2716E+02 -0.4826E+02E
 Action:ARG 24-03-13 15:57 OP:OBSP STATUS:               ID:20120811201029     I
 STAT SP IPHASW D HRMM SECON CODA AMPLIT PERI AZIMU VELO AIN AR TRES W  DIS CAZ7
 HRS     IPg  0A  2010 34.27                             114   -0.8510 26.9 115 
 HRS     ESg  0A  2010 39.39                             114    0.4010 26.9 115 
 TBZ     IPg  0A  2010 40.08                             101    0.1610 57.4 249 
 MRD     IPg  0A  2010 46.46                              96   -0.0810 98.0 290 
 SHB     IPg  0A  2010 47.12                              96    0.0710  101 262 
 SRB     IPg  0A  2010 47.43                              96    0.0810  103 130 
 GRMI     IAML A  2010 48.25      1073.3                                108  66 
 GRMI    IPg  0A  2010 48.32                              95    0.2210  108  66 
 MAKU    IPn  0A  2011  3.05                                            208 301 
 MAKU     IAML A  2011  3.82       333.1                                208 301 
 ZNJK     IAML A  2011 10.01       211.0                                258 138 
 ZNJK    IPn  0A  2011 10.36                                            258 138 
                                                                                
 2012  811 2029 18.6 L  38.379  46.865  4.1  New  6 0.3 2.6LNew                1
 GAP=183        0.86       7.5     6.2513.7  0.3927E+02  0.2679E+04  0.2487E+04E
 Action:ARG 24-03-13 15:57 OP:OBSP STATUS:               ID:20120811202918     I
 STAT SP IPHASW D HRMM SECON CODA AMPLIT PERI AZIMU VELO AIN AR TRES W  DIS CAZ7
 HRS     IPg  0A  2029 21.31                              91   -0.4210 16.9 113 
 HRS      IAML A  2029 22.11      1948.4                               16.9 113 
 HRS     ESg  0A  2029 24.23                              91    0.1210 16.9 113 
 TBZ     IPg  0A  2029 29.47                              90   -0.1010 64.5 256 
 BST     IPg  0A  2029 30.94                              90   -0.3910 75.3 178 
 BST      IAML A  2029 31.66       289.8                               75.3 178 
 SRB     ESg  0A  2029 46.44                              90    0.3810 93.2 131 
 MRD     IPg  0A  2029 36.66                              90   -0.0510  108 290 
 SHB     IPg  0A  2029 37.41                              90    0.4610  109 265 
                                                                                
 2012  811 2037 27.5 L  38.457  46.777 19.7  New  5 0.3 2.3LNew                1
 GAP=196        0.70       7.2     3.0 13.7  0.1086E+02  0.1007E+02 -0.1444E+02E
 Action:ARG 24-03-13 15:57 OP:OBSP STATUS:               ID:20120811203727     I
 STAT SP IPHASW D HRMM SECON CODA AMPLIT PERI AZIMU VELO AIN AR TRES W  DIS CAZ7
 HRS     IPg  0A  2037 33.35                             124    0.1010 27.8 124 
 TBZ     IPg  0A  2037 37.65                             106   -0.4610 60.1 246 
 MRD     IPg  0A  2037 44.06                             100   -0.1210 97.9 287 
 SHB      IAML A  2037 45.08        90.5                                103 260 
 SHB     IPg  0A  2037 45.38                              99    0.3610  103 260 
 SHB     ESg  0A  2037 58.30                              99    0.1310  103 260 
 SRB     IPg  0A  2037 45.27                              99   -0.0110  105 132 
                                                                                
 2012  811 2045 46.6 L  38.415  46.684 13.4  New  7 0.9 2.9LNew                1
 GAP=177        2.28       7.8     5.3 31.7  0.2113E+02  0.4787E+02  0.1471E+02E
 Action:ARG 24-03-13 15:57 OP:OBSP STATUS:               ID:20120811204546     I
 STAT SP IPHASW D HRMM SECON CODA AMPLIT PERI AZIMU VELO AIN AR TRES W  DIS CAZ7
 HRS     IPg  0A  2045 52.04                             109   -0.6110 33.1 109 
 HRS     ESg  0A  2045 57.11                             109   -0.1010 33.1 109 
 TABZ    IPg  0A  2045 55.12                             102   -0.3010 50.6 218 
 TABZ     IAML A  2045 56.00      1000.1                               50.6 218 
 TBZ     IPg  0A  2045 54.88                             102   -0.5810 50.8 247 
 TBZ     ESg  0A  2046  2.08                             102   -0.0610 50.8 247 
 BST     IPg  0A  2045 59.88                              97   -0.5310 81.3 167 
 BST     ESg  0A  2046 10.75                              97   -0.0410 81.3 167 
 MRD     IPg  0A  2046  1.40                              96   -0.7210 91.8 291 
 MRD      IAML A  2046  2.69       433.9                               91.8 291 
 MRD     ESg  0A  2046 15.10                              96    1.3110 91.8 291 
 SHB     IPg  0A  2046  2.18                              96   -0.3510 94.2 261 
 SHB     ESg  0A  2046 15.18                              96    0.6810 94.2 261 
 SRB     IPg  0A  2046  3.88                              95   -0.8910  108 127 
 SRB     ESg  0A  2046 20.62                              95    2.1910  108 127 
                                                                                
 2012  811 2113 21.2 L  38.429  46.672 11.5  New  6 0.3 2.4LNew                1
 GAP=180        0.75       5.7     3.8 19.3  0.1281E+02  0.5072E+02  0.3193E+02E
 Action:ARG 24-03-13 15:57 OP:OBSP STATUS:               ID:20120811211321     I
 STAT SP IPHASW D HRMM SECON CODA AMPLIT PERI AZIMU VELO AIN AR TRES W  DIS CAZ7
 HRS     IPg  0A  2113 27.06                             105   -0.3710 34.6 111 
 HRS     ESg  0A  2113 32.28                             105    0.1810 34.6 111 
 TBZ     IPg  0A  2113 30.10                             100    0.1110 50.5 245 
 TBZ      IAML A  2113 30.22       318.9                               50.5 245 
 BST     IPg  0A  2113 34.94                              96   -0.3610 83.0 167 
 MRD     IPg  0A  2113 36.32                              95   -0.1510 90.2 291 
 SHB      IAML A  2113 37.19       133.5                               93.5 260 
 SHB     IPg  0A  2113 37.22                              95    0.2110 93.5 260 
 SRB     IPg  0A  2113 40.06                              94    0.3810  110 127 
                                                                                
 2012  811 2118 35.1 L  38.443  46.715 19.9  New  6 0.5 2.6LNew                1
 GAP=187        1.41       5.2     3.6 13.0  0.1051E+02  0.1172E+02  0.1199E+01E
 Action:ARG 24-03-13 15:57 OP:OBSP STATUS:               ID:20120811211835     I
 STAT SP IPHASW D HRMM SECON CODA AMPLIT PERI AZIMU VELO AIN AR TRES W  DIS CAZ7
 HRS     IPg  0A  2118 41.26                             120   -0.1510 31.8 116 
 HRS     ESg  0A  2118 46.47                             120    0.3110 31.8 116 
 TBZ     IPg  0A  2118 44.41                             108   -0.4210 54.5 245 
 TBZ     ESg  0A  2118 51.63                             108   -0.5210 54.5 245 
 BST     IPg  0A  2118 49.03                             102   -0.4610 83.7 169 
 BST      IAML A  2118 49.34       248.2                               83.7 169 
 BST     ESg  0A  2119  0.13                             102   -0.1710 83.7 169 
 MRD     IPg  0A  2118 50.87                             100   -0.1410 93.2 289 
 MRD     ESg  0A  2119  2.59                             100   -0.3910 93.2 289 
 SHB     IPg  0A  2118 51.91                             100    0.2210 97.4 260 
 SHB     ESg  0A  2119  5.59                             100    1.4310 97.4 260 
 SRB      IAML A  2118 52.90       169.3                                108 129 
 SRB     IPg  0A  2118 53.19                              99   -0.1910  108 129 
 SRB     ESg  0A  2119  7.59                              99    0.4810  108 129 
                                                                                
 2012  811 2121 14.0 L  38.438  46.802 17.9  New  7 0.4 2.7LNew                1
 GAP=194        0.84       4.2     2.7  7.7  0.7009E+01  0.8999E+01  0.2409E+01E
 Action:ARG 24-03-13 15:57 OP:OBSP STATUS:               ID:20120811212114     I
 STAT SP IPHASW D HRMM SECON CODA AMPLIT PERI AZIMU VELO AIN AR TRES W  DIS CAZ7
 HRS     IPg  0A  2121 19.26                             124    0.0810 24.8 122 
 HRS      IAML A  2121 19.66      1568.9                               24.8 122 
 HRS     ESg  0A  2121 23.07                             124   -0.0110 24.8 122 
 TABZ    IPg  0A  2121 24.97                             105    0.5510 59.3 225 
 TBZ     IPg  0A  2121 24.57                             104   -0.1710 61.3 249 
 TBZ     ESg  0A  2121 32.51                             104   -0.3010 61.3 249 
 BST     IPg  0A  2121 27.81                             100   -0.2810 82.2 175 
 MRD      IAML A  2121 30.93       237.4                                101 288 
 MRD     IPg  0A  2121 31.41                              98    0.3210  101 288 
 MRD     ESg  0A  2121 43.57                              98   -0.3410  101 288 
 SRB     IPg  2A  2121 30.13                              98   -1.12 5  102 132 
 SRB      IAML A  2121 31.47       234.4                                102 132 
 SRB     ESg  0A  2121 44.31                              98    0.1110  102 132 
 SHB     IPg  0A  2121 31.83                              98    0.0610  105 261 
 SHB     ESg  0A  2121 45.39                              98    0.2710  105 261 
                                                                                
 2012  811 2133 50.7 L  38.437  46.845 18.9  New  7 0.5                        1
 GAP=200        1.28       4.3     3.3  9.1  0.6924E+01  0.9723E+01 -0.1776E+01E
 Action:ARG 24-03-13 15:57 OP:OBSP STATUS:               ID:20120811213350     I
 STAT SP IPHASW D HRMM SECON CODA AMPLIT PERI AZIMU VELO AIN AR TRES W  DIS CAZ7
 HRS     IPg  0A  2133 55.62                             130    0.0210 21.6 127 
 HRS     ESg  0A  2133 59.18                             130   -0.0710 21.6 127 
 TABZ    IPg  0A  2134  2.12                             105    0.5110 61.9 227 
 TABZ    ESg  0A  2134 10.72                             105    0.9410 61.9 227 
 TBZ     IPg  0A  2134  1.80                             104   -0.2710 64.8 250 
 TBZ     ESg  0A  2134 10.04                             104   -0.5410 64.8 250 
 BST     IPg  0A  2134  4.40                             101   -0.3910 81.7 177 
 BST     ESg  0A  2134 14.42                             101   -0.9210 81.7 177 
 SRB     IPg  0A  2134  7.78                              99    0.2410 98.7 133 
 SRB     ESg  0A  2134 20.64                              99    0.4810 98.7 133 
 MRD     IPg  0A  2134  8.36                              99   -0.0810  104 287 
 MRD     ESg  0A  2134 21.46                              99   -0.2610  104 287 
 SHB     IPg  0A  2134  8.96                              98   -0.1810  109 261 
 SHB     ESg  0A  2134 23.46                              98    0.5210  109 261 
                                                                                
 2012  811 2204 32.2 L  38.412  46.696 13.6  New  9 0.3 3.7LNew                1
 GAP=135        0.82       2.8     2.9 12.7  0.1013E+01  0.1965E+02 -0.4044E+01E
 Action:ARG 24-03-13 15:57 OP:OBSP STATUS:               ID:20120811220432     I
 STAT SP IPHASW D HRMM SECON CODA AMPLIT PERI AZIMU VELO AIN AR TRES W  DIS CAZ7
 HRS     IPg  0A  22 4 37.92                             110   -0.2110 31.9 109 
 HRS     ESg  0A  22 4 42.60                             110    0.0310 31.9 109 
 TBZ     IPg  0A  22 4 41.18                             102   -0.0710 51.6 248 
 TBZ      IAML A  22 4 41.70      6160.6                               51.6 248 
 BST     IPg  0A  22 4 45.65                              97   -0.3110 80.7 168 
 BST     ESg  0A  22 4 56.69                              97    0.4110 80.7 168 
 MRD     IPg  0A  22 4 47.78                              96   -0.1810 92.9 291 
 SHB     IPg  0A  22 4 48.62                              96    0.2810 95.3 262 
 SRB     IPg  0A  22 4 49.83                              95   -0.4210  107 127 
 GRMI    IPg  0A  22 4 51.74                              95    0.4610  113  67 
 MAKU    IPn  0A  22 5  4.55                                            204 302 
 MAKU     IAML A  22 5  5.53       695.1                                204 302 
 ZNJK     IAML A  22 5 12.74       408.9                                261 137 
 ZNJK    IPn  0A  22 5 14.45                                            261 137 
                                                                                
 2012  811 2212 46.7 L  38.412  46.753 16.7  New  9 0.3 3.3LNew                1
 GAP=135        0.84       4.2     2.0  8.3 -0.8599E-01  0.5840E+01 -0.1148E+02E
 Action:ARG 24-03-13 15:57 OP:OBSP STATUS:               ID:20120811221246     I
 STAT SP IPHASW D HRMM SECON CODA AMPLIT PERI AZIMU VELO AIN AR TRES W  DIS CAZ7
 HRS     IPg  0A  2212 52.41                             119    0.2310 27.3 112 
 HRS      IAML A  2212 52.48      5586.3                               27.3 112 
 HRS     ESg  0A  2212 56.19                             119   -0.0710 27.3 112 
 TBZ     IPg  0A  2212 56.51                             104   -0.1410 56.3 250 
 TBZ     ESg  0A  2213  3.79                             104   -0.2910 56.3 250 
 BST     IPg  0A  2213  0.42                             100   -0.0210 79.8 171 
 MRD     IPg  0A  2213  2.93                              98   -0.3910 97.5 290 
 MRD      IAML A  2213  3.60       990.5                               97.5 290 
 SHB     IPg  0A  2213  3.57                              98   -0.1810  100 262 
 SHB     ESg  0A  2213 17.27                              98    0.7610  100 262 
 SRB     IPg  0A  2213  4.17                              97   -0.0410  103 129 
 GRMI    IPg  0A  2213  5.27                              97    0.1410  109  66 
 MAKU    IPn  0A  2213 18.51                                            208 301 
 MAKU     IAML A  2213 20.18       264.7                                208 301 
 ZNJK     IAML A  2213 26.43       167.9                                258 138 
 ZNJK    IPn  0A  2213 27.12                                            258 138 
                                                                                
 2012  811 2340 52.8 L  38.466  46.778 14.1  New  5 0.3 2.2LNew                1
 GAP=199        0.79       8.0     3.4 21.0  0.1375E+02  0.1912E+02 -0.3022E+02E
 Action:ARG 24-03-13 15:57 OP:OBSP STATUS:               ID:20120811234052     I
 STAT SP IPHASW D HRMM SECON CODA AMPLIT PERI AZIMU VELO AIN AR TRES W  DIS CAZ7
 HRS      IAML A  2340 58.22       420.1                               28.3 125 
 HRS     IPg  0A  2340 58.28                             114    0.1110 28.3 125 
 TBZ     IPg  0A  2341  2.77                             101   -0.5110 60.6 245 
 MRD     IPg  0A  2341  9.16                              96   -0.1510 97.7 287 
 SHB     IPg  0A  2341 10.69                              96    0.4610  103 259 
 SHB      IAML A  2341 10.71        71.6                                103 259 
 SHB     ESg  0A  2341 23.45                              96    0.1210  103 259 
 SRB     IPg  0A  2341 10.53                              96   -0.0310  105 132 
                                                                                
 2012  811 2358 13.4 L  38.459  46.701 12.2  New  8 0.3 3.4LNew                1
 GAP=141        0.73       4.0     2.5 13.7  0.3802E+01  0.1073E+02 -0.1399E+02E
 Action:ARG 24-03-13 15:57 OP:OBSP STATUS:               ID:20120811235813     I
 STAT SP IPHASW D HRMM SECON CODA AMPLIT PERI AZIMU VELO AIN AR TRES W  DIS CAZ7
 HRS     IPg  0A  2358 19.34                             106   -0.1710 33.7 118 
 HRS     ESg  0A  2358 24.14                             106    0.0510 33.7 118 
 TBZ     IPg  0A  2358 22.70                             100   -0.1110 54.2 243 
 TBZ      IAML A  2358 23.23      2885.5                               54.2 243 
 MRD     IPg  0A  2358 28.84                              95   -0.0510 91.5 288 
 MRD      IAML A  2358 29.26      1384.0                               91.5 288 
 SHB     IPg  0A  2358 30.01                              95    0.2910 96.6 259 
 SRB     IPg  0A  2358 31.36                              95   -0.5410  110 130 
 SRB      IAML A  2358 31.97      1032.5                                110 130 
 SRB     ESg  0A  2358 46.14                              95    0.3710  110 130 
 GRMI    IPg  0A  2358 32.21                              94    0.1510  111  69 
 MAKU    IPn  0A  2358 46.19                                            201 300 
 ZNJK    IPn  0A  2358 54.41                                            265 138 
                                                                                
