 2012  812 0629 57.3 L  38.352  46.736 28.2  New  4 0.4 1.8LNew                1
 GAP=164        1.06       8.3     4.8 12.9 -0.8776E+01  0.4689E+02 -0.4972E+02E
 Action:ARG 24-03-13 15:57 OP:OBSP STATUS:               ID:20120812062957     I
 STAT SP IPHASW D HRMM SECON CODA AMPLIT PERI AZIMU VELO AIN AR TRES W  DIS CAZ7
 HRS     IPg  0A   630  3.67                             133   -0.0210 27.0  98 
 HRS      IAML A   630  3.91       146.2                               27.0  98 
 HRS     ESg  0A   630  8.72                             133    0.2110 27.0  98 
 TBZ     IPg  0A   630  6.76                             112   -0.3310 52.9 256 
 TBZ      IAML A   630  7.13        59.0                               52.9 256 
 TBZ     ESg  0A   630 13.98                             112   -0.4810 52.9 256 
 SHB     IPg  0A   630 13.94                              99    0.1410 98.0 266 
 SHB     ESg  0A   630 27.02                              99    0.8210 98.0 266 
 MRD     IPg  0A   630 13.46                              98   -0.4410 98.7 294 
 MRD     ESg  0A   630 26.46                              98    0.0910 98.7 294 
                                                                                
 2012  812 0640 44.6 L  38.392  46.650 18.9  New 19 0.3 4.1LNew                1
 GAP=124        0.73       3.0     2.0  7.2 -0.1594E+01  0.3840E+01 -0.7989E+01E
 Action:ARG 24-03-13 15:57 OP:OBSP STATUS:               ID:20120812064044     I
 STAT SP IPHASW D HRMM SECON CODA AMPLIT PERI AZIMU VELO AIN AR TRES W  DIS CAZ7
 HRS     IPg  0A   640 51.05                             116   -0.2610 35.2 103 
 HRS      IAML A   640 51.64     25450.9                               35.2 103 
 HRS     ESg  0A   640 56.55                             116    0.1710 35.2 103 
 TBZ     IPg  0A   640 53.06                             110   -0.0610 47.1 248 
 BST     IPg  0A   640 58.38                             102    0.1110 79.5 165 
 MRD     IPg  0A   640 59.72                             100   -0.2410 90.0 294 
 SHB     IPg  0A   641  0.31                             100    0.1910 91.0 263 
 AZR     IPg  0A   641  1.45                              99    0.1110 98.5 217 
 SRB     IPg  0A   641  2.89                              98   -0.1310  109 125 
 SRB      IAML A   641  2.91      5279.1                                109 125 
 GRMI    IPg  0A   641  4.20                              98   -0.2710  118  67 
 GRMI     IAML A   641  4.48      4653.6                                118  67 
 LRK     IPg  0A   641  9.60                              96   -0.1310  150  79 
 GLBA    IPg  0A   641 15.10                              95    0.7310  178  58 
 ASTR     IAML A   641 15.12      2044.9                                188  84 
 ASTR    IPg  0A   641 15.90                              95   -0.0110  188  84 
 LKRN    IPg  0A   641 15.90                              95   -0.2010  189  79 
 MAKU     IAML A   641 16.71      1782.6                                201 303 
 MAKU    IPn  0A   641 17.30                                            201 303 
 BRDA     IAML A   641 18.29      1597.7                                213  12 
 BRDA    IPn  0A   641 20.40                                            213  12 
 SAAT    IPn  0A   641 20.50                                            224  43 
 ZRD     IPn  0A   641 22.80                                            228  23 
 GANJ     IAML A   641 23.15      1116.7                                252 354 
 GANJ    IPn  0A   641 24.80                                            252 354 
 GNI     IPn  0A   641 26.30                                            255 320 
 ZNJK    IPn  0A   641 25.97                                            262 136 
                                                                                
 2012  812 0722 55.6 L  38.444  46.767 17.6  New  6 0.4 3.0LNew                1
 GAP=192        0.92       3.6     3.5 12.0  0.1741E+01  0.3040E+02 -0.3739E+01E
 Action:ARG 24-03-13 15:57 OP:OBSP STATUS:               ID:20120812072255     I
 STAT SP IPHASW D HRMM SECON CODA AMPLIT PERI AZIMU VELO AIN AR TRES W  DIS CAZ7
 HRS     IPg  0A   723  0.77                             120   -0.3710 27.8 120 
 HRS     ESg  0A   723  5.54                             120    0.2210 27.8 120 
 TABZ    IPg  2A   723  6.35                             105    0.63 5 57.7 222 
 TBZ     IPg  0A   723  5.79                             104   -0.1010 58.7 247 
 TBZ      IAML A   723  6.38      1020.0                               58.7 247 
 TBZ     ESg  0A   723 13.69                             104    0.0610 58.7 247 
 MRD     IPg  0A   723 12.47                              98    0.3310 97.5 288 
 MRD     ESg  0A   723 23.95                              98   -0.6310 97.5 288 
 SHB     IPg  0A   723 13.19                              98    0.3210  102 260 
 SHB     ESg  0A   723 26.31                              98    0.4610  102 260 
 AZR      IAML A   723 13.98       413.3                                109 219 
 AZR     IPg  0A   723 13.99                              98   -0.0810  109 219 
 AZR     ESg  0A   723 27.59                              98   -0.3710  109 219 
                                                                                
 2012  812 0726 53.3 L  38.461  46.706 13.4  New  5 0.3 2.3LNew                1
 GAP=190        0.94       3.5     3.2 18.0  0.1450E+01  0.3773E+02 -0.7298E+01E
 Action:ARG 24-03-13 15:57 OP:OBSP STATUS:               ID:20120812072653     I
 STAT SP IPHASW D HRMM SECON CODA AMPLIT PERI AZIMU VELO AIN AR TRES W  DIS CAZ7
 HRS     IPg  0A   726 59.23                             109   -0.2110 33.4 118 
 HRS      IAML A   726 59.42       436.5                               33.4 118 
 HRS     ESg  0A   727  4.28                             109    0.2410 33.4 118 
 TBZ     IPg  0A   727  2.43                             101   -0.3910 54.7 243 
 TBZ      IAML A   727  3.35       224.7                               54.7 243 
 TBZ     ESg  0A   727  9.59                             101   -0.3710 54.7 243 
 MRD     IPg  0A   727  8.91                              96    0.0410 91.8 288 
 MRD      IAML A   727  9.40       108.2                               91.8 288 
 MRD     ESg  0A   727 20.65                              96    0.1110 91.8 288 
 SHB     IPg  0A   727 10.19                              96    0.4810 97.0 259 
 SHB     ESg  0A   727 22.13                              96    0.1010 97.0 259 
 AZR     IPg  0A   727 10.91                              95   -0.5310  108 216 
 AZR     ESg  0A   727 25.57                              95    0.5310  108 216 
                                                                                
 2012  812 0729 29.6 L  38.400  46.828 10.0  New  5 0.4 2.3LNew                1
 GAP=186        1.05       6.4     6.8 11.5  0.8374E+01  0.6783E+02 -0.1083E+01E
 Action:ARG 24-03-13 15:57 OP:OBSP STATUS:               ID:20120812072928     I
 STAT SP IPHASW D HRMM SECON CODA AMPLIT PERI AZIMU VELO AIN AR TRES W  DIS CAZ7
 HRS     IPg  0A   729 33.49                             111   -0.1310 20.8 116 
 HRS     ESg  0A   729 37.08                             111    0.4610 20.8 116 
 TBZ     IPg  0A   729 39.91                              96   -0.3410 62.0 253 
 TBZ     ESg  0A   729 48.25                              96    0.0310 62.0 253 
 MRD     IPg  0A   729 46.59                              94   -0.5510  104 290 
 MRD     ESg  0A   730  0.70                              94    0.4110  104 290 
 SHB      IAML A   729 47.33        81.3                                106 263 
 SHB     IPg  0A   729 47.35                              93   -0.1810  106 263 
 SHB     ESg  0A   730  1.62                              93    0.6510  106 263 
 AZR     IPg  0A   729 47.63                              93   -0.3410  109 223 
                                                                                
 2012  812 0733  3.0 L  38.423  46.694 10.0  New  5 0.7 2.4LNew                1
 GAP=180        1.73       6.8     8.6 27.2  0.5777E+01  0.1965E+03 -0.2543E+01E
 Action:ARG 24-03-13 15:57 OP:OBSP STATUS:               ID:20120812073303     I
 STAT SP IPHASW D HRMM SECON CODA AMPLIT PERI AZIMU VELO AIN AR TRES W  DIS CAZ7
 HRS     IPg  0A   733  8.59                             103   -0.2310 32.6 111 
 HRS     ESg  0A   733 13.88                             103    0.6710 32.6 111 
 TBZ     IPg  0A   733 11.37                              98   -0.5710 51.9 247 
 TBZ     ESg  0A   733 18.45                              98   -0.2310 51.9 247 
 MRD     IPg  0A   733 17.37                              94   -1.1810 92.2 291 
 MRD      IAML A   733 19.00       135.8                               92.2 291 
 MRD     ESg  0A   733 31.15                              94    0.9110 92.2 291 
 SHB     IPg  0A   733 18.65                              94   -0.3810 95.2 261 
 SHB     ESg  0A   733 32.11                              94    1.0210 95.2 261 
 AZR     IPg  0A   733 20.39                              94   -0.0010  103 217 
 AZR      IAML A   733 20.83       113.7                                103 217 
 AZR     ESg  0A   733 33.45                              94   -0.0210  103 217 
                                                                                
 2012  812 0736 35.7 L  38.447  46.772 13.0  New  5 0.3 2.7LNew                1
 GAP=193        0.82       3.2     3.2 14.9  0.1396E+01  0.3631E+02 -0.4942E+01E
 Action:ARG 24-03-13 15:57 OP:OBSP STATUS:               ID:20120812073635     I
 STAT SP IPHASW D HRMM SECON CODA AMPLIT PERI AZIMU VELO AIN AR TRES W  DIS CAZ7
 HRS     IPg  0A   736 40.93                             112    0.0210 27.6 121 
 HRS     ESg  0A   736 44.88                             112    0.0510 27.6 121 
 TBZ     IPg  0A   736 45.93                             100   -0.0110 59.2 247 
 TBZ      IAML A   736 46.50       505.9                               59.2 247 
 TBZ     ESg  0A   736 53.43                             100   -0.2010 59.2 247 
 MRD     IPg  0A   736 52.29                              96    0.0610 97.8 288 
 MRD      IAML A   736 52.82       246.8                               97.8 288 
 MRD     ESg  0A   737  4.19                              96   -0.4510 97.8 288 
 SHB     IPg  0A   736 53.09                              95    0.1010  102 260 
 SHB      IAML A   736 53.54       229.5                                102 260 
 SHB     ESg  0A   737  6.71                              95    0.7610  102 260 
 AZR     IPg  0A   736 54.09                              95   -0.1210  110 219 
 AZR      IAML A   736 54.42       205.7                                110 219 
 AZR     ESg  0A   737  7.87                              95   -0.2210  110 219 
                                                                                
 2012  812 0801 20.0 L  38.411  46.796 19.8  New  5 0.3 2.9LNew                1
 GAP=186        0.87       3.4     3.6  9.8  0.1459E+01  0.2661E+02 -0.1175E+01E
 Action:ARG 24-03-13 15:57 OP:OBSP STATUS:               ID:20120812080120     I
 STAT SP IPHASW D HRMM SECON CODA AMPLIT PERI AZIMU VELO AIN AR TRES W  DIS CAZ7
 HRS     IPg  0A   8 1 25.33                             128    0.0810 23.8 116 
 HRS     ESg  0A   8 1 29.21                             128    0.0210 23.8 116 
 TBZ     IPg  0A   8 1 30.51                             106   -0.0810 59.8 251 
 TBZ      IAML A   8 1 31.19       765.2                               59.8 251 
 TBZ     ESg  0A   8 1 38.47                             106   -0.0710 59.8 251 
 MRD     IPg  0A   8 1 36.49                              99   -0.7410  101 290 
 MRD      IAML A   8 1 37.54       364.8                                101 290 
 MRD     ESg  0A   8 1 50.53                              99    0.3810  101 290 
 SHB      IAML A   8 1 37.88       347.8                                104 263 
 SHB     IPg  2A   8 1 38.17                              99    0.49 5  104 263 
 SHB     ESg  0A   8 1 51.09                              99    0.1510  104 263 
 AZR      IAML A   8 1 38.68       327.7                                108 221 
 AZR     IPg  0A   8 1 38.77                              99    0.3910  108 221 
 AZR     ESg  0A   8 1 51.89                              99   -0.2710  108 221 
                                                                                
 2012  812 0803 43.9 L  38.430  46.746 15.9  New  5 0.3 2.1LNew                1
 GAP=186        0.71       3.7     2.6 10.6  0.1791E+01  0.1888E+02 -0.7273E+01E
 Action:ARG 24-03-13 15:57 OP:OBSP STATUS:               ID:20120812080343     I
 STAT SP IPHASW D HRMM SECON CODA AMPLIT PERI AZIMU VELO AIN AR TRES W  DIS CAZ7
 HRS     IPg  0A   8 3 49.28                             117   -0.1810 28.6 116 
 HRS     ESg  0A   8 3 53.84                             117    0.2010 28.6 116 
 TBZ     IPg  0A   8 3 53.34                             103   -0.4510 56.4 248 
 TBZ     ESg  0A   8 4  0.96                             103   -0.2510 56.4 248 
 MRD     IPg  0A   8 4  0.06                              98   -0.1810 96.3 289 
 MRD      IAML A   8 4  0.27        63.4                               96.3 289 
 MRD     ESg  0A   8 4 12.60                              98    0.1010 96.3 289 
 SHB     IPg  0A   8 4  1.08                              97    0.2510 99.9 261 
 SHB     ESg  0A   8 4 13.88                              97    0.3510 99.9 261 
 AZR     IPg  0A   8 4  2.14                              97    0.1610  107 219 
                                                                                
 2012  812 1015 33.5 L  38.423  46.747 18.8  New  9 0.3 3.3LNew                1
 GAP=137        0.72       3.5     2.4  7.8 -0.7876E+00  0.1102E+02 -0.8016E+01E
 Action:ARG 24-03-13 15:57 OP:OBSP STATUS:               ID:20120812101533     I
 STAT SP IPHASW D HRMM SECON CODA AMPLIT PERI AZIMU VELO AIN AR TRES W  DIS CAZ7
 HRS     IPg  0A  1015 39.11                             122   -0.1110 28.3 114 
 HRS     ESg  0A  1015 43.57                             122    0.0310 28.3 114 
 TBZ     IPg  0A  1015 43.26                             106   -0.1810 56.2 248 
 BST     IPg  0A  1015 47.30                             101   -0.1210 81.0 171 
 MRD     IPg  0A  1015 49.44                              99   -0.4910 96.6 290 
 MRD      IAML A  1015 49.80      1003.5                               96.6 290 
 SHB      IAML A  1015 50.38       954.9                               99.8 261 
 SHB     IPg  0A  1015 50.53                              99    0.0810 99.8 261 
 SHB     ESg  0A  1016  3.63                              99    0.4410 99.8 261 
 AZR     IPg  0A  1015 51.57                              98    0.0510  106 219 
 AZR      IAML A  1015 51.58       866.5                                106 219 
 GRMI    IPg  0A  1015 52.22                              98    0.3210  109  66 
 MAKU    IPn  0A  1016  6.76                                            207 301 
 ZNJK    IPn  0A  1016 14.23                                            259 138 
                                                                                
 2012  812 1029 27.4 L  38.413  46.673 19.9  New  5 0.3 2.0LNew                1
 GAP=176        0.92       8.2     8.6 24.9  0.4657E+02  0.1953E+03  0.1097E+03E
 Action:ARG 24-03-13 15:57 OP:OBSP STATUS:               ID:20120812102927     I
 STAT SP IPHASW D HRMM SECON CODA AMPLIT PERI AZIMU VELO AIN AR TRES W  DIS CAZ7
 HRS     IPg  0A  1029 33.75                             119   -0.2610 33.9 108 
 HRS     ESg  0A  1029 39.35                             119    0.3510 33.9 108 
 TBZ     IPg  0A  1029 36.05                             110   -0.3610 49.8 247 
 BST     IPg  0A  1029 41.31                             102   -0.0810 81.2 166 
 MRD     IPg  0A  1029 42.72                             101   -0.2410 91.0 292 
 MRD      IAML A  1029 42.95        56.8                               91.0 292 
 SHB      IAML A  1029 43.17        55.2                               93.3 261 
 SHB     IPg  0A  1029 43.92                             100    0.5910 93.3 261 
                                                                                
 2012  812 1121 16.3 L  38.423  46.707 19.0  New  6 0.3 2.3LNew                1
 GAP=181        0.69       4.9     5.5 15.0  0.1572E+02  0.7417E+02  0.3436E+02E
 Action:ARG 24-03-13 15:57 OP:OBSP STATUS:               ID:20120812112116     I
 STAT SP IPHASW D HRMM SECON CODA AMPLIT PERI AZIMU VELO AIN AR TRES W  DIS CAZ7
 HRS     IPg  0A  1121 22.45                             119   -0.0410 31.5 111 
 HRS      IAML A  1121 22.57       368.8                               31.5 111 
 HRS     ESg  0A  1121 27.15                             119   -0.0110 31.5 111 
 TBZ     IPg  0A  1121 25.80                             108    0.0610 52.9 247 
 BST     IPg  0A  1121 30.55                             101    0.2310 81.7 169 
 MRD     IPg  0A  1121 32.02                             100   -0.1910 93.3 291 
 SHB     IPg  0A  1121 33.09                              99    0.3910 96.3 261 
 AZR     IPg  0A  1121 33.53                              99   -0.4410  104 218 
                                                                                
 2012  812 1151 31.5 L  38.397  46.796 14.7  New  8 0.2 3.3LNew                1
 GAP=134        0.65       2.6     2.1  6.9 -0.1806E+01  0.8944E+01 -0.5921E+01E
 Action:ARG 24-03-13 15:57 OP:OBSP STATUS:               ID:20120812115131     I
 STAT SP IPHASW D HRMM SECON CODA AMPLIT PERI AZIMU VELO AIN AR TRES W  DIS CAZ7
 HRS     IPg  0A  1151 36.07                             120   -0.1210 23.2 112 
 HRS      IAML A  1151 36.67      6765.7                               23.2 112 
 HRS     ESg  0A  1151 39.69                             120   -0.0210 23.2 112 
 TBZ     IPg  0A  1151 41.82                             101    0.0110 59.3 253 
 TBZ      IAML A  1151 41.95      2026.4                               59.3 253 
 TBZ     ESg  0A  1151 49.76                             101    0.2210 59.3 253 
 BST     IPg  0A  1151 44.49                              99   -0.3010 77.7 174 
 MRD     IPg  0A  1151 48.30                              96   -0.3910  102 291 
 MRD      IAML A  1151 48.91       931.8                                102 291 
 SHB     IPg  0A  1151 49.01                              96   -0.0210  104 263 
 GRMI    IPg  0A  1151 49.82                              96    0.4210  106  64 
 AZR     IPg  0A  1151 49.52                              96   -0.0510  107 222 
 AZR     ESg  0A  1152  3.38                              96    0.2410  107 222 
 ZNJK    IPn  0A  1152 11.16                                            254 138 
                                                                                
