 2012  811 1223 15.4 L  38.416  46.809  4.2  New 15 0.4 6.5LNew                1
 GAP=107        1.03       4.4     3.1643.8 -0.1252E+01  0.5833E+03 -0.1335E+04E
 Action:ARG 24-03-13 15:57 OP:OBSP STATUS:               ID:20120811122315     I
 STAT SP IPHASW D HRMM SECON CODA AMPLIT PERI AZIMU VELO AIN AR TRES W  DIS CAZ7
 HRS     IPg  0A  1223 19.51                              91   -0.0410 23.1 118 
 TBZ      IAML A  1223 26.02      31.1e5                               61.0 251 
 TBZ     IPg  0A  1223 26.20                              90    0.4110 61.0 251 
 BST     IPg  0A  1223 28.66                              90   -0.2010 79.7 175 
 ORD     IPg  0A  1223 30.70                              90   -0.0110 90.9 309 
 MRD     IPg  0A  1223 32.20                              90   -0.3310  102 289 
 MRD      IAML A  1223 32.59      14.7e5                                102 289 
 GRMI    IPg  0A  1223 32.55                              90   -0.3210  104  65 
 SHB      IAML A  1223 33.17      14.0e5                                105 262 
 SHB     IPg  0A  1223 33.34                              90    0.3010  105 262 
 LRK     IPg  0A  1223 37.80                              90   -0.3010  136  79 
 NAX     IPg  0A  1223 38.70                              90   -0.3810  142 307 
 NAX      IAML A  1223 39.06      85.7e4                                142 307 
 GLBA     IAML A  1223 43.43      65.2e4                                165  56 
 GLBA    IPg  0A  1223 43.80                              90    0.8610  165  56 
 BRDA    IPn  0A  1223 50.20                                            208   9 
 SAAT    IPn  0A  1223 49.40                                            213  41 
 ZRD     IPn  0A  1223 52.10                                            220  20 
 GANJ    IPn  0A  1223 54.70                                            251 351 
 ZNJK    IPn  0A  1223 55.20                                            255 139 
 ZNJK     IAML A  1223 56.32      27.3e4                                255 139 
                                                                                
 2012  811 1228 46.1 L  38.444  46.771 21.7  New  5 0.3 3.5LNew                1
 GAP=193        0.73       7.9     9.6 22.7  0.5835E+02  0.1882E+03  0.1105E+03E
 Action:ARG 24-03-13 15:57 OP:OBSP STATUS:               ID:20120811122846     I
 STAT SP IPHASW D HRMM SECON CODA AMPLIT PERI AZIMU VELO AIN AR TRES W  DIS CAZ7
 HRS     IPg  0A  1228 51.99                             122    0.0510 27.5 121 
 TBZ     IPg  0A  1228 56.26                              97   -0.2810 59.1 247 
 TBZ      IAML A  1228 56.92      3249.7                               59.1 247 
 BST     IPg  0A  1229  0.16                              93   -0.0610 83.1 173 
 BST      IAML A  1229  0.21      2001.9                               83.1 173 
 MRD     IPg  0A  1229  2.27                              92   -0.2010 97.8 288 
 SHB     IPg  0A  1229  3.64                              92    0.4910  102 260 
                                                                                
 2012  811 1249 15.5 L  38.394  46.687 12.3  New 12 0.3 4.6LNew                1
 GAP=124        0.84       3.9     1.9 12.5 -0.6450E+00  0.6995E+01 -0.1812E+02E
 Action:ARG 24-03-13 15:57 OP:OBSP STATUS:               ID:20120811124915     I
 STAT SP IPHASW D HRMM SECON CODA AMPLIT PERI AZIMU VELO AIN AR TRES W  DIS CAZ7
 HRS     IPg  0A  1249 21.23                             108   -0.1710 32.2 105 
 HRS      IAML A  1249 21.44     90707.1                               32.2 105 
 HRS     ESg  0A  1249 25.91                             108    0.1010 32.2 105 
 TBZ     IPg  0A  1249 23.92                             101   -0.3510 50.1 250 
 BST     IPg  0A  1249 29.06                              97    0.1110 78.9 167 
 MRD     IPg  0A  1249 30.69                              96   -0.5410 92.9 293 
 MRD      IAML A  1249 31.66     21312.7                               92.9 293 
 SHB     IPg  0A  1249 31.48                              95    0.0410 94.1 263 
 SHB      IAML A  1249 31.74     20879.6                               94.1 263 
 SHB     ESg  0A  1249 43.98                              95    0.5810 94.1 263 
 SRB     IPg  0A  1249 33.24                              95   -0.2010  106 126 
 LRK     IPg  0A  1249 40.00                              93   -0.0810  147  79 
 GLBA     IAML A  1249 44.54      7350.0                                176  57 
 GLBA    IPg  0A  1249 45.20                              93    0.3910  176  57 
 ASTR    IPg  0A  1249 46.40                              93    0.1210  185  84 
 BRDA     IAML A  1249 49.86      5090.9                                212  11 
 BRDA    IPn  0A  1249 50.90                                            212  11 
 SAAT    IPn  0A  1249 50.60                                            222  42 
 GNI     IPn  0A  1249 56.00                                            257 320 
                                                                                
 2012  811 1314  5.5 L  38.388  46.673  4.1  New 18 0.3 4.4LNew                1
 GAP= 98        0.72       2.8     2.0999.9  0.1213E+01 -0.1981E+03 -0.1856E+04E
 Action:ARG 24-03-13 15:57 OP:OBSP STATUS:               ID:20120811131405     I
 STAT SP IPHASW D HRMM SECON CODA AMPLIT PERI AZIMU VELO AIN AR TRES W  DIS CAZ7
 HRS     IPg  0A  1314 11.23                              90   -0.1410 33.2 104 
 TBZ      IAML A  1314 13.84     33357.1                               48.8 250 
 TBZ     IPg  0A  1314 14.01                              90    0.0610 48.8 250 
 BST      IAML A  1314 18.69     17264.0                               78.6 166 
 BST     IPg  0A  1314 19.07                              90    0.2210 78.6 166 
 MRD     IPg  0A  1314 20.65                              90   -0.4010 92.0 293 
 SHB      IAML A  1314 21.18     13471.8                               92.9 263 
 SHB     IPg  0A  1314 21.38                              90    0.1810 92.9 263 
 SRB     IPg  0A  1314 23.16                              90   -0.3610  107 125 
 GRMI    IPg  2A  1314 24.77                              90   -0.25 5  116  66 
 GRMI     IAML A  1314 25.24      9500.4                                116  66 
 NAX     IPg  0A  1314 28.40                              90    0.3610  134 311 
 SBZ     IPg  0A  1314 30.00                              90   -0.3010  148 319 
 LRK     IPg  0A  1314 30.40                              90    0.1210  148  78 
 GLBA    IPg  0A  1314 35.40                              90    0.3910  177  57 
 ASTR    IPg  0A  1314 36.40                              90   -0.0810  186  83 
 ASTR     IAML A  1314 36.67      4162.6                                186  83 
 MAKU    IPn  2A  1314 37.85                                            203 302 
 SAAT    IPn  0A  1314 40.70                                            223  42 
 SAAT     IAML A  1314 42.45      2896.7                                223  42 
 ZRD     IPn  0A  1314 42.00                                            227  22 
 ZRD      IAML A  1314 42.89      2777.9                                227  22 
 GANJ    IPn  0A  1314 44.70                                            252 353 
 GNI     IPn  2A  1314 47.40                                            257 320 
 ZNJK    IPn  2A  1314 46.49                                            261 136 
                                                                                
 2012  811 1323 14.9 L  38.482  46.714 10.0  New  6 0.4 3.7LNew                1
 GAP=144        0.90       6.5     5.1 45.9  0.1839E+02  0.1036E+03  0.3779E+02E
 Action:ARG 24-03-13 15:57 OP:OBSP STATUS:               ID:20120811132314     I
 STAT SP IPHASW D HRMM SECON CODA AMPLIT PERI AZIMU VELO AIN AR TRES W  DIS CAZ7
 HRS     IPg  0A  1323 20.93                             102   -0.0010 33.9 122 
 BST     IPg  0A  1323 29.91                              94    0.1510 88.0 170 
 MRD     IPg  0A  1323 30.00                              94   -0.3810 91.8 287 
 SHB     IPg  0A  1323 31.79                              94    0.3610 98.2 257 
 GRMI     IAML A  1323 33.15      2100.6                                109  70 
 GRMI    IPg  2A  1323 34.20                              93    1.02 5  109  70 
 SRB     IPg  0A  1323 33.09                              93   -0.3810  111 131 
 SRB      IAML A  1323 33.58      2049.3                                111 131 
                                                                                
 2012  811 1342 11.4 L  38.407  46.679 13.1  New 17 0.3 4.0LNew                1
 GAP= 99        0.77       2.8     2.0 11.0  0.1381E+01  0.5616E+01 -0.1131E+02E
 Action:ARG 24-03-13 15:57 OP:OBSP STATUS:               ID:20120811134211     I
 STAT SP IPHASW D HRMM SECON CODA AMPLIT PERI AZIMU VELO AIN AR TRES W  DIS CAZ7
 HRS     IPg  0A  1342 17.03                             108   -0.4810 33.2 107 
 HRS     ESg  0A  1342 22.31                             108    0.2310 33.2 107 
 TBZ     IPg  0A  1342 20.34                             102    0.1510 50.1 248 
 TBZ      IAML A  1342 20.42     12840.1                               50.1 248 
 BST     IPg  0A  1342 25.21                              97    0.0710 80.5 167 
 ORD     IPg  0A  1342 25.10                              97   -0.4510 83.0 314 
 MRD     IPg  0A  1342 27.35                              96    0.3910 91.7 292 
 MRD      IAML A  1342 27.39      5469.7                               91.7 292 
 SHB     IPg  0A  1342 27.42                              96    0.1310 93.7 262 
 SRB     IPg  0A  1342 29.22                              95   -0.3810  108 127 
 NAX     IPg  0A  1342 33.80                              94   -0.0110  134 310 
 LRK      IAML A  1342 35.98      2539.4                                147  79 
 SBZ     IPg  0A  1342 35.80                              94   -0.2310  147 319 
 LRK     IPg  2A  1342 35.80                              94   -0.25 5  147  79 
 GLBA     IAML A  1342 40.49      1850.0                                175  58 
 GLBA    IPg  0A  1342 41.10                              93    0.4310  175  58 
 ASTR     IAML A  1342 41.72      1670.2                                185  84 
 ASTR    IPg  0A  1342 42.40                              93    0.1310  185  84 
 LKRN    IPg  0A  1342 42.50                              93    0.0610  186  79 
 BRDA    IPn  0A  1342 47.10                                            210  12 
 SAAT    IPn  0A  1342 46.90                                            221  43 
 GANJ    IPn  0A  1342 51.10                                            250 353 
 GNI      IAML A  1342 51.18       857.3                                256 320 
 GNI     IPn  2A  1342 53.20                                            256 320 
                                                                                
 2012  811 1414 53.6 L  38.484  46.694 26.5  New  5 0.3 2.8LNew                1
 GAP=194        0.86       5.3     7.5 15.6  0.2844E+02  0.1011E+03  0.4604E+02E
 Action:ARG 24-03-13 15:57 OP:OBSP STATUS:               ID:20120811141453     I
 STAT SP IPHASW D HRMM SECON CODA AMPLIT PERI AZIMU VELO AIN AR TRES W  DIS CAZ7
 HRS     IPg  0A  1415  1.13                             121    0.1710 35.5 121 
 HRS     ESg  0A  1415  6.43                             121   -0.0210 35.5 121 
 TBZ     IPg  0A  1415  3.57                             108   -0.1010 54.9 240 
 BST     IPg  0A  1415  8.72                              98    0.0210 88.5 169 
 BST     ESg  0A  1415 19.80                              98   -0.1910 88.5 169 
 MRD     IPg  0A  1415  8.42                              98   -0.5110 90.1 287 
 MRD      IAML A  1415  9.26       354.4                               90.1 287 
 SHB     IPg  0A  1415 10.53                              97    0.6210 96.5 257 
                                                                                
 2012  811 1425 15.0 L  38.441  46.690 17.4  New 10 0.3 4.3LNew                1
 GAP=139        0.68       2.8     2.9  9.5  0.2932E+01  0.1664E+02  0.2019E+01E
 Action:ARG 24-03-13 15:57 OP:OBSP STATUS:               ID:20120811142515     I
 STAT SP IPHASW D HRMM SECON CODA AMPLIT PERI AZIMU VELO AIN AR TRES W  DIS CAZ7
 HRS     IPg  0A  1425 21.35                             115   -0.0910 33.7 114 
 HRS     ESg  0A  1425 26.27                             115    0.0110 33.7 114 
 TBZ     IPg  0A  1425 24.13                             106   -0.2010 52.4 244 
 TBZ      IAML A  1425 24.21     24554.1                               52.4 244 
 BST     IPg  0A  1425 29.13                             100   -0.2710 84.0 168 
 BST     ESg  0A  1425 40.51                             100    0.3310 84.0 168 
 MRD     IPg  0A  1425 30.57                              99    0.0010 91.2 290 
 MRD      IAML A  1425 30.80     11144.6                               91.2 290 
 SHB     IPg  0A  1425 31.44                              99    0.2210 95.2 260 
 SRB     IPg  0A  1425 33.29                              97   -0.2310  109 128 
 SRB      IAML A  1425 33.79      8230.5                                109 128 
 GRMI    IPg  2A  1425 34.95                              97    0.91 5  113  68 
 MAKU    IPn  2A  1425 48.11                                            201 301 
 GNI      IAML A  1425 54.77      1753.1                                253 319 
 GNI     IPn  0A  1425 57.00                                            253 319 
 ZNJK    IPn  2A  1425 56.43                                            264 137 
                                                                                
 2012  811 1455 57.2 L  38.439  46.742  5.9  New  6 0.4 3.1LNew                1
 GAP=188        1.06       4.4     3.4 82.4  0.5274E+01  0.1437E+03  0.4416E+01E
 Action:ARG 24-03-13 15:57 OP:OBSP STATUS:               ID:20120811145557     I
 STAT SP IPHASW D HRMM SECON CODA AMPLIT PERI AZIMU VELO AIN AR TRES W  DIS CAZ7
 HRS     IPg  0A  1456  2.39                              95   -0.0810 29.4 117 
 HRS     ESg  0A  1456  6.53                              95    0.1410 29.4 117 
 TBZ     IPg  0A  1456  6.75                              92   -0.1710 56.5 247 
 TBZ     ESg  0A  1456 13.67                              92   -0.5110 56.5 247 
 BST     IPg  0A  1456 10.95                              91   -0.3110 82.9 171 
 BST     ESg  0A  1456 22.37                              91    0.5910 82.9 171 
 MRD     IPg  0A  1456 13.71                              91    0.3610 95.6 289 
 SHB      IAML A  1456 14.02       603.0                               99.7 260 
 SHB     IPg  0A  1456 14.52                              91    0.5010 99.7 260 
 SRB     IPg  0A  1456 14.46                              91   -0.5310  106 130 
 SRB      IAML A  1456 14.85       552.8                                106 130 
                                                                                
 2012  811 1521 14.5 L  38.430  46.793 16.8  New 20 0.3 4.7LNew                1
 GAP=118        0.89       4.8     2.5 15.5  0.1398E+01 -0.2526E+01 -0.3981E+02E
 Action:ARG 24-03-13 15:57 OP:OBSP STATUS:               ID:20120811152114     I
 STAT SP IPHASW D HRMM SECON CODA AMPLIT PERI AZIMU VELO AIN AR TRES W  DIS CAZ7
 HRS     IPg  0A  1521 19.53                             122   -0.0810 25.0 120 
 TBZ     IPg  0A  1521 25.34                             103    0.3110 60.2 249 
 ORD     IPg  2A  1521 29.20                              99   -0.45 5 88.9 309 
 ORD      IAML A  1521 29.59     28748.4                               88.9 309 
 MRD     IPg  0A  1521 31.27                              98   -0.2210  100 289 
 MRD      IAML A  1521 31.44     23962.1                                100 289 
 SRB     IPg  0A  1521 31.52                              98   -0.2010  102 131 
 SRB      IAML A  1521 32.15     23416.4                                102 131 
 SHB      IAML A  1521 32.03     22621.9                                104 261 
 SHB     IPg  0A  1521 32.40                              98    0.3010  104 261 
 GRMI    IPg  2A  1521 32.43                              97    0.20 5  105  66 
 GRMI     IAML A  1521 32.56     22367.0                                105  66 
 LRK      IAML A  1521 37.56     14420.9                                137  80 
 LRK     IPg  0A  1521 37.70                              96    0.2010  137  80 
 SBZ     IPg  0A  1521 39.60                              95   -0.3610  152 315 
 GLBA    IPg  0A  1521 42.90                              95    0.7010  166  57 
 ASTR    IPg  0A  1521 43.20                              94   -0.5210  175  85 
 LKRN    IPg  0A  1521 43.80                              94   -0.0710  176  79 
 BRDA    IPn  0A  1521 49.60                                            206   9 
 MAKU    IPn  2A  1521 48.14                                            210 300 
 SAAT    IPn  2A  1521 48.30                                            212  41 
 ZRD      IAML A  1521 49.05      5980.0                                219  20 
 ZRD     IPn  0A  1521 50.70                                            219  20 
 GANJ     IAML A  1521 52.75      4544.1                                249 351 
 GANJ    IPn  0A  1521 53.70                                            249 351 
 ZNJK    IPn  2A  1521 54.65                                            257 139 
 GNI     IPn  0A  1521 56.70                                            260 318 
 VANB    IPn  0A  1522  1.30                                            297 275 
                                                                                
