 2012  812 1419  8.9 L  38.421  46.796 18.1  New  9 0.2 3.1LNew                1
 GAP=136        0.62       3.0     1.8  5.7 -0.9429E+00  0.5310E+01 -0.6793E+01E
 Action:ARG 24-03-13 15:57 OP:OBSP STATUS:               ID:20120812141908     I
 STAT SP IPHASW D HRMM SECON CODA AMPLIT PERI AZIMU VELO AIN AR TRES W  DIS CAZ7
 HRS     IPg  0A  1419 14.02                             125    0.0010 24.3 118 
 HRS     ESg  0A  1419 17.86                             125   -0.0210 24.3 118 
 TBZ     IPg  0A  1419 19.39                             105   -0.0610 60.2 250 
 TBZ      IAML A  1419 19.59      1255.4                               60.2 250 
 TBZ     ESg  0A  1419 27.31                             105   -0.0710 60.2 250 
 BST     IPg  0A  1419 22.61                             101   -0.0810 80.3 174 
 BST      IAML A  1419 22.76       839.9                               80.3 174 
 MRD     IPg  0A  1419 25.57                              99   -0.4310  101 289 
 SHB      IAML A  1419 26.31       565.2                                104 262 
 SHB     IPg  0A  1419 26.49                              98   -0.0510  104 262 
 SHB     ESg  0A  1419 40.25                              98    0.4710  104 262 
 GRMI    IPg  0A  1419 26.90                              98    0.2410  105  65 
 AZR     IPg  0A  1419 27.36                              98    0.0110  109 221 
 MAKU    IPn  0A  1419 42.65                                            211 300 
 ZNJK    IPn  0A  1419 48.78                                            256 139 
                                                                                
 2012  812 1515 10.2 L  38.427  46.849 12.6  New  6 0.3 2.2LNew                1
 GAP=198        0.86       6.2     5.8 22.2  0.2057E+02  0.9274E+02  0.4464E+02E
 Action:ARG 24-03-13 15:57 OP:OBSP STATUS:               ID:20120812151510     I
 STAT SP IPHASW D HRMM SECON CODA AMPLIT PERI AZIMU VELO AIN AR TRES W  DIS CAZ7
 HRS     IPg  0A  1515 14.44                             118    0.1110 20.7 126 
 HRS      IAML A  1515 14.84       498.2                               20.7 126 
 TBZ     IPg  0A  1515 20.76                              98   -0.5410 64.8 251 
 BST     IPg  0A  1515 23.58                              97   -0.3110 80.6 178 
 MRD     IPg  0A  1515 27.84                              95   -0.0210  105 288 
 SHB     IPg  0A  1515 28.70                              95    0.2210  109 262 
 SHB     ESg  0A  1515 42.24                              95    0.0110  109 262 
 AZR     IPg  0A  1515 29.64                              95    0.5210  113 223 
                                                                                
 2012  812 1559 25.4 L  38.447  46.806 14.2  New  6 0.3 2.6LNew                1
 GAP=187        0.78       2.9     2.5  4.9  0.3471E+01  0.6233E+01  0.6813E+01E
 Action:ARG 24-03-13 15:57 OP:OBSP STATUS:               ID:20120812155925     I
 STAT SP IPHASW D HRMM SECON CODA AMPLIT PERI AZIMU VELO AIN AR TRES W  DIS CAZ7
 TVRZ    IPg  0A  1559 28.78                             134   -0.0210 13.6 298 
 TVRZ     IAML A  1559 29.12      1979.9                               13.6 298 
 TVRZ    ESg  0A  1559 31.33                             134    0.0010 13.6 298 
 HRS     IPg  0A  1559 30.18                             117   -0.1610 25.1 125 
 HRS      IAML A  1559 30.67       981.3                               25.1 125 
 HRS     ESg  0A  1559 34.21                             117    0.1710 25.1 125 
 TBZ     IPg  0A  1559 35.74                             100   -0.4110 62.0 248 
 TBZ      IAML A  1559 36.34       300.4                               62.0 248 
 TBZ     ESg  0A  1559 44.03                             100   -0.1710 62.0 248 
 MRD      IAML A  1559 42.79       149.3                                101 287 
 MRD     IPg  0A  1559 42.80                              96    0.3510  101 287 
 MRD     ESg  0A  1559 54.95                              96   -0.2710  101 287 
 SHB     IPg  0A  1559 43.00                              96   -0.2110  105 260 
 SHB     ESg  0A  1559 57.19                              96    0.6310  105 260 
 AZR     IPg  0A  1559 44.48                              96    0.2210  112 220 
 AZR     ESg  0A  1559 58.27                              96   -0.1210  112 220 
                                                                                
 2012  812 1718 30.6 L  38.459  46.741 19.2  New  6 0.3                        1
 GAP=172        0.87       4.1     2.8  4.6  0.5641E+01  0.6910E+01  0.8841E+01E
 Action:ARG 24-03-13 15:57 OP:OBSP STATUS:               ID:20120812171830     I
 STAT SP IPHASW D HRMM SECON CODA AMPLIT PERI AZIMU VELO AIN AR TRES W  DIS CAZ7
 TVRZ    IPg  0A  1718 34.35                             156    0.2310 8.09 308 
 TVRZ    ESg  0A  1718 36.88                             156    0.1110 8.09 308 
 HRS     IPg  0A  1718 36.61                             120   -0.0810 30.6 121 
 HRS     ESg  0A  1718 41.06                             120   -0.2210 30.6 121 
 TBZ     IPg  0A  1718 40.66                             106   -0.0910 57.3 244 
 TBZ     ESg  0A  1718 48.18                             106   -0.2010 57.3 244 
 MRD     IPg  0A  1718 47.18                             100    0.4110 94.8 288 
 MRD     ESg  0A  1718 58.12                             100   -0.7910 94.8 288 
 SHB     IPg  0A  1718 47.84                              99    0.2410100.0 259 
 SHB     ESg  0A  1719  0.69                              99    0.3210100.0 259 
 AZR     IPg  0A  1718 49.18                              98    0.0710  109 218 
                                                                                
 2012  812 1844 22.1 L  38.409  46.838 17.6  New  6 0.2 2.2LNew                1
 GAP=174        0.64       3.0     2.5  4.3  0.4358E+01  0.7204E+01  0.6433E+01E
 Action:ARG 24-03-13 15:57 OP:OBSP STATUS:               ID:20120812184422     I
 STAT SP IPHASW D HRMM SECON CODA AMPLIT PERI AZIMU VELO AIN AR TRES W  DIS CAZ7
 TVRZ    IPg  0A  1844 26.38                             132   -0.0510 18.2 305 
 TVRZ    ESg  0A  1844 29.55                             132   -0.1110 18.2 305 
 HRS     IPg  0A  1844 26.77                             129    0.0610 20.5 120 
 HRS      IAML A  1844 26.89       503.1                               20.5 120 
 HRS     ESg  0A  1844 30.27                             129    0.1310 20.5 120 
 TBZ     IPg  0A  1844 32.96                             103   -0.2110 63.2 252 
 TBZ     ESg  0A  1844 41.18                             103   -0.2710 63.2 252 
 MRD     IPg  0A  1844 39.52                              98   -0.3510  105 289 
 MRD     ESg  0A  1844 53.58                              98    0.4010  105 289 
 SHB     IPg  0A  1844 40.34                              98    0.0010  108 263 
 SHB      IAML A  1844 40.50        53.5                                108 263 
 SHB     ESg  0A  1844 54.36                              98    0.3610  108 263 
 AZR     IPg  0A  1844 40.86                              97    0.0410  110 223 
                                                                                
 2012  812 1846 40.2 L  38.395  46.830 15.1  New  5 0.5 2.0LNew                1
 GAP=164        1.24       6.0     4.7 10.0  0.1659E+02  0.3266E+02  0.2863E+02E
 Action:ARG 24-03-13 15:57 OP:OBSP STATUS:               ID:20120812184640     I
 STAT SP IPHASW D HRMM SECON CODA AMPLIT PERI AZIMU VELO AIN AR TRES W  DIS CAZ7
 TVRZ    IPg  0A  1846 44.06                             127   -0.2410 18.6 310 
 TVRZ    ESg  0A  1846 47.09                             127   -0.2710 18.6 310 
 HRS     IPg  0A  1846 44.55                             124    0.0110 20.4 115 
 HRS     ESg  0A  1846 48.18                             124    0.3910 20.4 115 
 TBZ     IPg  0A  1846 50.62                             101   -0.3610 62.1 254 
 TBZ     ESg  0A  1846 58.74                             101   -0.3310 62.1 254 
 MRD     IPg  0A  1846 57.34                              96   -0.5410  104 290 
 MRD     ESg  0A  1847 12.16                              96    1.0310  104 290 
 SHB     IPg  0A  1846 58.04                              96   -0.1910  107 264 
 SHB      IAML A  1846 58.59        43.1                                107 264 
 SHB     ESg  0A  1847 12.24                              96    0.4910  107 264 
                                                                                
 2012  812 1928  4.7 L  38.434  46.810 20.9  New  5 0.6 1.7LNew                1
 GAP=181        1.63       9.2     7.0 10.0  0.3973E+02  0.4924E+02  0.4642E+02E
 Action:ARG 24-03-13 15:57 OP:OBSP STATUS:               ID:20120812192804     I
 STAT SP IPHASW D HRMM SECON CODA AMPLIT PERI AZIMU VELO AIN AR TRES W  DIS CAZ7
 TVRZ    IPg  0A  1928  9.22                             141    0.1810 14.6 302 
 TVRZ    ESg  0A  1928 12.36                             141    0.1010 14.6 302 
 HRS     IPg  0A  1928 10.10                             125   -0.0010 24.0 122 
 HRS     ESg  0A  1928 13.92                             125   -0.2110 24.0 122 
 TBZ     IPg  0A  1928 15.28                              93   -0.3410 61.8 249 
 TBZ      IAML A  1928 15.83        47.9                               61.8 249 
 TBZ     ESg  0A  1928 23.12                              93   -0.6710 61.8 249 
 MRD      IAML A  1928 21.73        23.4                                101 288 
 MRD     IPg  0A  1928 22.28                              91    0.5910  101 288 
 MRD     ESg  0A  1928 33.24                              91   -1.1710  101 288 
 SHB     IPg  0A  1928 22.68                              91    0.3710  105 261 
 SHB     ESg  0A  1928 36.64                              91    1.1510  105 261 
                                                                                
 2012  812 1929 56.6 L  38.420  46.776 18.7  New  5 0.4 2.1LNew                1
 GAP=186        1.01       6.7     3.9 16.9  0.6119E+01  0.1498E+02 -0.2491E+02E
 Action:ARG 24-03-13 15:57 OP:OBSP STATUS:               ID:20120812192956     I
 STAT SP IPHASW D HRMM SECON CODA AMPLIT PERI AZIMU VELO AIN AR TRES W  DIS CAZ7
 HRS     IPg  0A  1930  2.21                             124    0.2310 25.9 116 
 TBZ     IPg  0A  1930  6.69                             106   -0.2110 58.4 250 
 TBZ     ESg  0A  1930 14.19                             106   -0.4510 58.4 250 
 BST     IPg  0A  1930 10.33                             101   -0.0910 80.4 173 
 MRD     IPg  0A  1930 13.03                              99   -0.4010 99.0 289 
 SHB      IAML A  1930 14.03        57.9                                102 262 
 SHB     IPg  0A  1930 14.15                              99    0.2010  102 262 
 SHB     ESg  0A  1930 27.71                              99    0.7210  102 262 
                                                                                
 2012  812 2004 31.0 L  38.490  46.762 18.3  New  5 0.4 1.8LNew                1
 GAP=203        1.12       7.9     4.9  5.8  0.2882E+02  0.1423E+02  0.1748E+02E
 Action:ARG 24-03-13 15:57 OP:OBSP STATUS:               ID:20120812200431     I
 STAT SP IPHASW D HRMM SECON CODA AMPLIT PERI AZIMU VELO AIN AR TRES W  DIS CAZ7
 TVRZ    IPg  0A  20 4 34.35                             155   -0.0510 8.35 281 
 TVRZ    ESg  0A  20 4 36.81                             155   -0.1510 8.35 281 
 HRS     IPg  0A  20 4 37.05                             118   -0.0310 31.0 128 
 HRS     ESg  0A  20 4 42.03                             118    0.3810 31.0 128 
 TBZ     IPg  0A  20 4 40.66                             105   -0.9610 60.5 242 
 MRD     IPg  0A  20 4 47.40                              99    0.1310 95.6 285 
 MRD      IAML A  20 4 47.55        32.3                               95.6 285 
 MRD     ESg  0A  20 4 59.72                              99    0.2310 95.6 285 
 SHB     IPg  0A  20 4 48.22                              98   -0.1710  102 257 
 SHB     ESg  0A  20 5  2.08                              98    0.6310  102 257 
                                                                                
 2012  812 2009 35.5 L  38.416  46.871 16.2  New  5 0.3 2.3LNew                1
 GAP=187        0.82       4.1     3.4  5.9  0.8193E+01  0.1311E+02  0.7811E+01E
 Action:ARG 24-03-13 15:57 OP:OBSP STATUS:               ID:20120812200935     I
 STAT SP IPHASW D HRMM SECON CODA AMPLIT PERI AZIMU VELO AIN AR TRES W  DIS CAZ7
 HRS     IPg  0A  20 9 39.66                             129   -0.0710 18.4 126 
 HRS      IAML A  20 9 40.14       715.6                               18.4 126 
 HRS     ESg  0A  20 9 42.75                             129   -0.1210 18.4 126 
 TVRZ    IPg  0A  20 9 40.12                             127    0.1510 20.3 299 
 TVRZ    ESg  0A  20 9 43.47                             127    0.1910 20.3 299 
 TBZ     IPg  0A  20 9 46.96                             102   -0.0610 66.2 253 
 TBZ     ESg  0A  20 9 55.37                             102   -0.2510 66.2 253 
 MRD      IAML A  20 9 53.68        67.8                                107 288 
 MRD     IPg  0A  20 9 53.82                              97    0.1510  107 288 
 MRD     ESg  0A  2010  6.57                              97   -0.6910  107 288 
 SHB     IPg  0A  20 9 54.54                              97    0.3310  110 263 
 SHB     ESg  0A  2010  8.59                              97    0.3710  110 263 
                                                                                
 2012  812 2011  2.2 L  38.427  46.684 12.6  New  5 0.5 1.9LNew                1
 GAP=135        1.41       6.5     4.0  9.9  0.1094E+02  0.2132E+02  0.4259E+02E
 Action:ARG 24-03-13 15:57 OP:OBSP STATUS:               ID:20120812201102     I
 STAT SP IPHASW D HRMM SECON CODA AMPLIT PERI AZIMU VELO AIN AR TRES W  DIS CAZ7
 TVRZ    IPg  0A  2011  4.53                             144   -0.2710 8.67 351 
 TVRZ    ESg  0A  2011  6.84                             144    0.0710 8.67 351 
 HRS     IPg  0A  2011  8.06                             107   -0.2210 33.5 111 
 HRS      IAML A  2011  8.49       171.7                               33.5 111 
 HRS     ESg  0A  2011 13.41                             107    0.5410 33.5 111 
 TBZ     IPg  0A  2011 10.60                             101   -0.5210 51.3 246 
 TBZ      IAML A  2011 11.49        98.1                               51.3 246 
 TBZ     ESg  0A  2011 17.22                             101   -0.6210 51.3 246 
 MRD     IPg  0A  2011 17.02                              96   -0.6110 91.3 291 
 MRD      IAML A  2011 17.92        43.6                               91.3 291 
 MRD     ESg  0A  2011 29.62                              96    0.3910 91.3 291 
 SHB     IPg  0A  2011 18.28                              96    0.1310 94.4 261 
 SHB     ESg  0A  2011 31.24                              96    1.1010 94.4 261 
                                                                                
 2012  812 2126 31.8 L  38.393  46.676  9.9  New  5 0.4 2.2LNew                1
 GAP=145        0.95       9.1     5.3 18.1  0.2238E+02  0.5337E+02  0.1496E+03E
 Action:ARG 24-03-13 15:57 OP:OBSP STATUS:               ID:20120812212631     I
 STAT SP IPHASW D HRMM SECON CODA AMPLIT PERI AZIMU VELO AIN AR TRES W  DIS CAZ7
 TVRZ    IPg  0A  2126 34.45                             125   -0.1310 12.3 357 
 TVRZ    ESg  0A  2126 36.74                             125    0.1010 12.3 357 
 HRS     IPg  0A  2126 37.78                             102    0.0410 33.0 104 
 TBZ     IPg  0A  2126 39.91                              98   -0.4610 49.2 249 
 MRD     IPg  0A  2126 47.13                              94   -0.2510 92.1 293 
 MRD      IAML A  2126 47.56        86.1                               92.1 293 
 SHB      IAML A  2126 47.61        84.4                               93.2 263 
 SHB     IPg  0A  2126 48.27                              94    0.7010 93.2 263 
                                                                                
 2012  812 2133 17.8 L  38.456  46.803  4.1  New  8 0.2 3.1LNew                1
 GAP=140        0.69       4.9     2.7728.3 -0.5757E+01  0.1497E+04 -0.2578E+04E
 Action:ARG 24-03-13 15:57 OP:OBSP STATUS:               ID:20120812213317     I
 STAT SP IPHASW D HRMM SECON CODA AMPLIT PERI AZIMU VELO AIN AR TRES W  DIS CAZ7
 HRS     IPg  0A  2133 22.37                              90   -0.0610 25.9 126 
 HRS     ESg  0A  2133 25.89                              90   -0.0310 25.9 126 
 TBZ     IPg  0A  2133 28.25                              90   -0.1410 62.1 247 
 TBZ      IAML A  2133 28.34      1200.9                               62.1 247 
 MRD     IPg  0A  2133 34.24                              90   -0.3910  100 287 
 GRMI    IPg  0A  2133 35.35                              90    0.2810  103  67 
 SHB     IPg  0A  2133 35.35                              90   -0.1310  105 260 
 SHB     ESg  0A  2133 49.21                              90    0.4710  105 260 
 AZR     IPg  0A  2133 36.64                              90   -0.0110  112 220 
 MAKU    IPn  0A  2133 51.30                                            209 299 
 ZNJK    IPn  0A  2133 57.59                                            259 139 
 ZNJK     IAML A  2133 58.94       105.2                                259 139 
                                                                                
 2012  812 2201 15.9 L  38.436  46.706 14.5  New  5 0.3 2.4LNew                1
 GAP=138        0.86       4.1     2.5  5.4  0.4742E+01  0.7378E+01  0.1291E+02E
 Action:ARG 24-03-13 15:57 OP:OBSP STATUS:               ID:20120812220115     I
 STAT SP IPHASW D HRMM SECON CODA AMPLIT PERI AZIMU VELO AIN AR TRES W  DIS CAZ7
 TVRZ    IPg  0A  22 1 18.56                             149   -0.2110 8.19 336 
 TVRZ    ESg  0A  22 1 20.96                             149    0.0410 8.19 336 
 HRS     IPg  0A  22 1 21.83                             111   -0.1010 32.2 114 
 HRS      IAML A  22 1 22.02       571.3                               32.2 114 
 HRS     ESg  0A  22 1 26.77                             111    0.3310 32.2 114 
 TBZ     IPg  0A  22 1 24.75                             103   -0.5410 53.5 245 
 TBZ      IAML A  22 1 25.89       293.3                               53.5 245 
 TBZ     ESg  0A  22 1 32.07                             103   -0.2410 53.5 245 
 MRD     IPg  0A  22 1 31.35                              97   -0.3010 92.7 290 
 MRD     ESg  0A  22 1 43.71                              97    0.2610 92.7 290 
 SHB     IPg  0A  22 1 32.49                              97    0.2210 96.5 260 
 SHB     ESg  0A  22 1 45.07                              97    0.5410 96.5 260 
                                                                                
