 2012  812 0010 52.7 L  38.401  46.696  7.2  New  5 0.3 2.5LNew                1
 GAP=175        0.73       7.6     3.9 62.2  0.1711E+02  0.1092E+03  0.5381E+02E
 Action:ARG 24-03-13 15:57 OP:OBSP STATUS:               ID:20120812001052     I
 STAT SP IPHASW D HRMM SECON CODA AMPLIT PERI AZIMU VELO AIN AR TRES W  DIS CAZ7
 HRS     IPg  0A   010 58.45                              97    0.1110 31.6 107 
 TBZ     IPg  0A   011  1.26                              94   -0.2910 51.2 249 
 TBZ      IAML A   011  1.82       394.1                               51.2 249 
 MRD     IPg  0A   011  8.28                              92   -0.1910 93.3 292 
 SHB      IAML A   011  8.95       163.7                               95.1 262 
 SHB     IPg  0A   011  9.23                              92    0.4710 95.1 262 
 SRB     IPg  0A   011 10.48                              92   -0.1010  106 127 
                                                                                
 2012  812 0015 22.8 L  38.439  46.760 17.8  New  8 0.3 3.1LNew                1
 GAP=139        0.73       3.8     1.8 12.7  0.1885E+01 -0.4567E+01 -0.2088E+02E
 Action:ARG 24-03-13 15:57 OP:OBSP STATUS:               ID:20120812001522     I
 STAT SP IPHASW D HRMM SECON CODA AMPLIT PERI AZIMU VELO AIN AR TRES W  DIS CAZ7
 HRS     IPg  0A   015 28.38                             120   -0.0810 28.0 119 
 TBZ     IPg  0A   015 32.89                             105   -0.1510 58.0 247 
 TBZ      IAML A   015 33.23      1314.3                               58.0 247 
 TBZ     ESg  0A   015 40.59                             105   -0.1110 58.0 247 
 MRD     IPg  0A   015 39.11                              99   -0.2410 97.1 289 
 SHB     IPg  0A   015 39.92                              98   -0.1010  101 260 
 SHB      IAML A   015 40.19       589.3                                101 260 
 SHB     ESg  0A   015 53.44                              98    0.5210  101 260 
 SRB     IPg  0A   015 40.20                              98   -0.3510  104 130 
 SRB     ESg  0A   015 54.09                              98    0.2510  104 130 
 GRMI    IPg  0A   015 41.21                              98    0.2710  107  67 
 MAKU    IPn  0A   015 56.09                                            207 300 
 MAKU     IAML A   015 56.14       169.2                                207 300 
 ZNJK    IPn  0A   016  3.21                                            260 139 
                                                                                
 2012  812 0034 16.3 L  38.423  46.761 18.5  New  8 0.3 3.8LNew                1
 GAP=137        0.79       5.5     2.3  8.7 -0.4140E+00  0.9341E+01 -0.2422E+02E
 Action:ARG 24-03-13 15:57 OP:OBSP STATUS:               ID:20120812003416     I
 STAT SP IPHASW D HRMM SECON CODA AMPLIT PERI AZIMU VELO AIN AR TRES W  DIS CAZ7
 HRS     IPg  0A   034 21.88                             122   -0.0110 27.2 115 
 HRS      IAML A   034 22.15     17710.1                               27.2 115 
 HRS     ESg  0A   034 26.04                             122   -0.0310 27.2 115 
 TBZ     IPg  0A   034 26.27                             106   -0.2010 57.4 249 
 MRD     IPg  0A   034 32.49                              99   -0.4710 97.7 290 
 SHB     IPg  0A   034 33.41                              99   -0.0910  101 261 
 SHB     ESg  0A   034 46.91                              99    0.5310  101 261 
 SRB     IPg  0A   034 33.79                              99   -0.0710  103 130 
 GRMI     IAML A   034 34.26      2706.7                                108  66 
 GRMI    IPg  0A   034 34.90                              98    0.3410  108  66 
 MAKU     IAML A   034 49.60       837.9                                208 300 
 MAKU    IPn  0A   034 49.64                                            208 300 
 ZNJK     IAML A   034 55.85       528.7                                258 138 
 ZNJK    IPn  0A   034 56.71                                            258 138 
                                                                                
 2012  812 0041 26.3 L  38.469  46.741 19.1  New  5 0.3 2.7LNew                1
 GAP=196        0.90       9.0     3.7 19.9  0.1563E+02  0.1372E+02 -0.3272E+02E
 Action:ARG 24-03-13 15:57 OP:OBSP STATUS:               ID:20120812004126     I
 STAT SP IPHASW D HRMM SECON CODA AMPLIT PERI AZIMU VELO AIN AR TRES W  DIS CAZ7
 HRS     IPg  0A   041 32.59                             120    0.0810 31.1 122 
 TBZ     IPg  0A   041 35.92                             106   -0.6610 57.9 244 
 MRD      IAML A   041 42.37       260.9                               94.5 287 
 MRD     IPg  0A   041 42.49                             100    0.0210 94.5 287 
 SHB     IPg  0A   041 43.34                              99   -0.0610  100 258 
 SHB      IAML A   041 43.40       237.3                                100 258 
 SHB     ESg  0A   041 56.66                              99    0.4610  100 258 
 SRB     IPg  0A   041 44.80                              98    0.1610  108 131 
                                                                                
 2012  812 0135 50.4 L  38.442  46.744  6.6  New  5 0.2 2.2LNew                1
 GAP=189        0.61       6.0     2.5 58.0  0.7075E+01  0.4909E+02 -0.3834E+02E
 Action:ARG 24-03-13 15:57 OP:OBSP STATUS:               ID:20120812013550     I
 STAT SP IPHASW D HRMM SECON CODA AMPLIT PERI AZIMU VELO AIN AR TRES W  DIS CAZ7
 HRS     IPg  0A   135 55.69                              97    0.0410 29.4 118 
 TBZ     IPg  0A   135 59.71                              93   -0.4110 56.7 246 
 TBZ      IAML A   136  0.05       169.5                               56.7 246 
 MRD     IPg  0A   136  6.52                              92    0.0010 95.6 289 
 SHB     IPg  0A   136  7.18                              92   -0.0310 99.9 260 
 SHB     ESg  0A   136 20.12                              92    0.3010 99.9 260 
 SRB      IAML A   136  7.99        69.5                                106 130 
 SRB     IPg  0A   136  8.27                              92    0.1010  106 130 
                                                                                
 2012  812 0224 43.2 L  38.433  46.784 11.9  New 14 0.4 3.7LNew                1
 GAP=118        1.06       5.2     2.6 26.4 -0.5085E+00 -0.3428E+01 -0.8432E+02E
 Action:ARG 24-03-13 15:57 OP:OBSP STATUS:               ID:20120812022443     I
 STAT SP IPHASW D HRMM SECON CODA AMPLIT PERI AZIMU VELO AIN AR TRES W  DIS CAZ7
 HRS     IPg  0A   224 47.81                             111   -0.2910 25.9 119 
 TBZ     IPg  0A   224 53.56                              99    0.0710 59.6 249 
 TBZ     ESg  0A   225  1.78                              99    0.5810 59.6 249 
 ORD     IPg  0A   224 57.80                              96   -0.3210 88.0 309 
 MRD     IPg  0A   224 59.66                              95   -0.3110 99.3 289 
 MRD      IAML A   224 59.99      2424.8                               99.3 289 
 SRB     IPg  0A   224 59.97                              95   -0.5110  102 131 
 SHB      IAML A   225  0.65      2284.3                                103 261 
 SHB     IPg  0A   225  0.73                              95    0.1210  103 261 
 GRMI    IPg  0A   225  0.99                              95    0.0410  105  66 
 GRMI     IAML A   225  1.39      2219.7                                105  66 
 LRK     IPg  0A   225  6.50                              93    0.2310  138  80 
 LRK      IAML A   225  6.66      1430.8                                138  80 
 NAX     IPg  0A   225  6.10                              93   -0.3810  139 307 
 GLBA     IAML A   225 10.87      1026.1                                166  57 
 GLBA    IPg  0A   225 11.70                              93    0.7610  166  57 
 BRDA     IAML A   225 16.56       678.4                                206   9 
 BRDA    IPn  0A   225 18.40                                            206   9 
 SAAT    IPn  0A   225 17.90                                            213  41 
 ZRD     IPn  0A   225 20.10                                            219  20 
 GANJ    IPn  0A   225 22.80                                            249 351 
                                                                                
 2012  812 0232 17.2 L  38.391  46.694 17.9  New  5 0.3 1.8LNew                1
 GAP=172        0.79       8.3     4.2 11.9  0.2050E+02  0.3468E+02  0.2133E+02E
 Action:ARG 24-03-13 15:57 OP:OBSP STATUS:               ID:20120812023217     I
 STAT SP IPHASW D HRMM SECON CODA AMPLIT PERI AZIMU VELO AIN AR TRES W  DIS CAZ7
 HRS     IPg  0A   232 22.91                             117   -0.4210 31.5 105 
 HRS      IAML A   232 23.39       116.7                               31.5 105 
 HRS     ESg  0A   232 28.20                             117    0.2710 31.5 105 
 TBZ     IPg  0A   232 25.94                             107   -0.3210 50.6 250 
 MRD     IPg  0A   232 33.15                              99   -0.0010 93.6 293 
 SHB     IPg  0A   232 33.74                              99    0.4010 94.7 263 
 SRB     IPg  0A   232 35.20                              98    0.0810  106 126 
                                                                                
 2012  812 0328  0.4 L  38.473  46.752  6.9  New  5 0.3 2.4LNew                1
 GAP=197        0.70       7.1     4.4 65.2  0.2589E+02  0.1025E+03  0.7820E+02E
 Action:ARG 24-03-13 15:57 OP:OBSP STATUS:               ID:20120812032800     I
 STAT SP IPHASW D HRMM SECON CODA AMPLIT PERI AZIMU VELO AIN AR TRES W  DIS CAZ7
 HRS     IPg  0A   328  5.75                              97   -0.0610 30.6 124 
 TBZ     IPg  0A   328 10.32                              93   -0.1210 58.8 244 
 MRD      IAML A   328 16.45       130.1                               95.3 287 
 MRD     IPg  0A   328 16.65                              92    0.2310 95.3 287 
 SHB     IPg  0A   328 17.41                              92    0.0110  101 258 
 SRB     IPg  0A   328 18.01                              92   -0.4210  107 132 
 SRB     ESg  0A   328 32.35                              92    0.3710  107 132 
                                                                                
 2012  812 0410 45.3 L  38.458  46.825 10.0  New  4 0.4 2.6LNew                1
 GAP=203        1.04       8.4     6.6 12.8 -0.8698E+01  0.6998E+02 -0.5198E+02E
 Action:ARG 24-03-13 15:57 OP:OBSP STATUS:               ID:20120812041044     I
 STAT SP IPHASW D HRMM SECON CODA AMPLIT PERI AZIMU VELO AIN AR TRES W  DIS CAZ7
 HRS     IPg  0A   410 49.80                             108   -0.0610 24.5 129 
 HRS      IAML A   410 50.00      1547.6                               24.5 129 
 HRS     ESg  0A   410 53.62                             108    0.3310 24.5 129 
 TBZ     IPg  0A   410 55.96                              96   -0.2910 64.0 247 
 TBZ      IAML A   410 56.10       274.8                               64.0 247 
 TBZ     ESg  0A   411  4.20                              96   -0.2610 64.0 247 
 MRD     IPg  0A   411  1.96                              94   -0.5010  102 287 
 MRD     ESg  0A   411 15.90                              94    0.5610  102 287 
 SHB     IPg  0A   411  3.00                              93   -0.3310  107 260 
 SHB     ESg  0A   411 17.40                              93    0.5410  107 260 
                                                                                
 2012  812 0435 39.5 L  38.486  46.731 10.0  New  4 0.4 2.6LNew                1
 GAP=198        1.16       7.5     4.6 49.6 -0.1819E+01  0.1514E+03 -0.2114E+03E
 Action:ARG 24-03-13 15:57 OP:OBSP STATUS:               ID:20120812043539     I
 STAT SP IPHASW D HRMM SECON CODA AMPLIT PERI AZIMU VELO AIN AR TRES W  DIS CAZ7
 HRS     IPg  0A   435 45.31                             103   -0.1110 32.9 124 
 HRS     ESg  0A   435 50.07                             103    0.2210 32.9 124 
 TBZ     IPg  0A   435 49.09                              97   -0.4010 58.0 241 
 TBZ      IAML A   435 49.81       417.0                               58.0 241 
 TBZ     ESg  0A   435 56.49                              97   -0.4710 58.0 241 
 MRD     IPg  0A   435 55.41                              94    0.1610 93.1 286 
 MRD     ESg  0A   436  6.79                              94   -0.2610 93.1 286 
 SHB     IPg  0A   435 56.21                              94   -0.1310 99.8 257 
 SHB     ESg  0A   436  9.95                              94    0.9910 99.8 257 
                                                                                
 2012  812 0440 40.3 L  38.422  46.759 17.2  New  5 0.4 2.9LNew                1
 GAP=185        0.96       5.5     3.9 14.9  0.6211E+00  0.4135E+02 -0.2767E+02E
 Action:ARG 24-03-13 15:57 OP:OBSP STATUS:               ID:20120812044040     I
 STAT SP IPHASW D HRMM SECON CODA AMPLIT PERI AZIMU VELO AIN AR TRES W  DIS CAZ7
 HRS     IPg  0A   440 45.73                             120   -0.0410 27.3 115 
 HRS     ESg  0A   440 49.88                             120    0.0010 27.3 115 
 TABZ    IPg  0A   440 50.71                             105    0.6210 55.4 223 
 TBZ     IPg  0A   440 50.17                             104   -0.1910 57.2 249 
 TBZ     ESg  0A   440 57.63                             104   -0.2810 57.2 249 
 MRD     IPg  0A   440 56.35                              98   -0.5510 97.6 290 
 MRD     ESg  0A   441  9.91                              98    0.5710 97.6 290 
 SHB     IPg  0A   440 57.45                              98    0.0310  101 262 
 SHB      IAML A   440 57.76       378.5                                101 262 
 SHB     ESg  0A   441 10.11                              98   -0.1610  101 262 
                                                                                
 2012  812 0513 20.7 L  38.477  46.852  4.1  New  4 0.3 2.3LNew                1
 GAP=212        0.88       6.2     4.8999.9 -0.1512E+01  0.4441E+04 -0.4454E+04E
 Action:ARG 24-03-13 15:57 OP:OBSP STATUS:               ID:20120812051320     I
 STAT SP IPHASW D HRMM SECON CODA AMPLIT PERI AZIMU VELO AIN AR TRES W  DIS CAZ7
 HRS     IPg  0A   513 25.11                              90    0.0210 24.2 137 
 HRS     ESg  0A   513 28.37                              90    0.0110 24.2 137 
 TBZ     IPg  0A   513 31.90                              90   -0.2110 66.9 247 
 TBZ      IAML A   513 32.13       170.6                               66.9 247 
 TBZ     ESg  0A   513 40.20                              90   -0.4610 66.9 247 
 MRD      IAML A   513 38.09        90.2                                104 285 
 MRD     IPg  0A   513 38.16                              90    0.0310  104 285 
 MRD     ESg  0A   513 50.92                              90   -0.2710  104 285 
 SHB     IPg  0A   513 39.34                              90    0.1710  110 259 
 SHB     ESg  0A   513 53.70                              90    0.7010  110 259 
                                                                                
 2012  812 0517 53.8 L  38.313  46.919 29.9  New  4 0.3 2.2LNew                1
 GAP=176        0.90       8.7     7.2  9.0  0.1419E+02  0.5659E+02  0.5911E+01E
 Action:ARG 24-03-13 15:57 OP:OBSP STATUS:               ID:20120812051753     I
 STAT SP IPHASW D HRMM SECON CODA AMPLIT PERI AZIMU VELO AIN AR TRES W  DIS CAZ7
 HRS     IPg  0A   517 59.35                             159    0.3310 10.8  87 
 HRS     ESg  0A   518  2.77                             159   -0.1610 10.8  87 
 TBZ     IPg  0A   518  5.60                             107   -0.2710 67.8 263 
 TBZ      IAML A   518  5.79       131.1                               67.8 263 
 SHB     IPg  0A   518 13.20                              98    0.4410  114 269 
 SHB     ESg  0A   518 26.92                              98   -0.0610  114 269 
 MRD     IPg  0A   518 12.40                              98   -0.5610  115 293 
 MRD     ESg  0A   518 27.60                              98    0.2810  115 293 
                                                                                
 2012  812 0537 55.8 L  38.429  46.780 10.0  New  4 0.3 2.2LNew                1
 GAP=189        0.91       7.0     5.8 13.6 -0.9215E+01  0.6808E+02 -0.4388E+02E
 Action:ARG 24-03-13 15:57 OP:OBSP STATUS:               ID:20120812053755     I
 STAT SP IPHASW D HRMM SECON CODA AMPLIT PERI AZIMU VELO AIN AR TRES W  DIS CAZ7
 HRS     IPg  0A   538  0.51                             107   -0.1310 26.0 118 
 HRS     ESg  0A   538  4.56                             107    0.3210 26.0 118 
 TBZ     IPg  0A   538  5.63                              97   -0.3710 59.1 249 
 TBZ     ESg  0A   538 13.47                              97   -0.1510 59.1 249 
 MRD     IPg  0A   538 12.05                              94   -0.5010 99.1 289 
 MRD     ESg  0A   538 25.51                              94    0.4210 99.1 289 
 SHB     IPg  0A   538 13.09                              94   -0.0610  103 261 
 SHB      IAML A   538 13.61        72.6                                103 261 
 SHB     ESg  0A   538 26.59                              94    0.4610  103 261 
                                                                                
 2012  812 0603 57.9 L  38.460  46.788 10.0  New  4 0.3 2.6LNew                1
 GAP=198        0.90       7.0     5.7 13.6 -0.8282E+01  0.6530E+02 -0.4802E+02E
 Action:ARG 24-03-13 15:57 OP:OBSP STATUS:               ID:20120812060357     I
 STAT SP IPHASW D HRMM SECON CODA AMPLIT PERI AZIMU VELO AIN AR TRES W  DIS CAZ7
 HRS     IPg  0A   6 4  2.91                             106    0.0510 27.2 125 
 HRS     ESg  0A   6 4  6.83                             106    0.2210 27.2 125 
 TBZ     IPg  0A   6 4  8.00                              96   -0.3510 61.1 246 
 TBZ     ESg  0A   6 4 16.04                              96   -0.1710 61.1 246 
 MRD     IPg  0A   6 4 14.12                              94   -0.4010 98.7 287 
 MRD      IAML A   6 4 14.53       193.9                               98.7 287 
 MRD     ESg  0A   6 4 27.42                              94    0.4110 98.7 287 
 SHB     IPg  0A   6 4 15.10                              94   -0.2910  104 260 
 SHB      IAML A   6 4 15.40       178.6                                104 260 
 SHB     ESg  0A   6 4 29.06                              94    0.5310  104 260 
                                                                                
 2012  812 0617 50.0 L  38.445  46.838 10.0  New  5 0.4 2.6LNew                1
 GAP=201        1.02       6.3     6.7 11.8  0.7849E+01  0.6613E+02 -0.9509E+01E
 Action:ARG 24-03-13 15:57 OP:OBSP STATUS:               ID:20120812061750     I
 STAT SP IPHASW D HRMM SECON CODA AMPLIT PERI AZIMU VELO AIN AR TRES W  DIS CAZ7
 HRS     IPg  0A   617 54.19                             109   -0.0910 22.7 128 
 HRS     ESg  0A   617 57.93                             109    0.4310 22.7 128 
 TBZ     IPg  0A   618  0.69                              96   -0.3410 64.5 249 
 TBZ      IAML A   618  1.45       360.2                               64.5 249 
 TBZ     ESg  0A   618  9.19                              96   -0.1210 64.5 249 
 MRD     IPg  0A   618  6.96                              94   -0.4310  103 287 
 MRD      IAML A   618  7.92       180.5                                103 287 
 MRD     ESg  0A   618 20.96                              94    0.5110  103 287 
 SHB     IPg  0A   618  7.83                              93   -0.3310  108 261 
 SHB     ESg  0A   618 22.42                              93    0.6210  108 261 
 AZR     IPg  0A   618  8.81                              93   -0.2410  113 222 
                                                                                
