 2012  812 2205 43.0 L  38.427  46.799 16.3  New  6 0.3 2.2LNew                1
 GAP=173        0.93       4.3     3.2  6.1  0.8048E+01  0.1199E+02  0.1350E+02E
 Action:ARG 24-03-13 15:57 OP:OBSP STATUS:               ID:20120812220543     I
 STAT SP IPHASW D HRMM SECON CODA AMPLIT PERI AZIMU VELO AIN AR TRES W  DIS CAZ7
 TVRZ    IPg  0A  22 5 46.63                             137   -0.0210 14.2 307 
 TVRZ    ESg  0A  22 5 49.63                             137    0.2110 14.2 307 
 HRS     IPg  0A  22 5 47.74                             121   -0.2210 24.5 120 
 HRS     ESg  0A  22 5 51.57                             121   -0.1410 24.5 120 
 TABZ    IPg  0A  22 5 54.10                             103    0.9310 58.3 225 
 TBZ     IPg  0A  22 5 53.33                             103   -0.2110 60.6 250 
 TBZ      IAML A  22 5 53.87       155.7                               60.6 250 
 TBZ     ESg  0A  22 6  1.25                             103   -0.2310 60.6 250 
 MRD     IPg  0A  22 6  0.05                              97    0.0010  101 289 
 MRD     ESg  0A  22 6 12.85                              97   -0.0110  101 289 
 SHB      IAML A  22 6  0.74        70.6                                104 262 
 SHB     IPg  0A  22 6  0.77                              97    0.1310  104 262 
 SHB     ESg  0A  22 6 13.47                              97   -0.4310  104 262 
                                                                                
 2012  812 2245 49.2 L  38.426  46.727 15.6  New  6 0.5 2.0LNew                1
 GAP=144        1.35       6.1     4.1  8.7  0.1233E+02  0.2046E+02  0.3284E+02E
 Action:ARG 24-03-13 15:57 OP:OBSP STATUS:               ID:20120812224549     I
 STAT SP IPHASW D HRMM SECON CODA AMPLIT PERI AZIMU VELO AIN AR TRES W  DIS CAZ7
 TVRZ    IPg  0A  2245 52.10                             146   -0.2610 10.0 329 
 TVRZ     IAML A  2245 52.66       727.5                               10.0 329 
 TVRZ    ESg  0A  2245 54.60                             146   -0.1310 10.0 329 
 HRS     IPg  0A  2245 54.91                             115   -0.0510 30.1 113 
 HRS     ESg  0A  2245 59.87                             115    0.5910 30.1 113 
 TBZ     IPg  0A  2245 58.15                             103   -0.6510 54.7 247 
 TBZ      IAML A  2245 59.04        90.0                               54.7 247 
 TBZ     ESg  0A  2246  5.71                             103   -0.3010 54.7 247 
 MRD     IPg  0A  2246  4.61                              97   -0.6810 94.8 290 
 MRD     ESg  0A  2246 18.19                              97    0.8210 94.8 290 
 SHB     IPg  0A  2246  5.81                              97   -0.0310 98.1 261 
 SHB      IAML A  2246  5.97        39.0                               98.1 261 
 SHB     ESg  0A  2246 19.15                              97    0.8410 98.1 261 
 AZR     IPg  0A  2246  6.90                              97   -0.1610  106 218 
                                                                                
 2012  812 2257  7.6 L  38.483  46.895 19.4  New  6 0.4 2.9LNew                1
 GAP=221        1.11       4.4     4.2  6.5  0.8045E+01  0.1226E+02  0.1709E+01E
 Action:ARG 24-03-13 15:57 OP:OBSP STATUS:               ID:20120812225707     I
 STAT SP IPHASW D HRMM SECON CODA AMPLIT PERI AZIMU VELO AIN AR TRES W  DIS CAZ7
 TVRZ     IAML A  2257 12.73      2491.8                               19.9 277 
 TVRZ    IPg  0A  2257 12.85                             133    0.5110 19.9 277 
 TVRZ    ESg  0A  2257 16.20                             133    0.3210 19.9 277 
 HRS     IPg  0A  2257 12.55                             129   -0.0910 22.3 145 
 HRS     ESg  0A  2257 15.95                             129   -0.4510 22.3 145 
 TABZ     IAML A  2257 19.99       519.9                               68.6 227 
 TABZ    IPg  0A  2257 20.02                             104    0.4210 68.6 227 
 TABZ    ESg  0A  2257 28.94                             104    0.3610 68.6 227 
 TBZ     IPg  0A  2257 19.87                             103   -0.0710 70.7 247 
 TBZ      IAML A  2257 20.26       498.5                               70.7 247 
 TBZ     ESg  0A  2257 28.51                             103   -0.6610 70.7 247 
 MRD     IPg  0A  2257 25.79                              99   -0.0210  107 284 
 MRD     ESg  0A  2257 38.69                              99   -0.7510  107 284 
 SHB     IPg  0A  2257 27.27                              98    0.3810  114 259 
 SHB     ESg  0A  2257 41.39                              98    0.0510  114 259 
                                                                                
 2012  812 2302  3.8 L  38.386  46.842 19.9  New  7 0.6 2.7LNew                1
 GAP=163        1.58       4.7     5.4  9.7  0.7067E+01  0.3232E+02  0.1633E+02E
 Action:ARG 24-03-13 15:57 OP:OBSP STATUS:               ID:20120812230203     I
 STAT SP IPHASW D HRMM SECON CODA AMPLIT PERI AZIMU VELO AIN AR TRES W  DIS CAZ7
 HRS     IPg  0A  23 2  8.71                             135    0.1910 19.0 113 
 HRS     ESg  0A  23 2 12.46                             135    0.4410 19.0 113 
 TVRZ    IPg  0A  23 2  8.24                             133   -0.4010 20.0 311 
 TVRZ    ESg  0A  23 2 11.77                             133   -0.4610 20.0 311 
 TABZ     IAML A  23 2 14.44       522.3                               58.1 231 
 TABZ    IPg  0A  23 2 14.45                             107    0.2710 58.1 231 
 TABZ    ESg  0A  23 2 22.69                             107    0.7710 58.1 231 
 TBZ     IPg  0A  23 2 14.37                             106   -0.5610 62.8 255 
 TBZ     ESg  0A  23 2 22.75                             106   -0.4910 62.8 255 
 MRD     IPg  0A  23 2 21.27                              99   -0.5810  106 290 
 MRD      IAML A  23 2 22.08       219.1                                106 290 
 MRD     ESg  0A  23 2 36.85                              99    1.5110  106 290 
 SHB     IPg  0A  23 2 21.83                              99   -0.3010  108 264 
 SHB     ESg  0A  23 2 36.13                              99    0.2910  108 264 
 AZR     IPg  0A  23 2 22.12                              99   -0.2310  109 224 
 AZR     ESg  0A  23 2 35.76                              99   -0.4610  109 224 
                                                                                
 2012  812 2316 13.1 L  38.391  46.681 11.1  New  5 0.4 1.8LNew                1
 GAP=145        1.12       5.2     3.3 11.2  0.7778E+01  0.2077E+02  0.4108E+02E
 Action:ARG 24-03-13 15:57 OP:OBSP STATUS:               ID:20120812231613     I
 STAT SP IPHASW D HRMM SECON CODA AMPLIT PERI AZIMU VELO AIN AR TRES W  DIS CAZ7
 TVRZ    IPg  0A  2316 15.56                             129   -0.4410 12.5 355 
 TVRZ    ESg  0A  2316 18.21                             129    0.0310 12.5 355 
 HRS     IPg  0A  2316 18.84                             105   -0.1510 32.6 104 
 HRS     ESg  0A  2316 23.92                             105    0.5110 32.6 104 
 TBZ     IPg  0A  2316 21.30                              99   -0.4310 49.6 250 
 TBZ     ESg  0A  2316 28.34                              99    0.1310 49.6 250 
 MRD     IPg  0A  2316 28.29                              95   -0.4610 92.5 293 
 MRD     ESg  0A  2316 41.33                              95    0.8510 92.5 293 
 SHB     IPg  0A  2316 28.89                              95   -0.0410 93.6 263 
 SHB      IAML A  2316 29.06        33.4                               93.6 263 
                                                                                
 2012  812 2358 41.6 L  38.456  46.891 16.2  New  7 0.4 1.9LNew                1
 GAP=210        0.95       4.7     3.4  5.4  0.1064E+02  0.6665E+01  0.5275E+01E
 Action:ARG 24-03-13 15:57 OP:OBSP STATUS:               ID:20120812235841     I
 STAT SP IPHASW D HRMM SECON CODA AMPLIT PERI AZIMU VELO AIN AR TRES W  DIS CAZ7
 HRS     IPg  0A  2358 45.91                             127   -0.0810 20.2 139 
 TVRZ    IPg  0A  2358 45.99                             127    0.0110 20.2 285 
 TVRZ     IAML A  2358 46.27       312.3                               20.2 285 
 TVRZ    ESg  0A  2358 49.38                             127    0.0910 20.2 285 
 HRS     ESg  0A  2358 49.36                             127    0.0710 20.2 139 
 TBZ     IPg  0A  2358 53.12                             101   -0.4310 69.3 249 
 TBZ     ESg  0A  2359  1.84                             101   -0.6810 69.3 249 
 SRB      IAML A  2358 58.04        39.7                               97.4 136 
 SRB     IPg  0A  2358 58.18                              98    0.0710 97.4 136 
 MRD     IPg  0A  2358 59.42                              97   -0.3410  107 286 
 MRD     ESg  0A  2359 13.43                              97    0.0410  107 286 
 SHB     IPg  0A  2359  0.86                              97    0.2310  113 261 
 SHB     ESg  0A  2359 15.67                              97    0.7510  113 261 
 AZR      IAML A  2359  1.62        29.3                                117 223 
 AZR     IPg  0A  2359  1.65                              96    0.2610  117 223 
                                                                                
 2012  813 0007 53.9 L  38.411  46.676 18.8  New  6 0.3 2.4LNew                1
 GAP=176        0.73       5.5     3.5 17.6  0.7867E+01  0.2742E+02  0.2225E+02E
 Action:ARG 24-03-13 15:57 OP:OBSP STATUS:               ID:20120813000753     I
 STAT SP IPHASW D HRMM SECON CODA AMPLIT PERI AZIMU VELO AIN AR TRES W  DIS CAZ7
 HRS     IPg  0A   0 8  0.57                             117    0.1610 33.6 108 
 TBZ     IPg  0A   0 8  2.57                             108   -0.3310 50.0 247 
 MRD     IPg  0A   0 8  9.31                             100   -0.2010 91.3 292 
 SHB      IAML A   0 8  9.91       133.4                               93.5 262 
 SHB     IPg  0A   0 8 10.35                             100    0.4910 93.5 262 
 AZR     IPg  0A   0 8 11.19                              99    0.0310  101 217 
 SRB     IPg  0A   0 8 12.11                              98   -0.1510  108 127 
 SRB      IAML A   0 8 12.42       106.3                                108 127 
                                                                                
 2012  813 0018  2.6 L  38.447  46.894  9.8  New  9 0.3 3.2LNew                1
 GAP=139        0.88       2.9     2.0 10.3  0.1216E+01  0.7084E+01 -0.9528E+01E
 Action:ARG 24-03-13 15:57 OP:OBSP STATUS:               ID:20120813001802     I
 STAT SP IPHASW D HRMM SECON CODA AMPLIT PERI AZIMU VELO AIN AR TRES W  DIS CAZ7
 HRS     IPg  0A   018  6.20                             112   -0.1410 19.3 138 
 HRS     ESg  0A   018  9.15                             112   -0.0010 19.3 138 
 TBZ     IPg  0A   018 14.19                              95   -0.1910 69.2 250 
 TBZ     ESg  0A   018 23.27                              95    0.0310 69.2 250 
 GRMI    IPg  0A   018 19.34                              94    0.5710 95.9  65 
 SRB     IPg  0A   018 18.52                              94   -0.3510 96.5 135 
 SRB     ESg  0A   018 31.26                              94    0.1810 96.5 135 
 MRD     IPg  0A   018 20.28                              93   -0.4710  108 286 
 MRD      IAML A   018 21.02       671.9                                108 286 
 MRD     ESg  0A   018 34.52                              93    0.1410  108 286 
 SHB     IPg  0A   018 21.35                              93   -0.2110  113 261 
 SHB     ESg  0A   018 36.19                              93    0.4010  113 261 
 AZR     IPg  0A   018 21.81                              93   -0.4010  117 223 
 AZR      IAML A   018 22.62       589.7                                117 223 
 AZR     ESg  0A   018 37.39                              93    0.4510  117 223 
 MAKU    IPn  0A   018 37.21                                            217 298 
 MAKU     IAML A   018 38.14       193.5                                217 298 
 ZNJK    IPn  0A   018 42.22                                            253 141 
 ZNJK     IAML A   018 42.38       139.2                                253 141 
                                                                                
 2012  813 0022  8.3 L  38.421  46.691 20.0  New  8 0.3 3.2LNew                1
 GAP=136        0.82       5.8     2.3  9.7 -0.3878E+00  0.9283E+01 -0.2630E+02E
 Action:ARG 24-03-13 15:57 OP:OBSP STATUS:               ID:20120813002208     I
 STAT SP IPHASW D HRMM SECON CODA AMPLIT PERI AZIMU VELO AIN AR TRES W  DIS CAZ7
 HRS     IPg  0A   022 14.65                             120   -0.1710 32.7 110 
 HRS     ESg  0A   022 19.87                             120    0.1910 32.7 110 
 TBZ     IPg  0A   022 17.32                             109   -0.3510 51.6 247 
 TBZ      IAML A   022 18.05      1945.4                               51.6 247 
 MRD     IPg  0A   022 23.74                             101   -0.3810 92.1 291 
 SHB     IPg  0A   022 24.60                             100    0.0210 95.0 261 
 SHB      IAML A   022 24.69       819.1                               95.0 261 
 SHB     ESg  0A   022 37.30                             100    0.5410 95.0 261 
 SRB     IPg  0A   022 26.52                              99   -0.1510  108 128 
 GRMI     IAML A   022 27.23       625.7                                113  67 
 GRMI    IPg  0A   022 27.83                              99    0.2910  113  67 
 MAKU    IPn  0A   022 41.26                                            203 301 
 ZNJK    IPn  0A   022 49.80                                            262 137 
                                                                                
 2012  813 0102 22.8 L  38.446  46.798 20.1  New  5 0.3 1.5LNew                1
 GAP=184        0.81       6.1     3.7  5.1  0.1848E+02  0.9031E+01  0.1882E+02E
 Action:ARG 24-03-13 15:57 OP:OBSP STATUS:               ID:20120813010222     I
 STAT SP IPHASW D HRMM SECON CODA AMPLIT PERI AZIMU VELO AIN AR TRES W  DIS CAZ7
 TVRZ    IPg  0A   1 2 26.73                             143   -0.1110 13.0 300 
 TVRZ    ESg  0A   1 2 29.61                             143   -0.2710 13.0 300 
 HRS     IPg  0A   1 2 28.02                             121   -0.2710 25.6 124 
 MRD      IAML A   1 2 39.42        15.1                              100.0 288 
 MRD     IPg  0A   1 2 40.03                              90    0.5210100.0 288 
 MRD     ESg  0A   1 2 51.61                              90   -0.4510100.0 288 
 SRB      IAML A   1 2 39.98        14.6                                102 132 
 SRB     IPg  0A   1 2 40.09                              90    0.1910  102 132 
 SRB     ESg  0A   1 2 52.71                              90   -0.0310  102 132 
 SHB      IAML A   1 2 40.09        14.1                                105 260 
 SHB     IPg  0A   1 2 40.32                              90    0.1010  105 260 
 SHB     ESg  0A   1 2 53.63                              90    0.3310  105 260 
                                                                                
 2012  813 0129 26.6 L  38.477  46.790  5.8  New  6 0.4 2.4LNew                1
 GAP=203        1.00       7.1     3.6 72.1  0.5858E+01  0.1225E+03 -0.2174E+03E
 Action:ARG 24-03-13 15:57 OP:OBSP STATUS:               ID:20120813012926     I
 STAT SP IPHASW D HRMM SECON CODA AMPLIT PERI AZIMU VELO AIN AR TRES W  DIS CAZ7
 HRS     IPg  0A   129 31.30                              95   -0.3310 28.2 129 
 HRS      IAML A   129 31.97       665.8                               28.2 129 
 HRS     ESg  0A   129 35.08                              95   -0.3210 28.2 129 
 TBZ     IPg  0A   129 37.11                              92   -0.0910 62.1 245 
 TBZ      IAML A   129 37.24       239.9                               62.1 245 
 TBZ     ESg  0A   129 45.35                              92    0.2110 62.1 245 
 MRD     IPg  0A   129 43.14                              91   -0.0310 98.4 286 
 SHB     IPg  0A   129 44.05                              91   -0.1410  105 258 
 SRB     IPg  0A   129 45.20                              91    0.9010  105 133 
 SHB      IAML A   129 44.14       112.0                                105 258 
 AZR     IPg  0A   129 45.43                              91   -0.2110  113 219 
                                                                                
 2012  813 0138 46.8 L  38.450  46.839 17.0  New  6 0.3 1.6LNew                1
 GAP=198        0.86       4.8     2.9  5.5  0.6995E+01  0.3635E+01  0.1173E+02E
 Action:ARG 24-03-13 15:57 OP:OBSP STATUS:               ID:20120813013846     I
 STAT SP IPHASW D HRMM SECON CODA AMPLIT PERI AZIMU VELO AIN AR TRES W  DIS CAZ7
 TVRZ    IPg  0A   138 50.86                             135    0.1110 16.1 292 
 TVRZ     IAML A   138 51.22       162.1                               16.1 292 
 TVRZ    ESg  0A   138 53.92                             135    0.1810 16.1 292 
 HRS     IPg  0A   138 51.28                             124   -0.3510 23.0 130 
 TBZ     IPg  0A   138 57.82                             102   -0.2310 64.8 249 
 TBZ     ESg  0A   139  6.14                             102   -0.3710 64.8 249 
 SRB     IPg  0A   139  4.03                              98    0.2510  100 134 
 MRD     IPg  0A   139  4.20                              98   -0.0910  103 287 
 MRD      IAML A   139  4.70        14.3                                103 287 
 MRD     ESg  0A   139 17.02                              98   -0.4110  103 287 
 SHB      IAML A   139  5.49        13.3                                108 260 
 SHB     IPg  0A   139  5.52                              97    0.4210  108 260 
 SHB     ESg  0A   139 19.32                              97    0.4810  108 260 
                                                                                
 2012  813 0156 10.0 L  38.437  46.692 16.5  New 11 0.3 4.7LNew                1
 GAP=138        0.88       4.9     2.1 10.8 -0.1764E+01  0.7765E+01 -0.2415E+02E
 Action:ARG 24-03-13 15:57 OP:OBSP STATUS:               ID:20120813015610     I
 STAT SP IPHASW D HRMM SECON CODA AMPLIT PERI AZIMU VELO AIN AR TRES W  DIS CAZ7
 HRS     IPg  0A   156 16.43                             114    0.1110 33.3 113 
 HRS      IAML A   156 16.53      10.9e4                               33.3 113 
 HRS     ESg  0A   156 21.08                             114    0.0210 33.3 113 
 TBZ     IPg  0A   156 19.14                             105   -0.1510 52.4 245 
 TBZ     ESg  0A   156 25.92                             105   -0.3210 52.4 245 
 MRD     IPg  0A   156 25.12                              98   -0.4810 91.5 290 
 SHB     IPg  0A   156 26.13                              98   -0.0810 95.3 260 
 SHB     ESg  0A   156 39.15                              98    0.7910 95.3 260 
 AZR     IPg  0A   156 27.76                              97    0.0210  105 217 
 SRB     IPg  0A   156 28.30                              97   -0.1410  109 128 
 SRB      IAML A   156 28.46     21047.1                                109 128 
 GRMI    IPg  0A   156 29.25                              97    0.2210  113  68 
 MAKU    IPn  0A   156 42.45                                            202 301 
 GNI     IPn  0A   156 50.70                                            254 319 
 ZNJK    IPn  0A   156 51.10                                            264 137 
 VANB    IPn  0A   156 55.90                                            289 275 
                                                                                
