 2012  811 1600 50.2 L  38.412  46.779 14.7  New 19 0.3 4.0LNew                1
 GAP=100        0.72       2.6     1.9  7.0  0.6976E+00  0.3824E+01 -0.7738E+01E
 Action:ARG 24-03-13 15:57 OP:OBSP STATUS:               ID:20120811160050     I
 STAT SP IPHASW D HRMM SECON CODA AMPLIT PERI AZIMU VELO AIN AR TRES W  DIS CAZ7
 HRS     IPg  0A  16 0 55.23                             118    0.0110 25.2 114 
 HRS     ESg  0A  16 0 58.95                             118   -0.0110 25.2 114 
 TBZ     IPg  0A  16 1  0.75                             102    0.3310 58.4 251 
 TBZ      IAML A  16 1  0.86     10428.8                               58.4 251 
 BST     IPg  0A  16 1  3.78                              98   -0.0510 79.5 173 
 BST      IAML A  16 1  4.01      6755.9                               79.5 173 
 ORD     IPg  0A  16 1  4.90                              97   -0.5010 89.2 310 
 MRD     IPg  0A  16 1  6.97                              97   -0.1510 99.7 290 
 MRD      IAML A  16 1  7.60      4817.4                               99.7 290 
 SRB     IPg  0A  16 1  7.11                              96   -0.2710  101 130 
 SRB      IAML A  16 1  7.41      4697.7                                101 130 
 SHB     IPg  0A  16 1  7.86                              96    0.2910  102 262 
 SHB      IAML A  16 1  7.95      4616.4                                102 262 
 GRMI    IPg  0A  16 1  8.31                              96    0.0610  107  65 
 LRK     IPg  0A  16 1 13.60                              95    0.1310  138  79 
 NAX     IPg  0A  16 1 13.50                              95   -0.2210  140 308 
 NAX      IAML A  16 1 13.76      2770.2                                140 308 
 SBZ     IPg  0A  16 1 16.00                              94    0.2210  153 316 
 GLBA    IPg  0A  16 1 18.70                              94    0.4410  168  56 
 ASTR     IAML A  16 1 18.86      1830.8                                176  84 
 ASTR    IPg  0A  16 1 19.40                              94   -0.2710  176  84 
 BRDA    IPn  0A  16 1 25.30                                            208   9 
 MAKU    IPn  0A  16 1 24.02                                            210 301 
 SAAT    IPn  0A  16 1 24.60                                            215  41 
 ZRD     IPn  0A  16 1 26.70                                            221  20 
 GANJ     IAML A  16 1 29.04       892.6                                251 351 
 GANJ    IPn  0A  16 1 29.90                                            251 351 
 ZNJK    IPn  0A  16 1 29.83                                            256 138 
                                                                                
 2012  811 1615  4.1 L  38.418  46.673 15.4  New  6 0.3 2.7LNew                1
 GAP=177        0.81       3.3     2.1 10.3  0.2216E+01  0.7005E+01 -0.7955E+00E
 Action:ARG 24-03-13 15:57 OP:OBSP STATUS:               ID:20120811161504     I
 STAT SP IPHASW D HRMM SECON CODA AMPLIT PERI AZIMU VELO AIN AR TRES W  DIS CAZ7
 HRS     IPg  0A  1615 10.18                             112   -0.2510 34.1 109 
 HRS     ESg  0A  1615 15.43                             112    0.2310 34.1 109 
 TBZ     IPg  0A  1615 12.54                             105   -0.3910 50.0 246 
 TBZ      IAML A  1615 13.28       636.6                               50.0 246 
 TBZ     ESg  0A  1615 19.38                             105   -0.2010 50.0 246 
 BST     IPg  0A  1615 17.63                              99   -0.4210 81.8 167 
 BST     ESg  0A  1615 28.81                              99    0.2810 81.8 167 
 MRD     IPg  0A  1615 19.48                              98   -0.0410 90.8 291 
 MRD      IAML A  1615 19.62       278.0                               90.8 291 
 SHB      IAML A  1615 20.12       265.4                               93.4 261 
 SHB     IPg  0A  1615 20.46                              98    0.5210 93.4 261 
 SHB     ESg  0A  1615 32.05                              98    0.2210 93.4 261 
 SRB     IPg  0A  1615 22.53                              96    0.0510  109 127 
                                                                                
 2012  811 1621 52.8 L  38.412  46.661 19.9  New 10 0.4 4.1LNew                1
 GAP=125        0.98       4.8     3.5 19.5  0.4247E+01  0.7110E+01 -0.3101E+02E
 Action:ARG 24-03-13 15:57 OP:OBSP STATUS:               ID:20120811162152     I
 STAT SP IPHASW D HRMM SECON CODA AMPLIT PERI AZIMU VELO AIN AR TRES W  DIS CAZ7
 HRS     IPg  0A  1621 59.43                             118   -0.2010 34.9 107 
 HRS      IAML A  1621 59.91     25768.5                               34.9 107 
 TBZ     IPg  0A  1622  1.74                             110    0.0210 48.8 246 
 BST     IPg  0A  1622  6.86                             102   -0.0210 81.4 166 
 MRD     IPg  0A  1622  8.33                             101    0.0510 90.0 292 
 SHB     IPg  0A  1622  9.20                             101    0.5710 92.2 261 
 SRB     IPg  0A  1622 11.16                              99   -0.2510  109 126 
 SRB      IAML A  1622 11.40      5240.0                                109 126 
 GRMI    IPg  0A  1622 12.98                              98    0.4810  116  67 
 MAKU     IAML A  1622 24.91      1789.3                                201 302 
 MAKU    IPg  0A  1622 25.75                              95   -0.6510  201 302 
 GNI      IAML A  1622 31.47      1092.9                                254 320 
 GNI     IPn  2A  1622 34.70                                            254 320 
 ZNJK    IPn  0A  1622 34.10                                            263 137 
                                                                                
 2012  811 1634 32.4 L  38.433  46.666 14.7  New  9 0.3 3.3LNew                1
 GAP=127        0.84       2.8     2.9 13.1  0.1623E+01  0.1917E+02 -0.7147E+01E
 Action:ARG 24-03-13 15:57 OP:OBSP STATUS:               ID:20120811163432     I
 STAT SP IPHASW D HRMM SECON CODA AMPLIT PERI AZIMU VELO AIN AR TRES W  DIS CAZ7
 HRS     IPg  0A  1634 38.77                             110   -0.1410 35.2 111 
 HRS     ESg  0A  1634 43.74                             110   -0.0410 35.2 111 
 TBZ     IPg  0A  1634 41.18                             104   -0.0810 50.2 244 
 BST     IPg  0A  1634 46.37                              98   -0.2910 83.5 166 
 BST      IAML A  1634 47.21      1248.1                               83.5 166 
 BST     ESg  0A  1634 57.55                              98    0.2110 83.5 166 
 MRD      IAML A  1634 47.74      1131.7                               89.6 291 
 MRD     IPg  0A  1634 47.88                              97    0.2410 89.6 291 
 SHB     IPg  0A  1634 48.63                              97    0.4310 93.0 260 
 SRB     IPg  0A  1634 50.86                              96   -0.1910  110 127 
 SRB      IAML A  1634 51.45       816.5                                110 127 
 GRMI     IAML A  1634 52.15       770.1                                115  68 
 GRMI    IPg  0A  1634 52.18                              96    0.4210  115  68 
 MAKU    IPg  0A  1635  5.19                              93   -0.5810  200 301 
 ZNJK    IPn  0A  1635 13.71                                            265 137 
                                                                                
 2012  811 1737 58.2 L  38.404  46.868 19.8  New  5 0.3 2.1LNew                1
 GAP=193        0.78       3.9     4.6  7.4  0.1104E+02  0.2813E+02  0.1393E+02E
 Action:ARG 24-03-13 15:57 OP:OBSP STATUS:               ID:20120811173758     I
 STAT SP IPHASW D HRMM SECON CODA AMPLIT PERI AZIMU VELO AIN AR TRES W  DIS CAZ7
 HRS     IPg  0A  1738  2.86                             137    0.1410 17.9 122 
 HRS     ESg  0A  1738  6.55                             137    0.4410 17.9 122 
 TBZ     IPg  0A  1738  9.71                             105    0.0110 65.5 254 
 TBZ     ESg  0A  1738 17.71                             105   -0.6210 65.5 254 
 BST     IPg  0A  1738 11.69                             102   -0.0010 78.0 179 
 BST     ESg  0A  1738 21.86                             102    0.0410 78.0 179 
 MRD     IPg  0A  1738 16.21                              99   -0.2210  107 289 
 SHB     IPg  0A  1738 16.79                              99   -0.0810  110 263 
 SHB      IAML A  1738 16.79        51.4                                110 263 
 SHB     ESg  0A  1738 31.18                              99    0.3010  110 263 
                                                                                
 2012  811 1745 43.6 L  38.416  46.832 19.3  New  6 0.4 2.6LNew                1
 GAP=192        1.09       5.5     6.3 11.9  0.2138E+02  0.6198E+02  0.3192E+02E
 Action:ARG 24-03-13 15:57 OP:OBSP STATUS:               ID:20120811174544     I
 STAT SP IPHASW D HRMM SECON CODA AMPLIT PERI AZIMU VELO AIN AR TRES W  DIS CAZ7
 HRS     IPg  0A  1745 47.95                             131   -0.5210 21.3 121 
 HRS     ESg  0A  1745 52.91                             131    0.7810 21.3 121 
 TABZ     IAML A  1745 54.09       338.1                               59.5 228 
 TABZ    IPg  2A  1745 54.50                             106    0.38 5 59.5 228 
 TBZ     IPg  0A  1745 54.33                             105   -0.3310 62.9 252 
 TBZ      IAML A  1745 54.64       315.1                               62.9 252 
 TBZ     ESg  0A  1746  2.27                             105   -0.6810 62.9 252 
 BST     IPg  0A  1745 57.28                             102   -0.0310 79.5 176 
 BST     ESg  0A  1746  7.76                             102    0.1510 79.5 176 
 MRD     IPg  0A  1746  1.45                              99    0.2010  104 289 
 SHB     IPg  0A  1746  1.77                              99    0.0010  107 262 
 SHB     ESg  0A  1746 15.73                              99    0.3310  107 262 
                                                                                
 2012  811 1749 25.4 L  38.418  46.821 16.7  New  7 0.3 2.6LNew                1
 GAP=191        0.79       2.9     2.4  6.5  0.4234E+01  0.7030E+01  0.2819E+01E
 Action:ARG 24-03-13 15:57 OP:OBSP STATUS:               ID:20120811174925     I
 STAT SP IPHASW D HRMM SECON CODA AMPLIT PERI AZIMU VELO AIN AR TRES W  DIS CAZ7
 HRS     IPg  0A  1749 30.05                             125   -0.0510 22.3 120 
 HRS      IAML A  1749 30.53      1414.4                               22.3 120 
 HRS     ESg  0A  1749 33.63                             125   -0.0210 22.3 120 
 TABZ    IPg  0A  1749 35.94                             104    0.2510 59.0 227 
 TABZ     IAML A  1749 36.27       407.8                               59.0 227 
 TBZ     IPg  0A  1749 36.31                             103    0.1210 62.1 251 
 TBZ     ESg  0A  1749 44.72                             103    0.4110 62.1 251 
 BST     IPg  0A  1749 39.01                             100   -0.0410 79.8 176 
 BST     ESg  0A  1749 48.72                             100   -0.6010 79.8 176 
 SRB     IPg  0A  1749 42.07                              98   -0.0910 98.9 131 
 SRB      IAML A  1749 42.56       193.7                               98.9 131 
 SRB     ESg  0A  1749 55.15                              98    0.4010 98.9 131 
 MRD     IPg  0A  1749 42.70                              98   -0.1010  103 289 
 MRD     ESg  0A  1749 55.46                              98   -0.4210  103 289 
 SHB     IPg  0A  1749 43.49                              97    0.1610  106 262 
                                                                                
 2012  811 1758 33.1 L  38.372  46.807 10.0  New  9 0.2 4.1LNew                1
 GAP=131        0.68       2.2     2.6 17.4  0.6142E+00  0.1714E+02 -0.5292E+01E
 Action:ARG 24-03-13 15:57 OP:OBSP STATUS:               ID:20120811175833     I
 STAT SP IPHASW D HRMM SECON CODA AMPLIT PERI AZIMU VELO AIN AR TRES W  DIS CAZ7
 HRS     IPg  0A  1758 37.17                             111   -0.0510 21.4 106 
 TBZ     IPg  0A  1758 43.58                              96    0.2510 59.4 255 
 BST     IPg  0A  1758 45.85                              95   -0.0010 74.8 174 
 BST      IAML A  1758 46.08      9245.0                               74.8 174 
 BST     ESg  0A  1758 55.43                              95    0.0310 74.8 174 
 SRB     IPg  0A  1758 49.16                              94   -0.2610 96.6 129 
 MRD     IPg  0A  1758 50.09                              94   -0.4710  103 292 
 MRD      IAML A  1758 50.50      5723.4                                103 292 
 SHB     IPg  0A  1758 50.91                              94    0.2110  104 265 
 GRMI    IPg  0A  1758 51.33                              93    0.2910  106  63 
 GRMI     IAML A  1758 51.43      5487.1                                106  63 
 MAKU    IPn  0A  1759  7.05                                            214 301 
 GNI     IPn  0A  1759 15.40                                            266 319 
                                                                                
 2012  811 1813  3.2 L  38.393  46.660  5.4  New  9 0.3 3.0LNew                1
 GAP=133        0.73       3.8     2.5403.3  0.1379E+01  0.1187E+03 -0.2234E+03E
 Action:ARG 24-03-13 15:57 OP:OBSP STATUS:               ID:20120811181303     I
 STAT SP IPHASW D HRMM SECON CODA AMPLIT PERI AZIMU VELO AIN AR TRES W  DIS CAZ7
 HRS     IPg  0A  1813  9.19                              93   -0.0210 34.4 104 
 TBZ     IPg  0A  1813 11.45                              92    0.0210 47.9 249 
 BST     IPg  0A  1813 16.77                              91    0.1610 79.4 165 
 MRD     IPg  0A  1813 18.10                              91   -0.3710 90.7 293 
 SHB     IPg  0A  1813 18.96                              91    0.3110 91.8 263 
 SRB     IPg  0A  1813 20.96                              91   -0.3910  108 125 
 GRMI    IPg  0A  1813 23.08                              91    0.3010  117  66 
 GRMI     IAML A  1813 23.23       374.0                                117  66 
 MAKU    IPn  0A  1813 35.57                                            202 303 
 MAKU     IAML A  1813 36.83       140.7                                202 303 
 ZNJK    IPn  0A  1813 44.50                                            262 136 
 ZNJK     IAML A  1813 44.70        81.3                                262 136 
                                                                                
 2012  811 1821 44.5 L  38.427  46.700 19.9  New  6 0.3 2.6LNew                1
 GAP=181        0.77       3.1     2.1  7.1  0.2711E+01  0.3852E+01  0.2793E+00E
 Action:ARG 24-03-13 15:57 OP:OBSP STATUS:               ID:20120811182144     I
 STAT SP IPHASW D HRMM SECON CODA AMPLIT PERI AZIMU VELO AIN AR TRES W  DIS CAZ7
 HRS     IPg  0A  1821 50.86                             120   -0.0610 32.3 112 
 HRS     ESg  0A  1821 56.06                             120    0.3310 32.3 112 
 TBZ     IPg  0A  1821 53.79                             109   -0.1910 52.6 246 
 TBZ     ESg  0A  1822  0.87                             109   -0.2110 52.6 246 
 BST     IPg  0A  1821 58.70                             102    0.0010 82.2 168 
 BST     ESg  0A  1822  9.52                             102    0.1910 82.2 168 
 MRD     IPg  0A  1822  0.15                             100   -0.2110 92.6 290 
 MRD      IAML A  1822  0.50       216.1                               92.6 290 
 SHB      IAML A  1822  0.86       204.2                               95.8 261 
 SHB     IPg  0A  1822  1.49                             100    0.6110 95.8 261 
 SRB     IPg  0A  1822  2.72                              99   -0.0910  108 128 
 SRB     ESg  0A  1822 16.18                              99   -0.3610  108 128 
                                                                                
 2012  811 1912  4.6 L  38.439  46.803 20.0  New  7 0.4 2.9LNew                1
 GAP=195        1.18       3.9     2.9  8.9  0.5204E+01  0.7219E+01 -0.2320E+01E
 Action:ARG 24-03-13 15:57 OP:OBSP STATUS:               ID:20120811191204     I
 STAT SP IPHASW D HRMM SECON CODA AMPLIT PERI AZIMU VELO AIN AR TRES W  DIS CAZ7
 HRS     IPg  0A  1912 10.02                             127    0.0310 24.8 123 
 HRS     ESg  0A  1912 14.26                             127    0.2310 24.8 123 
 TABZ    IPg  0A  1912 15.56                             107    0.4210 59.4 225 
 TABZ    ESg  0A  1912 23.94                             107    0.8910 59.4 225 
 TBZ     IPg  0A  1912 15.07                             106   -0.3810 61.4 249 
 TBZ     ESg  0A  1912 22.93                             106   -0.6610 61.4 249 
 BST     IPg  0A  1912 18.74                             102   -0.0410 82.3 175 
 BST     ESg  0A  1912 28.80                             102   -0.6210 82.3 175 
 MRD     IPg  0A  1912 21.23                             100   -0.5210  101 288 
 MRD      IAML A  1912 21.62       376.9                                101 288 
 MRD     ESg  0A  1912 35.03                             100    0.4210  101 288 
 SRB     IPg  0A  1912 22.20                             100    0.2910  102 132 
 SRB     ESg  0A  1912 34.88                             100   -0.0210  102 132 
 SHB     IPg  0A  1912 22.15                              99   -0.2910  105 261 
 SHB     ESg  0A  1912 36.09                              99    0.2610  105 261 
                                                                                
 2012  811 1929 29.4 L  38.441  46.771 25.0  New  6 0.3 2.6LNew                1
 GAP=192        0.74       3.9     4.8  9.5  0.1176E+02  0.3762E+02  0.1709E+02E
 Action:ARG 24-03-13 15:57 OP:OBSP STATUS:               ID:20120811192929     I
 STAT SP IPHASW D HRMM SECON CODA AMPLIT PERI AZIMU VELO AIN AR TRES W  DIS CAZ7
 HRS     IPg  0A  1929 35.69                             128    0.1510 27.3 120 
 HRS     ESg  0A  1929 40.14                             128   -0.0110 27.3 120 
 TABZ    IPg  2A  1929 39.82                             105    0.06 5 57.7 223 
 TABZ     IAML A  1929 40.06       410.8                               57.7 223 
 TBZ     IPg  0A  1929 39.25                             104   -0.7010 58.9 247 
 BST     IPg  0A  1929 43.44                              97   -0.1010 82.8 173 
 BST     ESg  0A  1929 54.28                              97    0.1210 82.8 173 
 MRD     IPg  0A  1929 45.93                              95    0.0810 97.9 288 
 SHB     IPg  0A  1929 46.65                              95    0.1410  102 260 
 SHB      IAML A  1929 46.95       181.8                                102 260 
 SHB     ESg  0A  1929 59.64                              95    0.3010  102 260 
                                                                                
