 2012  812  726 53.2 L  38.434  46.705 16.8       5 0.3 2.3L                   1
 GAP=41                    2.8     1.2  3.2                                    E
 Action:ARG 24-03-13 15:57 OP:OBSP STATUS:               ID:20120812072653     I
 STAT SP IPHASW D HRMM SECON CODA AMPLIT PERI AZIMU VELO AIN AR TRES W  DIS CAZ7
 HRS     IPg  0A   726 59.23                                           33.1 118 
 HRS     ESg  0A   727  4.28                                           33.1 118 
 TBZ     IPg  0A   727  2.43                                           55.2 242 
 TBZ     ESg  0A   727  9.59                                           55.2 242 
 MRD     IPg  0A   727  8.91                                           92.3 287 
 MRD     ESg  0A   727 20.65                                           92.3 287 
 SHB     IPg  0A   727 10.19                                           97.6 258 
 SHB     ESg  0A   727 22.13                                           97.6 258 
 AZR     IPg  0A   727 10.91                                            108 216 
 AZR     ESg  0A   727 25.57                                            108 216 
 MRD      IAML A   727  9.40       108.2                                        
 HRS      IAML A   726 59.42       436.5                                        
 TBZ      IAML A   727  3.35       224.7                                        
                                                                                

 2012  812  729 28.8 L  38.391  46.862 21.8       5 0.2 2.3L                   1
 GAP=46                    1.5     1.3  1.9                                    E
 Action:ARG 24-03-13 15:57 OP:OBSP STATUS:               ID:20120812072928     I
 STAT SP IPHASW D HRMM SECON CODA AMPLIT PERI AZIMU VELO AIN AR TRES W  DIS CAZ7
 HRS     IPg  0A   729 33.49                                           15.8 116 
 HRS     ESg  0A   729 37.08                                           15.8 116 
 TBZ     IPg  0A   729 39.91                                           66.0 255 
 TBZ     ESg  0A   729 48.25                                           66.0 255 
 MRD     IPg  0A   729 46.59                                            109 290 
 MRD     ESg  0A   730  0.70                                            109 290 
 SHB     IPg  0A   729 47.35                                            110 264 
 SHB     ESg  0A   730  1.62                                            110 264 
 AZR     IPg  0A   729 47.63                                            111 225 
 SHB      IAML A   729 47.33        81.3                                        
                                                                                

 2012  812  733  2.1 L  38.467  46.689 16.6       5 0.3 2.4L                   1
 GAP=39                    3.4     1.5  3.2                                    E
 Action:ARG 24-03-13 15:57 OP:OBSP STATUS:               ID:20120812073302     I
 STAT SP IPHASW D HRMM SECON CODA AMPLIT PERI AZIMU VELO AIN AR TRES W  DIS CAZ7
 HRS     IPg  0A   733  8.59                                           32.5 111 
 HRS     ESg  0A   733 13.88                                           32.5 111 
 TBZ     IPg  0A   733 11.37                                           52.2 246 
 TBZ     ESg  0A   733 18.45                                           52.2 246 
 MRD     IPg  0A   733 17.37                                           92.5 290 
 MRD     ESg  0A   733 31.15                                           92.5 290 
 SHB     IPg  0A   733 18.65                                           95.5 260 
 SHB     ESg  0A   733 32.11                                           95.5 260 
 AZR     IPg  0A   733 20.39                                            103 217 
 AZR     ESg  0A   733 33.45                                            103 217 
 AZR      IAML A   733 20.83       113.7                                        
 MRD      IAML A   733 19.00       135.8                                        
                                                                                

 2012  812  736 35.6 L  38.431  46.780 17.7       5 0.3 2.7L                   1
 GAP=43                    1.6     0.7  1.7                                    E
 Action:ARG 24-03-13 15:57 OP:OBSP STATUS:               ID:20120812073635     I
 STAT SP IPHASW D HRMM SECON CODA AMPLIT PERI AZIMU VELO AIN AR TRES W  DIS CAZ7
 HRS     IPg  0A   736 40.93                                           27.3 122 
 HRS     ESg  0A   736 44.88                                           27.3 122 
 TBZ     IPg  0A   736 45.93                                           59.9 246 
 TBZ     ESg  0A   736 53.43                                           59.9 246 
 MRD     IPg  0A   736 52.29                                           98.3 287 
 MRD     ESg  0A   737  4.19                                           98.3 287 
 SHB     IPg  0A   736 53.09                                            103 260 
 SHB     ESg  0A   737  6.71                                            103 260 
 AZR     IPg  0A   736 54.09                                            110 219 
 AZR     ESg  0A   737  7.87                                            110 219 
 MRD      IAML A   736 52.82       246.8                                        
 TBZ      IAML A   736 46.50       505.9                                        
 SHB      IAML A   736 53.54       229.5                                        
 AZR      IAML A   736 54.42       205.7                                        
                                                                                

 2012  812  8 1 19.9 L  38.442  46.800 19.6       5 0.3 2.9L                   1
 GAP=42                    2.0     2.3  3.6                                    E
 Action:ARG 24-03-13 15:57 OP:OBSP STATUS:               ID:20120812080119     I
 STAT SP IPHASW D HRMM SECON CODA AMPLIT PERI AZIMU VELO AIN AR TRES W  DIS CAZ7
 HRS     IPg  0A   8 1 25.33                                           22.4 119 
 HRS     ESg  0A   8 1 29.21                                           22.4 119 
 TBZ     IPg  0A   8 1 30.51                                           61.9 251 
 TBZ     ESg  0A   8 1 38.47                                           61.9 251 
 MRD     IPg  0A   8 1 36.49                                            102 288 
 MRD     ESg  0A   8 1 50.53                                            102 288 
 SHB     IPg  2A   8 1 38.17                                            106 262 
 SHB     ESg  0A   8 1 51.09                                            106 262 
 AZR     IPg  0A   8 1 38.77                                            110 222 
 AZR     ESg  0A   8 1 51.89                                            110 222 
 TBZ      IAML A   8 1 31.19       765.2                                        
 SHB      IAML A   8 1 37.88       347.8                                        
 MRD      IAML A   8 1 37.54       364.8                                        
 AZR      IAML A   8 1 38.68       327.7                                        
                                                                                

 2012  812  8 3 43.8 L  38.437  46.739 14.8       5 0.2 2.1L                   1
 GAP=42                    2.7     1.1  3.1                                    E
 Action:ARG 24-03-13 15:57 OP:OBSP STATUS:               ID:20120812080343     I
 STAT SP IPHASW D HRMM SECON CODA AMPLIT PERI AZIMU VELO AIN AR TRES W  DIS CAZ7
 HRS     IPg  0A   8 3 49.28                                           28.2 115 
 HRS     ESg  0A   8 3 53.84                                           28.2 115 
 TBZ     IPg  0A   8 3 53.34                                           56.9 248 
 TBZ     ESg  0A   8 4  0.96                                           56.9 248 
 MRD     IPg  0A   8 4  0.06                                           96.9 289 
 MRD     ESg  0A   8 4 12.60                                           96.9 289 
 SHB     IPg  0A   8 4  1.08                                            100 261 
 SHB     ESg  0A   8 4 13.88                                            100 261 
 AZR     IPg  0A   8 4  2.14                                            107 219 
 MRD      IAML A   8 4  0.27        63.4                                        
                                                                                

 2012  812 1015 33.3 L  38.437  46.751 19.5       9 0.2 3.3L                   1
 GAP=42                    1.5     0.7  1.7                                    E
 Action:ARG 24-03-13 15:57 OP:OBSP STATUS:               ID:20120812101533     I
 STAT SP IPHASW D HRMM SECON CODA AMPLIT PERI AZIMU VELO AIN AR TRES W  DIS CAZ7
 HRS     IPg  0A  1015 39.11                                           28.0 114 
 HRS     ESg  0A  1015 43.57                                           28.0 114 
 TBZ     IPg  0A  1015 43.26                                           56.5 248 
 BST     IPg  0A  1015 47.30                                           81.0 171 
 MRD     IPg  0A  1015 49.44                                           97.0 289 
 SHB     IPg  0A  1015 50.53                                            100 261 
 SHB     ESg  0A  1016  3.63                                            100 261 
 AZR     IPg  0A  1015 51.57                                            106 219 
 GRMI    IPg  0A  1015 52.22                                            108  66 
 MAKU    IPn  0A  1016  6.76                                            207 300 
 ZNJK    IPn  0A  1016 14.23                                            259 138 
 AZR      IAML A  1015 51.58       866.5                                        
 MRD      IAML A  1015 49.80      1003.5                                        
 SHB      IAML A  1015 50.38       954.9                                        
                                                                                

 2012  812 1151 31.2 L  38.405  46.811 18.5       8 0.2 3.3L                   1
 GAP=45                    1.7     1.1  2.5                                    E
 Action:ARG 24-03-13 15:57 OP:OBSP STATUS:               ID:20120812115131     I
 STAT SP IPHASW D HRMM SECON CODA AMPLIT PERI AZIMU VELO AIN AR TRES W  DIS CAZ7
 HRS     IPg  0A  1151 36.07                                           23.2 113 
 HRS     ESg  0A  1151 39.69                                           23.2 113 
 TBZ     IPg  0A  1151 41.82                                           59.6 252 
 TBZ     ESg  0A  1151 49.76                                           59.6 252 
 BST     IPg  0A  1151 44.49                                           78.1 174 
 MRD     IPg  0A  1151 48.30                                            101 290 
 SHB     IPg  0A  1151 49.01                                            103 263 
 GRMI    IPg  0A  1151 49.82                                            105  64 
 AZR     IPg  0A  1151 49.52                                            107 221 
 AZR     ESg  0A  1152  3.38                                            107 221 
 ZNJK    IPn  0A  1152 11.16                                            254 138 
 TBZ      IAML A  1151 41.95      2026.4                                        
 HRS      IAML A  1151 36.67      6765.7                                        
 MRD      IAML A  1151 48.91       931.8                                        
                                                                                

 2012  812 1419  8.7 L  38.427  46.808 20.3       9 0.2 3.1L                   1
 GAP=43                    1.7     1.1  2.5                                    E
 Action:ARG 24-03-13 15:57 OP:OBSP STATUS:               ID:20120812141908     I
 STAT SP IPHASW D HRMM SECON CODA AMPLIT PERI AZIMU VELO AIN AR TRES W  DIS CAZ7
 HRS     IPg  0A  1419 14.02                                           24.1 117 
 HRS     ESg  0A  1419 17.86                                           24.1 117 
 TBZ     IPg  0A  1419 19.39                                           60.4 250 
 TBZ     ESg  0A  1419 27.31                                           60.4 250 
 BST     IPg  0A  1419 22.61                                           80.3 174 
 MRD     IPg  0A  1419 25.57                                            101 289 
 SHB     IPg  0A  1419 26.49                                            104 261 
 SHB     ESg  0A  1419 40.25                                            104 261 
 GRMI    IPg  0A  1419 26.90                                            104  65 
 AZR     IPg  0A  1419 27.36                                            109 221 
 MAKU    IPn  0A  1419 42.65                                            211 300 
 ZNJK    IPn  0A  1419 48.78                                            256 138 
 BST      IAML A  1419 22.76       839.9                                        
 TBZ      IAML A  1419 19.59      1255.4                                        
 SHB      IAML A  1419 26.31       565.2                                        
                                                                                

 2012  812 1559 25.4 L  38.429  46.803 15.1       6 0.3 2.5L                   1
 GAP=43                    1.6     0.8  2.1                                    E
 Action:ARG 24-03-13 15:57 OP:OBSP STATUS:               ID:20120812155925     I
 STAT SP IPHASW D HRMM SECON CODA AMPLIT PERI AZIMU VELO AIN AR TRES W  DIS CAZ7
 TVRZ    IPg  0A  1559 28.78                                           13.9 295 
 TVRZ    ESg  0A  1559 31.33                                           13.9 295 
 HRS     IPg  0A  1559 30.18                                           25.0 125 
 HRS     ESg  0A  1559 34.21                                           25.0 125 
 TBZ     IPg  0A  1559 35.74                                           62.6 247 
 TBZ     ESg  0A  1559 44.03                                           62.6 247 
 MRD     IPg  0A  1559 42.80                                            101 287 
 MRD     ESg  0A  1559 54.95                                            101 287 
 SHB     IPg  0A  1559 43.00                                            105 260 
 SHB     ESg  0A  1559 57.19                                            105 260 
 AZR     IPg  0A  1559 44.48                                            112 220 
 AZR     ESg  0A  1559 58.27                                            112 220 
 TVRZ     IAML A  1559 29.12      1979.9                                        
 TBZ      IAML A  1559 36.34       300.4                                        
 MRD      IAML A  1559 42.79       149.3                                        
 HRS      IAML A  1559 30.67       981.3                                        
                                                                                

 2012  812 1718 30.9 L  38.434  46.746 18.8       6 0.3 2.1L                   1
 GAP=42                    2.1     1.0  2.2                                    E
 Action:ARG 24-03-13 15:57 OP:OBSP STATUS:               ID:20120812171830     I
 STAT SP IPHASW D HRMM SECON CODA AMPLIT PERI AZIMU VELO AIN AR TRES W  DIS CAZ7
 TVRZ    IPg  0A  1718 34.35                                           8.24 306 
 TVRZ    ESg  0A  1718 36.88                                           8.24 306 
 HRS     IPg  0A  1718 36.61                                           30.5 121 
 HRS     ESg  0A  1718 41.06                                           30.5 121 
 TBZ     IPg  0A  1718 40.66                                           57.7 244 
 TBZ     ESg  0A  1718 48.18                                           57.7 244 
 MRD     IPg  0A  1718 47.18                                           95.1 287 
 MRD     ESg  0A  1718 58.12                                           95.1 287 
 SHB     IPg  0A  1718 47.84                                            100 259 
 SHB     ESg  0A  1719  0.69                                            100 259 
 AZR     IPg  0A  1718 49.18                                            109 217 
                                                                                

 2012  812 1844 22.1 L  38.399  46.841 19.5       6 0.2 2.1L                   1
 GAP=45                    1.7     0.7  1.1                                    E
 Action:ARG 24-03-13 15:57 OP:OBSP STATUS:               ID:20120812184422     I
 STAT SP IPHASW D HRMM SECON CODA AMPLIT PERI AZIMU VELO AIN AR TRES W  DIS CAZ7
 TVRZ    IPg  0A  1844 26.38                                           18.5 304 
 TVRZ    ESg  0A  1844 29.55                                           18.5 304 
 HRS     IPg  0A  1844 26.77                                           20.2 120 
 HRS     ESg  0A  1844 30.27                                           20.2 120 
 TBZ     IPg  0A  1844 32.96                                           63.7 252 
 TBZ     ESg  0A  1844 41.18                                           63.7 252 
 MRD     IPg  0A  1844 39.52                                            105 288 
 MRD     ESg  0A  1844 53.58                                            105 288 
 SHB     IPg  0A  1844 40.34                                            108 262 
 SHB     ESg  0A  1844 54.36                                            108 262 
 AZR     IPg  0A  1844 40.86                                            111 223 
 SHB      IAML A  1844 40.50        53.5                                        
 HRS      IAML A  1844 26.89       503.1                                        
                                                                                

 2012  812 1846 39.9 L  38.398  46.829 18.4       5 0.2 2.0L                   1
 GAP=46                    1.7     0.8  1.7                                    E
 Action:ARG 24-03-13 15:57 OP:OBSP STATUS:               ID:20120812184639     I
 STAT SP IPHASW D HRMM SECON CODA AMPLIT PERI AZIMU VELO AIN AR TRES W  DIS CAZ7
 TVRZ    IPg  0A  1846 44.06                                           18.7 308 
 TVRZ    ESg  0A  1846 47.09                                           18.7 308 
 HRS     IPg  0A  1846 44.55                                           20.2 116 
 HRS     ESg  0A  1846 48.18                                           20.2 116 
 TBZ     IPg  0A  1846 50.62                                           62.6 253 
 TBZ     ESg  0A  1846 58.74                                           62.6 253 
 MRD     IPg  0A  1846 57.34                                            104 289 
 MRD     ESg  0A  1847 12.16                                            104 289 
 SHB     IPg  0A  1846 58.04                                            107 263 
 SHB     ESg  0A  1847 12.24                                            107 263 
 SHB      IAML A  1846 58.59        43.1                                        
                                                                                

