 2012  811 1745 44.0 L  38.346  46.817 12.6       6 0.0 2.5L                   1
 GAP=49                    4.1     1.9  6.1                                    E
 Action:ARG 24-03-13 15:57 OP:OBSP STATUS:               ID:20120811174544     I
 STAT SP IPHASW D HRMM SECON CODA AMPLIT PERI AZIMU VELO AIN AR TRES W  DIS CAZ7
 HRS     IPg  0A  1745 47.95                                           23.4 116 
 HRS     ESg  0A  1745 52.91                                           23.4 116 
 TABZ    IPg  2A  1745 54.50                                           57.4 226 
 TBZ     IPg  0A  1745 54.33                                           60.4 251 
 TBZ     ESg  0A  1746  2.27                                           60.4 251 
 BST     IPg  0A  1745 57.28                                           79.4 174 
 BST     ESg  0A  1746  7.76                                           79.4 174 
 MRD     IPg  0A  1746  1.45                                            101 289 
 SHB     IPg  0A  1746  1.77                                            104 262 
 SHB     ESg  0A  1746 15.73                                            104 262 
 TABZ     IAML A  1745 54.09       338.1                                        
 TBZ      IAML A  1745 54.64       315.1                                        
                                                                                

 2012  811 1749 25.2 L  38.432  46.842 18.4       7 0.2 2.6L                   1
 GAP=43                    1.9     0.9  1.6                                    E
 Action:ARG 24-03-13 15:57 OP:OBSP STATUS:               ID:20120811174925     I
 STAT SP IPHASW D HRMM SECON CODA AMPLIT PERI AZIMU VELO AIN AR TRES W  DIS CAZ7
 HRS     IPg  0A  1749 30.05                                           22.3 120 
 HRS     ESg  0A  1749 33.63                                           22.3 120 
 TABZ    IPg  0A  1749 35.94                                           59.2 227 
 TBZ     IPg  0A  1749 36.31                                           62.3 250 
 TBZ     ESg  0A  1749 44.72                                           62.3 250 
 BST     IPg  0A  1749 39.01                                           80.1 175 
 BST     ESg  0A  1749 48.72                                           80.1 175 
 SRB     IPg  0A  1749 42.07                                           99.1 131 
 SRB     ESg  0A  1749 55.15                                           99.1 131 
 MRD     IPg  0A  1749 42.70                                            102 288 
 MRD     ESg  0A  1749 55.46                                            102 288 
 SHB     IPg  0A  1749 43.49                                            106 262 
 SRB      IAML A  1749 42.56       193.7                                        
 TABZ     IAML A  1749 36.27       407.8                                        
 HRS      IAML A  1749 30.53      1414.4                                        
                                                                                

 2012  811 1821 44.6 L  38.433  46.706 20.5       6 0.3 2.6L                   1
 GAP=41                    1.5     1.1  2.6                                    E
 Action:ARG 24-03-13 15:57 OP:OBSP STATUS:               ID:20120811182144     I
 STAT SP IPHASW D HRMM SECON CODA AMPLIT PERI AZIMU VELO AIN AR TRES W  DIS CAZ7
 HRS     IPg  0A  1821 50.86                                           32.7 112 
 HRS     ESg  0A  1821 56.06                                           32.7 112 
 TBZ     IPg  0A  1821 53.79                                           52.6 245 
 TBZ     ESg  0A  1822  0.87                                           52.6 245 
 BST     IPg  0A  1821 58.70                                           83.0 168 
 BST     ESg  0A  1822  9.52                                           83.0 168 
 MRD     IPg  0A  1822  0.15                                           92.2 290 
 SHB     IPg  0A  1822  1.49                                           95.7 260 
 SRB     IPg  0A  1822  2.72                                            108 128 
 SRB     ESg  0A  1822 16.18                                            108 128 
 SHB      IAML A  1822  0.86       204.2                                        
 MRD      IAML A  1822  0.50       216.1                                        
                                                                                

 2012  811 1912  4.6 L  38.446  46.790 18.9       7 0.2 2.9L                   1
 GAP=42                    1.9     0.8  1.8                                    E
 Action:ARG 24-03-13 15:57 OP:OBSP STATUS:               ID:20120811191204     I
 STAT SP IPHASW D HRMM SECON CODA AMPLIT PERI AZIMU VELO AIN AR TRES W  DIS CAZ7
 HRS     IPg  0A  1912 10.02                                           25.0 123 
 HRS     ESg  0A  1912 14.26                                           25.0 123 
 TABZ    IPg  0A  1912 15.56                                           59.8 224 
 TABZ    ESg  0A  1912 23.94                                           59.8 224 
 TBZ     IPg  0A  1912 15.07                                           61.7 248 
 TBZ     ESg  0A  1912 22.93                                           61.7 248 
 BST     IPg  0A  1912 18.74                                           82.7 174 
 BST     ESg  0A  1912 28.80                                           82.7 174 
 MRD     IPg  0A  1912 21.23                                            100 287 
 MRD     ESg  0A  1912 35.03                                            100 287 
 SRB     IPg  0A  1912 22.20                                            101 132 
 SRB     ESg  0A  1912 34.88                                            101 132 
 SHB     IPg  0A  1912 22.15                                            105 260 
 SHB     ESg  0A  1912 36.09                                            105 260 
 MRD      IAML A  1912 21.62       376.9                                        
                                                                                

 2012  811 1929 29.8 L  38.410  46.729 18.8       6 0.2 2.6L                   1
 GAP=44                    1.9     1.1  1.6                                    E
 Action:ARG 24-03-13 15:57 OP:OBSP STATUS:               ID:20120811192929     I
 STAT SP IPHASW D HRMM SECON CODA AMPLIT PERI AZIMU VELO AIN AR TRES W  DIS CAZ7
 HRS     IPg  0A  1929 35.69                                           27.1 122 
 HRS     ESg  0A  1929 40.14                                           27.1 122 
 TABZ    IPg  2A  1929 39.82                                           58.9 222 
 TBZ     IPg  0A  1929 39.25                                           60.0 246 
 BST     IPg  0A  1929 43.44                                           83.7 173 
 BST     ESg  0A  1929 54.28                                           83.7 173 
 MRD     IPg  0A  1929 45.93                                           98.5 287 
 SHB     IPg  0A  1929 46.65                                            103 260 
 SHB     ESg  0A  1929 59.64                                            103 260 
 TABZ     IAML A  1929 40.06       410.8                                        
 SHB      IAML A  1929 46.95       181.8                                        
                                                                                

 2012  811 1930 45.4 L  38.459  46.894 15.2       6 0.2 2.7L                   1
 GAP=50                    1.9     1.0  1.8                                    E
 Action:ARG 24-03-13 15:57 OP:OBSP STATUS:               ID:20120811193045     I
 STAT SP IPHASW D HRMM SECON CODA AMPLIT PERI AZIMU VELO AIN AR TRES W  DIS CAZ7
 HRS     IPg  0A  1930 49.73                                           15.4 145 
 HRS     ESg  0A  1930 53.00                                           15.4 145 
 TABZ    IPg  2A  1930 57.22                                           68.1 232 
 TBZ     IPg  0A  1930 57.13                                           72.6 252 
 TBZ     ESg  0A  1931  5.93                                           72.6 252 
 BST     IPg  0A  1930 59.02                                           81.4 183 
 BST     ESg  0A  1931  9.34                                           81.4 183 
 MRD     IPg  0A  1931  3.41                                            112 286 
 MRD     ESg  0A  1931 17.66                                            112 286 
 SHB     IPg  0A  1931  4.61                                            116 262 
 SHB     ESg  0A  1931 19.86                                            116 262 
 TABZ     IAML A  1930 57.16       423.6                                        
                                                                                

 2012  811 1940 17.2 L  38.444  46.804 19.0       7 0.2 2.6L                   1
 GAP=42                    1.9     1.0  1.8                                    E
 Action:ARG 24-03-13 15:57 OP:OBSP STATUS:               ID:20120811194017     I
 STAT SP IPHASW D HRMM SECON CODA AMPLIT PERI AZIMU VELO AIN AR TRES W  DIS CAZ7
 HRS     IPg  0A  1940 22.64                                           25.2 126 
 HRS     ESg  0A  1940 26.58                                           25.2 126 
 TABZ    ESg  0A  1940 36.60                                           61.0 224 
 TBZ     IPg  0A  1940 27.81                                           62.6 247 
 TBZ     ESg  0A  1940 35.99                                           62.6 247 
 BST     IPg  0A  1940 31.16                                           83.7 175 
 BST     ESg  0A  1940 41.46                                           83.7 175 
 MRD     IPg  0A  1940 34.03                                            100 287 
 SRB     IPg  0A  1940 34.54                                            102 132 
 SRB     ESg  0A  1940 48.16                                            102 132 
 SHB     IPg  0A  1940 35.15                                            105 260 
 SHB     ESg  0A  1940 49.08                                            105 260 
 MRD      IAML A  1940 34.20       188.4                                        
                                                                                

 2012  811 2010 29.8 L  38.440  46.776 18.8       8 0.4 3.4L                   1
 GAP=42                    2.7     1.4  2.9                                    E
 Action:ARG 24-03-13 15:57 OP:OBSP STATUS:               ID:20120811201029     I
 STAT SP IPHASW D HRMM SECON CODA AMPLIT PERI AZIMU VELO AIN AR TRES W  DIS CAZ7
 HRS     IPg  0A  2010 34.27                                           27.0 114 
 HRS     ESg  0A  2010 39.39                                           27.0 114 
 TBZ     IPg  0A  2010 40.08                                           57.4 249 
 MRD     IPg  0A  2010 46.46                                           98.0 289 
 SHB     IPg  0A  2010 47.12                                            101 261 
 SRB     IPg  0A  2010 47.43                                            103 129 
 GRMI    IPg  0A  2010 48.32                                            107  66 
 MAKU    IPn  0A  2011  3.05                                            208 300 
 ZNJK    IPn  0A  2011 10.36                                            258 138 
 ZNJK     IAML A  2011 10.01       211.0                                        
 MAKU     IAML A  2011  3.82       333.1                                        
 GRMI     IAML A  2010 48.25      1073.3                                        
                                                                                

 2012  811 2045 45.9 L  38.424  46.694 17.8       7 0.2 2.9L                   1
 GAP=42                    2.2     1.2  2.5                                    E
 Action:ARG 24-03-13 15:57 OP:OBSP STATUS:               ID:20120811204545     I
 STAT SP IPHASW D HRMM SECON CODA AMPLIT PERI AZIMU VELO AIN AR TRES W  DIS CAZ7
 HRS     IPg  0A  2045 52.04                                           33.1 109 
 HRS     ESg  0A  2045 57.11                                           33.1 109 
 TABZ    IPg  0A  2045 55.12                                           50.8 218 
 TBZ     IPg  0A  2045 54.88                                           51.0 246 
 TBZ     ESg  0A  2046  2.08                                           51.0 246 
 BST     IPg  0A  2045 59.88                                           81.5 167 
 BST     ESg  0A  2046 10.75                                           81.5 167 
 MRD     IPg  0A  2046  1.40                                           91.8 291 
 MRD     ESg  0A  2046 15.10                                           91.8 291 
 SHB     IPg  0A  2046  2.18                                           94.4 261 
 SHB     ESg  0A  2046 15.18                                           94.4 261 
 SRB     IPg  0A  2046  3.88                                            108 127 
 SRB     ESg  0A  2046 20.62                                            108 127 
 TABZ     IAML A  2045 56.00      1000.1                                        
 MRD      IAML A  2046  2.69       433.9                                        
                                                                                

 2012  811 2118 35.2 L  38.431  46.715 21.3       6 0.3 2.6L                   1
 GAP=42                    1.4     1.2  2.2                                    E
 Action:ARG 24-03-13 15:57 OP:OBSP STATUS:               ID:20120811211835     I
 STAT SP IPHASW D HRMM SECON CODA AMPLIT PERI AZIMU VELO AIN AR TRES W  DIS CAZ7
 HRS     IPg  0A  2118 41.26                                           31.9 116 
 HRS     ESg  0A  2118 46.47                                           31.9 116 
 TBZ     IPg  0A  2118 44.41                                           54.7 244 
 TBZ     ESg  0A  2118 51.63                                           54.7 244 
 BST     IPg  0A  2118 49.03                                           84.1 169 
 BST     ESg  0A  2119  0.13                                           84.1 169 
 MRD     IPg  0A  2118 50.87                                           93.2 288 
 MRD     ESg  0A  2119  2.59                                           93.2 288 
 SHB     IPg  0A  2118 51.91                                           97.6 259 
 SHB     ESg  0A  2119  5.59                                           97.6 259 
 SRB     IPg  0A  2118 53.19                                            108 129 
 SRB     ESg  0A  2119  7.59                                            108 129 
 BST      IAML A  2118 49.34       248.2                                        
 SRB      IAML A  2118 52.90       169.3                                        
                                                                                

 2012  811 2121 14.3 L  38.405  46.797 18.3       7 0.2 2.7L                   1
 GAP=45                    1.7     0.9  1.7                                    E
 Action:ARG 24-03-13 15:57 OP:OBSP STATUS:               ID:20120811212114     I
 STAT SP IPHASW D HRMM SECON CODA AMPLIT PERI AZIMU VELO AIN AR TRES W  DIS CAZ7
 HRS     IPg  0A  2121 19.26                                           24.8 122 
 HRS     ESg  0A  2121 23.07                                           24.8 122 
 TABZ    IPg  0A  2121 24.97                                           59.6 224 
 TBZ     IPg  0A  2121 24.57                                           61.6 248 
 TBZ     ESg  0A  2121 32.51                                           61.6 248 
 BST     IPg  0A  2121 27.81                                           82.3 174 
 MRD     IPg  0A  2121 31.41                                            100 287 
 MRD     ESg  0A  2121 43.57                                            100 287 
 SRB     IPg  2A  2121 30.13                                            101 131 
 SRB     ESg  0A  2121 44.31                                            101 131 
 SHB     IPg  0A  2121 31.83                                            105 260 
 SHB     ESg  0A  2121 45.39                                            105 260 
 HRS      IAML A  2121 19.66      1568.9                                        
 MRD      IAML A  2121 30.93       237.4                                        
 SRB      IAML A  2121 31.47       234.4                                        
                                                                                

 2012  811 2133 50.9 L  38.424  46.838 17.7       7 0.3 3.1L                   1
 GAP=44                    1.7     0.9  1.5                                    E
 Action:ARG 24-03-13 15:57 OP:OBSP STATUS:               ID:20120811213350     I
 STAT SP IPHASW D HRMM SECON CODA AMPLIT PERI AZIMU VELO AIN AR TRES W  DIS CAZ7
 HRS     IPg  0A  2133 55.62                                           21.6 128 
 HRS     ESg  0A  2133 59.18                                           21.6 128 
 TABZ    IPg  0A  2134  2.12                                           62.3 227 
 TABZ    ESg  0A  2134 10.72                                           62.3 227 
 TBZ     IPg  0A  2134  1.80                                           65.1 249 
 TBZ     ESg  0A  2134 10.04                                           65.1 249 
 BST     IPg  0A  2134  4.40                                           82.1 177 
 BST     ESg  0A  2134 14.42                                           82.1 177 
 SRB     IPg  0A  2134  7.78                                           98.8 133 
 SRB     ESg  0A  2134 20.64                                           98.8 133 
 MRD     IPg  0A  2134  8.36                                            104 287 
 MRD     ESg  0A  2134 21.46                                            104 287 
 SHB     IPg  0A  2134  8.96                                            108 261 
 SHB     ESg  0A  2134 23.46                                            108 261 
                                                                                

 2012  811 22 4 32.4 L  38.415  46.707 16.5       9 0.2 3.7L                   1
 GAP=43                    2.0     1.0  3.0                                    E
 Action:ARG 24-03-13 15:57 OP:OBSP STATUS:               ID:20120811220432     I
 STAT SP IPHASW D HRMM SECON CODA AMPLIT PERI AZIMU VELO AIN AR TRES W  DIS CAZ7
 HRS     IPg  0A  22 4 37.92                                           32.1 109 
 HRS     ESg  0A  22 4 42.60                                           32.1 109 
 TBZ     IPg  0A  22 4 41.18                                           51.8 247 
 BST     IPg  0A  22 4 45.65                                           81.0 167 
 BST     ESg  0A  22 4 56.69                                           81.0 167 
 MRD     IPg  0A  22 4 47.78                                           92.9 291 
 SHB     IPg  0A  22 4 48.62                                           95.3 261 
 SRB     IPg  0A  22 4 49.83                                            107 127 
 GRMI    IPg  0A  22 4 51.74                                            113  66 
 MAKU    IPn  0A  22 5  4.55                                            203 301 
 ZNJK    IPn  0A  22 5 14.45                                            261 137 
 ZNJK     IAML A  22 5 12.74       408.9                                        
 TBZ      IAML A  22 4 41.70      6160.6                                        
 MAKU     IAML A  22 5  5.53       695.1                                        
                                                                                

