 2012  813 1614 40.8 L  38.473  46.653 17.2       6 0.2 2.6L                   1
 GAP=37                    2.6     1.4  3.0                                    E
 Action:ARG 24-03-13 15:57 OP:OBSP STATUS:               ID:20120813161440     I
 STAT SP IPHASW D HRMM SECON CODA AMPLIT PERI AZIMU VELO AIN AR TRES W  DIS CAZ7
 HRS     IPg  0A  1614 47.76                                           37.2 120 
 HRS     ESg  0A  1614 53.28                                           37.2 120 
 TBZ     IPg  0A  1614 49.65                                           53.9 238 
 TBZ     ESg  0A  1614 57.71                                           53.9 238 
 MRD     IPg  0A  1614 55.67                                           88.5 286 
 BST     IPg  0A  1614 55.84                                           89.4 167 
 SHB     IPg  0A  1614 56.94                                           95.2 256 
 AZR     IPg  0A  1614 58.61                                            108 214 
 HRS      IAML A  1614 48.09       753.3                                        
                                                                                

 2012  813 1840  5.4 L  38.424  46.669 21.5      10 0.2 3.4L                   1
 GAP=41                    2.4     1.2  3.0                                    E
 Action:ARG 24-03-13 15:57 OP:OBSP STATUS:               ID:20120813184005     I
 STAT SP IPHASW D HRMM SECON CODA AMPLIT PERI AZIMU VELO AIN AR TRES W  DIS CAZ7
 HRS     IPg  0A  1840 12.04                                           34.2 109 
 HRS     ESg  0A  1840 17.41                                           34.2 109 
 TBZ     IPg  0A  1840 14.03                                           50.3 245 
 BST     IPg  0A  1840 19.42                                           82.3 166 
 BST     ESg  0A  1840 30.28                                           82.3 166 
 MRD     IPg  0A  1840 20.74                                           90.7 291 
 SHB     IPg  0A  1840 21.32                                           93.6 260 
 SHB     ESg  0A  1840 34.08                                           93.6 260 
 AZR     IPg  0A  1840 22.57                                            102 216 
 SRB     IPg  0A  1840 24.03                                            109 127 
 GRMI    IPg  0A  1840 25.17                                            114  67 
 MAKU    IPg  0A  1840 37.81                                            201 301 
 ZNJK    IPn  0A  1840 46.84                                            263 136 
 GRMI     IAML A  1840 25.12       971.1                                        
 AZR      IAML A  1840 23.24      1159.6                                        
                                                                                

 2012  813 1943 22.2 L  38.425  46.664 19.7      10 0.2 3.3L                   1
 GAP=41                    1.7     1.2  2.3                                    E
 Action:ARG 24-03-13 15:57 OP:OBSP STATUS:               ID:20120813194322     I
 STAT SP IPHASW D HRMM SECON CODA AMPLIT PERI AZIMU VELO AIN AR TRES W  DIS CAZ7
 HRS     IPg  0A  1943 28.75                                           36.6 109 
 HRS     ESg  0A  1943 34.25                                           36.6 109 
 TBZ     IPg  0A  1943 30.82                                           48.5 243 
 TBZ     ESg  0A  1943 37.26                                           48.5 243 
 BST     IPg  0A  1943 36.28                                           83.5 165 
 BST     ESg  0A  1943 47.46                                           83.5 165 
 MRD     IPg  0A  1943 37.49                                           88.3 291 
 SHB     IPg  0A  1943 38.15                                           91.4 260 
 AZR     IPg  0A  1943 39.27                                            101 215 
 AZR     ESg  0A  1943 51.79                                            101 215 
 SRB     IPg  0A  1943 40.66                                            111 126 
 GRMI    IPg  0A  1943 41.98                                            116  68 
 MAKU    IPg  0A  1943 54.78                                            199 301 
 ZNJK    IPn  0A  1944  3.14                                            265 136 
 ZNJK     IAML A  1944  2.54       157.2                                        
 SHB      IAML A  1943 37.38      1098.6                                        
 BST      IAML A  1943 36.77      1255.9                                        
 HRS      IAML A  1943 29.39      3842.5                                        
                                                                                

 2012  813 2012 42.6 L  38.424  46.898 12.9       7 0.2 2.8L                   1
 GAP=48                    2.8     1.5  3.4                                    E
 Action:ARG 24-03-13 15:57 OP:OBSP STATUS:               ID:20120813201242     I
 STAT SP IPHASW D HRMM SECON CODA AMPLIT PERI AZIMU VELO AIN AR TRES W  DIS CAZ7
 HRS     IPg  0A  2012 46.33                                           17.7 128 
 TBZ     IPg  0A  2012 54.43                                           67.4 252 
 BST     IPg  0A  2012 55.72                                           79.5 179 
 SRB     IPg  0A  2012 58.51                                           94.9 133 
 SRB     ESg  0A  2013 11.11                                           94.9 133 
 MRD     IPg  0A  2013  0.88                                            108 288 
 SHB     IPg  0A  2013  1.75                                            111 262 
 AZR     IPg  0A  2013  2.06                                            113 224 
 AZR      IAML A  2013  2.44       246.3                                        
 BST      IAML A  2012 56.37       426.5                                        
                                                                                

 2012  813 2110 31.4 L  38.464  46.759 15.5       7 0.3 1.6L                   1
 GAP=40                    2.0     1.4  2.4                                    E
 Action:ARG 24-03-13 15:57 OP:OBSP STATUS:               ID:20120813211031     I
 STAT SP IPHASW D HRMM SECON CODA AMPLIT PERI AZIMU VELO AIN AR TRES W  DIS CAZ7
 HRS     IPg  0A  2110 37.13                                           30.1 125 
 HRS     ESg  0A  2110 41.49                                           30.1 125 
 TBZ     IPg  0A  2110 41.60                                           60.0 243 
 BST     IPg  0A  2110 45.76                                           86.9 172 
 MRD     IPg  0A  2110 47.81                                           96.2 286 
 SHB     IPg  0A  2110 48.70                                            102 258 
 SRB     IPg  0A  2110 49.67                                            107 132 
 AZR     IPg  0A  2110 50.98                                            112 217 
 BST      IAML A  2110 46.71        23.6                                        
 AZR      IAML A  2110 50.79        16.0                                        
 HRS      IAML A  2110 37.55        98.1                                        
                                                                                

 2012  813 2125 25.4 L  38.423  46.786 18.7       7 0.2 1.8L                   1
 GAP=43                    2.1     1.1  1.7                                    E
 Action:ARG 24-03-13 15:57 OP:OBSP STATUS:               ID:20120813212525     I
 STAT SP IPHASW D HRMM SECON CODA AMPLIT PERI AZIMU VELO AIN AR TRES W  DIS CAZ7
 HRS     IPg  0A  2125 30.73                                           26.3 126 
 HRS     ESg  0A  2125 34.78                                           26.3 126 
 TBZ     IPg  0A  2125 35.65                                           62.0 246 
 BST     IPg  0A  2125 39.16                                           84.5 174 
 MRD     IPg  0A  2125 42.16                                           99.9 286 
 SRB     IPg  0A  2125 42.77                                            103 132 
 SHB     IPg  0A  2125 43.03                                            105 259 
 AZR     IPg  0A  2125 44.89                                            112 219 
 AZR      IAML A  2125 43.74        25.2                                        
 SRB      IAML A  2125 42.76        28.8                                        
 MRD      IAML A  2125 42.01        30.3                                        
                                                                                

 2012  813 2133 29.8 L  38.442  46.679 14.7       7 0.3 1.7L                   1
 GAP=40                    1.9     0.9  2.7                                    E
 Action:ARG 24-03-13 15:57 OP:OBSP STATUS:               ID:20120813213329     I
 STAT SP IPHASW D HRMM SECON CODA AMPLIT PERI AZIMU VELO AIN AR TRES W  DIS CAZ7
 HRS     IPg  0A  2133 35.94                                           34.3 112 
 HRS     ESg  0A  2133 41.26                                           34.3 112 
 TBZ     IPg  0A  2133 38.57                                           51.5 244 
 BST     IPg  0A  2133 43.93                                           83.7 167 
 MRD     IPg  0A  2133 44.95                                           90.7 290 
 SHB     IPg  0A  2133 46.58                                           94.4 259 
 AZR     IPg  0A  2133 47.35                                            104 216 
 SRB     IPg  0A  2133 48.49                                            109 127 
 HRS      IAML A  2133 36.52       105.1                                        
 MRD      IAML A  2133 45.33        27.9                                        
                                                                                

 2012  813 2237  4.4 L  38.419  46.687 20.8      10 0.2 3.3L                   1
 GAP=42                    1.8     1.1  2.4                                    E
 Action:ARG 24-03-13 15:57 OP:OBSP STATUS:               ID:20120813223704     I
 STAT SP IPHASW D HRMM SECON CODA AMPLIT PERI AZIMU VELO AIN AR TRES W  DIS CAZ7
 HRS     IPg  0A  2237 10.74                                           32.0 104 
 HRS     ESg  0A  2237 15.84                                           32.0 104 
 TBZ     IPg  0A  2237 13.23                                           50.1 250 
 BST     IPg  0A  2237 18.26                                           78.6 166 
 MRD     IPg  0A  2237 19.82                                           93.2 292 
 MRD     ESg  0A  2237 33.00                                           93.2 292 
 SHB     IPg  0A  2237 20.43                                           94.3 263 
 AZR     IPg  0A  2237 21.75                                            100 218 
 SRB     IPg  0A  2237 22.59                                            106 125 
 GRMI    IPg  0A  2237 23.89                                            114  65 
 MAKU    IPn  0A  2237 37.24                                            204 302 
 ZNJK    IPn  0A  2237 45.15                                            260 136 
 ZNJK     IAML A  2237 43.88       164.8                                        
 BST      IAML A  2237 17.94      1373.6                                        
 MRD      IAML A  2237 20.49      1065.9                                        
                                                                                

 2012  814  149 19.9 L  38.433  46.686 16.6      10 0.3 3.0L                   1
 GAP=41                    1.7     1.0  2.3                                    E
 Action:ARG 24-03-13 15:57 OP:OBSP STATUS:               ID:20120814014919     I
 STAT SP IPHASW D HRMM SECON CODA AMPLIT PERI AZIMU VELO AIN AR TRES W  DIS CAZ7
 HRS     IPg  0A   149 26.11                                           32.6 110 
 HRS     ESg  0A   149 31.05                                           32.6 110 
 TBZ     IPg  0A   149 28.95                                           51.7 246 
 BST     IPg  0A   149 33.72                                           81.6 167 
 BST     ESg  0A   149 44.54                                           81.6 167 
 MRD     IPg  0A   149 35.28                                           92.3 291 
 SHB     IPg  0A   149 36.37                                           95.1 261 
 SHB     ESg  0A   149 48.83                                           95.1 261 
 AZR     IPg  0A   149 37.44                                            103 217 
 SRB     IPg  0A   149 38.51                                            107 127 
 GRMI    IPg  0A   149 39.55                                            113  67 
 MAKU    IPn  0A   149 52.56                                            203 301 
 ZNJK    IPn  0A   150  0.77                                            262 137 
 MRD      IAML A   149 36.18       541.9                                        
 SRB      IAML A   149 38.52       426.7                                        
 ZNJK     IAML A   150  0.31        81.1                                        
 HRS      IAML A   149 26.60      2231.9                                        
                                                                                

 2012  814  346 54.4 L  38.435  46.813 18.1       7 0.3 2.1L                   1
 GAP=43                    1.8     0.7  1.5                                    E
 Action:ARG 24-03-13 15:57 OP:OBSP STATUS:               ID:20120814034654     I
 STAT SP IPHASW D HRMM SECON CODA AMPLIT PERI AZIMU VELO AIN AR TRES W  DIS CAZ7
 TVRZ    IPg  0A   346 58.33                                           13.8 299 
 TVRZ    ESg  0A   347  1.34                                           13.8 299 
 HRS     IPg  0A   346 59.38                                           24.9 123 
 HRS     ESg  0A   347  3.29                                           24.9 123 
 TBZ     IPg  0A   347  5.00                                           61.8 248 
 TBZ     ESg  0A   347 13.20                                           61.8 248 
 MRD     IPg  0A   347 11.27                                            100 287 
 MRD     ESg  0A   347 24.31                                            100 287 
 SRB     IPg  0A   347 11.76                                            101 132 
 SRB     ESg  0A   347 24.58                                            101 132 
 SHB     IPg  0A   347 12.40                                            105 260 
 SHB     ESg  0A   347 25.16                                            105 260 
 AZR     IPg  2A   347 14.60                                            111 220 
 HRS      IAML A   346 59.92       392.2                                        
 SHB      IAML A   347 12.08        55.8                                        
 TBZ      IAML A   347  5.21       121.8                                        
                                                                                

 2012  814  452 17.9 L  38.433  46.659 18.8       6 0.2 2.1L                   1
 GAP=40                    2.2     1.4  2.7                                    E
 Action:ARG 24-03-13 15:57 OP:OBSP STATUS:               ID:20120814045217     I
 STAT SP IPHASW D HRMM SECON CODA AMPLIT PERI AZIMU VELO AIN AR TRES W  DIS CAZ7
 HRS     IPg  0A   452 24.59                                           36.2 112 
 HRS     ESg  0A   452 29.99                                           36.2 112 
 TBZ     IPg  0A   452 26.38                                           50.5 242 
 BST     IPg  0A   452 32.08                                           85.2 166 
 BST     ESg  0A   452 43.34                                           85.2 166 
 MRD     IPg  0A   452 32.90                                           88.7 289 
 SHB     IPg  0A   452 34.06                                           92.9 259 
 SRB     IPg  0A   452 36.52                                            111 127 
 SHB      IAML A   452 33.40        67.6                                        
 TBZ      IAML A   452 26.73       159.9                                        
 BST      IAML A   452 32.20        77.0                                        
                                                                                

 2012  814  528 12.9 L  38.442  46.812 19.4      10 0.2 3.4L                   1
 GAP=42                    1.9     0.8  1.7                                    E
 Action:ARG 24-03-13 15:57 OP:OBSP STATUS:               ID:20120814052812     I
 STAT SP IPHASW D HRMM SECON CODA AMPLIT PERI AZIMU VELO AIN AR TRES W  DIS CAZ7
 HRS     IPg  0A   528 18.27                                           24.7 122 
 HRS     ESg  0A   528 22.09                                           24.7 122 
 TBZ     IPg  0A   528 23.79                                           61.5 248 
 TBZ     ESg  0A   528 31.91                                           61.5 248 
 BST     IPg  0A   528 27.01                                           82.1 174 
 MRD     IPg  0A   528 29.87                                            100 288 
 SRB     IPg  0A   528 30.14                                            101 131 
 SRB     ESg  0A   528 43.45                                            101 131 
 GRMI    IPg  0A   528 31.12                                            103  66 
 SHB     IPg  0A   528 30.63                                            105 260 
 SHB     ESg  0A   528 44.87                                            105 260 
 AZR     IPg  0A   528 31.95                                            110 220 
 MAKU    IPn  0A   528 46.99                                            210 299 
 ZNJK    IPn  0A   528 53.87                                            257 139 
 ZNJK     IAML A   528 52.81       212.8                                        
 TBZ      IAML A   528 24.16      2445.2                                        
 MRD      IAML A   528 30.16      1188.5                                        
 BST      IAML A   528 27.60      1621.0                                        
                                                                                

