 2012  811 2212 46.5 L  38.427  46.760 19.4       9 0.3 3.3L                   1
 GAP=43                    2.0     1.2  2.1                                    E
 Action:ARG 24-03-13 15:57 OP:OBSP STATUS:               ID:20120811221246     I
 STAT SP IPHASW D HRMM SECON CODA AMPLIT PERI AZIMU VELO AIN AR TRES W  DIS CAZ7
 HRS     IPg  0A  2212 52.41                                           27.2 112 
 HRS     ESg  0A  2212 56.19                                           27.2 112 
 TBZ     IPg  0A  2212 56.51                                           56.6 249 
 TBZ     ESg  0A  2213  3.79                                           56.6 249 
 BST     IPg  0A  2213  0.42                                           80.0 171 
 MRD     IPg  0A  2213  2.93                                           97.8 290 
 SHB     IPg  0A  2213  3.57                                            100 262 
 SHB     ESg  0A  2213 17.27                                            100 262 
 SRB     IPg  0A  2213  4.17                                            102 129 
 GRMI    IPg  0A  2213  5.27                                            108  65 
 MAKU    IPn  0A  2213 18.51                                            208 300 
 ZNJK    IPn  0A  2213 27.12                                            258 138 
 HRS      IAML A  2212 52.48      5586.3                                        
 ZNJK     IAML A  2213 26.43       167.9                                        
 MRD      IAML A  2213  3.60       990.5                                        
 MAKU     IAML A  2213 20.18       264.7                                        
                                                                                

 2012  811 2358 13.2 L  38.454  46.714 16.3       8 0.1 3.4L                   1
 GAP=40                    2.5     1.0  2.6                                    E
 Action:ARG 24-03-13 15:57 OP:OBSP STATUS:               ID:20120811235813     I
 STAT SP IPHASW D HRMM SECON CODA AMPLIT PERI AZIMU VELO AIN AR TRES W  DIS CAZ7
 HRS     IPg  0A  2358 19.34                                           34.0 118 
 HRS     ESg  0A  2358 24.14                                           34.0 118 
 TBZ     IPg  0A  2358 22.70                                           54.4 242 
 MRD     IPg  0A  2358 28.84                                           91.3 287 
 SHB     IPg  0A  2358 30.01                                           96.7 258 
 SRB     IPg  0A  2358 31.36                                            110 129 
 SRB     ESg  0A  2358 46.14                                            110 129 
 GRMI    IPg  0A  2358 32.21                                            110  69 
 MAKU    IPn  0A  2358 46.19                                            201 300 
 ZNJK    IPn  0A  2358 54.41                                            265 138 
 TBZ      IAML A  2358 23.23      2885.5                                        
 MRD      IAML A  2358 29.26      1384.0                                        
 SRB      IAML A  2358 31.97      1032.5                                        
                                                                                

 2012  812  015 22.7 L  38.436  46.770 20.5       8 0.2 3.1L                   1
 GAP=42                    1.7     0.9  2.4                                    E
 Action:ARG 24-03-13 15:57 OP:OBSP STATUS:               ID:20120812001522     I
 STAT SP IPHASW D HRMM SECON CODA AMPLIT PERI AZIMU VELO AIN AR TRES W  DIS CAZ7
 HRS     IPg  0A   015 28.38                                           28.3 119 
 TBZ     IPg  0A   015 32.89                                           58.4 246 
 TBZ     ESg  0A   015 40.59                                           58.4 246 
 MRD     IPg  0A   015 39.11                                           97.1 288 
 SHB     IPg  0A   015 39.92                                            101 260 
 SHB     ESg  0A   015 53.44                                            101 260 
 SRB     IPg  0A   015 40.20                                            104 130 
 SRB     ESg  0A   015 54.09                                            104 130 
 GRMI    IPg  0A   015 41.21                                            106  67 
 MAKU    IPn  0A   015 56.09                                            206 299 
 ZNJK    IPn  0A   016  3.21                                            260 138 
 SHB      IAML A   015 40.19       589.3                                        
 MAKU     IAML A   015 56.14       169.2                                        
 TBZ      IAML A   015 33.23      1314.3                                        
                                                                                

 2012  812  034 16.2 L  38.434  46.765 19.6       8 0.1 3.8L                   1
 GAP=42                    1.5     0.8  1.7                                    E
 Action:ARG 24-03-13 15:57 OP:OBSP STATUS:               ID:20120812003416     I
 STAT SP IPHASW D HRMM SECON CODA AMPLIT PERI AZIMU VELO AIN AR TRES W  DIS CAZ7
 HRS     IPg  0A   034 21.88                                           27.1 115 
 HRS     ESg  0A   034 26.04                                           27.1 115 
 TBZ     IPg  0A   034 26.27                                           57.6 248 
 MRD     IPg  0A   034 32.49                                           98.0 289 
 SHB     IPg  0A   034 33.41                                            101 261 
 SHB     ESg  0A   034 46.91                                            101 261 
 SRB     IPg  0A   034 33.79                                            103 129 
 GRMI    IPg  0A   034 34.90                                            107  66 
 MAKU    IPn  0A   034 49.64                                            208 300 
 ZNJK    IPn  0A   034 56.71                                            258 138 
 MAKU     IAML A   034 49.60       837.9                                        
 HRS      IAML A   034 22.15     17710.1                                        
 GRMI     IAML A   034 34.26      2706.7                                        
 ZNJK     IAML A   034 55.85       528.7                                        
                                                                                

 2012  812  224 42.9 L  38.470  46.803  7.9      14 0.2 3.7L                   1
 GAP=42                    3.3     1.3  5.4                                    E
 Action:ARG 24-03-13 15:57 OP:OBSP STATUS:               ID:20120812022442     I
 STAT SP IPHASW D HRMM SECON CODA AMPLIT PERI AZIMU VELO AIN AR TRES W  DIS CAZ7
 HRS     IPg  0A   224 47.81                                           25.9 119 
 TBZ     IPg  0A   224 53.56                                           59.8 248 
 TBZ     ESg  0A   225  1.78                                           59.8 248 
 ORD     IPg  0A   224 57.80                                           88.2 308 
 MRD     IPg  0A   224 59.66                                           99.5 288 
 SRB     IPg  0A   224 59.97                                            102 130 
 SHB     IPg  0A   225  0.73                                            103 261 
 GRMI    IPg  0A   225  0.99                                            105  66 
 LRK     IPg  0A   225  6.50                                            137  79 
 NAX     IPg  0A   225  6.10                                            139 306 
 GLBA    IPg  0A   225 11.70                                            166  56 
 BRDA    IPn  0A   225 18.40                                            206   9 
 SAAT    IPn  0A   225 17.90                                            212  41 
 ZRD     IPn  0A   225 20.10                                            219  20 
 GANJ    IPn  0A   225 22.80                                            247 350 
 GRMI     IAML A   225  1.39      2219.7                                        
 LRK      IAML A   225  6.66      1430.8                                        
 SHB      IAML A   225  0.65      2284.3                                        
 GLBA     IAML A   225 10.87      1026.1                                        
 MRD      IAML A   224 59.99      2424.8                                        
 BRDA     IAML A   225 16.56       678.4                                        
                                                                                

 2012  812  410 44.6 L  38.451  46.852 21.0       4 0.2 2.5L                   1
 GAP=46                    2.3     2.1  4.3                                    E
 Action:ARG 24-03-13 15:57 OP:OBSP STATUS:               ID:20120812041044     I
 STAT SP IPHASW D HRMM SECON CODA AMPLIT PERI AZIMU VELO AIN AR TRES W  DIS CAZ7
 HRS     IPg  0A   410 49.80                                           17.1 124 
 HRS     ESg  0A   410 53.62                                           17.1 124 
 TBZ     IPg  0A   410 55.96                                           66.7 253 
 TBZ     ESg  0A   411  4.20                                           66.7 253 
 MRD     IPg  0A   411  1.96                                            108 288 
 MRD     ESg  0A   411 15.90                                            108 288 
 SHB     IPg  0A   411  3.00                                            111 263 
 SHB     ESg  0A   411 17.40                                            111 263 
 TBZ      IAML A   410 56.10       274.8                                        
 HRS      IAML A   410 50.00      1547.6                                        
                                                                                

 2012  812  435 39.4 L  38.449  46.731 17.6       4 0.3 2.6L                   1
 GAP=41                    2.1     1.0  2.2                                    E
 Action:ARG 24-03-13 15:57 OP:OBSP STATUS:               ID:20120812043539     I
 STAT SP IPHASW D HRMM SECON CODA AMPLIT PERI AZIMU VELO AIN AR TRES W  DIS CAZ7
 HRS     IPg  0A   435 45.31                                           32.4 124 
 HRS     ESg  0A   435 50.07                                           32.4 124 
 TBZ     IPg  0A   435 49.09                                           58.3 241 
 TBZ     ESg  0A   435 56.49                                           58.3 241 
 MRD     IPg  0A   435 55.41                                           93.8 286 
 MRD     ESg  0A   436  6.79                                           93.8 286 
 SHB     IPg  0A   435 56.21                                            100 257 
 SHB     ESg  0A   436  9.95                                            100 257 
 TBZ      IAML A   435 49.81       417.0                                        
                                                                                

 2012  812  537 55.6 L  38.443  46.774 10.2       4 0.2 2.2L                   1
 GAP=42                    3.2     1.0  5.0                                    E
 Action:ARG 24-03-13 15:57 OP:OBSP STATUS:               ID:20120812053755     I
 STAT SP IPHASW D HRMM SECON CODA AMPLIT PERI AZIMU VELO AIN AR TRES W  DIS CAZ7
 HRS     IPg  0A   538  0.51                                           25.9 118 
 HRS     ESg  0A   538  4.56                                           25.9 118 
 TBZ     IPg  0A   538  5.63                                           59.4 248 
 TBZ     ESg  0A   538 13.47                                           59.4 248 
 MRD     IPg  0A   538 12.05                                           99.4 288 
 MRD     ESg  0A   538 25.51                                           99.4 288 
 SHB     IPg  0A   538 13.09                                            103 261 
 SHB     ESg  0A   538 26.59                                            103 261 
 SHB      IAML A   538 13.61        72.6                                        
                                                                                

 2012  812  6 3 57.6 L  38.469  46.779 10.7       4 0.1 2.6L                   1
 GAP=40                    3.0     1.2  4.8                                    E
 Action:ARG 24-03-13 15:57 OP:OBSP STATUS:               ID:20120812060357     I
 STAT SP IPHASW D HRMM SECON CODA AMPLIT PERI AZIMU VELO AIN AR TRES W  DIS CAZ7
 HRS     IPg  0A   6 4  2.91                                           27.1 125 
 HRS     ESg  0A   6 4  6.83                                           27.1 125 
 TBZ     IPg  0A   6 4  8.00                                           61.4 246 
 TBZ     ESg  0A   6 4 16.04                                           61.4 246 
 MRD     IPg  0A   6 4 14.12                                           99.0 286 
 MRD     ESg  0A   6 4 27.42                                           99.0 286 
 SHB     IPg  0A   6 4 15.10                                            104 259 
 SHB     ESg  0A   6 4 29.06                                            104 259 
 MRD      IAML A   6 4 14.53       193.9                                        
 SHB      IAML A   6 4 15.40       178.6                                        
                                                                                

 2012  812  617 49.6 L  38.444  46.837 15.3       5 0.2 2.6L                   1
 GAP=42                    3.0     1.3  2.4                                    E
 Action:ARG 24-03-13 15:57 OP:OBSP STATUS:               ID:20120812061749     I
 STAT SP IPHASW D HRMM SECON CODA AMPLIT PERI AZIMU VELO AIN AR TRES W  DIS CAZ7
 HRS     IPg  0A   617 54.19                                           22.5 128 
 HRS     ESg  0A   617 57.93                                           22.5 128 
 TBZ     IPg  0A   618  0.69                                           64.8 249 
 TBZ     ESg  0A   618  9.19                                           64.8 249 
 MRD     IPg  0A   618  6.96                                            103 287 
 MRD     ESg  0A   618 20.96                                            103 287 
 SHB     IPg  0A   618  7.83                                            108 260 
 SHB     ESg  0A   618 22.42                                            108 260 
 AZR     IPg  0A   618  8.81                                            113 221 
 MRD      IAML A   618  7.92       180.5                                        
 TBZ      IAML A   618  1.45       360.2                                        
                                                                                

 2012  812  629 57.1 L  38.386  46.733 30.0       4 0.1 1.7L                   1
 GAP=46                    6.3     3.7  9.3                                    E
 Action:ARG 24-03-13 15:57 OP:OBSP STATUS:               ID:20120812062957     I
 STAT SP IPHASW D HRMM SECON CODA AMPLIT PERI AZIMU VELO AIN AR TRES W  DIS CAZ7
 HRS     IPg  0A   630  3.67                                           26.3  96 
 HRS     ESg  0A   630  8.72                                           26.3  96 
 TBZ     IPg  0A   630  6.76                                           53.5 256 
 TBZ     ESg  0A   630 13.98                                           53.5 256 
 SHB     IPg  0A   630 13.94                                           98.7 266 
 SHB     ESg  0A   630 27.02                                           98.7 266 
 MRD     IPg  0A   630 13.46                                           99.7 294 
 MRD     ESg  0A   630 26.46                                           99.7 294 
 TBZ      IAML A   630  7.13        59.0                                        
 HRS      IAML A   630  3.91       146.2                                        
                                                                                

 2012  812  640 44.5 L  38.415  46.663 20.1      19 0.2 4.1L                   1
 GAP=42                    2.3     1.4  3.2                                    E
 Action:ARG 24-03-13 15:57 OP:OBSP STATUS:               ID:20120812064044     I
 STAT SP IPHASW D HRMM SECON CODA AMPLIT PERI AZIMU VELO AIN AR TRES W  DIS CAZ7
 HRS     IPg  0A   640 51.05                                           35.3 103 
 HRS     ESg  0A   640 56.55                                           35.3 103 
 TBZ     IPg  0A   640 53.06                                           47.1 248 
 BST     IPg  0A   640 58.38                                           79.6 164 
 MRD     IPg  0A   640 59.72                                           90.1 293 
 SHB     IPg  0A   641  0.31                                           91.0 262 
 AZR     IPg  0A   641  1.45                                           98.6 216 
 SRB     IPg  0A   641  2.89                                            108 125 
 GRMI    IPg  0A   641  4.20                                            117  66 
 LRK     IPg  0A   641  9.60                                            150  78 
 GLBA    IPg  0A   641 15.10                                            178  57 
 ASTR    IPg  0A   641 15.90                                            187  83 
 LKRN    IPg  0A   641 15.90                                            189  78 
 MAKU    IPn  0A   641 17.30                                            201 302 
 BRDA    IPn  0A   641 20.40                                            212  12 
 SAAT    IPn  0A   641 20.50                                            224  42 
 ZRD     IPn  0A   641 22.80                                            227  22 
 GANJ    IPn  0A   641 24.80                                            252 353 
 GNI     IPn  0A   641 26.30                                            254 320 
 ZNJK    IPn  0A   641 25.97                                            262 136 
 HRS      IAML A   640 51.64     25450.9                                        
 BRDA     IAML A   641 18.29      1597.7                                        
 SRB      IAML A   641  2.91      5279.1                                        
 GANJ     IAML A   641 23.15      1116.7                                        
 GRMI     IAML A   641  4.48      4653.6                                        
 ASTR     IAML A   641 15.12      2044.9                                        
 MAKU     IAML A   641 16.71      1782.6                                        
                                                                                

 2012  812  722 55.7 L  38.416  46.779 19.1       6 0.3 3.0L                   1
 GAP=44                    1.8     0.8  1.7                                    E
 Action:ARG 24-03-13 15:57 OP:OBSP STATUS:               ID:20120812072255     I
 STAT SP IPHASW D HRMM SECON CODA AMPLIT PERI AZIMU VELO AIN AR TRES W  DIS CAZ7
 HRS     IPg  0A   723  0.77                                           27.4 121 
 HRS     ESg  0A   723  5.54                                           27.4 121 
 TABZ    IPg  2A   723  6.35                                           58.3 222 
 TBZ     IPg  0A   723  5.79                                           59.4 246 
 TBZ     ESg  0A   723 13.69                                           59.4 246 
 MRD     IPg  0A   723 12.47                                           98.1 287 
 MRD     ESg  0A   723 23.95                                           98.1 287 
 SHB     IPg  0A   723 13.19                                            102 260 
 SHB     ESg  0A   723 26.31                                            102 260 
 AZR     IPg  0A   723 13.99                                            109 219 
 AZR     ESg  0A   723 27.59                                            109 219 
 TBZ      IAML A   723  6.38      1020.0                                        
 AZR      IAML A   723 13.98       413.3                                        
                                                                                

