 2012  814 1028 43.9 L  38.434  46.722 17.3      21 0.2 3.6L                   1
 GAP=42                    2.5     1.4  2.7                                    E
 Action:ARG 24-03-13 15:57 OP:OBSP STATUS:               ID:20120814102843     I
 STAT SP IPHASW D HRMM SECON CODA AMPLIT PERI AZIMU VELO AIN AR TRES W  DIS CAZ7
 HRS     IPg  0A  1028 49.80                                           31.0 108 
 HRS     ESg  0A  1028 54.64                                           31.0 108 
 TBZ     IPg  0A  1028 53.38                                           52.3 248 
 BST     IPg  0A  1028 57.85                                           80.2 168 
 ORD     IPg  0A  1028 58.30                                           84.8 313 
 MRD     IPg  0A  1028 59.81                                           93.9 291 
 MRD     ESg  0A  1029 12.33                                           93.9 291 
 SHB     IPg  0A  1029  0.70                                           96.1 262 
 AZR     IPg  0A  1029  1.90                                            102 218 
 SRB     IPg  0A  1029  1.85                                            106 127 
 GRMI    IPg  0A  1029  2.95                                            112  66 
 NAX     IPg  0A  1029  7.00                                            135 309 
 LRK     IPg  0A  1029  8.40                                            144  79 
 SBZ     IPg  0A  1029  8.70                                            148 318 
 GLBA    IPg  0A  1029 14.00                                            173  57 
 ASTR    IPg  0A  1029 14.80                                            182  84 
 LKRN    IPg  0A  1029 14.80                                            183  78 
 MAKU    IPn  0A  1029 17.23                                            204 301 
 BRDA    IPn  0A  1029 17.40                                            210  11 
 SAAT    IPn  0A  1029 19.50                                            219  42 
 ZRD     IPn  0A  1029 19.80                                            224  21 
 GANJ    IPn  0A  1029 23.20                                            250 352 
 ZNJK    IPn  0A  1029 25.10                                            260 137 
 NAX      IAML A  1029  7.00      1169.5                                        
 ORD      IAML A  1028 59.18      2451.8                                        
 LRK      IAML A  1029  8.07      1039.7                                        
 AZR      IAML A  1029  1.93      1825.2                                        
 GANJ     IAML A  1029 22.94       356.8                                        
 BST      IAML A  1028 58.10      2660.3                                        
 SBZ      IAML A  1029  9.00       995.2                                        
 HRS      IAML A  1028 50.13      9445.0                                        
                                                                                

 2012  814 14 2 25.8 L  38.474  46.809 19.8      21 0.2 5.2L                   1
 GAP=44                    2.2     1.7  3.0                                    E
 Action:ARG 24-03-13 15:57 OP:OBSP STATUS:               ID:20120814140225     I
 STAT SP IPHASW D HRMM SECON CODA AMPLIT PERI AZIMU VELO AIN AR TRES W  DIS CAZ7
 HRS     IPg  0A  14 2 31.28                                           28.0 128 
 TBZ     IPg  0A  14 2 36.81                                           62.0 244 
 BST     IPg  0A  14 2 40.15                                           86.3 174 
 MRD     IPg  0A  14 2 42.57                                           98.5 285 
 GRMI    IPg  2A  14 2 43.62                                            103  68 
 SHB     IPg  0A  14 2 43.50                                            104 258 
 SRB     IPg  0A  14 2 43.50                                            105 133 
 AZR     IPg  2A  14 2 44.88                                            113 218 
 LRK     IPg  0A  14 2 48.90                                            136  81 
 NAX     IPg  0A  14 2 48.80                                            136 305 
 SBZ     IPg  0A  14 2 50.40                                            148 314 
 GLBA    IPg  0A  14 2 53.40                                            163  58 
 ASTR    IPg  0A  14 2 55.10                                            174  86 
 LKRN    IPg  0A  14 2 54.70                                            175  80 
 BRDA    IPg  0A  14 2 58.80                                            201   9 
 MAKU    IPn  2A  14 2 59.18                                            207 298 
 SAAT    IPn  0A  14 2 59.40                                            209  41 
 ZRD     IPn  0A  14 3  1.30                                            214  20 
 GANJ    IPn  0A  14 3  3.20                                            244 350 
 ZNJK    IPn  0A  14 3  6.01                                            261 139 
 VANB    IPn  0A  14 3 11.70                                            297 273 
 VANB     IAML A  14 3  9.58      9628.4                                        
 HRS      IAML A  14 2 31.82      42.7e4                                        
 SRB      IAML A  14 2 43.67     70274.3                                        
 ZNJK     IAML A  14 3  5.69     12983.1                                        
 MAKU     IAML A  14 2 58.64     21191.7                                        
 SBZ      IAML A  14 2 49.88     39708.7                                        
 ASTR     IAML A  14 2 54.32     29498.1                                        
 AZR      IAML A  14 2 44.59     62492.2                                        
                                                                                

 2012  814 1548 20.1 L  38.425  46.666 18.4      11 0.2 3.8L                   1
 GAP=41                    1.7     0.9  1.7                                    E
 Action:ARG 24-03-13 15:57 OP:OBSP STATUS:               ID:20120814154820     I
 STAT SP IPHASW D HRMM SECON CODA AMPLIT PERI AZIMU VELO AIN AR TRES W  DIS CAZ7
 HRS     IPg  0A  1548 26.75                                           36.7 110 
 HRS     ESg  0A  1548 32.05                                           36.7 110 
 TBZ     IPg  0A  1548 28.84                                           49.1 243 
 BST     IPg  0A  1548 34.14                                           84.3 165 
 BST     ESg  0A  1548 45.50                                           84.3 165 
 MRD     IPg  0A  1548 35.38                                           88.2 290 
 SHB     IPg  0A  1548 36.17                                           91.8 259 
 AZR     IPg  0A  1548 37.68                                            102 214 
 SRB     IPg  0A  1548 38.38                                            111 127 
 SRB     ESg  0A  1548 53.38                                            111 127 
 GRMI    IPg  0A  1548 40.27                                            116  68 
 MAKU    IPg  0A  1548 52.96                                            198 301 
 GNI     IPn  2A  1549  2.30                                            251 319 
 ZNJK    IPn  0A  1549  2.16                                            266 136 
 BST      IAML A  1548 35.15      3916.1                                        
 GNI      IAML A  1548 58.59       560.6                                        
 SRB      IAML A  1548 39.38      2538.7                                        
 SHB      IAML A  1548 35.84      3450.5                                        
                                                                                

 2012  814 1636 24.7 L  38.427  46.707 18.7      10 0.2 3.3L                   1
 GAP=42                    1.8     1.0  1.8                                    E
 Action:ARG 24-03-13 15:57 OP:OBSP STATUS:               ID:20120814163624     I
 STAT SP IPHASW D HRMM SECON CODA AMPLIT PERI AZIMU VELO AIN AR TRES W  DIS CAZ7
 HRS     IPg  0A  1636 30.74                                           31.2 109 
 HRS     ESg  0A  1636 35.64                                           31.2 109 
 TBZ     IPg  0A  1636 33.89                                           52.3 248 
 TBZ     ESg  0A  1636 40.67                                           52.3 248 
 BST     IPg  0A  1636 38.59                                           80.4 168 
 BST     ESg  0A  1636 49.73                                           80.4 168 
 MRD     IPg  0A  1636 40.38                                           93.8 291 
 MRD     ESg  0A  1636 53.70                                           93.8 291 
 SHB     IPg  0A  1636 41.15                                           96.1 261 
 AZR     IPg  0A  1636 42.22                                            103 218 
 SRB     IPg  0A  1636 42.62                                            106 127 
 GRMI    IPg  0A  1636 44.08                                            112  66 
 MAKU    IPn  0A  1636 57.91                                            204 301 
 ZNJK    IPn  0A  1637  6.13                                            260 137 
 MRD      IAML A  1636 41.05      1056.5                                        
 BST      IAML A  1636 38.67      1327.6                                        
 GRMI     IAML A  1636 43.58       793.2                                        
 ZNJK     IAML A  1637  4.44       164.0                                        
                                                                                

 2012  814 17 9  9.8 L  38.421  46.718 19.1      10 0.2 3.1L                   1
 GAP=43                    1.5     0.8  1.7                                    E
 Action:ARG 24-03-13 15:57 OP:OBSP STATUS:               ID:20120814170909     I
 STAT SP IPHASW D HRMM SECON CODA AMPLIT PERI AZIMU VELO AIN AR TRES W  DIS CAZ7
 HRS     IPg  0A  17 9 15.66                                           29.6 112 
 HRS     ESg  0A  17 9 20.52                                           29.6 112 
 TBZ     IPg  0A  17 9 19.16                                           54.6 248 
 TBZ     ESg  0A  17 9 26.50                                           54.6 248 
 BST     IPg  0A  17 9 23.51                                           81.0 169 
 BST     ESg  0A  17 9 34.75                                           81.0 169 
 MRD     IPg  0A  17 9 25.55                                           95.4 290 
 SHB     IPg  0A  17 9 26.42                                           98.3 261 
 SHB     ESg  0A  17 9 40.68                                           98.3 261 
 AZR     IPg  0A  17 9 27.49                                            105 218 
 SRB     IPg  0A  17 9 27.61                                            105 128 
 GRMI    IPg  0A  17 9 29.41                                            110  66 
 MAKU    IPn  0A  17 9 43.07                                            205 300 
 ZNJK    IPn  0A  17 9 50.81                                            260 137 
 MAKU     IAML A  17 9 42.54       170.9                                        
 GRMI     IAML A  17 9 28.67       517.4                                        
 SRB      IAML A  17 9 27.83       557.7                                        
 TBZ      IAML A  17 9 19.70      1439.1                                        
                                                                                

 2012  814 2020 33.1 L  38.414  46.669 15.9       9 0.2 3.0L                   1
 GAP=42                    1.7     0.7  2.5                                    E
 Action:ARG 24-03-13 15:57 OP:OBSP STATUS:               ID:20120814202033     I
 STAT SP IPHASW D HRMM SECON CODA AMPLIT PERI AZIMU VELO AIN AR TRES W  DIS CAZ7
 HRS     IPg  0A  2020 39.47                                           35.1 108 
 HRS     ESg  0A  2020 44.61                                           35.1 108 
 TBZ     IPg  0A  2020 41.73                                           49.4 245 
 TBZ     ESg  0A  2020 48.51                                           49.4 245 
 BST     IPg  0A  2020 47.05                                           82.4 165 
 BST     ESg  0A  2020 58.00                                           82.4 165 
 MRD     IPg  0A  2020 48.39                                           89.9 291 
 SHB     IPg  0A  2020 49.00                                           92.6 260 
 AZR     IPg  0A  2020 50.73                                            101 216 
 SRB     IPg  0A  2020 51.31                                            109 126 
 GRMI    IPg  0A  2020 53.19                                            115  67 
 MAKU    IPn  0A  2021  6.47                                            200 301 
 GRMI     IAML A  2020 53.04       381.6                                        
 HRS      IAML A  2020 40.08      2036.2                                        
                                                                                

 2012  815  341 30.3 L  38.433  46.804 19.4       9 0.3 3.4L                   1
 GAP=43                    1.7     0.9  1.7                                    E
 Action:ARG 24-03-13 15:57 OP:OBSP STATUS:               ID:20120815034130     I
 STAT SP IPHASW D HRMM SECON CODA AMPLIT PERI AZIMU VELO AIN AR TRES W  DIS CAZ7
 HRS     IPg  0A   341 35.63                                           24.1 120 
 HRS     ESg  0A   341 39.45                                           24.1 120 
 TBZ     IPg  0A   341 40.97                                           61.1 249 
 SRB     IPg  0A   341 47.62                                            100 131 
 MRD     IPg  0A   341 47.21                                            101 288 
 MRD     ESg  0A   342  0.73                                            101 288 
 GRMI    IPg  0A   341 48.51                                            103  65 
 SHB     IPg  0A   341 48.04                                            104 261 
 SHB     ESg  0A   342  1.80                                            104 261 
 AZR     IPg  0A   341 49.13                                            110 221 
 AZR     ESg  0A   342  3.18                                            110 221 
 MAKU    IPn  0A   342  4.38                                            211 299 
 ZNJK    IPn  0A   342 11.10                                            256 138 
 HRS      IAML A   341 36.07      8119.5                                        
 AZR      IAML A   341 49.21      1035.7                                        
 SRB      IAML A   341 47.80      1189.3                                        
 GRMI     IAML A   341 48.36      1134.2                                        
                                                                                

 2012  815  429 39.4 L  38.434  46.820 12.1       9 0.2 3.1L                   1
 GAP=43                    3.4     1.3  4.6                                    E
 Action:ARG 24-03-13 15:57 OP:OBSP STATUS:               ID:20120815042939     I
 STAT SP IPHASW D HRMM SECON CODA AMPLIT PERI AZIMU VELO AIN AR TRES W  DIS CAZ7
 HRS     IPg  0A   429 43.87                                           22.2 117 
 HRS     ESg  0A   429 47.37                                           22.2 117 
 TBZ     IPg  0A   429 50.22                                           61.5 251 
 TBZ     ESg  0A   429 58.60                                           61.5 251 
 SRB     IPg  0A   429 56.05                                           98.7 130 
 SRB     ESg  0A   430  9.15                                           98.7 130 
 MRD     IPg  0A   429 56.39                                            102 289 
 GRMI    IPg  0A   429 58.17                                            103  64 
 SHB     IPg  0A   429 57.51                                            105 262 
 SHB     ESg  0A   430 11.65                                            105 262 
 AZR     IPg  0A   429 58.17                                            109 222 
 MAKU    IPn  0A   430 13.36                                            213 300 
 ZNJK    IPn  0A   430 19.38                                            254 138 
 SHB      IAML A   429 57.92       553.4                                        
 AZR      IAML A   429 58.83       524.6                                        
 GRMI     IAML A   429 57.79       570.0                                        
                                                                                

 2012  815  539 51.3 L  38.421  46.661 17.8       7 0.3 2.3L                   1
 GAP=41                    1.5     0.8  1.6                                    E
 Action:ARG 24-03-13 15:57 OP:OBSP STATUS:               ID:20120815053951     I
 STAT SP IPHASW D HRMM SECON CODA AMPLIT PERI AZIMU VELO AIN AR TRES W  DIS CAZ7
 HRS     IPg  0A   539 57.85                                           34.8 115 
 TBZ     IPg  0A   539 59.86                                           52.7 242 
 BST     IPg  0A   540  5.03                                           85.6 167 
 BST     ESg  0A   540 16.55                                           85.6 167 
 MRD     IPg  0A   540  6.47                                           90.3 288 
 SHB     IPg  0A   540  7.30                                           95.1 258 
 AZR     IPg  0A   540  9.75                                            105 215 
 SRB     IPg  0A   540  9.71                                            110 128 
 AZR      IAML A   540  9.10        87.6                                        
 TBZ      IAML A   540  0.55       239.5                                        
 BST      IAML A   540  5.87       121.2                                        
                                                                                

 2012  815  9 3 48.2 L  38.411  46.680 16.6       7 0.2 2.6L                   1
 GAP=43                    2.2     1.0  2.5                                    E
 Action:ARG 24-03-13 15:57 OP:OBSP STATUS:               ID:20120815090348     I
 STAT SP IPHASW D HRMM SECON CODA AMPLIT PERI AZIMU VELO AIN AR TRES W  DIS CAZ7
 HRS     IPg  0A   9 3 54.41                                           33.1 112 
 HRS     ESg  0A   9 3 59.44                                           33.1 112 
 TBZ     IPg  0A   9 3 56.91                                           52.5 245 
 BST     IPg  0A   9 4  1.85                                           83.2 168 
 MRD     IPg  0A   9 4  3.74                                           91.9 290 
 SHB     IPg  0A   9 4  4.50                                           95.5 260 
 AZR     IPg  0A   9 4  6.47                                            104 216 
 SRB     IPg  0A   9 4  6.48                                            108 128 
 TBZ      IAML A   9 3 57.70       480.2                                        
 BST      IAML A   9 4  2.62       251.9                                        
                                                                                

