 2012  811 1223 15.3 L  38.466  46.842  8.7      15 0.2 6.5L                   1
 GAP=47                    3.3     1.2  5.2                                    E
 Action:ARG 24-03-13 15:57 OP:OBSP STATUS:               ID:20120811122315     I
 STAT SP IPHASW D HRMM SECON CODA AMPLIT PERI AZIMU VELO AIN AR TRES W  DIS CAZ7
 HRS     IPg  0A  1223 19.51                                           23.1 118 
 TBZ     IPg  0A  1223 26.20                                           61.1 250 
 BST     IPg  0A  1223 28.66                                           79.7 174 
 ORD     IPg  0A  1223 30.70                                           91.0 308 
 MRD     IPg  0A  1223 32.20                                            102 289 
 GRMI    IPg  0A  1223 32.55                                            104  64 
 SHB     IPg  0A  1223 33.34                                            105 262 
 LRK     IPg  0A  1223 37.80                                            135  78 
 NAX     IPg  0A  1223 38.70                                            141 306 
 GLBA    IPg  0A  1223 43.80                                            165  55 
 BRDA    IPn  0A  1223 50.20                                            207   8 
 SAAT    IPn  0A  1223 49.40                                            212  40 
 ZRD     IPn  0A  1223 52.10                                            220  19 
 GANJ    IPn  0A  1223 54.70                                            251 350 
 ZNJK    IPn  0A  1223 55.20                                            254 138 
 TBZ      IAML A  1223 26.02      31.1e5                                        
 SHB      IAML A  1223 33.17      14.0e5                                        
 NAX      IAML A  1223 39.06      85.7e4                                        
 GLBA     IAML A  1223 43.43      65.2e4                                        
 ZNJK     IAML A  1223 56.32      27.3e4                                        
 MRD      IAML A  1223 32.59      14.7e5                                        
                                                                                

 2012  811 1249 15.1 L  38.425  46.693 16.0      12 0.2 4.6L                   1
 GAP=42                    2.9     1.3  3.5                                    E
 Action:ARG 24-03-13 15:57 OP:OBSP STATUS:               ID:20120811124915     I
 STAT SP IPHASW D HRMM SECON CODA AMPLIT PERI AZIMU VELO AIN AR TRES W  DIS CAZ7
 HRS     IPg  0A  1249 21.23                                           32.1 104 
 HRS     ESg  0A  1249 25.91                                           32.1 104 
 TBZ     IPg  0A  1249 23.92                                           50.3 249 
 BST     IPg  0A  1249 29.06                                           78.9 167 
 MRD     IPg  0A  1249 30.69                                           93.1 292 
 SHB     IPg  0A  1249 31.48                                           94.3 262 
 SHB     ESg  0A  1249 43.98                                           94.3 262 
 SRB     IPg  0A  1249 33.24                                            106 126 
 LRK     IPg  0A  1249 40.00                                            146  78 
 GLBA    IPg  0A  1249 45.20                                            175  56 
 ASTR    IPg  0A  1249 46.40                                            184  83 
 BRDA    IPn  0A  1249 50.90                                            212  11 
 SAAT    IPn  0A  1249 50.60                                            221  42 
 GNI     IPn  0A  1249 56.00                                            257 319 
 BRDA     IAML A  1249 49.86      5090.9                                        
 MRD      IAML A  1249 31.66     21312.7                                        
 SHB      IAML A  1249 31.74     20879.6                                        
 HRS      IAML A  1249 21.44     90707.1                                        
 GLBA     IAML A  1249 44.54      7350.0                                        
                                                                                

 2012  811 1342 11.2 L  38.416  46.703 17.7      17 0.2 4.0L                   1
 GAP=43                    3.0     1.4  3.9                                    E
 Action:ARG 24-03-13 15:57 OP:OBSP STATUS:               ID:20120811134211     I
 STAT SP IPHASW D HRMM SECON CODA AMPLIT PERI AZIMU VELO AIN AR TRES W  DIS CAZ7
 HRS     IPg  0A  1342 17.03                                           33.3 107 
 HRS     ESg  0A  1342 22.31                                           33.3 107 
 TBZ     IPg  0A  1342 20.34                                           50.1 247 
 BST     IPg  0A  1342 25.21                                           80.6 166 
 ORD     IPg  0A  1342 25.10                                           83.1 314 
 MRD     IPg  0A  1342 27.35                                           91.8 292 
 SHB     IPg  0A  1342 27.42                                           93.8 261 
 SRB     IPg  0A  1342 29.22                                            107 126 
 NAX     IPg  0A  1342 33.80                                            133 309 
 SBZ     IPg  0A  1342 35.80                                            147 318 
 LRK     IPg  2A  1342 35.80                                            147  79 
 GLBA    IPg  0A  1342 41.10                                            175  57 
 ASTR    IPg  0A  1342 42.40                                            185  84 
 LKRN    IPg  0A  1342 42.50                                            186  78 
 BRDA    IPn  0A  1342 47.10                                            210  11 
 SAAT    IPn  0A  1342 46.90                                            221  42 
 GANJ    IPn  0A  1342 51.10                                            250 353 
 GNI     IPn  2A  1342 53.20                                            254 319 
 MRD      IAML A  1342 27.39      5469.7                                        
 LRK      IAML A  1342 35.98      2539.4                                        
 TBZ      IAML A  1342 20.42     12840.1                                        
 GLBA     IAML A  1342 40.49      1850.0                                        
 GNI      IAML A  1342 51.18       857.3                                        
 ASTR     IAML A  1342 41.72      1670.2                                        
                                                                                

 2012  811 1425 15.1 L  38.431  46.687 15.0      10 0.2 4.3L                   1
 GAP=41                    2.2     1.3  3.1                                    E
 Action:ARG 24-03-13 15:57 OP:OBSP STATUS:               ID:20120811142515     I
 STAT SP IPHASW D HRMM SECON CODA AMPLIT PERI AZIMU VELO AIN AR TRES W  DIS CAZ7
 HRS     IPg  0A  1425 21.35                                           34.5 113 
 HRS     ESg  0A  1425 26.27                                           34.5 113 
 TBZ     IPg  0A  1425 24.13                                           51.7 243 
 BST     IPg  0A  1425 29.13                                           84.2 167 
 BST     ESg  0A  1425 40.51                                           84.2 167 
 MRD     IPg  0A  1425 30.57                                           90.5 289 
 SHB     IPg  0A  1425 31.44                                           94.5 259 
 SRB     IPg  0A  1425 33.29                                            110 128 
 GRMI    IPg  2A  1425 34.95                                            113  68 
 MAKU    IPn  2A  1425 48.11                                            200 300 
 GNI     IPn  0A  1425 57.00                                            253 319 
 ZNJK    IPn  2A  1425 56.43                                            264 137 
 SRB      IAML A  1425 33.79      8230.5                                        
 GNI      IAML A  1425 54.77      1753.1                                        
 TBZ      IAML A  1425 24.21     24554.1                                        
 MRD      IAML A  1425 30.80     11144.6                                        
                                                                                

 2012  811 1521 14.3 L  38.449  46.823 19.5      20 0.1 4.7L                   1
 GAP=42                    1.9     1.0  2.0                                    E
 Action:ARG 24-03-13 15:57 OP:OBSP STATUS:               ID:20120811152114     I
 STAT SP IPHASW D HRMM SECON CODA AMPLIT PERI AZIMU VELO AIN AR TRES W  DIS CAZ7
 HRS     IPg  0A  1521 19.53                                           25.1 119 
 TBZ     IPg  0A  1521 25.34                                           60.3 249 
 ORD     IPg  2A  1521 29.20                                           88.9 308 
 MRD     IPg  0A  1521 31.27                                            100 288 
 SRB     IPg  0A  1521 31.52                                            101 131 
 SHB     IPg  0A  1521 32.40                                            104 261 
 GRMI    IPg  2A  1521 32.43                                            104  66 
 LRK     IPg  0A  1521 37.70                                            137  79 
 SBZ     IPg  0A  1521 39.60                                            152 315 
 GLBA    IPg  0A  1521 42.90                                            165  56 
 ASTR    IPg  0A  1521 43.20                                            175  84 
 LKRN    IPg  0A  1521 43.80                                            176  79 
 BRDA    IPn  0A  1521 49.60                                            206   9 
 MAKU    IPn  2A  1521 48.14                                            210 299 
 SAAT    IPn  2A  1521 48.30                                            212  41 
 ZRD     IPn  0A  1521 50.70                                            219  20 
 GANJ    IPn  0A  1521 53.70                                            247 350 
 ZNJK    IPn  2A  1521 54.65                                            257 138 
 GNI     IPn  0A  1521 56.70                                            260 317 
 VANB    IPn  0A  1522  1.30                                            297 274 
 MRD      IAML A  1521 31.44     23962.1                                        
 GRMI     IAML A  1521 32.56     22367.0                                        
 LRK      IAML A  1521 37.56     14420.9                                        
 SHB      IAML A  1521 32.03     22621.9                                        
 GANJ     IAML A  1521 52.75      4544.1                                        
 ZRD      IAML A  1521 49.05      5980.0                                        
 ORD      IAML A  1521 29.59     28748.4                                        
 SRB      IAML A  1521 32.15     23416.4                                        
                                                                                

 2012  811 16 0 50.7 L  38.442  46.810 18.2      19 0.3 4.0L                   1
 GAP=42                    3.1     1.4  4.1                                    E
 Action:ARG 24-03-13 15:57 OP:OBSP STATUS:               ID:20120811160050     I
 STAT SP IPHASW D HRMM SECON CODA AMPLIT PERI AZIMU VELO AIN AR TRES W  DIS CAZ7
 HRS     IPg  0A  16 0 55.23                                           25.3 114 
 HRS     ESg  0A  16 0 58.95                                           25.3 114 
 TBZ     IPg  0A  16 1  0.75                                           58.5 250 
 BST     IPg  0A  16 1  3.78                                           79.6 172 
 ORD     IPg  0A  16 1  4.90                                           89.2 310 
 MRD     IPg  0A  16 1  6.97                                           99.7 289 
 SRB     IPg  0A  16 1  7.11                                            101 129 
 SHB     IPg  0A  16 1  7.86                                            102 262 
 GRMI    IPg  0A  16 1  8.31                                            106  65 
 LRK     IPg  0A  16 1 13.60                                            138  78 
 NAX     IPg  0A  16 1 13.50                                            140 307 
 SBZ     IPg  0A  16 1 16.00                                            152 316 
 GLBA    IPg  0A  16 1 18.70                                            167  56 
 ASTR    IPg  0A  16 1 19.40                                            176  84 
 BRDA    IPn  0A  16 1 25.30                                            208   9 
 MAKU    IPn  0A  16 1 24.02                                            210 300 
 SAAT    IPn  0A  16 1 24.60                                            214  40 
 ZRD     IPn  0A  16 1 26.70                                            221  20 
 GANJ    IPn  0A  16 1 29.90                                            251 351 
 ZNJK    IPn  0A  16 1 29.83                                            256 138 
 SHB      IAML A  16 1  7.95      4616.4                                        
 NAX      IAML A  16 1 13.76      2770.2                                        
 MRD      IAML A  16 1  7.60      4817.4                                        
 SRB      IAML A  16 1  7.41      4697.7                                        
 BST      IAML A  16 1  4.01      6755.9                                        
 GANJ     IAML A  16 1 29.04       892.6                                        
 ASTR     IAML A  16 1 18.86      1830.8                                        
 TBZ      IAML A  16 1  0.86     10428.8                                        
                                                                                

 2012  811 1615  4.2 L  38.406  46.669 14.0       6 0.3 2.7L                   1
 GAP=43                    1.9     1.0  3.0                                    E
 Action:ARG 24-03-13 15:57 OP:OBSP STATUS:               ID:20120811161504     I
 STAT SP IPHASW D HRMM SECON CODA AMPLIT PERI AZIMU VELO AIN AR TRES W  DIS CAZ7
 HRS     IPg  0A  1615 10.18                                           34.0 109 
 HRS     ESg  0A  1615 15.43                                           34.0 109 
 TBZ     IPg  0A  1615 12.54                                           50.5 245 
 TBZ     ESg  0A  1615 19.38                                           50.5 245 
 BST     IPg  0A  1615 17.63                                           82.3 166 
 BST     ESg  0A  1615 28.81                                           82.3 166 
 MRD     IPg  0A  1615 19.48                                           90.9 291 
 SHB     IPg  0A  1615 20.46                                           93.8 260 
 SHB     ESg  0A  1615 32.05                                           93.8 260 
 SRB     IPg  0A  1615 22.53                                            109 127 
 SHB      IAML A  1615 20.12       265.4                                        
 TBZ      IAML A  1615 13.28       636.6                                        
 MRD      IAML A  1615 19.62       278.0                                        
                                                                                

 2012  811 1621 53.5 L  38.417  46.676 20.0      10 0.2 4.1L                   1
 GAP=42                    1.7     0.9  2.1                                    E
 Action:ARG 24-03-13 15:57 OP:OBSP STATUS:               ID:20120811162153     I
 STAT SP IPHASW D HRMM SECON CODA AMPLIT PERI AZIMU VELO AIN AR TRES W  DIS CAZ7
 HRS     IPg  0A  1621 59.43                                           34.9 107 
 TBZ     IPg  0A  1622  1.74                                           48.9 246 
 BST     IPg  0A  1622  6.86                                           81.5 165 
 MRD     IPg  0A  1622  8.33                                           90.1 292 
 SHB     IPg  0A  1622  9.20                                           92.3 261 
 SRB     IPg  0A  1622 11.16                                            109 126 
 GRMI    IPg  0A  1622 12.98                                            116  67 
 MAKU    IPg  0A  1622 25.75                                            201 301 
 GNI     IPn  2A  1622 34.70                                            254 319 
 ZNJK    IPn  0A  1622 34.10                                            263 136 
 SRB      IAML A  1622 11.40      5240.0                                        
 GNI      IAML A  1622 31.47      1092.9                                        
 MAKU     IAML A  1622 24.91      1789.3                                        
 HRS      IAML A  1621 59.91     25768.5                                        
                                                                                

 2012  811 1634 32.4 L  38.424  46.677 16.2       9 0.2 3.3L                   1
 GAP=41                    1.4     0.8  1.7                                    E
 Action:ARG 24-03-13 15:57 OP:OBSP STATUS:               ID:20120811163432     I
 STAT SP IPHASW D HRMM SECON CODA AMPLIT PERI AZIMU VELO AIN AR TRES W  DIS CAZ7
 HRS     IPg  0A  1634 38.77                                           35.4 111 
 HRS     ESg  0A  1634 43.74                                           35.4 111 
 TBZ     IPg  0A  1634 41.18                                           50.3 243 
 BST     IPg  0A  1634 46.37                                           83.9 166 
 BST     ESg  0A  1634 57.55                                           83.9 166 
 MRD     IPg  0A  1634 47.88                                           89.6 290 
 SHB     IPg  0A  1634 48.63                                           93.1 259 
 SRB     IPg  0A  1634 50.86                                            110 127 
 GRMI    IPg  0A  1634 52.18                                            114  68 
 MAKU    IPg  0A  1635  5.19                                            200 301 
 ZNJK    IPn  0A  1635 13.71                                            265 137 
 BST      IAML A  1634 47.21      1248.1                                        
 MRD      IAML A  1634 47.74      1131.7                                        
 SRB      IAML A  1634 51.45       816.5                                        
 GRMI     IAML A  1634 52.15       770.1                                        
                                                                                

 2012  811 1737 58.5 L  38.422  46.853 17.6       5 0.2 2.1L                   1
 GAP=44                    2.0     1.0  1.8                                    E
 Action:ARG 24-03-13 15:57 OP:OBSP STATUS:               ID:20120811173758     I
 STAT SP IPHASW D HRMM SECON CODA AMPLIT PERI AZIMU VELO AIN AR TRES W  DIS CAZ7
 HRS     IPg  0A  1738  2.86                                           17.6 124 
 HRS     ESg  0A  1738  6.55                                           17.6 124 
 TBZ     IPg  0A  1738  9.71                                           66.4 253 
 TBZ     ESg  0A  1738 17.71                                           66.4 253 
 BST     IPg  0A  1738 11.69                                           78.6 179 
 BST     ESg  0A  1738 21.86                                           78.6 179 
 MRD     IPg  0A  1738 16.21                                            107 288 
 SHB     IPg  0A  1738 16.79                                            110 263 
 SHB     ESg  0A  1738 31.18                                            110 263 
 SHB      IAML A  1738 16.79        51.4                                        
                                                                                

