 2012  813  1 2 22.9 L  38.369  46.767 16.4       5 0.3 1.5L                   1
 GAP=48                    2.1     1.1  1.6                                    E
 Action:ARG 24-03-13 15:57 OP:OBSP STATUS:               ID:20120813010222     I
 STAT SP IPHASW D HRMM SECON CODA AMPLIT PERI AZIMU VELO AIN AR TRES W  DIS CAZ7
 TVRZ    IPg  0A   1 2 26.73                                           13.1 297 
 TVRZ    ESg  0A   1 2 29.61                                           13.1 297 
 HRS     IPg  0A   1 2 28.02                                           25.7 124 
 MRD     IPg  0A   1 2 40.03                                            100 287 
 MRD     ESg  0A   1 2 51.61                                            100 287 
 SRB     IPg  0A   1 2 40.09                                            102 132 
 SRB     ESg  0A   1 2 52.71                                            102 132 
 SHB     IPg  0A   1 2 40.32                                            105 260 
 SHB     ESg  0A   1 2 53.63                                            105 260 
 SHB      IAML A   1 2 40.09        14.1                                        
 MRD      IAML A   1 2 39.42        15.1                                        
 SRB      IAML A   1 2 39.98        14.6                                        
                                                                                

 2012  813  138 46.8 L  38.442  46.842 16.3       6 0.3 1.5L                   1
 GAP=43                    1.9     0.8  1.8                                    E
 Action:ARG 24-03-13 15:57 OP:OBSP STATUS:               ID:20120813013846     I
 STAT SP IPHASW D HRMM SECON CODA AMPLIT PERI AZIMU VELO AIN AR TRES W  DIS CAZ7
 TVRZ    IPg  0A   138 50.86                                           16.4 290 
 TVRZ    ESg  0A   138 53.92                                           16.4 290 
 HRS     IPg  0A   138 51.28                                           22.8 130 
 TBZ     IPg  0A   138 57.82                                           65.3 248 
 TBZ     ESg  0A   139  6.14                                           65.3 248 
 SRB     IPg  0A   139  4.03                                            100 133 
 MRD     IPg  0A   139  4.20                                            103 286 
 MRD     ESg  0A   139 17.02                                            103 286 
 SHB     IPg  0A   139  5.52                                            108 260 
 SHB     ESg  0A   139 19.32                                            108 260 
 SHB      IAML A   139  5.49        13.3                                        
 TVRZ     IAML A   138 51.22       162.1                                        
 MRD      IAML A   139  4.70        14.3                                        
                                                                                

 2012  813  156  9.8 L  38.455  46.691 17.7      11 0.3 4.7L                   1
 GAP=40                    1.6     0.8  1.4                                    E
 Action:ARG 24-03-13 15:57 OP:OBSP STATUS:               ID:20120813015609     I
 STAT SP IPHASW D HRMM SECON CODA AMPLIT PERI AZIMU VELO AIN AR TRES W  DIS CAZ7
 HRS     IPg  0A   156 16.43                                           33.2 113 
 HRS     ESg  0A   156 21.08                                           33.2 113 
 TBZ     IPg  0A   156 19.14                                           52.6 244 
 TBZ     ESg  0A   156 25.92                                           52.6 244 
 MRD     IPg  0A   156 25.12                                           91.8 289 
 SHB     IPg  0A   156 26.13                                           95.6 260 
 SHB     ESg  0A   156 39.15                                           95.6 260 
 AZR     IPg  0A   156 27.76                                            104 216 
 SRB     IPg  0A   156 28.30                                            108 128 
 GRMI    IPg  0A   156 29.25                                            112  68 
 MAKU    IPn  0A   156 42.45                                            202 300 
 GNI     IPn  0A   156 50.70                                            254 319 
 ZNJK    IPn  0A   156 51.10                                            263 137 
 VANB    IPn  0A   156 55.90                                            289 274 
 SRB      IAML A   156 28.46     21047.1                                        
 HRS      IAML A   156 16.53      10.9e4                                        
                                                                                

 2012  813  415 52.3 L  38.427  46.684 19.2       8 0.2 3.7L                   1
 GAP=41                    1.9     1.0  1.9                                    E
 Action:ARG 24-03-13 15:57 OP:OBSP STATUS:               ID:20120813041552     I
 STAT SP IPHASW D HRMM SECON CODA AMPLIT PERI AZIMU VELO AIN AR TRES W  DIS CAZ7
 HRS     IPg  0A   415 58.58                                           32.6 105 
 HRS     ESg  0A   416  3.92                                           32.6 105 
 TBZ     IPg  0A   416  1.27                                           50.0 249 
 MRD     IPg  0A   416  7.74                                           92.5 292 
 MRD     ESg  0A   416 20.46                                           92.5 292 
 SHB     IPg  0A   416  8.48                                           94.0 262 
 AZR     IPg  0A   416  9.86                                            100 217 
 GRMI    IPg  0A   416 12.00                                            115  66 
 MAKU    IPn  0A   416 25.33                                            203 302 
 ZNJK    IPn  0A   416 34.34                                            261 136 
 TBZ      IAML A   416  1.51      6450.5                                        
 MAKU     IAML A   416 25.02       694.9                                        
 MRD      IAML A   416  8.30      2708.1                                        
 AZR      IAML A   416  9.27      2376.2                                        
                                                                                

 2012  813  658 22.5 L  38.446  46.683 17.6       9 0.2 3.2L                   1
 GAP=40                    1.8     1.0  1.9                                    E
 Action:ARG 24-03-13 15:57 OP:OBSP STATUS:               ID:20120813065822     I
 STAT SP IPHASW D HRMM SECON CODA AMPLIT PERI AZIMU VELO AIN AR TRES W  DIS CAZ7
 HRS     IPg  0A   658 28.54                                           35.5 114 
 HRS     ESg  0A   658 33.64                                           35.5 114 
 TBZ     IPg  0A   658 30.97                                           51.8 242 
 MRD     IPg  0A   658 37.40                                           89.6 289 
 SHB     IPg  0A   658 38.38                                           94.2 258 
 AZR     IPg  0A   658 40.07                                            105 215 
 SRB     IPg  0A   658 40.43                                            111 128 
 GRMI    IPg  0A   658 41.51                                            113  69 
 MAKU    IPg  0A   658 54.83                                            199 300 
 ZNJK    IPn  0A   659  3.51                                            266 137 
 MAKU     IAML A   658 54.36       228.2                                        
 SHB      IAML A   658 38.09       833.5                                        
 HRS      IAML A   658 29.01      3182.5                                        
                                                                                

 2012  813  728 30.3 L  38.406  46.798 18.5      10 0.2 3.2L                   1
 GAP=45                    1.4     1.0  2.1                                    E
 Action:ARG 24-03-13 15:57 OP:OBSP STATUS:               ID:20120813072830     I
 STAT SP IPHASW D HRMM SECON CODA AMPLIT PERI AZIMU VELO AIN AR TRES W  DIS CAZ7
 HRS     IPg  0A   728 35.34                                           23.3 110 
 HRS     ESg  0A   728 39.06                                           23.3 110 
 TBZ     IPg  0A   728 40.73                                           59.0 252 
 TBZ     ESg  0A   728 48.31                                           59.0 252 
 BST     IPg  0A   728 43.67                                           77.3 173 
 SRB     IPg  0A   728 47.46                                           99.1 129 
 MRD     IPg  0A   728 47.35                                            101 290 
 SHB     IPg  0A   728 47.90                                            103 263 
 SHB     ESg  0A   729  1.68                                            103 263 
 GRMI    IPg  0A   728 48.68                                            106  64 
 AZR     IPg  0A   728 48.50                                            106 222 
 MAKU    IPn  0A   729  4.30                                            212 300 
 ZNJK    IPn  0A   729  9.89                                            254 138 
 GRMI     IAML A   728 48.87       689.2                                        
 HRS      IAML A   728 35.80      5340.1                                        
 SHB      IAML A   728 47.93       721.1                                        
 MAKU     IAML A   729  4.30       202.5                                        
                                                                                

 2012  813  816 49.6 L  38.448  46.897  6.5      20 0.2 4.0L                   1
 GAP=50                    2.8     0.8  4.3                                    E
 Action:ARG 24-03-13 15:57 OP:OBSP STATUS:               ID:20120813081649     I
 STAT SP IPHASW D HRMM SECON CODA AMPLIT PERI AZIMU VELO AIN AR TRES W  DIS CAZ7
 HRS     IPg  0A   816 53.16                                           18.9 134 
 HRS     ESg  0A   816 56.24                                           18.9 134 
 TBZ     IPg  0A   817  1.42                                           68.5 251 
 ORD     IPg  0A   817  5.50                                           95.1 305 
 SRB     IPg  0A   817  5.55                                           96.2 134 
 GRMI    IPg  0A   817  6.61                                           96.8  64 
 MRD     IPg  0A   817  7.59                                            107 286 
 MRD     ESg  0A   817 22.15                                            107 286 
 SHB     IPg  0A   817  8.80                                            112 261 
 SHB     ESg  0A   817 24.26                                            112 261 
 AZR     IPg  0A   817  9.46                                            115 223 
 LRK     IPg  0A   817 12.00                                            128  79 
 NAX     IPg  0A   817 13.90                                            146 304 
 SBZ     IPg  0A   817 15.60                                            157 312 
 GLBA    IPg  2A   817 17.80                                            158  55 
 ASTR    IPg  0A   817 18.30                                            166  84 
 LKRN    IPg  0A   817 18.30                                            167  79 
 BRDA    IPn  0A   817 23.10                                            204   6 
 ZRD     IPn  0A   817 24.90                                            215  18 
 MAKU    IPn  0A   817 24.48                                            216 298 
 GANJ    IPn  0A   817 28.50                                            250 348 
 ZNJK    IPn  0A   817 29.46                                            252 140 
 GNI     IPn  2A   817 33.30                                            265 316 
 BRDA     IAML A   817 23.67      1378.3                                        
 HRS      IAML A   816 53.82     43413.5                                        
 LRK      IAML A   817 11.67      3201.8                                        
 ZNJK     IAML A   817 30.67       882.8                                        
 GNI      IAML A   817 31.89       788.6                                        
 MAKU     IAML A   817 25.86      1220.7                                        
 SHB      IAML A   817  9.11      3990.6                                        
 GLBA     IAML A   817 16.44      2235.4                                        
 ORD      IAML A   817  6.02      5183.2                                        
                                                                                

 2012  813 1045 44.1 L  38.460  46.621 19.2      11 0.1 4.2L                   1
 GAP=37                    2.2     1.5  3.4                                    E
 Action:ARG 24-03-13 15:57 OP:OBSP STATUS:               ID:20120813104544     I
 STAT SP IPHASW D HRMM SECON CODA AMPLIT PERI AZIMU VELO AIN AR TRES W  DIS CAZ7
 HRS     IPg  0A  1045 51.32                                           41.1 113 
 HRS     ESg  0A  1045 57.60                                           41.1 113 
 TBZ     IPg  0A  1045 52.55                                           47.6 237 
 MRD     IPg  0A  1045 58.71                                           83.9 289 
 BST     IPg  0A  1045 58.94                                           88.2 163 
 BST     ESg  0A  1046 10.80                                           88.2 163 
 SHB     IPg  0A  1045 59.54                                           89.0 257 
 AZR     IPg  0A  1046  1.33                                            103 212 
 SRB     IPg  0A  1046  3.36                                            116 127 
 GRMI    IPg  0A  1046  4.29                                            117  70 
 MAKU    IPg  0A  1046 16.30                                            194 301 
 GNI     IPn  0A  1046 25.20                                            247 319 
 ZNJK    IPn  0A  1046 25.83                                            270 136 
 ZNJK     IAML A  1046 25.05      1195.5                                        
 TBZ      IAML A  1045 53.09     21763.5                                        
 MRD      IAML A  1045 58.61      9914.0                                        
 MAKU     IAML A  1046 15.47      2410.9                                        
 GRMI     IAML A  1046  3.89      5830.8                                        
                                                                                

 2012  813 1245 57.9 L  38.441  46.729 18.6      11 0.2 3.9L                   1
 GAP=41                    1.4     0.6  1.5                                    E
 Action:ARG 24-03-13 15:57 OP:OBSP STATUS:               ID:20120813124557     I
 STAT SP IPHASW D HRMM SECON CODA AMPLIT PERI AZIMU VELO AIN AR TRES W  DIS CAZ7
 HRS     IPg  0A  1246  3.87                                           29.9 116 
 HRS     ESg  0A  1246  8.55                                           29.9 116 
 TBZ     IPg  0A  1246  7.40                                           56.1 246 
 BST     IPg  0A  1246 11.97                                           83.1 170 
 BST     ESg  0A  1246 23.13                                           83.1 170 
 MRD     IPg  0A  1246 13.74                                           95.2 288 
 SHB     IPg  0A  1246 14.68                                           99.2 260 
 SHB     ESg  0A  1246 28.28                                           99.2 260 
 SRB     IPg  0A  1246 15.87                                            106 129 
 AZR     IPg  0A  1246 16.15                                            107 218 
 GRMI    IPg  0A  1246 17.06                                            108  67 
 MAKU    IPn  0A  1246 31.33                                            205 300 
 GNI     IPn  2A  1246 40.60                                            256 318 
 ZNJK    IPn  0A  1246 39.43                                            261 138 
 TBZ      IAML A  1246  8.12      8769.9                                        
 ZNJK     IAML A  1246 37.90       649.7                                        
 GRMI     IAML A  1246 16.22      3332.5                                        
 GNI      IAML A  1246 36.75       677.6                                        
                                                                                

 2012  813 1253 47.1 L  38.426  46.721 16.1      10 0.2 3.2L                   1
 GAP=42                    1.9     1.2  2.7                                    E
 Action:ARG 24-03-13 15:57 OP:OBSP STATUS:               ID:20120813125347     I
 STAT SP IPHASW D HRMM SECON CODA AMPLIT PERI AZIMU VELO AIN AR TRES W  DIS CAZ7
 HRS     IPg  0A  1253 52.97                                           31.0 114 
 TBZ     IPg  0A  1253 56.42                                           54.4 246 
 BST     IPg  0A  1254  0.86                                           82.7 169 
 BST     ESg  0A  1254 11.90                                           82.7 169 
 MRD     IPg  0A  1254  3.02                                           94.0 289 
 SHB     IPg  0A  1254  3.89                                           97.7 260 
 AZR     IPg  0A  1254  5.41                                            105 217 
 SRB     IPg  0A  1254  4.95                                            106 128 
 GRMI    IPg  0A  1254  6.09                                            110  67 
 MAKU    IPn  0A  1254 20.32                                            204 300 
 ZNJK    IPn  0A  1254 28.00                                            261 137 
 SRB      IAML A  1254  5.80       685.2                                        
 BST      IAML A  1254  1.80      1012.5                                        
 GRMI     IAML A  1254  6.30       649.5                                        
                                                                                

 2012  813 1532 15.8 L  38.436  46.781 12.7       7 0.2 2.2L                   1
 GAP=42                    2.4     1.2  3.8                                    E
 Action:ARG 24-03-13 15:57 OP:OBSP STATUS:               ID:20120813153215     I
 STAT SP IPHASW D HRMM SECON CODA AMPLIT PERI AZIMU VELO AIN AR TRES W  DIS CAZ7
 HRS     IPg  0A  1532 20.76                                           25.5 118 
 HRS     ESg  0A  1532 24.70                                           25.5 118 
 TBZ     IPg  0A  1532 25.89                                           59.6 249 
 TBZ     ESg  0A  1532 33.65                                           59.6 249 
 BST     IPg  0A  1532 29.22                                           81.2 173 
 MRD     IPg  0A  1532 32.50                                           99.8 288 
 SRB     IPg  0A  1532 32.97                                            101 130 
 SHB     IPg  0A  1532 33.46                                            103 261 
 AZR     IPg  0A  1532 34.66                                            109 220 
 BST      IAML A  1532 30.20       104.0                                        
 TBZ      IAML A  1532 26.15       161.0                                        
 AZR      IAML A  1532 34.28        66.4                                        
                                                                                

