 2012  812 1928  5.1 L  38.388  46.798 18.6       5 0.2 1.7L                   1
 GAP=46                    2.2     1.6  2.6                                    E
 Action:ARG 24-03-13 15:57 OP:OBSP STATUS:               ID:20120812192805     I
 STAT SP IPHASW D HRMM SECON CODA AMPLIT PERI AZIMU VELO AIN AR TRES W  DIS CAZ7
 TVRZ    IPg  0A  1928  9.22                                           14.8 300 
 TVRZ    ESg  0A  1928 12.36                                           14.8 300 
 HRS     IPg  0A  1928 10.10                                           23.9 123 
 HRS     ESg  0A  1928 13.92                                           23.9 123 
 TBZ     IPg  0A  1928 15.28                                           62.3 249 
 TBZ     ESg  0A  1928 23.12                                           62.3 249 
 MRD     IPg  0A  1928 22.28                                            101 287 
 MRD     ESg  0A  1928 33.24                                            101 287 
 SHB     IPg  0A  1928 22.68                                            105 261 
 SHB     ESg  0A  1928 36.64                                            105 261 
 TBZ      IAML A  1928 15.83        47.9                                        
 MRD      IAML A  1928 21.73        23.4                                        
                                                                                

 2012  812 20 4 31.3 L  38.434  46.724 16.7       5 0.3 1.8L                   1
 GAP=42                    2.1     1.7  2.9                                    E
 Action:ARG 24-03-13 15:57 OP:OBSP STATUS:               ID:20120812200431     I
 STAT SP IPHASW D HRMM SECON CODA AMPLIT PERI AZIMU VELO AIN AR TRES W  DIS CAZ7
 TVRZ    IPg  0A  20 4 34.35                                           8.63 277 
 TVRZ    ESg  0A  20 4 36.81                                           8.63 277 
 HRS     IPg  0A  20 4 37.05                                           31.1 128 
 HRS     ESg  0A  20 4 42.03                                           31.1 128 
 TBZ     IPg  0A  20 4 40.66                                           61.1 242 
 MRD     IPg  0A  20 4 47.40                                           95.9 285 
 MRD     ESg  0A  20 4 59.72                                           95.9 285 
 SHB     IPg  0A  20 4 48.22                                            103 257 
 SHB     ESg  0A  20 5  2.08                                            103 257 
 MRD      IAML A  20 4 47.55        32.3                                        
                                                                                

 2012  812 20 9 35.7 L  38.385  46.876 17.3       5 0.3 2.2L                   1
 GAP=46                    1.8     0.6  1.3                                    E
 Action:ARG 24-03-13 15:57 OP:OBSP STATUS:               ID:20120812200935     I
 STAT SP IPHASW D HRMM SECON CODA AMPLIT PERI AZIMU VELO AIN AR TRES W  DIS CAZ7
 HRS     IPg  0A  20 9 39.66                                           18.3 127 
 HRS     ESg  0A  20 9 42.75                                           18.3 127 
 TVRZ    IPg  0A  20 9 40.12                                           20.6 297 
 TVRZ    ESg  0A  20 9 43.47                                           20.6 297 
 TBZ     IPg  0A  20 9 46.96                                           66.8 252 
 TBZ     ESg  0A  20 9 55.37                                           66.8 252 
 MRD     IPg  0A  20 9 53.82                                            107 288 
 MRD     ESg  0A  2010  6.57                                            107 288 
 SHB     IPg  0A  20 9 54.54                                            111 262 
 SHB     ESg  0A  2010  8.59                                            111 262 
 HRS      IAML A  20 9 40.14       715.6                                        
 MRD      IAML A  20 9 53.68        67.8                                        
                                                                                

 2012  812 2011  1.9 L  38.439  46.676 14.4       5 0.2 1.9L                   1
 GAP=40                    2.0     0.8  2.3                                    E
 Action:ARG 24-03-13 15:57 OP:OBSP STATUS:               ID:20120812201101     I
 STAT SP IPHASW D HRMM SECON CODA AMPLIT PERI AZIMU VELO AIN AR TRES W  DIS CAZ7
 TVRZ    IPg  0A  2011  4.53                                           8.58 349 
 TVRZ    ESg  0A  2011  6.84                                           8.58 349 
 HRS     IPg  0A  2011  8.06                                           33.4 111 
 HRS     ESg  0A  2011 13.41                                           33.4 111 
 TBZ     IPg  0A  2011 10.60                                           51.6 245 
 TBZ     ESg  0A  2011 17.22                                           51.6 245 
 MRD     IPg  0A  2011 17.02                                           91.5 290 
 MRD     ESg  0A  2011 29.62                                           91.5 290 
 SHB     IPg  0A  2011 18.28                                           94.7 260 
 SHB     ESg  0A  2011 31.24                                           94.7 260 
 MRD      IAML A  2011 17.92        43.6                                        
 TBZ      IAML A  2011 11.49        98.1                                        
 HRS      IAML A  2011  8.49       171.7                                        
                                                                                

 2012  812 22 1 15.8 L  38.438  46.697 14.7       5 0.2 2.4L                   1
 GAP=41                    2.2     0.8  2.0                                    E
 Action:ARG 24-03-13 15:57 OP:OBSP STATUS:               ID:20120812220115     I
 STAT SP IPHASW D HRMM SECON CODA AMPLIT PERI AZIMU VELO AIN AR TRES W  DIS CAZ7
 TVRZ    IPg  0A  22 1 18.56                                           8.13 334 
 TVRZ    ESg  0A  22 1 20.96                                           8.13 334 
 HRS     IPg  0A  22 1 21.83                                           32.1 114 
 HRS     ESg  0A  22 1 26.77                                           32.1 114 
 TBZ     IPg  0A  22 1 24.75                                           53.8 245 
 TBZ     ESg  0A  22 1 32.07                                           53.8 245 
 MRD     IPg  0A  22 1 31.35                                           92.9 289 
 MRD     ESg  0A  22 1 43.71                                           92.9 289 
 SHB     IPg  0A  22 1 32.49                                           96.8 260 
 SHB     ESg  0A  22 1 45.07                                           96.8 260 
 HRS      IAML A  22 1 22.02       571.3                                        
 TBZ      IAML A  22 1 25.89       293.3                                        
                                                                                

 2012  812 22 5 42.9 L  38.411  46.806 17.2       6 0.3 2.2L                   1
 GAP=44                    1.7     0.7  1.7                                    E
 Action:ARG 24-03-13 15:57 OP:OBSP STATUS:               ID:20120812220542     I
 STAT SP IPHASW D HRMM SECON CODA AMPLIT PERI AZIMU VELO AIN AR TRES W  DIS CAZ7
 TVRZ    IPg  0A  22 5 46.63                                           14.4 305 
 TVRZ    ESg  0A  22 5 49.63                                           14.4 305 
 HRS     IPg  0A  22 5 47.74                                           24.3 120 
 HRS     ESg  0A  22 5 51.57                                           24.3 120 
 TABZ    IPg  0A  22 5 54.10                                           58.7 225 
 TBZ     IPg  0A  22 5 53.33                                           61.1 249 
 TBZ     ESg  0A  22 6  1.25                                           61.1 249 
 MRD     IPg  0A  22 6  0.05                                            101 288 
 MRD     ESg  0A  22 6 12.85                                            101 288 
 SHB     IPg  0A  22 6  0.77                                            104 261 
 SHB     ESg  0A  22 6 13.47                                            104 261 
 TBZ      IAML A  22 5 53.87       155.7                                        
 SHB      IAML A  22 6  0.74        70.6                                        
                                                                                

 2012  812 2245 48.9 L  38.443  46.712 16.6       6 0.3 1.9L                   1
 GAP=41                    2.9     1.6  2.9                                    E
 Action:ARG 24-03-13 15:57 OP:OBSP STATUS:               ID:20120812224548     I
 STAT SP IPHASW D HRMM SECON CODA AMPLIT PERI AZIMU VELO AIN AR TRES W  DIS CAZ7
 TVRZ    IPg  0A  2245 52.10                                           9.99 327 
 TVRZ    ESg  0A  2245 54.60                                           9.99 327 
 HRS     IPg  0A  2245 54.91                                           30.0 113 
 HRS     ESg  0A  2245 59.87                                           30.0 113 
 TBZ     IPg  0A  2245 58.15                                           55.0 247 
 TBZ     ESg  0A  2246  5.71                                           55.0 247 
 MRD     IPg  0A  2246  4.61                                           95.0 289 
 MRD     ESg  0A  2246 18.19                                           95.0 289 
 SHB     IPg  0A  2246  5.81                                           98.4 260 
 SHB     ESg  0A  2246 19.15                                           98.4 260 
 AZR     IPg  0A  2246  6.90                                            105 218 
 TVRZ     IAML A  2245 52.66       727.5                                        
 SHB      IAML A  2246  5.97        39.0                                        
 TBZ      IAML A  2245 59.04        90.0                                        
                                                                                

 2012  812 2257  8.4 L  38.448  46.888 18.2       6 0.3 2.8L                   1
 GAP=50                    1.8     0.8  1.6                                    E
 Action:ARG 24-03-13 15:57 OP:OBSP STATUS:               ID:20120812225708     I
 STAT SP IPHASW D HRMM SECON CODA AMPLIT PERI AZIMU VELO AIN AR TRES W  DIS CAZ7
 TVRZ    IPg  0A  2257 12.85                                           20.4 275 
 TVRZ    ESg  0A  2257 16.20                                           20.4 275 
 HRS     IPg  0A  2257 12.55                                           22.4 146 
 HRS     ESg  0A  2257 15.95                                           22.4 146 
 TABZ    IPg  0A  2257 20.02                                           69.3 226 
 TABZ    ESg  0A  2257 28.94                                           69.3 226 
 TBZ     IPg  0A  2257 19.87                                           71.4 247 
 TBZ     ESg  0A  2257 28.51                                           71.4 247 
 MRD     IPg  0A  2257 25.79                                            107 283 
 MRD     ESg  0A  2257 38.69                                            107 283 
 SHB     IPg  0A  2257 27.27                                            114 259 
 SHB     ESg  0A  2257 41.39                                            114 259 
 TABZ     IAML A  2257 19.99       519.9                                        
 TVRZ     IAML A  2257 12.73      2491.8                                        
 TBZ      IAML A  2257 20.26       498.5                                        
                                                                                

 2012  812 23 2  3.7 L  38.385  46.838 22.7       7 0.2 2.7L                   1
 GAP=47                    1.5     1.0  1.3                                    E
 Action:ARG 24-03-13 15:57 OP:OBSP STATUS:               ID:20120812230203     I
 STAT SP IPHASW D HRMM SECON CODA AMPLIT PERI AZIMU VELO AIN AR TRES W  DIS CAZ7
 HRS     IPg  0A  23 2  8.71                                           18.8 114 
 HRS     ESg  0A  23 2 12.46                                           18.8 114 
 TVRZ    IPg  0A  23 2  8.24                                           20.2 309 
 TVRZ    ESg  0A  23 2 11.77                                           20.2 309 
 TABZ    IPg  0A  23 2 14.45                                           58.5 231 
 TABZ    ESg  0A  23 2 22.69                                           58.5 231 
 TBZ     IPg  0A  23 2 14.37                                           63.3 254 
 TBZ     ESg  0A  23 2 22.75                                           63.3 254 
 MRD     IPg  0A  23 2 21.27                                            106 290 
 MRD     ESg  0A  23 2 36.85                                            106 290 
 SHB     IPg  0A  23 2 21.83                                            108 264 
 SHB     ESg  0A  23 2 36.13                                            108 264 
 AZR     IPg  0A  23 2 22.12                                            109 224 
 AZR     ESg  0A  23 2 35.76                                            109 224 
 MRD      IAML A  23 2 22.08       219.1                                        
 TABZ     IAML A  23 2 14.44       522.3                                        
                                                                                

 2012  812 2316 12.8 L  38.406  46.678 13.7       5 0.2 1.8L                   1
 GAP=43                    1.7     0.9  2.5                                    E
 Action:ARG 24-03-13 15:57 OP:OBSP STATUS:               ID:20120812231612     I
 STAT SP IPHASW D HRMM SECON CODA AMPLIT PERI AZIMU VELO AIN AR TRES W  DIS CAZ7
 TVRZ    IPg  0A  2316 15.56                                           12.5 354 
 TVRZ    ESg  0A  2316 18.21                                           12.5 354 
 HRS     IPg  0A  2316 18.84                                           32.5 104 
 HRS     ESg  0A  2316 23.92                                           32.5 104 
 TBZ     IPg  0A  2316 21.30                                           49.7 249 
 TBZ     ESg  0A  2316 28.34                                           49.7 249 
 MRD     IPg  0A  2316 28.29                                           92.6 292 
 MRD     ESg  0A  2316 41.33                                           92.6 292 
 SHB     IPg  0A  2316 28.89                                           93.8 262 
 SHB      IAML A  2316 29.06        33.4                                        
                                                                                

 2012  812 2358 41.5 L  38.455  46.885 15.6       7 0.3 1.9L                   1
 GAP=50                    1.9     0.9  1.7                                    E
 Action:ARG 24-03-13 15:57 OP:OBSP STATUS:               ID:20120812235841     I
 STAT SP IPHASW D HRMM SECON CODA AMPLIT PERI AZIMU VELO AIN AR TRES W  DIS CAZ7
 HRS     IPg  0A  2358 45.91                                           20.2 140 
 HRS     ESg  0A  2358 49.36                                           20.2 140 
 TVRZ    IPg  0A  2358 45.99                                           20.5 284 
 TVRZ    ESg  0A  2358 49.38                                           20.5 284 
 TBZ     IPg  0A  2358 53.12                                           69.9 249 
 TBZ     ESg  0A  2359  1.84                                           69.9 249 
 SRB     IPg  0A  2358 58.18                                           97.4 136 
 MRD     IPg  0A  2358 59.42                                            107 285 
 MRD     ESg  0A  2359 13.43                                            107 285 
 SHB     IPg  0A  2359  0.86                                            113 260 
 SHB     ESg  0A  2359 15.67                                            113 260 
 AZR     IPg  0A  2359  1.65                                            117 222 
 SRB      IAML A  2358 58.04        39.7                                        
 AZR      IAML A  2359  1.62        29.3                                        
 TVRZ     IAML A  2358 46.27       312.3                                        
                                                                                

 2012  813  018  2.4 L  38.446  46.886  6.5       9 0.2 3.2L                   1
 GAP=50                    3.0     0.9  4.5                                    E
 Action:ARG 24-03-13 15:57 OP:OBSP STATUS:               ID:20120813001802     I
 STAT SP IPHASW D HRMM SECON CODA AMPLIT PERI AZIMU VELO AIN AR TRES W  DIS CAZ7
 HRS     IPg  0A   018  6.20                                           19.4 139 
 HRS     ESg  0A   018  9.15                                           19.4 139 
 TBZ     IPg  0A   018 14.19                                           69.6 250 
 TBZ     ESg  0A   018 23.27                                           69.6 250 
 GRMI    IPg  0A   018 19.34                                           95.6  65 
 SRB     IPg  0A   018 18.52                                           96.6 135 
 SRB     ESg  0A   018 31.26                                           96.6 135 
 MRD     IPg  0A   018 20.28                                            108 286 
 MRD     ESg  0A   018 34.52                                            108 286 
 SHB     IPg  0A   018 21.35                                            113 260 
 SHB     ESg  0A   018 36.19                                            113 260 
 AZR     IPg  0A   018 21.81                                            117 223 
 AZR     ESg  0A   018 37.39                                            117 223 
 MAKU    IPn  0A   018 37.21                                            216 298 
 ZNJK    IPn  0A   018 42.22                                            253 140 
 MRD      IAML A   018 21.02       671.9                                        
 ZNJK     IAML A   018 42.38       139.2                                        
 AZR      IAML A   018 22.62       589.7                                        
 MAKU     IAML A   018 38.14       193.5                                        
                                                                                

 2012  813  022  8.3 L  38.424  46.690 20.2       8 0.1 3.2L                   1
 GAP=42                    2.5     1.1  2.9                                    E
 Action:ARG 24-03-13 15:57 OP:OBSP STATUS:               ID:20120813002208     I
 STAT SP IPHASW D HRMM SECON CODA AMPLIT PERI AZIMU VELO AIN AR TRES W  DIS CAZ7
 HRS     IPg  0A   022 14.65                                           32.4 110 
 HRS     ESg  0A   022 19.87                                           32.4 110 
 TBZ     IPg  0A   022 17.32                                           51.8 246 
 MRD     IPg  0A   022 23.74                                           92.5 290 
 SHB     IPg  0A   022 24.60                                           95.3 261 
 SHB     ESg  0A   022 37.30                                           95.3 261 
 SRB     IPg  0A   022 26.52                                            107 127 
 GRMI    IPg  0A   022 27.83                                            113  67 
 MAKU    IPn  0A   022 41.26                                            203 301 
 ZNJK    IPn  0A   022 49.80                                            262 137 
 TBZ      IAML A   022 18.05      1945.4                                        
 SHB      IAML A   022 24.69       819.1                                        
 GRMI     IAML A   022 27.23       625.7                                        
                                                                                

