# 2012 08 20 21 37 38.800000 38.447 46.678   5.1  2.8 0.0 0.0 0.0       306
TBZ   8.580 1.00 Pg
TBZ  15.160 1.00 Sg
BST  14.160 1.00 Pg
BST  25.340 1.00 Sg
MRD  15.290 1.00 Pg
SHB  16.010 1.00 Pg
SHB  28.070 1.00 Sg
AZR  17.200 1.00 Pg
SRB  18.470 1.00 Pg
# 2012 08 20 22 20 12.400000 38.425 46.668   4.2  1.5 0.0 0.0 0.0       307
TBZ   8.310 1.00 Pg
TBZ  14.690 1.00 Sg
BST  13.900 1.00 Pg
MRD  15.050 1.00 Pg
SHB  16.000 1.00 Pg
SHB  27.800 1.00 Sg
SRB  18.540 1.00 Pg
# 2012 08 21 03 31 54.600000 38.431 46.677  17.1  2.4 0.0 0.0 0.0       308
TVRZ  3.200 1.00 Pg
TVRZ  5.660 1.00 Sg
TBZ   8.390 1.00 Pg
TBZ  15.110 1.00 Sg
BST  14.120 1.00 Pg
BST  25.300 1.00 Sg
MRD  14.970 1.00 Pg
MRD  27.950 1.00 Sg
SHB  15.610 1.00 Pg
SHB  28.490 1.00 Sg
AZR  18.250 0.50 Pg
SRB  18.050 1.00 Pg
SRB  32.730 1.00 Sg
# 2012 08 21 05 23 59.000000 38.439 46.750   4.7  2.0 0.0 0.0 0.0       309
TBZ   9.230 1.00 Pg
BST  13.920 1.00 Pg
MRD  16.130 1.00 Pg
SHB  17.070 1.00 Pg
SHB  29.790 1.00 Sg
SRB  17.930 1.00 Pg
# 2012 08 21 08 38 50.200000 38.381 46.564  14.3  2.6 0.0 0.0 0.0       310
TBZ   7.310 1.00 Pg
SHB  14.620 1.00 Pg
MRD  13.930 1.00 Pg
AZR  15.540 1.00 Pg
SRB  19.720 1.00 Pg
SRB  33.360 1.00 Sg
# 2012 08 21 09 15 11.900000 38.474 46.757   5.7  1.7 0.0 0.0 0.0       311
TBZ   9.620 1.00 Pg
BST  14.860 1.00 Pg
MRD  16.280 1.00 Pg
SHB  17.150 1.00 Pg
SHB  30.070 1.00 Sg
# 2012 08 21 10 24 46.500000 38.453 46.725  10.0  1.8 0.0 0.0 0.0       312
TBZ   8.990 1.00 Pg
MRD  15.920 1.00 Pg
MRD  27.560 1.00 Sg
SHB  16.580 1.00 Pg
SRB  18.050 1.00 Pg
AZR  18.550 1.00 Pg
# 2012 08 21 17 43 01.900000 38.411 46.721  20.0  3.2 0.0 0.0 0.0       313
TBZ   9.660 1.00 Pg
BST  14.140 1.00 Pg
BST  24.920 1.00 Sg
MRD  16.130 1.00 Pg
SHB  16.930 1.00 Pg
SHB  30.330 1.00 Sg
SRB  18.220 1.00 Pg
GRMI 19.570 1.00 Pg
MAKU 33.750 1.00 Pn
ZNJK 42.720 1.00 Pn
# 2012 08 22 04 24 53.500000 38.420 46.686   7.7  2.3 0.0 0.0 0.0       314
HRS   5.870 1.00 Pg
HRS  10.310 1.00 Sg
TBZ   8.800 1.00 Pg
BST  13.580 1.00 Pg
MRD  15.190 1.00 Pg
SHB  16.490 1.00 Pg
SRB  18.420 1.00 Pg
# 2012 08 22 09 50 22.500000 38.428 46.664  20.0  3.4 0.0 0.0 0.0       315
HRS   6.810 1.00 Pg
HRS  12.110 1.00 Sg
TBZ   8.650 1.00 Pg
MRD  15.400 1.00 Pg
SHB  16.030 1.00 Pg
SHB  28.470 1.00 Sg
AZR  17.200 1.00 Pg
SRB  18.650 1.00 Pg
GRMI 19.940 1.00 Pg
MAKU 32.920 1.00 Pg
ZNJK 41.930 1.00 Pn
# 2012 08 22 10 08 09.300000 38.461 46.864  27.6  2.0 0.0 0.0 0.0       316
HRS   6.240 1.00 Pg
HRS  10.080 1.00 Sg
TBZ  11.290 1.00 Pg
BST  14.570 1.00 Pg
MRD  17.620 1.00 Pg
SHB  32.480 1.00 Sg
# 2012 08 22 11 33 50.400000 38.439 46.656  10.3  2.8 0.0 0.0 0.0       317
HRS   6.210 1.00 Pg
HRS  11.410 1.00 Sg
TBZ   8.410 1.00 Pg
TBZ  14.890 1.00 Sg
MRD  14.770 1.00 Pg
SHB  15.660 1.00 Pg
SHB  27.800 1.00 Sg
AZR  16.980 1.00 Pg
SRB  19.160 1.00 Pg
# 2012 08 22 14 45 02.200000 38.440 46.658  15.0  1.8 0.0 0.0 0.0       318
HRS   6.390 1.00 Pg
HRS  11.730 1.00 Sg
TBZ   8.460 1.00 Pg
MRD  14.970 1.00 Pg
SHB  16.100 1.00 Pg
# 2012 08 22 15 37 57.300000 38.431 46.858  19.3  2.5 0.0 0.0 0.0       319
HRS   4.910 1.00 Pg
HRS   8.310 1.00 Sg
TBZ  11.170 1.00 Pg
TBZ  19.730 1.00 Sg
BST  13.590 1.00 Pg
SRB  16.610 1.00 Pg
SRB  29.290 1.00 Sg
MRD  17.870 1.00 Pg
SHB  18.590 1.00 Pg
SHB  33.070 1.00 Sg
AZR  19.460 1.00 Pg
# 2012 08 22 15 55 46.500000 38.429 46.780  18.3  1.4 0.0 0.0 0.0       320
HRS   5.480 1.00 Pg
TBZ   9.920 1.00 Pg
BST  14.150 1.00 Pg
MRD  16.990 1.00 Pg
SHB  17.420 1.00 Pg
SHB  30.680 1.00 Sg
# 2012 08 22 16 29 10.400000 38.426 46.852  21.9  1.7 0.0 0.0 0.0       321
HRS   5.030 1.00 Pg
HRS   8.750 1.00 Sg
TBZ  10.650 1.00 Pg
BST  13.800 1.00 Pg
MRD  17.420 1.00 Pg
SHB  18.620 1.00 Pg
SHB  31.650 1.00 Sg
# 2012 08 22 18 32 35.100000 38.416 46.650  14.4  2.1 0.0 0.0 0.0       322
HRS   6.320 1.00 Pg
HRS  11.680 1.00 Sg
TBZ   8.090 1.00 Pg
BST  13.980 1.00 Pg
MRD  14.960 1.00 Pg
SHB  16.120 1.00 Pg
SRB  18.610 1.00 Pg
# 2012 08 22 21 40 45.100000 38.429 46.701  10.0  1.6 0.0 0.0 0.0       323
HRS   5.540 1.00 Pg
HRS  10.360 1.00 Sg
TBZ   8.970 1.00 Pg
BST  13.500 1.00 Pg
BST  24.440 1.00 Sg
MRD  15.460 1.00 Pg
SHB  16.630 1.00 Pg
# 2012 08 23 00 10 39.100000 38.440 46.734  19.5  2.4 0.0 0.0 0.0       324
HRS   6.160 1.00 Pg
HRS  10.580 1.00 Sg
TBZ   9.740 1.00 Pg
TBZ  17.020 1.00 Sg
BST  14.180 1.00 Pg
MRD  15.910 1.00 Pg
SHB  16.860 1.00 Pg
SHB  30.020 1.00 Sg
SRB  18.210 1.00 Pg
AZR  18.120 1.00 Pg
# 2012 08 23 00 16 44.300000 38.428 46.708  10.0  1.5 0.0 0.0 0.0       325
HRS   5.540 1.00 Pg
HRS  10.220 1.00 Sg
TBZ   9.150 1.00 Pg
BST  13.520 1.00 Pg
BST  24.520 1.00 Sg
SHB  16.620 1.00 Pg
# 2012 08 23 00 56 25.700000 38.439 46.708   8.9  1.8 0.0 0.0 0.0       326
HRS   5.380 1.00 Pg
HRS  10.220 1.00 Sg
TBZ  15.930 1.00 Sg
BST  13.520 1.00 Pg
MRD  15.320 1.00 Pg
SHB  16.290 1.00 Pg
SHB  29.010 1.00 Sg
SRB  18.860 1.00 Pg
# 2012 08 23 02 37 15.000000 38.461 46.639  19.8  2.2 0.0 0.0 0.0       327
HRS   7.230 1.00 Pg
TBZ   8.480 1.00 Pg
MRD  14.970 1.00 Pg
MRD  26.030 1.00 Sg
BST  15.020 1.00 Pg
BST  26.480 1.00 Sg
SHB  15.760 1.00 Pg
AZR  17.340 1.00 Pg
SRB  19.260 1.00 Pg
# 2012 08 23 04 06 36.700000 38.449 46.654  16.9  2.2 0.0 0.0 0.0       328
HRS   6.670 1.00 Pg
HRS  12.150 1.00 Sg
TBZ   8.440 1.00 Pg
BST  14.280 1.00 Pg
MRD  14.920 1.00 Pg
SHB  16.090 1.00 Pg
AZR  17.950 1.00 Pg
SRB  19.000 1.00 Pg
# 2012 08 23 08 23 42.100000 38.431 46.610   4.2  2.8 0.0 0.0 0.0       329
HRS   6.430 1.00 Pg
HRS  12.190 1.00 Sg
TBZ   7.850 1.00 Pg
BST  13.920 1.00 Pg
MRD  14.180 1.00 Pg
SHB  15.150 1.00 Pg
AZR  16.760 1.00 Pg
SRB  19.560 1.00 Pg
# 2012 08 23 12 14 46.300000 38.434 46.651   4.1  2.7 0.0 0.0 0.0       330
HRS   6.100 1.00 Pg
TBZ   8.220 1.00 Pg
BST  13.670 1.00 Pg
MRD  14.690 1.00 Pg
SHB  15.630 1.00 Pg
AZR  17.580 1.00 Pg
SRB  19.700 1.00 Pg
SRB  32.280 1.00 Sg
# 2012 08 23 12 31 56.900000 38.430 46.738   4.1  2.0 0.0 0.0 0.0       331
HRS   5.090 1.00 Pg
BST  13.850 1.00 Pg
MRD  16.660 1.00 Pg
MRD  27.670 1.00 Sg
AZR  17.980 1.00 Pg
# 2012 08 23 14 52 19.000000 38.449 46.654  16.9  2.1 0.0 0.0 0.0       332
HRS   6.760 1.00 Pg
HRS  12.180 1.00 Sg
TBZ   8.560 1.00 Pg
BST  14.150 1.00 Pg
MRD  15.100 1.00 Pg
SHB  15.750 1.00 Pg
AZR  18.270 1.00 Pg
SRB  19.090 1.00 Pg
# 2012 08 23 16 37 19.100000 38.466 46.780  10.0  2.8 0.0 0.0 0.0       333
HRS   5.610 1.00 Pg
TBZ  10.170 1.00 Pg
BST  14.070 1.00 Pg
MRD  16.210 1.00 Pg
SHB  17.380 1.00 Pg
SHB  30.700 1.00 Sg
SRB  17.550 1.00 Pg
AZR  18.800 1.00 Pg
# 2012 08 23 17 18 11.700000 38.405 46.623  16.1  1.9 0.0 0.0 0.0       334
HRS   6.770 1.00 Pg
HRS  12.230 1.00 Sg
TBZ   7.970 1.00 Pg
BST  14.300 1.00 Pg
MRD  14.760 1.00 Pg
SHB  15.630 1.00 Pg
AZR  16.270 1.00 Pg
SRB  18.740 1.00 Pg
# 2012 08 23 20 31 29.100000 38.450 46.727  16.1  3.0 0.0 0.0 0.0       335
HRS   5.730 1.00 Pg
TBZ   9.800 1.00 Pg
BST  14.060 1.00 Pg
BST  25.460 1.00 Sg
MRD  16.010 1.00 Pg
SHB  16.990 1.00 Pg
SRB  17.760 1.00 Pg
SRB  31.880 1.00 Sg
AZR  18.010 1.00 Pg
GRMI 18.730 1.00 Pg
MAKU 33.250 1.00 Pn
ZNJK 41.070 1.00 Pn
# 2012 08 23 22 56 32.600000 38.459 46.629  19.5  1.7 0.0 0.0 0.0       336
HRS   7.350 1.00 Pg
HRS  12.890 1.00 Sg
MRD  14.310 1.00 Pg
BST  14.530 1.00 Pg
SHB  15.890 1.00 Pg
SRB  19.640 1.00 Pg
# 2012 08 24 05 14 47.200000 38.418 46.619   4.8  1.8 0.0 0.0 0.0       337
HRS   6.400 1.00 Pg
HRS  11.950 1.00 Sg
TBZ   7.450 1.00 Pg
BST  13.840 1.00 Pg
MRD  14.570 1.00 Pg
SHB  15.230 1.00 Pg
AZR  16.990 1.00 Pg
# 2012 08 24 07 38 39.100000 38.504 46.988  10.9  3.2 0.0 0.0 0.0       338
HRS   4.000 1.00 Pg
HRS   7.260 1.00 Sg
TBZ  13.800 1.00 Pg
GRMI 14.760 1.00 Pg
BST  14.860 1.00 Pg
SRB  16.160 1.00 Pg
MRD  18.850 1.00 Pg
SHB  20.550 1.00 Pg
AZR  21.720 1.00 Pg
MAKU 35.090 1.00 Pn
ZNJK 40.400 1.00 Pn
# 2012 08 24 09 49 29.400000 38.482 46.825  19.5  2.3 0.0 0.0 0.0       339
HRS   5.600 1.00 Pg
HRS   9.740 1.00 Sg
TBZ  10.940 1.00 Pg
BST  14.140 1.00 Pg
MRD  17.060 1.00 Pg
SRB  17.830 1.00 Pg
SHB  18.570 1.00 Pg
AZR  20.420 1.00 Pg
# 2012 08 24 10 44 03.300000 38.449 46.892  20.4  1.5 0.0 0.0 0.0       340
HRS   4.620 1.00 Pg
HRS   8.400 1.00 Sg
BST  13.890 1.00 Pg
BST  24.650 1.00 Sg
MRD  17.680 1.00 Pg
SHB  19.440 1.00 Pg
SHB  32.210 1.00 Sg
# 2012 08 24 11 11 20.700000 38.391 46.782   8.6  1.6 0.0 0.0 0.0       341
HRS   4.060 1.00 Pg
HRS   7.940 1.00 Sg
BST  12.870 1.00 Pg
SRB  17.030 1.00 Pg
MRD  16.840 1.00 Pg
SHB  17.500 1.00 Pg
# 2012 08 24 12 02 54.800000 38.439 46.671  14.3  2.0 0.0 0.0 0.0       342
HRS   6.320 1.00 Pg
HRS  11.460 1.00 Sg
TBZ   8.530 1.00 Pg
BST  13.770 1.00 Pg
MRD  15.190 1.00 Pg
SHB  16.180 1.00 Pg
AZR  18.190 1.00 Pg
SRB  18.810 1.00 Pg
# 2012 08 24 12 14 53.300000 38.434 46.703  19.6  1.5 0.0 0.0 0.0       343
HRS   6.330 1.00 Pg
HRS  11.130 1.00 Sg
BST  14.250 1.00 Pg
BST  25.090 1.00 Sg
MRD  16.280 1.00 Pg
SHB  16.050 1.00 Pg
# 2012 08 24 15 50 11.700000 38.414 46.681   4.6  1.5 0.0 0.0 0.0       344
HRS   5.640 1.00 Pg
TBZ   8.150 1.00 Pg
BST  13.410 1.00 Pg
MRD  15.200 1.00 Pg
SHB  16.070 1.00 Pg
SHB  27.870 1.00 Sg
SRB  18.710 1.00 Pg
# 2012 08 24 16 08 29.900000 38.404 46.734  17.9  1.2 0.0 0.0 0.0       345
HRS   5.370 1.00 Pg
HRS  10.090 1.00 Sg
TBZ   8.750 1.00 Pg
BST  13.360 1.00 Pg
BST  24.080 1.00 Sg
MRD  17.030 1.00 Pg
SHB  16.650 1.00 Pg
SHB  29.260 1.00 Sg
# 2012 08 24 16 37 38.000000 38.553 47.010   4.1  2.1 0.0 0.0 0.0       346
HRS   4.080 1.00 Pg
TBZ  14.160 1.00 Pg
SRB  16.510 1.00 Pg
SRB  29.500 1.00 Sg
MRD  19.360 1.00 Pg
SHB  21.150 1.00 Pg
AZR  22.150 1.00 Pg
# 2012 08 24 21 42 06.900000 38.421 46.669  10.8  1.7 0.0 0.0 0.0       347
HRS   6.080 1.00 Pg
TBZ   8.470 1.00 Pg
BST  13.600 1.00 Pg
MRD  15.230 1.00 Pg
SHB  16.110 1.00 Pg
SRB  17.910 1.00 Pg
SRB  32.590 1.00 Sg
# 2012 08 24 21 44 06.600000 38.441 46.742  19.9  1.7 0.0 0.0 0.0       348
HRS   6.220 1.00 Pg
TBZ   9.480 1.00 Pg
BST  14.380 1.00 Pg
MRD  16.320 1.00 Pg
SHB  17.090 1.00 Pg
SHB  30.010 1.00 Sg
SRB  18.010 1.00 Pg
# 2012 08 24 22 43 36.000000 38.461 46.723  23.9  1.1 0.0 0.0 0.0       349
HRS   6.630 1.00 Pg
BST  14.350 1.00 Pg
MRD  15.270 1.00 Pg
MRD  27.630 1.00 Sg
SHB  16.690 1.00 Pg
SRB  18.300 1.00 Pg
# 2012 08 24 23 20 32.600000 38.536 46.807   4.1  1.1 0.0 0.0 0.0       350
HRS   5.480 1.00 Pg
TBZ  11.000 1.00 Pg
MRD  16.420 1.00 Pg
SHB  18.560 1.00 Pg
SRB  18.420 1.00 Pg
SRB  31.880 1.00 Sg
# 2012 08 24 23 57 19.900000 38.429 46.611  14.8  1.1 0.0 0.0 0.0       351
HRS   6.860 1.00 Pg
HRS  12.760 1.00 Sg
TBZ   7.870 1.00 Pg
BST  14.450 1.00 Pg
MRD  14.550 1.00 Pg
SHB  15.380 1.00 Pg
# 2012 08 25 00 09 04.200000 38.458 46.693   4.1  1.6 0.0 0.0 0.0       352
HRS   5.810 1.00 Pg
TBZ   9.710 1.00 Pg
BST  13.910 1.00 Pg
MRD  15.220 1.00 Pg
SHB  16.130 1.00 Pg
SRB  19.020 1.00 Pg
SRB  32.420 1.00 Sg
# 2012 08 25 00 58 55.000000 38.423 46.772  15.5  1.2 0.0 0.0 0.0       353
HRS   5.310 1.00 Pg
TBZ  10.110 1.00 Pg
TBZ  17.830 1.00 Sg
BST  13.410 1.00 Pg
MRD  16.740 1.00 Pg
MRD  28.800 1.00 Sg
SHB  17.910 1.00 Pg
SRB  17.470 1.00 Pg
# 2012 08 25 02 55 50.000000 38.455 46.628  20.0  2.0 0.0 0.0 0.0       354
HRS   7.420 1.00 Pg
TBZ   8.380 1.00 Pg
MRD  14.540 1.00 Pg
SHB  15.350 1.00 Pg
SHB  27.470 1.00 Sg
AZR  17.210 1.00 Pg
SRB  19.700 1.00 Pg
# 2012 08 25 06 09 45.800000 38.419 46.682  19.2  3.0 0.0 0.0 0.0       355
HRS   6.370 1.00 Pg
HRS  11.490 1.00 Sg
TBZ   8.990 1.00 Pg
BST  13.800 1.00 Pg
MRD  15.460 1.00 Pg
SHB  16.050 1.00 Pg
AZR  18.100 1.00 Pg
SRB  18.140 1.00 Pg
GRMI 19.600 1.00 Pg
MAKU 33.310 1.00 Pn
ZNJK 41.250 1.00 Pn
# 2012 08 25 07 33 34.200000 38.445 46.559   3.6  2.1 0.0 0.0 0.0       356
TBZ   8.530 1.00 Pg
HRS   8.610 1.00 Pg
HRS  14.890 1.00 Sg
MRD  15.090 1.00 Pg
SHB  15.910 1.00 Pg
BST  16.090 1.00 Pg
AZR  18.970 1.00 Pg
# 2012 08 25 07 46 20.700000 38.430 46.878  14.8  3.3 0.0 0.0 0.0       357
HRS   4.070 1.00 Pg
HRS   7.230 1.00 Sg
TBZ  11.760 1.00 Pg
BST  13.400 1.00 Pg
SRB  16.200 1.00 Pg
SRB  28.600 1.00 Sg
GRMI 16.790 1.00 Pg
MRD  17.720 1.00 Pg
SHB  19.160 1.00 Pg
AZR  19.620 1.00 Pg
MAKU 34.530 1.00 Pn
ZNJK 39.390 1.00 Pn
# 2012 08 25 14 59 32.100000 38.400 46.938   9.1  2.3 0.0 0.0 0.0       358
HRS   2.590 1.00 Pg
HRS   4.790 1.00 Sg
TBZ  12.330 1.00 Pg
BST  12.660 1.00 Pg
SRB  14.960 1.00 Pg
SRB  26.860 1.00 Sg
MRD  18.820 1.00 Pg
AZR  19.470 1.00 Pg
SHB  19.700 1.00 Pg
# 2012 08 25 17 14 24.400000 38.435 46.633   4.1  1.6 0.0 0.0 0.0       359
HRS   7.650 1.00 Pg
TBZ   9.890 1.00 Pg
BST  15.500 1.00 Pg
MRD  16.180 1.00 Pg
SHB  17.010 1.00 Pg
SRB  21.480 1.00 Pg
# 2012 08 25 19 59 27.900000 38.450 46.910  12.3  1.8 0.0 0.0 0.0       360
HRS   3.650 1.00 Pg
HRS   6.770 1.00 Sg
BST  13.320 1.00 Pg
SRB  16.500 1.00 Pg
MRD  18.340 1.00 Pg
SHB  18.980 1.00 Pg
AZR  20.580 1.00 Pg
# 2012 08 25 20 03 41.400000 38.414 46.653  20.0  2.6 0.0 0.0 0.0       361
HRS   6.820 1.00 Pg
HRS  12.320 1.00 Sg
TBZ   8.380 1.00 Pg
TBZ  15.360 1.00 Sg
BST  14.200 1.00 Pg
MRD  15.300 1.00 Pg
SHB  15.940 1.00 Pg
AZR  17.230 1.00 Pg
SRB  18.200 1.00 Pg
# 2012 08 26 01 28 37.000000 38.432 46.640  19.9  2.6 0.0 0.0 0.0       362
HRS   7.100 1.00 Pg
HRS  12.940 1.00 Sg
TBZ   8.490 1.00 Pg
TBZ  15.290 1.00 Sg
MRD  14.870 1.00 Pg
SHB  15.700 1.00 Pg
SHB  27.590 1.00 Sg
AZR  17.020 1.00 Pg
SRB  19.030 1.00 Pg
# 2012 08 26 04 01 33.300000 38.407 46.658  19.9  2.3 0.0 0.0 0.0       363
HRS   7.190 1.00 Pg
HRS  11.790 1.00 Sg
TBZ   8.520 1.00 Pg
BST  14.000 1.00 Pg
MRD  15.240 1.00 Pg
SHB  16.200 1.00 Pg
AZR  17.220 1.00 Pg
SRB  18.310 1.00 Pg
# 2012 08 26 05 22 11.600000 38.432 46.698  18.9  2.8 0.0 0.0 0.0       364
HRS   6.270 1.00 Pg
HRS  11.190 1.00 Sg
TBZ   9.060 1.00 Pg
MRD  15.890 1.00 Pg
SHB  16.480 1.00 Pg
AZR  17.680 1.00 Pg
SRB  17.920 1.00 Pg
HSH  23.070 1.00 Pg
# 2012 08 26 09 36 52.900000 38.432 46.659  15.3  3.9 0.0 0.0 0.0       365
HRS   6.370 1.00 Pg
HRS  11.670 1.00 Sg
TBZ   8.770 1.00 Pg
MRD  15.280 1.00 Pg
SHB  16.020 1.00 Pg
AZR  17.390 1.00 Pg
SRB  18.350 1.00 Pg
GRMI 19.840 1.00 Pg
HSH  23.140 1.00 Pg
MAKU 33.020 1.00 Pg
ZNJK 41.600 1.00 Pn
# 2012 08 26 09 43 21.900000 38.439 46.660  16.6  3.9 0.0 0.0 0.0       366
HRS   6.410 1.00 Pg
HRS  11.850 1.00 Sg
TBZ   8.740 1.00 Pg
MRD  15.230 1.00 Pg
SHB  16.170 1.00 Pg
AZR  17.450 1.00 Pg
SRB  18.320 1.00 Pg
GRMI 19.730 1.00 Pg
HSH  23.320 1.00 Pg
MAKU 32.990 1.00 Pg
ZNJK 41.490 1.00 Pn
# 2012 08 26 11 15 27.900000 38.443 46.678  19.1  2.3 0.0 0.0 0.0       367
HRS   6.440 1.00 Pg
HRS  11.880 1.00 Sg
TBZ   8.960 1.00 Pg
MRD  15.490 1.00 Pg
SHB  16.540 1.00 Pg
AZR  17.480 1.00 Pg
SRB  18.380 1.00 Pg
HSH  23.480 1.00 Pg
# 2012 08 26 12 50 54.900000 38.398 46.693  13.0  1.9 0.0 0.0 0.0       368
HRS   5.590 1.00 Pg
HRS  10.450 1.00 Sg
TBZ   8.620 1.00 Pg
BST  13.160 1.00 Pg
MRD  15.940 1.00 Pg
SHB  16.250 1.00 Pg
SRB  17.590 1.00 Pg
HSH  22.740 1.00 Pg
# 2012 08 26 12 52 35.100000 38.426 46.649   6.7  1.8 0.0 0.0 0.0       369
HRS   6.110 1.00 Pg
HRS  11.430 1.00 Sg
TBZ   7.590 1.00 Pg
MRD  15.170 1.00 Pg
SHB  15.370 1.00 Pg
SHB  27.450 1.00 Sg
HSH  23.000 1.00 Pg
# 2012 08 26 13 05 19.400000 38.447 46.649  12.2  2.1 0.0 0.0 0.0       370
HRS   6.500 1.00 Pg
HRS  11.920 1.00 Sg
TBZ   8.210 1.00 Pg
BST  13.840 1.00 Pg
MRD  15.040 1.00 Pg
SHB  15.480 1.00 Pg
AZR  18.390 1.00 Pg
SRB  19.040 1.00 Pg
HSH  23.180 1.00 Pg
# 2012 08 26 13 08 35.600000 38.428 46.666  15.2  3.8 0.0 0.0 0.0       371
HRS   6.420 1.00 Pg
HRS  11.310 1.00 Sg
TBZ   8.800 1.00 Pg
BST  13.970 1.00 Pg
MRD  15.460 1.00 Pg
SHB  16.150 1.00 Pg
AZR  17.350 1.00 Pg
SRB  18.200 1.00 Pg
GRMI 19.750 1.00 Pg
HSH  23.080 1.00 Pg
MAKU 32.880 1.00 Pg
ZNJK 41.290 1.00 Pn
# 2012 08 26 13 44 30.800000 38.376 46.745  10.0  1.5 0.0 0.0 0.0       372
HRS   4.840 1.00 Pg
HRS   8.640 1.00 Sg
TBZ   8.810 1.00 Pg
BST  13.050 1.00 Pg
MRD  16.570 1.00 Pg
SHB  17.330 1.00 Pg
# 2012 08 26 14 26 49.700000 38.351 46.694  12.6  1.8 0.0 0.0 0.0       373
HRS   5.040 1.00 Pg
HRS  10.240 1.00 Sg
TBZ   8.350 1.00 Pg
BST  12.890 1.00 Pg
SHB  16.090 1.00 Pg
MRD  16.450 1.00 Pg
SRB  17.450 1.00 Pg
# 2012 08 26 14 51 02.700000 38.454 46.855  17.7  1.7 0.0 0.0 0.0       374
HRS   4.940 1.00 Pg
HRS   8.360 1.00 Sg
BST  13.680 1.00 Pg
SRB  17.100 1.00 Pg
MRD  17.630 1.00 Pg
SHB  18.390 1.00 Pg
AZR  20.110 1.00 Pg
# 2012 08 26 18 15 31.800000 38.421 46.876  13.1  3.4 0.0 0.0 0.0       375
HRS   3.450 1.00 Pg
HRS   7.010 1.00 Sg
TBZ  11.670 1.00 Pg
SRB  16.190 1.00 Pg
GRMI 16.950 1.00 Pg
MRD  17.600 1.00 Pg
MRD  31.780 1.00 Sg
SHB  18.800 1.00 Pg
AZR  19.300 1.00 Pg
MAKU 34.610 1.00 Pn
ZNJK 39.520 1.00 Pn
# 2012 08 26 19 22 09.400000 38.446 46.651   4.6  1.3 0.0 0.0 0.0       376
HRS   6.050 1.00 Pg
HRS  11.330 1.00 Sg
TBZ   8.300 1.00 Pg
MRD  14.880 1.00 Pg
SHB  15.690 1.00 Pg
SRB  19.190 1.00 Pg
# 2012 08 26 20 12 37.300000 38.421 46.670  15.4  1.3 0.0 0.0 0.0       377
HRS   6.080 1.00 Pg
HRS  11.400 1.00 Sg
TBZ   8.940 1.00 Pg
BST  13.620 1.00 Pg
MRD  15.120 1.00 Pg
SHB  16.330 1.00 Pg
SRB  18.960 1.00 Pg
# 2012 08 26 20 57 08.300000 38.465 46.695   4.9  1.7 0.0 0.0 0.0       378
HRS   5.660 1.00 Pg
HRS  10.520 1.00 Sg
TBZ   8.960 1.00 Pg
MRD  15.340 1.00 Pg
SHB  16.520 1.00 Pg
SRB  19.130 1.00 Pg
# 2012 08 26 22 48 14.000000 38.473 46.672  14.1  2.8 0.0 0.0 0.0       379
HRS   6.960 1.00 Pg
TBZ   8.740 1.00 Pg
MRD  15.230 1.00 Pg
SHB  15.980 1.00 Pg
SHB  27.800 1.00 Sg
AZR  18.620 1.00 Pg
SRB  18.630 1.00 Pg
# 2012 08 27 02 46 27.600000 38.417 46.632  19.9  1.7 0.0 0.0 0.0       380
HRS   6.750 1.00 Pg
HRS  12.730 1.00 Sg
TBZ   8.180 1.00 Pg
BST  14.170 1.00 Pg
MRD  14.890 1.00 Pg
SHB  15.890 1.00 Pg
# 2012 08 27 05 08 06.900000 38.454 46.568   4.2  1.9 0.0 0.0 0.0       381
TBZ   7.270 1.00 Pg
HRS   7.260 1.00 Pg
HRS  13.360 1.00 Sg
MRD  13.850 1.00 Pg
SHB  14.370 1.00 Pg
HSH  23.970 1.00 Pg
# 2012 08 27 06 30 55.900000 38.411 46.690   4.8  2.1 0.0 0.0 0.0       382
HRS   5.500 1.00 Pg
HRS  10.120 1.00 Sg
TBZ   8.430 1.00 Pg
BST  12.920 1.00 Pg
MRD  15.540 1.00 Pg
SHB  16.210 1.00 Pg
AZR  17.590 1.00 Pg
HSH  22.710 1.00 Pg
# 2012 08 27 11 01 13.000000 38.404 46.686  20.0  2.5 0.0 0.0 0.0       383
HRS   6.470 1.00 Pg
TBZ   9.020 1.00 Pg
BST  12.960 1.00 Pg
BST  24.340 1.00 Sg
MRD  15.690 1.00 Pg
SHB  16.510 1.00 Pg
AZR  17.410 1.00 Pg
SRB  18.540 1.00 Pg
# 2012 08 27 13 46 34.300000 38.362 46.691  20.0  1.7 0.0 0.0 0.0       384
HRS   6.100 1.00 Pg
HRS  10.980 1.00 Sg
TBZ   8.460 1.00 Pg
BST  12.900 1.00 Pg
SHB  16.950 1.00 Pg
MRD  15.770 1.00 Pg
# 2012 08 27 15 10 34.500000 38.405 46.832  16.3  1.6 0.0 0.0 0.0       385
HRS   4.450 1.00 Pg
TBZ  11.180 1.00 Pg
BST  12.970 1.00 Pg
SRB  16.780 1.00 Pg
MRD  17.240 1.00 Pg
SHB  18.340 1.00 Pg
# 2012 08 27 16 52 13.700000 38.424 46.850  19.7  2.2 0.0 0.0 0.0       386
HRS   4.850 1.00 Pg
TBZ  11.320 1.00 Pg
BST  13.150 1.00 Pg
SRB  16.850 1.00 Pg
MRD  17.530 1.00 Pg
SHB  18.620 1.00 Pg
AZR  19.490 1.00 Pg
# 2012 08 27 17 55 08.700000 38.377 46.812  17.7  2.0 0.0 0.0 0.0       387
HRS   4.770 1.00 Pg
TBZ  10.620 1.00 Pg
BST  12.440 1.00 Pg
SRB  16.710 1.00 Pg
MRD  17.340 1.00 Pg
SHB  17.990 1.00 Pg
AZR  19.530 0.50 Pg
# 2012 08 27 21 03 26.800000 38.383 46.676  13.6  1.9 0.0 0.0 0.0       388
HRS   6.020 1.00 Pg
TBZ   8.540 1.00 Pg
BST  12.620 1.00 Pg
BST  23.500 1.00 Sg
SHB  16.020 1.00 Pg
SRB  18.270 1.00 Pg
# 2012 08 27 22 48 15.500000 38.349 46.743  10.0  1.3 0.0 0.0 0.0       389
HRS   4.340 1.00 Pg
HRS   8.540 1.00 Sg
TBZ   9.170 1.00 Pg
BST  12.120 1.00 Pg
SHB  16.700 1.00 Pg
SRB  17.260 1.00 Pg
# 2012 08 27 23 56 30.700000 38.425 46.887  10.4  3.4 0.0 0.0 0.0       390
HRS   3.500 1.00 Pg
HRS   6.360 1.00 Sg
TBZ  11.900 1.00 Pg
SRB  15.830 1.00 Pg
ORD  15.800 1.00 Pg
GRMI 16.260 1.00 Pg
MRD  18.010 1.00 Pg
SHB  19.050 1.00 Pg
AZR  19.450 1.00 Pg
LRK  21.600 1.00 Pg
NAX  24.500 1.00 Pg
GLBA 27.500 1.00 Pg
ASTR 27.700 1.00 Pg
LKRN 27.900 1.00 Pg
BRDA 33.600 1.00 Pn
ZRD  34.600 1.00 Pn
MAKU 34.210 1.00 Pn
GANJ 38.300 1.00 Pn
ZNJK 38.850 1.00 Pn
# 2012 08 28 00 28 01.200000 38.376 46.691   3.3  1.5 0.0 0.0 0.0       391
HRS   6.560 1.00 Pg
TBZ   9.100 0.50 Pg
BST  14.500 1.00 Pg
MRD  17.550 1.00 Pg
SHB  17.930 1.00 Pg
SRB  19.720 1.00 Pg
