# 2012 09 04 03 13 48.500000 38.384 46.716  20.0  2.9 0.0 0.0 0.0       482
HRS   6.060 1.00 Pg
TBZ   9.490 1.00 Pg
TBZ  16.570 1.00 Sg
BST  12.990 1.00 Pg
MRD  16.100 1.00 Pg
SHB  16.690 1.00 Pg
SRB  18.040 1.00 Pg
# 2012 09 04 04 20 28.600000 38.401 46.685  19.9  2.8 0.0 0.0 0.0       483
HRS   6.300 1.00 Pg
HRS  11.430 1.00 Sg
TBZ   9.040 1.00 Pg
BST  13.270 1.00 Pg
MRD  15.590 1.00 Pg
SHB  16.390 1.00 Pg
AZR  17.530 1.00 Pg
SRB  18.390 1.00 Pg
# 2012 09 04 05 43 57.000000 38.384 46.706  19.9  2.6 0.0 0.0 0.0       484
HRS   6.000 1.00 Pg
HRS  10.780 1.00 Sg
TBZ   9.280 1.00 Pg
BST  12.810 1.00 Pg
MRD  15.960 1.00 Pg
SHB  16.500 1.00 Pg
AZR  17.510 1.00 Pg
SRB  17.960 1.00 Pg
# 2012 09 04 08 16 12.500000 38.380 46.767  18.6  2.5 0.0 0.0 0.0       485
HRS   5.330 1.00 Pg
HRS   9.190 1.00 Sg
TBZ  10.390 1.00 Pg
BST  12.770 1.00 Pg
SRB  17.320 1.00 Pg
MRD  16.720 1.00 Pg
SHB  17.300 1.00 Pg
# 2012 09 04 13 55 56.900000 38.343 46.719   4.1  2.2 0.0 0.0 0.0       486
HRS   4.930 1.00 Pg
TBZ   8.180 1.00 Pg
BST  12.340 1.00 Pg
SHB  16.870 1.00 Pg
MRD  16.360 1.00 Pg
SRB  16.990 1.00 Pg
# 2012 09 04 14 21 11.300000 38.373 46.700   4.2  1.8 0.0 0.0 0.0       487
HRS   5.420 1.00 Pg
BST  12.650 1.00 Pg
MRD  15.660 1.00 Pg
SHB  16.470 1.00 Pg
SRB  17.750 1.00 Pg
# 2012 09 04 17 25 39.300000 38.390 46.816  19.1  2.3 0.0 0.0 0.0       488
HRS   4.920 1.00 Pg
HRS   8.380 1.00 Sg
TBZ  10.640 1.00 Pg
BST  12.650 1.00 Pg
SRB  16.750 1.00 Pg
MRD  17.240 1.00 Pg
SHB  18.100 1.00 Pg
AZR  18.620 1.00 Pg
# 2012 09 04 17 52 32.500000 38.366 46.806  14.9  1.2 0.0 0.0 0.0       489
HRS   4.470 1.00 Pg
TBZ  10.570 1.00 Pg
BST  12.200 1.00 Pg
SRB  16.700 1.00 Pg
MRD  16.960 1.00 Pg
SHB  18.220 1.00 Pg
# 2012 09 04 18 15 09.500000 38.426 46.707  29.3  1.2 0.0 0.0 0.0       490
HRS   7.160 1.00 Pg
TBZ   9.680 1.00 Pg
BST  13.990 1.00 Pg
MRD  15.520 1.00 Pg
SHB  16.760 1.00 Pg
# 2012 09 04 18 33 30.700000 38.394 46.781  17.3  1.3 0.0 0.0 0.0       491
HRS   5.010 1.00 Pg
TBZ  10.430 1.00 Pg
BST  12.830 1.00 Pg
SRB  17.240 1.00 Pg
MRD  16.630 1.00 Pg
SHB  17.610 1.00 Pg
# 2012 09 04 19 17 58.700000 38.406 46.815  17.1  1.4 0.0 0.0 0.0       492
HRS   4.780 1.00 Pg
BST  13.130 1.00 Pg
SRB  16.910 1.00 Pg
MRD  17.010 1.00 Pg
SHB  18.400 1.00 Pg
# 2012 09 04 22 42 57.800000 38.332 47.052   4.2  0.7 0.0 0.0 0.0       493
HRS   0.750 1.00 Pg
HRS   1.510 1.00 Sg
BST  11.780 1.00 Pg
SRB  13.300 1.00 Pg
MRD  20.460 1.00 Pg
SHB  21.580 1.00 Pg
# 2012 09 04 23 53 45.000000 38.341 46.795   5.0  1.0 0.0 0.0 0.0       494
HRS   3.800 1.00 Pg
BST  11.730 1.00 Pg
SRB  16.390 1.00 Pg
SHB  17.710 1.00 Pg
MRD  17.100 1.00 Pg
# 2012 09 05 01 28 05.300000 38.433 46.805  10.0  1.5 0.0 0.0 0.0       495
TBZ  10.220 1.00 Pg
BST  13.100 1.00 Pg
MRD  16.930 1.00 Pg
SRB  17.530 1.00 Pg
SHB  17.990 1.00 Pg
AZR  32.680 1.00 Sg
# 2012 09 05 03 02 42.200000 38.441 46.637  16.4  2.6 0.0 0.0 0.0       496
TBZ   8.300 1.00 Pg
MRD  15.040 1.00 Pg
SHB  15.730 1.00 Pg
AZR  17.420 1.00 Pg
SRB  18.450 1.00 Pg
SRB  33.710 1.00 Sg
# 2012 09 05 09 33 45.800000 38.403 46.703  15.3  3.9 0.0 0.0 0.0       497
HRS   5.730 1.00 Pg
HRS  10.450 1.00 Sg
TBZ   9.130 1.00 Pg
MRD  15.660 1.00 Pg
SHB  16.570 1.00 Pg
AZR  17.550 1.00 Pg
SRB  17.660 1.00 Pg
GRMI 18.910 0.50 Pg
LRK  24.400 1.00 Pg
GLBA 29.800 0.50 Pg
ASTR 30.500 1.00 Pg
LKRN 31.000 1.00 Pg
MAKU 33.080 0.50 Pn
BRDA 33.300 1.00 Pn
SAAT 35.600 1.00 Pn
ZRD  35.800 1.00 Pn
GANJ 38.700 1.00 Pn
ZNJK 41.790 0.50 Pn
# 2012 09 05 12 14 04.100000 38.453 46.671  13.6  2.9 0.0 0.0 0.0       498
HRS   6.700 1.00 Pg
TBZ   8.580 1.00 Pg
MRD  15.240 1.00 Pg
SHB  15.880 1.00 Pg
AZR  18.110 1.00 Pg
SRB  18.480 1.00 Pg
# 2012 09 05 15 07 19.600000 38.404 46.795  18.7  1.7 0.0 0.0 0.0       499
HRS   5.150 1.00 Pg
HRS   8.790 1.00 Sg
TBZ  10.330 1.00 Pg
TBZ  18.330 1.00 Sg
BST  12.810 1.00 Pg
SRB  17.310 1.00 Pg
MRD  16.840 1.00 Pg
SHB  17.780 1.00 Pg
AZR  18.480 1.00 Pg
# 2012 09 05 16 00 06.800000 38.388 46.684  20.0  2.2 0.0 0.0 0.0       500
HRS   6.350 1.00 Pg
HRS  11.350 1.00 Sg
TBZ   8.890 1.00 Pg
BST  12.990 1.00 Pg
MRD  15.620 1.00 Pg
SHB  16.480 1.00 Pg
AZR  17.420 1.00 Pg
SRB  18.290 1.00 Pg
# 2012 09 05 17 14 36.600000 38.368 46.867  15.0  2.0 0.0 0.0 0.0       501
HRS   3.790 1.00 Pg
BST  12.360 1.00 Pg
SRB  15.840 1.00 Pg
MRD  17.870 1.00 Pg
SHB  19.060 1.00 Pg
# 2012 09 05 18 47 38.800000 38.385 46.649  19.9  2.4 0.0 0.0 0.0       502
HRS   6.580 1.00 Pg
HRS  12.160 1.00 Sg
TBZ   8.490 1.00 Pg
BST  13.290 1.00 Pg
MRD  15.040 1.00 Pg
SHB  16.100 1.00 Pg
SRB  18.350 1.00 Pg
# 2012 09 05 19 03 13.400000 38.423 46.811  19.0  2.2 0.0 0.0 0.0       503
HRS   5.230 1.00 Pg
TBZ  11.010 1.00 Pg
BST  13.210 1.00 Pg
SRB  17.380 1.00 Pg
MRD  16.760 1.00 Pg
SHB  18.230 1.00 Pg
SHB  31.350 1.00 Sg
# 2012 09 05 21 26 41.800000 38.388 46.782  18.0  1.6 0.0 0.0 0.0       504
HRS   5.120 1.00 Pg
HRS   8.920 1.00 Sg
TBZ  10.320 1.00 Pg
BST  12.870 1.00 Pg
SRB  17.200 1.00 Pg
MRD  16.720 1.00 Pg
SHB  17.940 1.00 Pg
# 2012 09 05 23 48 36.900000 38.420 46.847   5.9  2.0 0.0 0.0 0.0       505
TBZ  11.290 1.00 Pg
TBZ  18.990 1.00 Sg
BST  12.790 1.00 Pg
SRB  16.740 1.00 Pg
MRD  17.220 1.00 Pg
SHB  18.370 1.00 Pg
AZR  19.120 1.00 Pg
# 2012 09 06 01 19 42.200000 38.422 46.788  20.0  2.3 0.0 0.0 0.0       506
HRS   5.490 1.00 Pg
HRS   9.410 1.00 Sg
TBZ  10.550 1.00 Pg
BST  13.180 1.00 Pg
MRD  16.670 1.00 Pg
SRB  17.500 1.00 Pg
SHB  17.760 1.00 Pg
AZR  18.840 1.00 Pg
# 2012 09 06 02 19 16.100000 38.394 46.854  18.4  2.4 0.0 0.0 0.0       507
HRS   4.540 1.00 Pg
HRS   7.700 1.00 Sg
TBZ  11.220 1.00 Pg
BST  12.480 1.00 Pg
SRB  16.520 1.00 Pg
MRD  17.660 1.00 Pg
SHB  18.700 1.00 Pg
AZR  19.230 1.00 Pg
# 2012 09 06 08 51 17.500000 38.390 46.638  19.7  2.0 0.0 0.0 0.0       508
HRS   6.780 1.00 Pg
HRS  12.220 1.00 Sg
TBZ   8.140 1.00 Pg
MRD  15.050 1.00 Pg
SHB  15.950 1.00 Pg
AZR  16.530 1.00 Pg
# 2012 09 06 10 38 30.900000 38.405 46.815  13.6  2.2 0.0 0.0 0.0       509
HRS   4.390 1.00 Pg
HRS   7.810 1.00 Sg
TBZ  10.720 1.00 Pg
BST  12.880 1.00 Pg
BST  22.960 1.00 Sg
SRB  17.000 1.00 Pg
MRD  16.590 1.00 Pg
SHB  18.320 1.00 Pg
AZR  18.860 1.00 Pg
# 2012 09 06 20 23 33.700000 38.408 46.659  20.0  2.1 0.0 0.0 0.0       510
HRS   6.670 1.00 Pg
HRS  12.050 1.00 Sg
TBZ   8.650 1.00 Pg
BST  13.480 1.00 Pg
MRD  15.270 1.00 Pg
SHB  16.010 1.00 Pg
AZR  17.460 1.00 Pg
SRB  18.630 1.00 Pg
# 2012 09 06 20 33 21.600000 38.397 46.851  19.9  2.1 0.0 0.0 0.0       511
HRS   4.560 1.00 Pg
HRS   8.080 1.00 Sg
TBZ  11.790 1.00 Pg
BST  12.850 1.00 Pg
SRB  16.680 1.00 Pg
MRD  17.610 1.00 Pg
SHB  18.530 1.00 Pg
# 2012 09 06 22 02 27.100000 38.361 46.840  17.5  1.8 0.0 0.0 0.0       512
HRS   4.240 1.00 Pg
HRS   7.520 1.00 Sg
TBZ  11.000 1.00 Pg
BST  12.310 1.00 Pg
BST  22.030 1.00 Sg
SRB  16.180 1.00 Pg
MRD  17.650 1.00 Pg
SHB  18.560 1.00 Pg
# 2012 09 06 22 07 25.400000 38.390 46.686  19.8  1.5 0.0 0.0 0.0       513
HRS   6.100 1.00 Pg
HRS  11.320 1.00 Sg
BST  12.820 1.00 Pg
BST  23.820 1.00 Sg
MRD  15.650 1.00 Pg
SHB  16.580 1.00 Pg
SRB  18.350 1.00 Pg
# 2012 09 06 23 38 04.600000 38.405 46.692  19.5  1.3 0.0 0.0 0.0       514
HRS   6.110 1.00 Pg
HRS  11.110 1.00 Sg
BST  13.170 1.00 Pg
BST  24.230 1.00 Sg
MRD  15.830 1.00 Pg
SHB  16.390 1.00 Pg
SRB  18.480 1.00 Pg
# 2012 09 06 23 56 03.800000 38.387 46.786  14.5  1.2 0.0 0.0 0.0       515
HRS   4.660 1.00 Pg
HRS   8.240 1.00 Sg
BST  12.780 1.00 Pg
SRB  16.920 1.00 Pg
MRD  16.740 1.00 Pg
SHB  17.780 1.00 Pg
# 2012 09 07 02 35 38.000000 38.436 47.047   4.2  1.4 0.0 0.0 0.0       516
HRS   1.880 0.50 Pg
SRB  14.930 1.00 Pg
MRD  19.700 1.00 Pg
MRD  35.840 1.00 Sg
SHB  21.210 1.00 Pg
SHB  36.670 1.00 Sg
# 2012 09 07 05 41 29.300000 38.673 46.772   4.1  1.5 0.0 0.0 0.0       517
HRS   8.410 1.00 Pg
HRS  13.490 1.00 Sg
MRD  15.110 1.00 Pg
SHB  19.040 1.00 Pg
SHB  31.900 1.00 Sg
SRB  20.480 1.00 Pg
HSH  26.000 1.00 Pg
# 2012 09 07 12 46 24.200000 38.388 46.707  20.0  3.1 0.0 0.0 0.0       518
HRS   5.940 1.00 Pg
TBZ   9.220 1.00 Pg
TBZ  16.460 1.00 Sg
BST  12.820 1.00 Pg
BST  23.840 1.00 Sg
MRD  15.890 1.00 Pg
SHB  16.570 1.00 Pg
AZR  17.540 1.00 Pg
SRB  17.800 1.00 Pg
GRMI 19.800 1.00 Pg
MAKU 33.300 1.00 Pn
ZNJK 40.970 1.00 Pn
# 2012 09 07 16 10 54.600000 38.428 46.802  20.0  2.6 0.0 0.0 0.0       519
HRS   5.350 1.00 Pg
TBZ  10.780 1.00 Pg
BST  12.960 1.00 Pg
SRB  17.250 1.00 Pg
SRB  30.240 1.00 Sg
MRD  17.020 1.00 Pg
SHB  17.900 1.00 Pg
AZR  19.350 1.00 Pg
# 2012 09 07 16 49 54.200000 38.384 46.644  15.9  1.7 0.0 0.0 0.0       520
HRS   6.600 1.00 Pg
TBZ   8.150 1.00 Pg
TBZ  14.590 1.00 Sg
BST  13.110 1.00 Pg
MRD  15.070 1.00 Pg
SHB  15.730 1.00 Pg
SRB  18.870 1.00 Pg
# 2012 09 07 17 25 50.400000 38.399 46.815  16.9  2.0 0.0 0.0 0.0       521
HRS   4.900 1.00 Pg
TBZ  10.540 1.00 Pg
TBZ  18.460 1.00 Sg
BST  12.620 1.00 Pg
SRB  16.790 1.00 Pg
MRD  17.260 1.00 Pg
SHB  18.000 1.00 Pg
AZR  19.210 1.00 Pg
# 2012 09 07 17 48 16.600000 38.192 46.839  15.4  1.4 0.0 0.0 0.0       522
HRS   4.510 1.00 Pg
BST   9.550 1.00 Pg
TBZ  18.510 1.00 Sg
SRB  14.320 1.00 Pg
SHB  17.510 1.00 Pg
MRD  19.700 1.00 Pg
# 2012 09 07 17 53 54.400000 38.386 46.703  17.8  1.6 0.0 0.0 0.0       523
HRS   6.010 1.00 Pg
TBZ   9.380 1.00 Pg
BST  12.980 1.00 Pg
MRD  15.760 1.00 Pg
SHB  16.600 1.00 Pg
SRB  18.130 1.00 Pg
# 2012 09 07 19 17 21.100000 38.436 46.777  19.2  2.5 0.0 0.0 0.0       524
HRS   5.840 1.00 Pg
TBZ  10.400 1.00 Pg
BST  13.570 1.00 Pg
MRD  16.510 1.00 Pg
SHB  17.660 1.00 Pg
SRB  17.660 1.00 Pg
AZR  18.940 1.00 Pg
# 2012 09 07 19 29 15.600000 38.380 46.696  19.3  2.5 0.0 0.0 0.0       525
HRS   6.250 1.00 Pg
TBZ   9.020 1.00 Pg
BST  12.950 1.00 Pg
MRD  15.740 1.00 Pg
SHB  16.570 1.00 Pg
AZR  17.150 1.00 Pg
SRB  17.960 1.00 Pg
# 2012 09 07 19 49 29.400000 38.353 46.812  11.1  1.4 0.0 0.0 0.0       526
HRS   4.060 1.00 Pg
TBZ  10.160 1.00 Pg
BST  11.950 1.00 Pg
SRB  16.270 1.00 Pg
SHB  18.420 1.00 Pg
MRD  17.040 1.00 Pg
# 2012 09 07 20 00 06.700000 38.375 46.810  14.5  1.7 0.0 0.0 0.0       527
HRS   4.390 1.00 Pg
TBZ  10.580 1.00 Pg
BST  12.530 1.00 Pg
SRB  16.590 1.00 Pg
MRD  17.190 1.00 Pg
SHB  17.990 1.00 Pg
# 2012 09 07 20 47 22.700000 38.390 46.813  13.8  1.4 0.0 0.0 0.0       528
HRS   4.390 1.00 Pg
TBZ  10.630 1.00 Pg
BST  12.730 1.00 Pg
SRB  16.750 1.00 Pg
MRD  17.030 1.00 Pg
SHB  18.160 1.00 Pg
# 2012 09 07 21 33 48.800000 38.365 46.667   4.5  1.7 0.0 0.0 0.0       529
HRS   5.780 1.00 Pg
TBZ   8.360 1.00 Pg
BST  12.410 1.00 Pg
SHB  15.860 1.00 Pg
MRD  15.210 1.00 Pg
SRB  18.240 1.00 Pg
# 2012 09 07 21 36 57.000000 38.394 46.893  17.9  2.1 0.0 0.0 0.0       530
HRS   4.100 1.00 Pg
TBZ  11.850 1.00 Pg
BST  12.690 1.00 Pg
SRB  16.110 1.00 Pg
MRD  18.090 1.00 Pg
SHB  19.500 1.00 Pg
AZR  19.290 1.00 Pg
# 2012 09 07 23 37 53.000000 38.364 46.837   4.1  1.3 0.0 0.0 0.0       531
HRS   3.020 1.00 Pg
TBZ  10.500 1.00 Pg
BST  11.950 1.00 Pg
SRB  15.660 1.00 Pg
SRB  28.400 1.00 Sg
MRD  18.070 1.00 Pg
SHB  18.200 1.00 Pg
# 2012 09 08 00 53 36.900000 38.462 46.746  19.9  2.2 0.0 0.0 0.0       532
HRS   6.210 1.00 Pg
HRS  10.830 1.00 Sg
TBZ  10.370 1.00 Pg
BST  14.010 1.00 Pg
MRD  16.220 1.00 Pg
MRD  28.160 1.00 Sg
SHB  17.320 1.00 Pg
SRB  18.300 1.00 Pg
AZR  19.090 1.00 Pg
# 2012 09 08 01 12 29.800000 38.370 46.759  14.7  1.4 0.0 0.0 0.0       533
HRS   4.830 1.00 Pg
HRS   8.820 1.00 Sg
TBZ   9.780 1.00 Pg
BST  12.530 1.00 Pg
MRD  16.580 1.00 Pg
SRB  17.190 1.00 Pg
SHB  17.330 1.00 Pg
# 2012 09 08 02 31 18.500000 38.415 46.850  22.6  1.3 0.0 0.0 0.0       534
HRS   5.080 1.00 Pg
BST  13.210 1.00 Pg
SRB  16.020 1.00 Pg
SRB  28.720 1.00 Sg
MRD  17.420 1.00 Pg
SHB  18.590 1.00 Pg
# 2012 09 08 04 16 15.300000 38.398 46.645  15.1  2.3 0.0 0.0 0.0       535
HRS   6.390 1.00 Pg
HRS  11.630 1.00 Sg
TBZ   8.560 1.00 Pg
BST  13.230 1.00 Pg
MRD  14.890 1.00 Pg
SHB  15.760 1.00 Pg
SRB  19.020 1.00 Pg
# 2012 09 08 04 46 49.400000 38.360 46.632  20.3  1.6 0.0 0.0 0.0       536
HRS   6.570 1.00 Pg
HRS  12.490 1.00 Sg
TBZ   8.020 1.00 Pg
BST  13.190 1.00 Pg
SHB  15.320 1.00 Pg
MRD  15.250 1.00 Pg
# 2012 09 08 06 52 30.700000 38.393 46.693  16.1  3.2 0.0 0.0 0.0       537
HRS   6.070 1.00 Pg
TBZ   8.920 1.00 Pg
BST  12.960 1.00 Pg
MRD  15.500 1.00 Pg
SHB  16.270 1.00 Pg
AZR  17.450 1.00 Pg
SRB  17.950 1.00 Pg
GRMI 19.340 1.00 Pg
MAKU 33.300 1.00 Pn
ZNJK 41.620 1.00 Pn
# 2012 09 08 08 30 03.600000 38.397 46.764  13.5  2.5 0.0 0.0 0.0       538
HRS   4.850 1.00 Pg
HRS   8.770 1.00 Sg
TBZ   9.930 1.00 Pg
BST  12.510 1.00 Pg
MRD  16.460 1.00 Pg
SHB  17.180 1.00 Pg
SRB  17.540 1.00 Pg
AZR  18.260 1.00 Pg
# 2012 09 08 09 38 37.500000 38.315 46.782  11.4  2.0 0.0 0.0 0.0       539
HRS   4.040 1.00 Pg
HRS   7.820 1.00 Sg
TBZ   9.380 1.00 Pg
BST  11.330 1.00 Pg
SRB  16.270 1.00 Pg
SHB  18.210 1.00 Pg
MRD  16.950 1.00 Pg
# 2012 09 08 14 01 12.300000 38.387 46.664   4.2  1.9 0.0 0.0 0.0       540
HRS   5.930 1.00 Pg
TBZ   8.570 1.00 Pg
BST  12.770 1.00 Pg
MRD  15.010 1.00 Pg
SHB  15.880 1.00 Pg
SRB  18.570 1.00 Pg
# 2012 09 08 20 35 44.300000 38.390 46.838  13.2  3.6 0.0 0.0 0.0       541
HRS   4.130 1.00 Pg
TBZ  11.130 1.00 Pg
BST  12.500 1.00 Pg
SRB  16.370 1.00 Pg
GRMI 17.190 1.00 Pg
MRD  17.250 1.00 Pg
SHB  18.230 1.00 Pg
AZR  18.930 1.00 Pg
LRK  22.700 1.00 Pg
GLBA 28.000 1.00 Pg
ASTR 28.800 1.00 Pg
LKRN 28.600 1.00 Pg
BRDA 34.900 1.00 Pn
MAKU 34.040 1.00 Pn
ZRD  36.400 1.00 Pn
ZNJK 39.530 1.00 Pn
GANJ 39.800 1.00 Pn
# 2012 09 08 21 04 44.800000 38.387 46.800  12.6  1.6 0.0 0.0 0.0       542
HRS   4.430 1.00 Pg
TBZ   9.510 1.00 Pg
TBZ  18.070 1.00 Sg
SRB  16.680 1.00 Pg
MRD  17.310 1.00 Pg
SHB  17.830 1.00 Pg
# 2012 09 08 21 24 06.300000 38.460 46.686   5.3  2.0 0.0 0.0 0.0       543
HRS   6.200 1.00 Pg
TBZ   8.590 1.00 Pg
MRD  15.190 1.00 Pg
SHB  16.050 1.00 Pg
SHB  28.330 1.00 Sg
SRB  18.730 1.00 Pg
# 2012 09 09 04 50 27.700000 38.374 46.729  14.2  1.6 0.0 0.0 0.0       544
HRS   5.420 1.00 Pg
BST  12.750 1.00 Pg
MRD  16.140 1.00 Pg
SHB  16.980 1.00 Pg
SRB  17.450 1.00 Pg
# 2012 09 09 10 08 20.400000 38.402 46.857  18.3  3.0 0.0 0.0 0.0       545
HRS   4.480 1.00 Pg
HRS   7.700 1.00 Sg
TBZ  11.380 1.00 Pg
BST  12.670 1.00 Pg
SRB  16.490 1.00 Pg
GRMI 17.190 1.00 Pg
MRD  17.510 1.00 Pg
SHB  18.780 1.00 Pg
AZR  19.230 1.00 Pg
MAKU 34.310 1.00 Pn
ZNJK 39.820 1.00 Pn
# 2012 09 09 13 58 17.900000 38.361 46.684  19.0  2.7 0.0 0.0 0.0       546
HRS   6.280 1.00 Pg
TBZ   8.530 1.00 Pg
BST  12.740 1.00 Pg
SHB  16.390 1.00 Pg
SHB  28.090 1.00 Sg
MRD  15.600 1.00 Pg
AZR  16.460 1.00 Pg
SRB  18.050 1.00 Pg
# 2012 09 09 17 40 01.700000 38.377 46.679   4.3  1.6 0.0 0.0 0.0       547
HRS   5.600 1.00 Pg
BST  12.570 1.00 Pg
MRD  15.200 1.00 Pg
SHB  16.250 1.00 Pg
SRB  18.180 1.00 Pg
# 2012 09 09 20 25 44.300000 38.391 46.632  16.9  2.0 0.0 0.0 0.0       548
HRS   6.570 1.00 Pg
HRS  12.090 1.00 Sg
TBZ   8.060 1.00 Pg
BST  12.990 1.00 Pg
MRD  14.720 1.00 Pg
SHB  15.770 1.00 Pg
AZR  16.800 1.00 Pg
SRB  18.990 1.00 Pg
# 2012 09 09 22 06 59.800000 38.429 46.646  20.0  2.0 0.0 0.0 0.0       549
HRS   6.720 1.00 Pg
HRS  12.540 1.00 Sg
TBZ   8.570 1.00 Pg
BST  13.740 1.00 Pg
MRD  15.090 1.00 Pg
SHB  15.620 1.00 Pg
AZR  17.870 1.00 Pg
SRB  19.130 1.00 Pg
# 2012 09 09 22 07 57.600000 38.383 46.667  10.3  1.4 0.0 0.0 0.0       550
HRS   6.200 1.00 Pg
HRS  10.380 1.00 Sg
TBZ   8.310 1.00 Pg
BST  12.980 1.00 Pg
MRD  15.110 1.00 Pg
SHB  16.000 1.00 Pg
SRB  18.090 1.00 Pg
# 2012 09 09 22 50 38.600000 38.348 46.882   9.3  1.8 0.0 0.0 0.0       551
HRS   2.950 1.00 Pg
HRS   5.240 1.00 Sg
TBZ  11.220 1.00 Pg
BST  11.840 1.00 Pg
SRB  15.440 1.00 Pg
MRD  18.100 1.00 Pg
SHB  19.270 1.00 Pg
# 2012 09 10 01 47 02.600000 38.432 46.729  16.3  1.7 0.0 0.0 0.0       552
HRS   5.970 1.00 Pg
TBZ   9.720 1.00 Pg
BST  13.340 1.00 Pg
MRD  15.930 1.00 Pg
SHB  16.780 1.00 Pg
SRB  18.270 1.00 Pg
AZR  18.630 1.00 Pg
# 2012 09 10 02 02 12.700000 38.406 46.823  18.8  2.9 0.0 0.0 0.0       553
HRS   4.880 1.00 Pg
TBZ  10.910 1.00 Pg
BST  12.820 1.00 Pg
SRB  16.940 1.00 Pg
MRD  17.260 1.00 Pg
SHB  18.170 1.00 Pg
AZR  18.970 1.00 Pg
# 2012 09 10 08 55 50.000000 38.397 46.716  20.0  3.8 0.0 0.0 0.0       554
HRS   6.050 1.00 Pg
HRS  10.610 1.00 Sg
TBZ   9.440 1.00 Pg
TBZ  16.700 1.00 Sg
BST  13.090 1.00 Pg
MRD  15.860 1.00 Pg
SHB  16.770 1.00 Pg
AZR  17.690 1.00 Pg
SRB  18.040 1.00 Pg
GRMI 19.220 1.00 Pg
MAKU 33.430 1.00 Pn
ZNJK 41.460 1.00 Pn
# 2012 09 10 13 28 35.400000 38.230 46.737  15.2  2.0 0.0 0.0 0.0       555
HRS   5.080 1.00 Pg
HRS   9.660 1.00 Sg
TBZ   9.310 1.00 Pg
BST  10.180 1.00 Pg
SRB  16.080 1.00 Pg
MRD  17.590 1.00 Pg
# 2012 09 10 17 25 44.600000 38.383 46.651   4.6  1.8 0.0 0.0 0.0       556
HRS   6.050 1.00 Pg
TBZ   8.050 1.00 Pg
BST  12.800 1.00 Pg
MRD  14.820 1.00 Pg
SHB  15.770 1.00 Pg
SRB  18.530 1.00 Pg
# 2012 09 10 19 32 17.900000 38.481 46.791  24.3  1.9 0.0 0.0 0.0       557
HRS   6.350 1.00 Pg
TBZ  10.470 1.00 Pg
MRD  16.660 1.00 Pg
SHB  17.460 1.00 Pg
SRB  17.410 1.00 Pg
AZR  19.310 1.00 Pg
# 2012 09 11 00 09 48.400000 38.405 46.538  20.0  1.1 0.0 0.0 0.0       558
TBZ   7.310 1.00 Pg
HRS   7.920 1.00 Pg
HRS  14.860 1.00 Sg
MRD  13.720 1.00 Pg
SHB  14.450 1.00 Pg
BST  14.270 1.00 Pg
# 2012 09 11 03 23 33.000000 38.396 46.788  17.0  2.3 0.0 0.0 0.0       559
HRS   5.020 1.00 Pg
HRS   8.580 1.00 Sg
TBZ  10.300 1.00 Pg
BST  12.850 1.00 Pg
SRB  17.100 1.00 Pg
MRD  16.560 1.00 Pg
SHB  18.000 1.00 Pg
# 2012 09 11 03 25 33.200000 38.384 46.660  17.5  2.3 0.0 0.0 0.0       560
HRS   6.380 1.00 Pg
HRS  11.420 1.00 Sg
TBZ   8.530 1.00 Pg
BST  13.070 1.00 Pg
MRD  15.140 1.00 Pg
SHB  16.240 1.00 Pg
SRB  18.540 1.00 Pg
# 2012 09 11 10 30 33.100000 38.406 46.658  20.0  3.3 0.0 0.0 0.0       561
HRS   7.660 1.00 Pg
HRS  13.140 1.00 Sg
TBZ   8.720 1.00 Pg
BST  14.110 1.00 Pg
MRD  15.790 1.00 Pg
MRD  27.350 1.00 Sg
SHB  16.410 1.00 Pg
SHB  28.930 1.00 Sg
AZR  17.650 1.00 Pg
SRB  19.400 1.00 Pg
GRMI 20.730 1.00 Pg
MAKU 33.460 1.00 Pg
ZNJK 42.320 1.00 Pn
# 2012 09 11 16 30 16.400000 38.350 46.814   4.1  1.2 0.0 0.0 0.0       562
HRS   3.550 1.00 Pg
BST  11.940 1.00 Pg
SRB  16.350 1.00 Pg
SHB  17.760 1.00 Pg
MRD  17.400 1.00 Pg
MRD  30.740 1.00 Sg
# 2012 09 11 17 38 52.700000 38.325 46.936   4.2  1.8 0.0 0.0 0.0       563
HRS   1.680 1.00 Pg
BST  11.540 1.00 Pg
SRB  14.040 1.00 Pg
SRB  25.280 1.00 Sg
MRD  19.660 1.00 Pg
# 2012 09 11 21 41 12.300000 38.356 46.906  12.5  1.8 0.0 0.0 0.0       564
HRS   3.040 1.00 Pg
BST  11.960 1.00 Pg
SRB  15.460 1.00 Pg
MRD  18.480 1.00 Pg
SHB  19.140 1.00 Pg
SHB  33.360 1.00 Sg
# 2012 09 11 22 48 26.100000 38.429 46.722  20.7  2.0 0.0 0.0 0.0       565
HRS   6.390 1.00 Pg
HRS  10.730 1.00 Sg
TBZ   9.420 1.00 Pg
BST  13.600 1.00 Pg
BST  24.600 1.00 Sg
MRD  15.860 1.00 Pg
SHB  16.760 1.00 Pg
# 2012 09 12 09 15 43.700000 38.360 46.640   4.1  2.0 0.0 0.0 0.0       566
HRS   6.170 1.00 Pg
TBZ   7.760 1.00 Pg
BST  12.780 1.00 Pg
SHB  15.390 1.00 Pg
MRD  15.670 1.00 Pg
MRD  26.210 1.00 Sg
# 2012 09 12 10 03 30.100000 38.396 46.642   4.2  2.3 0.0 0.0 0.0       567
HRS   6.360 1.00 Pg
TBZ   7.980 1.00 Pg
BST  12.900 1.00 Pg
MRD  14.820 1.00 Pg
SHB  15.380 1.00 Pg
AZR  16.990 1.00 Pg
SRB  18.720 1.00 Pg
# 2012 09 12 12 44 25.500000 38.374 46.687  19.8  1.5 0.0 0.0 0.0       568
HRS   6.560 1.00 Pg
TBZ   8.900 1.00 Pg
BST  13.190 1.00 Pg
MRD  15.760 1.00 Pg
SHB  16.490 1.00 Pg
# 2012 09 12 12 59 24.900000 38.395 46.675  14.7  2.9 0.0 0.0 0.0       569
HRS   6.210 1.00 Pg
TBZ   8.650 1.00 Pg
BST  12.950 1.00 Pg
MRD  15.290 1.00 Pg
SHB  15.960 1.00 Pg
AZR  17.200 1.00 Pg
SRB  18.300 1.00 Pg
# 2012 09 12 20 33 52.300000 38.392 46.626  14.2  1.4 0.0 0.0 0.0       570
HRS   6.870 1.00 Pg
TBZ   7.840 1.00 Pg
BST  13.490 1.00 Pg
MRD  14.670 1.00 Pg
SHB  15.520 1.00 Pg
# 2012 09 12 20 41 41.400000 38.454 46.541  12.2  1.8 0.0 0.0 0.0       571
TBZ   7.100 1.00 Pg
HRS   8.180 1.00 Pg
MRD  13.440 1.00 Pg
SHB  14.330 1.00 Pg
BST  14.540 1.00 Pg
BST  26.580 1.00 Sg
# 2012 09 12 22 46 04.300000 38.385 46.664   4.1  1.3 0.0 0.0 0.0       572
HRS   5.870 1.00 Pg
TBZ   8.300 1.00 Pg
BST  12.930 1.00 Pg
MRD  15.160 1.00 Pg
SHB  15.910 1.00 Pg
SRB  18.470 1.00 Pg
