# 2012 09 12 23 11 17.200000 38.398 46.695  18.6  0.7 0.0 0.0 0.0       573
HRS   6.360 1.00 Pg
TBZ   8.930 1.00 Pg
BST  13.500 1.00 Pg
MRD  15.620 1.00 Pg
SHB  16.820 1.00 Pg
# 2012 09 13 00 19 47.900000 38.440 46.670  15.9  1.7 0.0 0.0 0.0       574
HRS   6.340 1.00 Pg
HRS  11.640 1.00 Sg
TBZ   8.860 1.00 Pg
BST  13.390 1.00 Pg
MRD  15.160 1.00 Pg
SHB  15.910 1.00 Pg
AZR  18.430 1.00 Pg
SRB  19.150 1.00 Pg
# 2012 09 13 01 51 45.600000 38.372 46.662  14.1  1.7 0.0 0.0 0.0       575
HRS   6.240 1.00 Pg
TBZ   8.470 1.00 Pg
BST  12.840 1.00 Pg
SHB  15.900 1.00 Pg
MRD  15.290 1.00 Pg
SRB  18.270 1.00 Pg
# 2012 09 13 04 27 37.300000 38.413 46.857  19.8  2.1 0.0 0.0 0.0       576
HRS   4.750 1.00 Pg
TBZ  11.530 1.00 Pg
BST  13.220 1.00 Pg
SRB  16.680 1.00 Pg
MRD  17.780 1.00 Pg
SHB  18.780 1.00 Pg
AZR  19.250 1.00 Pg
# 2012 09 13 12 12 12.800000 38.420 46.876  18.0  2.5 0.0 0.0 0.0       577
HRS   4.520 1.00 Pg
HRS   7.610 1.00 Sg
TBZ  11.980 1.00 Pg
BST  12.900 1.00 Pg
SRB  16.650 1.00 Pg
MRD  18.060 1.00 Pg
SHB  18.450 1.00 Pg
AZR  19.980 1.00 Pg
# 2012 09 13 14 15 49.000000 38.383 46.723  19.8  1.6 0.0 0.0 0.0       578
HRS   6.090 1.00 Pg
TBZ   9.380 1.00 Pg
BST  13.240 1.00 Pg
MRD  16.080 1.00 Pg
SHB  16.970 1.00 Pg
# 2012 09 13 14 51 28.900000 38.373 46.625   4.2  2.1 0.0 0.0 0.0       579
HRS   6.370 1.00 Pg
TBZ   7.610 1.00 Pg
BST  12.780 1.00 Pg
SHB  15.380 1.00 Pg
MRD  14.590 1.00 Pg
SRB  18.660 1.00 Pg
# 2012 09 13 16 48 09.700000 38.346 46.850   9.1  1.7 0.0 0.0 0.0       580
HRS   3.140 1.00 Pg
HRS   6.060 1.00 Sg
TBZ  10.830 1.00 Pg
BST  11.850 1.00 Pg
SRB  15.860 1.00 Pg
SHB  18.640 1.00 Pg
MRD  17.830 1.00 Pg
# 2012 09 13 17 42 24.300000 38.386 46.764  18.1  1.9 0.0 0.0 0.0       581
HRS   5.310 1.00 Pg
TBZ  10.150 1.00 Pg
BST  12.890 1.00 Pg
MRD  16.570 1.00 Pg
SRB  17.360 1.00 Pg
SHB  17.440 1.00 Pg
# 2012 09 13 18 19 28.100000 38.382 46.637  13.6  1.8 0.0 0.0 0.0       582
HRS   6.490 1.00 Pg
TBZ   8.220 1.00 Pg
BST  12.880 1.00 Pg
MRD  14.740 1.00 Pg
SHB  15.530 1.00 Pg
SRB  18.760 1.00 Pg
# 2012 09 13 19 05 15.200000 38.359 46.804  11.6  1.8 0.0 0.0 0.0       583
HRS   4.190 1.00 Pg
TBZ  10.530 1.00 Pg
BST  12.170 1.00 Pg
SRB  16.530 1.00 Pg
MRD  17.200 1.00 Pg
SHB  17.740 1.00 Pg
# 2012 09 13 19 45 20.200000 38.398 46.694  20.0  3.2 0.0 0.0 0.0       584
HRS   6.310 1.00 Pg
HRS  11.150 1.00 Sg
TBZ   9.170 1.00 Pg
BST  13.210 1.00 Pg
MRD  15.720 1.00 Pg
SHB  16.470 1.00 Pg
AZR  17.700 1.00 Pg
SRB  18.170 1.00 Pg
GRMI 19.370 1.00 Pg
MAKU 33.090 1.00 Pn
ZNJK 41.150 1.00 Pn
# 2012 09 13 22 30 03.900000 38.376 46.878  16.6  1.6 0.0 0.0 0.0       585
HRS   3.890 1.00 Pg
TBZ  11.530 1.00 Pg
BST  12.490 1.00 Pg
SRB  15.900 1.00 Pg
MRD  17.990 1.00 Pg
SHB  19.150 1.00 Pg
# 2012 09 13 22 57 56.000000 38.383 46.661  15.0  1.6 0.0 0.0 0.0       586
HRS   6.420 1.00 Pg
BST  13.170 1.00 Pg
MRD  15.260 1.00 Pg
SHB  16.020 1.00 Pg
SRB  18.370 1.00 Pg
# 2012 09 13 23 56 12.600000 38.395 46.713  28.4  1.0 0.0 0.0 0.0       587
HRS   6.870 1.00 Pg
TBZ   9.550 1.00 Pg
BST  13.460 1.00 Pg
MRD  15.790 1.00 Pg
SHB  16.740 1.00 Pg
# 2012 09 14 00 42 36.500000 38.399 46.825  17.5  2.5 0.0 0.0 0.0       588
HRS   4.570 1.00 Pg
HRS   8.070 1.00 Sg
TBZ  11.080 1.00 Pg
BST  12.860 1.00 Pg
SRB  16.850 1.00 Pg
MRD  17.160 1.00 Pg
SHB  18.350 1.00 Pg
# 2012 09 14 02 19 37.900000 38.393 46.642  14.9  3.5 0.0 0.0 0.0       589
HRS   6.450 1.00 Pg
HRS  11.400 1.00 Sg
TBZ   8.650 1.00 Pg
BST  13.160 1.00 Pg
MRD  15.120 1.00 Pg
SHB  15.880 1.00 Pg
SRB  18.280 1.00 Pg
GRMI 19.800 1.00 Pg
NAX  22.300 1.00 Pg
SBZ  24.300 1.00 Pg
LRK  25.400 1.00 Pg
GLBA 30.000 0.50 Pg
ASTR 31.600 1.00 Pg
LKRN 32.000 1.00 Pg
MAKU 32.570 1.00 Pg
BRDA 34.800 0.50 Pn
SAAT 35.400 1.00 Pn
ZRD  35.400 1.00 Pn
GANJ 37.900 1.00 Pn
ZNJK 41.270 1.00 Pn
# 2012 09 14 13 21 02.000000 38.362 46.792  11.1  1.8 0.0 0.0 0.0       590
HRS   4.600 1.00 Pg
HRS   7.360 1.00 Sg
TBZ   9.940 1.00 Pg
BST  11.990 1.00 Pg
SRB  16.530 1.00 Pg
MRD  16.850 1.00 Pg
SHB  17.670 1.00 Pg
AZR  17.850 1.00 Pg
# 2012 09 14 14 32 33.100000 38.443 46.616  19.4  2.6 0.0 0.0 0.0       591
HRS   7.540 1.00 Pg
TBZ   8.300 1.00 Pg
MRD  14.590 1.00 Pg
BST  14.110 1.00 Pg
BST  25.970 1.00 Sg
SHB  15.730 1.00 Pg
SRB  19.600 1.00 Pg
# 2012 09 14 16 41 04.700000 38.394 46.784  13.4  2.4 0.0 0.0 0.0       592
HRS   4.930 1.00 Pg
HRS   8.170 1.00 Sg
TBZ  10.180 1.00 Pg
BST  12.570 1.00 Pg
SRB  17.140 1.00 Pg
MRD  16.680 1.00 Pg
SHB  17.580 1.00 Pg
AZR  18.340 1.00 Pg
# 2012 09 15 11 01 17.200000 38.386 46.773  19.1  2.6 0.0 0.0 0.0       593
HRS   5.360 1.00 Pg
TBZ  10.060 1.00 Pg
BST  12.500 1.00 Pg
SRB  17.240 1.00 Pg
MRD  16.730 1.00 Pg
SHB  17.360 1.00 Pg
AZR  18.310 1.00 Pg
# 2012 09 15 19 19 20.800000 38.411 46.810  18.7  2.2 0.0 0.0 0.0       594
HRS   4.970 1.00 Pg
HRS   8.770 1.00 Sg
TBZ  10.680 1.00 Pg
BST  13.100 1.00 Pg
SRB  17.130 1.00 Pg
MRD  17.230 1.00 Pg
SHB  18.000 1.00 Pg
AZR  18.920 1.00 Pg
# 2012 09 15 20 28 28.900000 38.367 46.799  12.0  1.5 0.0 0.0 0.0       595
HRS   4.220 1.00 Pg
HRS   7.540 1.00 Sg
TBZ   9.790 1.00 Pg
BST  12.150 1.00 Pg
SRB  16.500 1.00 Pg
MRD  17.230 1.00 Pg
SHB  17.690 1.00 Pg
AZR  18.180 1.00 Pg
# 2012 09 15 21 17 10.900000 38.366 46.844  18.3  1.7 0.0 0.0 0.0       596
HRS   4.200 1.00 Pg
HRS   7.660 1.00 Sg
TBZ  11.110 1.00 Pg
BST  12.370 1.00 Pg
SRB  16.230 1.00 Pg
MRD  17.710 1.00 Pg
SHB  18.520 1.00 Pg
# 2012 09 16 01 01 33.700000 38.396 46.586   3.5  0.9 0.0 0.0 0.0       597
HRS   8.030 1.00 Pg
TBZ   8.180 1.00 Pg
BST  15.210 1.00 Pg
MRD  15.760 1.00 Pg
SHB  16.620 1.00 Pg
# 2012 09 16 17 12 51.100000 38.405 46.847  18.4  2.4 0.0 0.0 0.0       598
HRS   4.580 1.00 Pg
TBZ  11.310 1.00 Pg
BST  12.810 1.00 Pg
SRB  16.690 1.00 Pg
MRD  17.540 1.00 Pg
SHB  18.470 1.00 Pg
AZR  19.080 1.00 Pg
# 2012 09 16 18 06 51.200000 38.340 46.719   4.1  2.5 0.0 0.0 0.0       599
HRS   5.160 1.00 Pg
TBZ   8.590 1.00 Pg
BST  12.040 1.00 Pg
AZR  16.910 1.00 Pg
SRB  17.010 1.00 Pg
# 2012 09 16 19 48 09.300000 38.339 46.770  12.6  1.3 0.0 0.0 0.0       600
HRS   4.630 1.00 Pg
TBZ   9.780 1.00 Pg
BST  11.910 1.00 Pg
SRB  16.610 1.00 Pg
SHB  17.340 1.00 Pg
MRD  16.870 1.00 Pg
# 2012 09 16 22 59 03.500000 38.390 46.713  18.4  1.5 0.0 0.0 0.0       601
HRS   6.040 1.00 Pg
TBZ   9.150 1.00 Pg
BST  13.300 1.00 Pg
MRD  15.930 1.00 Pg
SHB  16.930 1.00 Pg
SRB  17.740 1.00 Pg
