 2012  811 1930 45.4 L  38.422  46.902 17.8       6 0.0 2.7L                   1
 GAP=206                   2.0     1.6  2.2                                    E
 Action:ARG 24-03-13 15:57 OP:OBSP STATUS:               ID:20120811193045     I
 STAT SP IPHASW D HRMM SECON CODA AMPLIT PERI AZIMU VELO AIN AR TRES W  DIS CAZ7
 HRS     IPg  0A  1930 49.73                                           15.4 145 
 HRS     ESg  0A  1930 53.00                                           15.4 145 
 TABZ    IPg  2A  1930 57.22                                           68.1 232 
 TBZ     IPg  0A  1930 57.13                                           72.6 252 
 TBZ     ESg  0A  1931  5.93                                           72.6 252 
 BST     IPg  0A  1930 59.02                                           81.4 183 
 BST     ESg  0A  1931  9.34                                           81.4 183 
 MRD     IPg  0A  1931  3.41                                            112 286 
 MRD     ESg  0A  1931 17.66                                            112 286 
 SHB     IPg  0A  1931  4.61                                            116 262 
 SHB     ESg  0A  1931 19.86                                            116 262 
 TABZ     IAML A  1930 57.16       423.6                                        
                                                                                

 2012  811 1940 17.5 L  38.428  46.794 15.9       7 0.0 2.6L                   1
 GAP=191                   2.0     1.6  2.5                                    E
 Action:ARG 24-03-13 15:57 OP:OBSP STATUS:               ID:20120811194017     I
 STAT SP IPHASW D HRMM SECON CODA AMPLIT PERI AZIMU VELO AIN AR TRES W  DIS CAZ7
 HRS     IPg  0A  1940 22.64                                           25.2 126 
 HRS     ESg  0A  1940 26.58                                           25.2 126 
 TABZ    ESg  0A  1940 36.60                                           61.0 224 
 TBZ     IPg  0A  1940 27.81                                           62.6 247 
 TBZ     ESg  0A  1940 35.99                                           62.6 247 
 BST     IPg  0A  1940 31.16                                           83.7 175 
 BST     ESg  0A  1940 41.46                                           83.7 175 
 MRD     IPg  0A  1940 34.03                                            100 287 
 SRB     IPg  0A  1940 34.54                                            102 132 
 SRB     ESg  0A  1940 48.16                                            102 132 
 SHB     IPg  0A  1940 35.15                                            105 260 
 SHB     ESg  0A  1940 49.08                                            105 260 
 MRD      IAML A  1940 34.20       188.4                                        
                                                                                

 2012  811 2010 30.7 L  38.437  46.753 13.9       8 0.0 3.4L                   1
 GAP=128                   1.5     1.2  1.7                                    E
 Action:ARG 24-03-13 15:57 OP:OBSP STATUS:               ID:20120811201030     I
 STAT SP IPHASW D HRMM SECON CODA AMPLIT PERI AZIMU VELO AIN AR TRES W  DIS CAZ7
 HRS     IPg  0A  2010 34.27                                           27.0 114 
 HRS     ESg  0A  2010 39.39                                           27.0 114 
 TBZ     IPg  0A  2010 40.08                                           57.4 249 
 MRD     IPg  0A  2010 46.46                                           98.0 289 
 SHB     IPg  0A  2010 47.12                                            101 261 
 SRB     IPg  0A  2010 47.43                                            103 129 
 GRMI    IPg  0A  2010 48.32                                            107  66 
 MAKU    IPn  0A  2011  3.05                                            208 300 
 ZNJK    IPn  0A  2011 10.36                                            258 138 
 ZNJK     IAML A  2011 10.01       211.0                                        
 MAKU     IAML A  2011  3.82       333.1                                        
 GRMI     IAML A  2010 48.25      1073.3                                        
                                                                                

 2012  811 2029 18.6 L  38.382  46.899 13.9       6 0.0 2.6L                   1
 GAP=190                   4.6     3.6  5.9                                    E
 Action:ARG 24-03-13 15:57 OP:OBSP STATUS:               ID:20120811202918     I
 STAT SP IPHASW D HRMM SECON CODA AMPLIT PERI AZIMU VELO AIN AR TRES W  DIS CAZ7
 HRS     IPg  0A  2029 21.31                                           17.1 114 
 HRS     ESg  0A  2029 24.23                                           17.1 114 
 TBZ     IPg  0A  2029 29.47                                           64.6 255 
 BST     IPg  0A  2029 30.94                                           75.6 178 
 SRB     ESg  0A  2029 46.44                                           93.5 131 
 MRD     IPg  0A  2029 36.66                                            107 290 
 SHB     IPg  0A  2029 37.41                                            109 264 
 BST      IAML A  2029 31.66       289.8                                        
 HRS      IAML A  2029 22.11      1948.4                                        
                                                                                

 2012  811 2037 27.6 L  38.462  46.780 16.9       5 0.0 2.3L                   1
 GAP=198                   5.1     4.0  2.9                                    E
 Action:ARG 24-03-13 15:57 OP:OBSP STATUS:               ID:20120811203727     I
 STAT SP IPHASW D HRMM SECON CODA AMPLIT PERI AZIMU VELO AIN AR TRES W  DIS CAZ7
 HRS     IPg  0A  2037 33.35                                           27.9 125 
 TBZ     IPg  0A  2037 37.65                                           60.8 245 
 MRD     IPg  0A  2037 44.06                                           98.2 286 
 SHB     IPg  0A  2037 45.38                                            103 259 
 SHB     ESg  0A  2037 58.30                                            103 259 
 SRB     IPg  0A  2037 45.27                                            104 132 
 SHB      IAML A  2037 45.08        90.5                                        
                                                                                

 2012  811 2045 46.3 L  38.432  46.709 17.2       7 0.0 2.9L                   1
 GAP=184                   2.9     2.3  3.1                                    E
 Action:ARG 24-03-13 15:57 OP:OBSP STATUS:               ID:20120811204546     I
 STAT SP IPHASW D HRMM SECON CODA AMPLIT PERI AZIMU VELO AIN AR TRES W  DIS CAZ7
 HRS     IPg  0A  2045 52.04                                           33.1 109 
 HRS     ESg  0A  2045 57.11                                           33.1 109 
 TABZ    IPg  0A  2045 55.12                                           50.8 218 
 TBZ     IPg  0A  2045 54.88                                           51.0 246 
 TBZ     ESg  0A  2046  2.08                                           51.0 246 
 BST     IPg  0A  2045 59.88                                           81.5 167 
 BST     ESg  0A  2046 10.75                                           81.5 167 
 MRD     IPg  0A  2046  1.40                                           91.8 291 
 MRD     ESg  0A  2046 15.10                                           91.8 291 
 SHB     IPg  0A  2046  2.18                                           94.4 261 
 SHB     ESg  0A  2046 15.18                                           94.4 261 
 SRB     IPg  0A  2046  3.88                                            108 127 
 SRB     ESg  0A  2046 20.62                                            108 127 
 TABZ     IAML A  2045 56.00      1000.1                                        
 MRD      IAML A  2046  2.69       433.9                                        
                                                                                

 2012  811 2113 21.1 L  38.431  46.673 11.9       6 0.0 2.4L                   1
 GAP=181                   3.3     2.6 10.1                                    E
 Action:ARG 24-03-13 15:57 OP:OBSP STATUS:               ID:20120811211321     I
 STAT SP IPHASW D HRMM SECON CODA AMPLIT PERI AZIMU VELO AIN AR TRES W  DIS CAZ7
 HRS     IPg  0A  2113 27.06                                           34.6 110 
 HRS     ESg  0A  2113 32.28                                           34.6 110 
 TBZ     IPg  0A  2113 30.10                                           50.5 244 
 BST     IPg  0A  2113 34.94                                           83.1 166 
 MRD     IPg  0A  2113 36.32                                           90.3 290 
 SHB     IPg  0A  2113 37.22                                           93.5 260 
 SRB     IPg  0A  2113 40.06                                            109 127 
 SHB      IAML A  2113 37.19       133.5                                        
 TBZ      IAML A  2113 30.22       318.9                                        
                                                                                

 2012  811 2118 35.1 L  38.447  46.706 15.2       6 0.0 2.6L                   1
 GAP=187                   2.0     1.6  2.6                                    E
 Action:ARG 24-03-13 15:57 OP:OBSP STATUS:               ID:20120811211835     I
 STAT SP IPHASW D HRMM SECON CODA AMPLIT PERI AZIMU VELO AIN AR TRES W  DIS CAZ7
 HRS     IPg  0A  2118 41.26                                           31.9 116 
 HRS     ESg  0A  2118 46.47                                           31.9 116 
 TBZ     IPg  0A  2118 44.41                                           54.7 244 
 TBZ     ESg  0A  2118 51.63                                           54.7 244 
 BST     IPg  0A  2118 49.03                                           84.1 169 
 BST     ESg  0A  2119  0.13                                           84.1 169 
 MRD     IPg  0A  2118 50.87                                           93.2 288 
 MRD     ESg  0A  2119  2.59                                           93.2 288 
 SHB     IPg  0A  2118 51.91                                           97.6 259 
 SHB     ESg  0A  2119  5.59                                           97.6 259 
 SRB     IPg  0A  2118 53.19                                            108 129 
 SRB     ESg  0A  2119  7.59                                            108 129 
 BST      IAML A  2118 49.34       248.2                                        
 SRB      IAML A  2118 52.90       169.3                                        
                                                                                

 2012  811 2121 14.3 L  38.443  46.804 17.9       7 0.0 2.7L                   1
 GAP=196                   2.2     1.7  1.4                                    E
 Action:ARG 24-03-13 15:57 OP:OBSP STATUS:               ID:20120811212114     I
 STAT SP IPHASW D HRMM SECON CODA AMPLIT PERI AZIMU VELO AIN AR TRES W  DIS CAZ7
 HRS     IPg  0A  2121 19.26                                           24.8 122 
 HRS     ESg  0A  2121 23.07                                           24.8 122 
 TABZ    IPg  0A  2121 24.97                                           59.6 224 
 TBZ     IPg  0A  2121 24.57                                           61.6 248 
 TBZ     ESg  0A  2121 32.51                                           61.6 248 
 BST     IPg  0A  2121 27.81                                           82.3 174 
 MRD     IPg  0A  2121 31.41                                            100 287 
 MRD     ESg  0A  2121 43.57                                            100 287 
 SRB     IPg  2A  2121 30.13                                            101 131 
 SRB     ESg  0A  2121 44.31                                            101 131 
 SHB     IPg  0A  2121 31.83                                            105 260 
 SHB     ESg  0A  2121 45.39                                            105 260 
 HRS      IAML A  2121 19.66      1568.9                                        
 MRD      IAML A  2121 30.93       237.4                                        
 SRB      IAML A  2121 31.47       234.4                                        
                                                                                

 2012  811 2133 50.7 L  38.447  46.846 16.6       7 0.0 3.1L                   1
 GAP=204                   2.3     1.8  1.9                                    E
 Action:ARG 24-03-13 15:57 OP:OBSP STATUS:               ID:20120811213350     I
 STAT SP IPHASW D HRMM SECON CODA AMPLIT PERI AZIMU VELO AIN AR TRES W  DIS CAZ7
 HRS     IPg  0A  2133 55.62                                           21.6 128 
 HRS     ESg  0A  2133 59.18                                           21.6 128 
 TABZ    IPg  0A  2134  2.12                                           62.3 227 
 TABZ    ESg  0A  2134 10.72                                           62.3 227 
 TBZ     IPg  0A  2134  1.80                                           65.1 249 
 TBZ     ESg  0A  2134 10.04                                           65.1 249 
 BST     IPg  0A  2134  4.40                                           82.1 177 
 BST     ESg  0A  2134 14.42                                           82.1 177 
 SRB     IPg  0A  2134  7.78                                           98.8 133 
 SRB     ESg  0A  2134 20.64                                           98.8 133 
 MRD     IPg  0A  2134  8.36                                            104 287 
 MRD     ESg  0A  2134 21.46                                            104 287 
 SHB     IPg  0A  2134  8.96                                            108 261 
 SHB     ESg  0A  2134 23.46                                            108 261 
                                                                                

 2012  811 22 4 32.2 L  38.408  46.690 14.7       9 0.0 3.7L                   1
 GAP=126                   2.1     1.6  2.9                                    E
 Action:ARG 24-03-13 15:57 OP:OBSP STATUS:               ID:20120811220432     I
 STAT SP IPHASW D HRMM SECON CODA AMPLIT PERI AZIMU VELO AIN AR TRES W  DIS CAZ7
 HRS     IPg  0A  22 4 37.92                                           32.1 109 
 HRS     ESg  0A  22 4 42.60                                           32.1 109 
 TBZ     IPg  0A  22 4 41.18                                           51.8 247 
 BST     IPg  0A  22 4 45.65                                           81.0 167 
 BST     ESg  0A  22 4 56.69                                           81.0 167 
 MRD     IPg  0A  22 4 47.78                                           92.9 291 
 SHB     IPg  0A  22 4 48.62                                           95.3 261 
 SRB     IPg  0A  22 4 49.83                                            107 127 
 GRMI    IPg  0A  22 4 51.74                                            113  66 
 MAKU    IPn  0A  22 5  4.55                                            203 301 
 ZNJK    IPn  0A  22 5 14.45                                            261 137 
 ZNJK     IAML A  22 5 12.74       408.9                                        
 TBZ      IAML A  22 4 41.70      6160.6                                        
 MAKU     IAML A  22 5  5.53       695.1                                        
                                                                                

 2012  811 2212 46.6 L  38.439  46.743 14.7       9 0.0 3.3L                   1
 GAP=128                   2.7     2.1  3.0                                    E
 Action:ARG 24-03-13 15:57 OP:OBSP STATUS:               ID:20120811221246     I
 STAT SP IPHASW D HRMM SECON CODA AMPLIT PERI AZIMU VELO AIN AR TRES W  DIS CAZ7
 HRS     IPg  0A  2212 52.41                                           27.2 112 
 HRS     ESg  0A  2212 56.19                                           27.2 112 
 TBZ     IPg  0A  2212 56.51                                           56.6 249 
 TBZ     ESg  0A  2213  3.79                                           56.6 249 
 BST     IPg  0A  2213  0.42                                           80.0 171 
 MRD     IPg  0A  2213  2.93                                           97.8 290 
 SHB     IPg  0A  2213  3.57                                            100 262 
 SHB     ESg  0A  2213 17.27                                            100 262 
 SRB     IPg  0A  2213  4.17                                            102 129 
 GRMI    IPg  0A  2213  5.27                                            108  65 
 MAKU    IPn  0A  2213 18.51                                            208 300 
 ZNJK    IPn  0A  2213 27.12                                            258 138 
 HRS      IAML A  2212 52.48      5586.3                                        
 ZNJK     IAML A  2213 26.43       167.9                                        
 MRD      IAML A  2213  3.60       990.5                                        
 MAKU     IAML A  2213 20.18       264.7                                        
                                                                                

 2012  811 2340 52.6 L  38.488  46.784 14.9       5 0.0 2.2L                   1
 GAP=205                   4.7     3.7  8.6                                    E
 Action:ARG 24-03-13 15:57 OP:OBSP STATUS:               ID:20120811234052     I
 STAT SP IPHASW D HRMM SECON CODA AMPLIT PERI AZIMU VELO AIN AR TRES W  DIS CAZ7
 HRS     IPg  0A  2340 58.28                                           28.4 126 
 TBZ     IPg  0A  2341  2.77                                           61.3 244 
 MRD     IPg  0A  2341  9.16                                           98.0 286 
 SHB     IPg  0A  2341 10.69                                            103 258 
 SHB     ESg  0A  2341 23.45                                            103 258 
 SRB     IPg  0A  2341 10.53                                            105 132 
 SHB      IAML A  2341 10.71        71.6                                        
 HRS      IAML A  2340 58.22       420.1                                        
                                                                                

 2012  811 2358 13.4 L  38.462  46.697 10.8       8 0.0 3.4L                   1
 GAP=130                   0.9     0.7  1.6                                    E
 Action:ARG 24-03-13 15:57 OP:OBSP STATUS:               ID:20120811235813     I
 STAT SP IPHASW D HRMM SECON CODA AMPLIT PERI AZIMU VELO AIN AR TRES W  DIS CAZ7
 HRS     IPg  0A  2358 19.34                                           34.0 118 
 HRS     ESg  0A  2358 24.14                                           34.0 118 
 TBZ     IPg  0A  2358 22.70                                           54.4 242 
 MRD     IPg  0A  2358 28.84                                           91.3 287 
 SHB     IPg  0A  2358 30.01                                           96.7 258 
 SRB     IPg  0A  2358 31.36                                            110 129 
 SRB     ESg  0A  2358 46.14                                            110 129 
 GRMI    IPg  0A  2358 32.21                                            110  69 
 MAKU    IPn  0A  2358 46.19                                            201 300 
 ZNJK    IPn  0A  2358 54.41                                            265 138 
 TBZ      IAML A  2358 23.23      2885.5                                        
 MRD      IAML A  2358 29.26      1384.0                                        
 SRB      IAML A  2358 31.97      1032.5                                        
                                                                                

