 2012  812 22 5 42.8 L  38.415  46.800 16.7       6 0.0 2.2L                   1
 GAP=166                   0.8     0.6  0.6                                    E
 Action:ARG 24-03-13 15:57 OP:OBSP STATUS:               ID:20120812220542     I
 STAT SP IPHASW D HRMM SECON CODA AMPLIT PERI AZIMU VELO AIN AR TRES W  DIS CAZ7
 TVRZ    IPg  0A  22 5 46.63                                           14.4 305 
 TVRZ    ESg  0A  22 5 49.63                                           14.4 305 
 HRS     IPg  0A  22 5 47.74                                           24.3 120 
 HRS     ESg  0A  22 5 51.57                                           24.3 120 
 TABZ    IPg  0A  22 5 54.10                                           58.7 225 
 TBZ     IPg  0A  22 5 53.33                                           61.1 249 
 TBZ     ESg  0A  22 6  1.25                                           61.1 249 
 MRD     IPg  0A  22 6  0.05                                            101 288 
 MRD     ESg  0A  22 6 12.85                                            101 288 
 SHB     IPg  0A  22 6  0.77                                            104 261 
 SHB     ESg  0A  22 6 13.47                                            104 261 
 TBZ      IAML A  22 5 53.87       155.7                                        
 SHB      IAML A  22 6  0.74        70.6                                        
                                                                                

 2012  812 2245 49.1 L  38.432  46.717 15.9       6 0.0 1.9L                   1
 GAP=142                   2.4     1.9  2.1                                    E
 Action:ARG 24-03-13 15:57 OP:OBSP STATUS:               ID:20120812224549     I
 STAT SP IPHASW D HRMM SECON CODA AMPLIT PERI AZIMU VELO AIN AR TRES W  DIS CAZ7
 TVRZ    IPg  0A  2245 52.10                                           9.99 327 
 TVRZ    ESg  0A  2245 54.60                                           9.99 327 
 HRS     IPg  0A  2245 54.91                                           30.0 113 
 HRS     ESg  0A  2245 59.87                                           30.0 113 
 TBZ     IPg  0A  2245 58.15                                           55.0 247 
 TBZ     ESg  0A  2246  5.71                                           55.0 247 
 MRD     IPg  0A  2246  4.61                                           95.0 289 
 MRD     ESg  0A  2246 18.19                                           95.0 289 
 SHB     IPg  0A  2246  5.81                                           98.4 260 
 SHB     ESg  0A  2246 19.15                                           98.4 260 
 AZR     IPg  0A  2246  6.90                                            105 218 
 TVRZ     IAML A  2245 52.66       727.5                                        
 SHB      IAML A  2246  5.97        39.0                                        
 TBZ      IAML A  2245 59.04        90.0                                        
                                                                                

 2012  812 2257  7.7 L  38.487  46.902 16.7       6 0.0 2.8L                   1
 GAP=223                   2.1     1.6  1.7                                    E
 Action:ARG 24-03-13 15:57 OP:OBSP STATUS:               ID:20120812225707     I
 STAT SP IPHASW D HRMM SECON CODA AMPLIT PERI AZIMU VELO AIN AR TRES W  DIS CAZ7
 TVRZ    IPg  0A  2257 12.85                                           20.4 275 
 TVRZ    ESg  0A  2257 16.20                                           20.4 275 
 HRS     IPg  0A  2257 12.55                                           22.4 146 
 HRS     ESg  0A  2257 15.95                                           22.4 146 
 TABZ    IPg  0A  2257 20.02                                           69.3 226 
 TABZ    ESg  0A  2257 28.94                                           69.3 226 
 TBZ     IPg  0A  2257 19.87                                           71.4 247 
 TBZ     ESg  0A  2257 28.51                                           71.4 247 
 MRD     IPg  0A  2257 25.79                                            107 283 
 MRD     ESg  0A  2257 38.69                                            107 283 
 SHB     IPg  0A  2257 27.27                                            114 259 
 SHB     ESg  0A  2257 41.39                                            114 259 
 TABZ     IAML A  2257 19.99       519.9                                        
 TVRZ     IAML A  2257 12.73      2491.8                                        
 TBZ      IAML A  2257 20.26       498.5                                        
                                                                                

 2012  812 23 2  3.9 L  38.407  46.835 19.3       7 0.0 2.7L                   1
 GAP=172                   1.5     1.2  1.3                                    E
 Action:ARG 24-03-13 15:57 OP:OBSP STATUS:               ID:20120812230203     I
 STAT SP IPHASW D HRMM SECON CODA AMPLIT PERI AZIMU VELO AIN AR TRES W  DIS CAZ7
 HRS     IPg  0A  23 2  8.71                                           18.8 114 
 HRS     ESg  0A  23 2 12.46                                           18.8 114 
 TVRZ    IPg  0A  23 2  8.24                                           20.2 309 
 TVRZ    ESg  0A  23 2 11.77                                           20.2 309 
 TABZ    IPg  0A  23 2 14.45                                           58.5 231 
 TABZ    ESg  0A  23 2 22.69                                           58.5 231 
 TBZ     IPg  0A  23 2 14.37                                           63.3 254 
 TBZ     ESg  0A  23 2 22.75                                           63.3 254 
 MRD     IPg  0A  23 2 21.27                                            106 290 
 MRD     ESg  0A  23 2 36.85                                            106 290 
 SHB     IPg  0A  23 2 21.83                                            108 264 
 SHB     ESg  0A  23 2 36.13                                            108 264 
 AZR     IPg  0A  23 2 22.12                                            109 224 
 AZR     ESg  0A  23 2 35.76                                            109 224 
 MRD      IAML A  23 2 22.08       219.1                                        
 TABZ     IAML A  23 2 14.44       522.3                                        
                                                                                

 2012  812 2316 12.9 L  38.398  46.681 12.9       5 0.0 1.8L                   1
 GAP=143                   2.5     2.0  4.3                                    E
 Action:ARG 24-03-13 15:57 OP:OBSP STATUS:               ID:20120812231612     I
 STAT SP IPHASW D HRMM SECON CODA AMPLIT PERI AZIMU VELO AIN AR TRES W  DIS CAZ7
 TVRZ    IPg  0A  2316 15.56                                           12.5 354 
 TVRZ    ESg  0A  2316 18.21                                           12.5 354 
 HRS     IPg  0A  2316 18.84                                           32.5 104 
 HRS     ESg  0A  2316 23.92                                           32.5 104 
 TBZ     IPg  0A  2316 21.30                                           49.7 249 
 TBZ     ESg  0A  2316 28.34                                           49.7 249 
 MRD     IPg  0A  2316 28.29                                           92.6 292 
 MRD     ESg  0A  2316 41.33                                           92.6 292 
 SHB     IPg  0A  2316 28.89                                           93.8 262 
 SHB      IAML A  2316 29.06        33.4                                        
                                                                                

 2012  812 2358 41.6 L  38.462  46.894 15.6       7 0.0 1.9L                   1
 GAP=211                   2.4     1.9  1.2                                    E
 Action:ARG 24-03-13 15:57 OP:OBSP STATUS:               ID:20120812235841     I
 STAT SP IPHASW D HRMM SECON CODA AMPLIT PERI AZIMU VELO AIN AR TRES W  DIS CAZ7
 HRS     IPg  0A  2358 45.91                                           20.2 140 
 HRS     ESg  0A  2358 49.36                                           20.2 140 
 TVRZ    IPg  0A  2358 45.99                                           20.5 284 
 TVRZ    ESg  0A  2358 49.38                                           20.5 284 
 TBZ     IPg  0A  2358 53.12                                           69.9 249 
 TBZ     ESg  0A  2359  1.84                                           69.9 249 
 SRB     IPg  0A  2358 58.18                                           97.4 136 
 MRD     IPg  0A  2358 59.42                                            107 285 
 MRD     ESg  0A  2359 13.43                                            107 285 
 SHB     IPg  0A  2359  0.86                                            113 260 
 SHB     ESg  0A  2359 15.67                                            113 260 
 AZR     IPg  0A  2359  1.65                                            117 222 
 SRB      IAML A  2358 58.04        39.7                                        
 AZR      IAML A  2359  1.62        29.3                                        
 TVRZ     IAML A  2358 46.27       312.3                                        
                                                                                

 2012  813  0 7 53.9 L  38.418  46.672 19.1       6 0.0 2.4L                   1
 GAP=178                   2.3     1.8  1.9                                    E
 Action:ARG 24-03-13 15:57 OP:OBSP STATUS:               ID:20120813000753     I
 STAT SP IPHASW D HRMM SECON CODA AMPLIT PERI AZIMU VELO AIN AR TRES W  DIS CAZ7
 HRS     IPg  0A   0 8  0.57                                           33.6 107 
 TBZ     IPg  0A   0 8  2.57                                           50.0 247 
 MRD     IPg  0A   0 8  9.31                                           91.4 291 
 SHB     IPg  0A   0 8 10.35                                           93.6 261 
 AZR     IPg  0A   0 8 11.19                                            101 216 
 SRB     IPg  0A   0 8 12.11                                            108 126 
 SRB      IAML A   0 8 12.42       106.3                                        
 SHB      IAML A   0 8  9.91       133.4                                        
                                                                                

 2012  813  018  2.6 L  38.442  46.888 10.8       9 0.0 3.2L                   1
 GAP=127                   1.2     0.9  2.0                                    E
 Action:ARG 24-03-13 15:57 OP:OBSP STATUS:               ID:20120813001802     I
 STAT SP IPHASW D HRMM SECON CODA AMPLIT PERI AZIMU VELO AIN AR TRES W  DIS CAZ7
 HRS     IPg  0A   018  6.20                                           19.4 139 
 HRS     ESg  0A   018  9.15                                           19.4 139 
 TBZ     IPg  0A   018 14.19                                           69.6 250 
 TBZ     ESg  0A   018 23.27                                           69.6 250 
 GRMI    IPg  0A   018 19.34                                           95.6  65 
 SRB     IPg  0A   018 18.52                                           96.6 135 
 SRB     ESg  0A   018 31.26                                           96.6 135 
 MRD     IPg  0A   018 20.28                                            108 286 
 MRD     ESg  0A   018 34.52                                            108 286 
 SHB     IPg  0A   018 21.35                                            113 260 
 SHB     ESg  0A   018 36.19                                            113 260 
 AZR     IPg  0A   018 21.81                                            117 223 
 AZR     ESg  0A   018 37.39                                            117 223 
 MAKU    IPn  0A   018 37.21                                            216 298 
 ZNJK    IPn  0A   018 42.22                                            253 140 
 MRD      IAML A   018 21.02       671.9                                        
 ZNJK     IAML A   018 42.38       139.2                                        
 AZR      IAML A   018 22.62       589.7                                        
 MAKU     IAML A   018 38.14       193.5                                        
                                                                                

 2012  813  022  8.6 L  38.437  46.683 12.6       8 0.0 3.2L                   1
 GAP=128                   2.3     1.8  2.7                                    E
 Action:ARG 24-03-13 15:57 OP:OBSP STATUS:               ID:20120813002208     I
 STAT SP IPHASW D HRMM SECON CODA AMPLIT PERI AZIMU VELO AIN AR TRES W  DIS CAZ7
 HRS     IPg  0A   022 14.65                                           32.4 110 
 HRS     ESg  0A   022 19.87                                           32.4 110 
 TBZ     IPg  0A   022 17.32                                           51.8 246 
 MRD     IPg  0A   022 23.74                                           92.5 290 
 SHB     IPg  0A   022 24.60                                           95.3 261 
 SHB     ESg  0A   022 37.30                                           95.3 261 
 SRB     IPg  0A   022 26.52                                            107 127 
 GRMI    IPg  0A   022 27.83                                            113  67 
 MAKU    IPn  0A   022 41.26                                            203 301 
 ZNJK    IPn  0A   022 49.80                                            262 137 
 TBZ      IAML A   022 18.05      1945.4                                        
 SHB      IAML A   022 24.69       819.1                                        
 GRMI     IAML A   022 27.23       625.7                                        
                                                                                

 2012  813  1 2 22.8 L  38.432  46.799 17.7       5 0.0 1.5L                   1
 GAP=176                   1.4     1.1  0.6                                    E
 Action:ARG 24-03-13 15:57 OP:OBSP STATUS:               ID:20120813010222     I
 STAT SP IPHASW D HRMM SECON CODA AMPLIT PERI AZIMU VELO AIN AR TRES W  DIS CAZ7
 TVRZ    IPg  0A   1 2 26.73                                           13.1 297 
 TVRZ    ESg  0A   1 2 29.61                                           13.1 297 
 HRS     IPg  0A   1 2 28.02                                           25.7 124 
 MRD     IPg  0A   1 2 40.03                                            100 287 
 MRD     ESg  0A   1 2 51.61                                            100 287 
 SRB     IPg  0A   1 2 40.09                                            102 132 
 SRB     ESg  0A   1 2 52.71                                            102 132 
 SHB     IPg  0A   1 2 40.32                                            105 260 
 SHB     ESg  0A   1 2 53.63                                            105 260 
 SHB      IAML A   1 2 40.09        14.1                                        
 MRD      IAML A   1 2 39.42        15.1                                        
 SRB      IAML A   1 2 39.98        14.6                                        
                                                                                

 2012  813  129 26.5 L  38.473  46.794  9.3       6 0.0 2.4L                   1
 GAP=203                   3.4     2.7  9.8                                    E
 Action:ARG 24-03-13 15:57 OP:OBSP STATUS:               ID:20120813012926     I
 STAT SP IPHASW D HRMM SECON CODA AMPLIT PERI AZIMU VELO AIN AR TRES W  DIS CAZ7
 HRS     IPg  0A   129 31.30                                           28.4 129 
 HRS     ESg  0A   129 35.08                                           28.4 129 
 TBZ     IPg  0A   129 37.11                                           62.3 244 
 TBZ     ESg  0A   129 45.35                                           62.3 244 
 MRD     IPg  0A   129 43.14                                           98.4 285 
 SHB     IPg  0A   129 44.05                                            104 258 
 SRB     IPg  0A   129 45.20                                            105 133 
 AZR     IPg  0A   129 45.43                                            113 218 
 SHB      IAML A   129 44.14       112.0                                        
 HRS      IAML A   129 31.97       665.8                                        
 TBZ      IAML A   129 37.24       239.9                                        
                                                                                

 2012  813  138 46.8 L  38.452  46.840 15.0       6 0.0 1.5L                   1
 GAP=199                   2.9     2.3  3.0                                    E
 Action:ARG 24-03-13 15:57 OP:OBSP STATUS:               ID:20120813013846     I
 STAT SP IPHASW D HRMM SECON CODA AMPLIT PERI AZIMU VELO AIN AR TRES W  DIS CAZ7
 TVRZ    IPg  0A   138 50.86                                           16.4 290 
 TVRZ    ESg  0A   138 53.92                                           16.4 290 
 HRS     IPg  0A   138 51.28                                           22.8 130 
 TBZ     IPg  0A   138 57.82                                           65.3 248 
 TBZ     ESg  0A   139  6.14                                           65.3 248 
 SRB     IPg  0A   139  4.03                                            100 133 
 MRD     IPg  0A   139  4.20                                            103 286 
 MRD     ESg  0A   139 17.02                                            103 286 
 SHB     IPg  0A   139  5.52                                            108 260 
 SHB     ESg  0A   139 19.32                                            108 260 
 SHB      IAML A   139  5.49        13.3                                        
 TVRZ     IAML A   138 51.22       162.1                                        
 MRD      IAML A   139  4.70        14.3                                        
                                                                                

 2012  813  156 10.2 L  38.439  46.689  8.1      11 0.0 4.7L                   1
 GAP=110                   2.0     1.6  3.2                                    E
 Action:ARG 24-03-13 15:57 OP:OBSP STATUS:               ID:20120813015610     I
 STAT SP IPHASW D HRMM SECON CODA AMPLIT PERI AZIMU VELO AIN AR TRES W  DIS CAZ7
 HRS     IPg  0A   156 16.43                                           33.2 113 
 HRS     ESg  0A   156 21.08                                           33.2 113 
 TBZ     IPg  0A   156 19.14                                           52.6 244 
 TBZ     ESg  0A   156 25.92                                           52.6 244 
 MRD     IPg  0A   156 25.12                                           91.8 289 
 SHB     IPg  0A   156 26.13                                           95.6 260 
 SHB     ESg  0A   156 39.15                                           95.6 260 
 AZR     IPg  0A   156 27.76                                            104 216 
 SRB     IPg  0A   156 28.30                                            108 128 
 GRMI    IPg  0A   156 29.25                                            112  68 
 MAKU    IPn  0A   156 42.45                                            202 300 
 GNI     IPn  0A   156 50.70                                            254 319 
 ZNJK    IPn  0A   156 51.10                                            263 137 
 VANB    IPn  0A   156 55.90                                            289 274 
 SRB      IAML A   156 28.46     21047.1                                        
 HRS      IAML A   156 16.53      10.9e4                                        
                                                                                

