 2012  812 1419  9.4 L  38.432  46.782 13.2       9 0.0 3.1L                   1
 GAP=127                   0.8     0.6  1.0                                    E
 Action:ARG 24-03-13 15:57 OP:OBSP STATUS:               ID:20120812141909     I
 STAT SP IPHASW D HRMM SECON CODA AMPLIT PERI AZIMU VELO AIN AR TRES W  DIS CAZ7
 HRS     IPg  0A  1419 14.02                                           24.1 117 
 HRS     ESg  0A  1419 17.86                                           24.1 117 
 TBZ     IPg  0A  1419 19.39                                           60.4 250 
 TBZ     ESg  0A  1419 27.31                                           60.4 250 
 BST     IPg  0A  1419 22.61                                           80.3 174 
 MRD     IPg  0A  1419 25.57                                            101 289 
 SHB     IPg  0A  1419 26.49                                            104 261 
 SHB     ESg  0A  1419 40.25                                            104 261 
 GRMI    IPg  0A  1419 26.90                                            104  65 
 AZR     IPg  0A  1419 27.36                                            109 221 
 MAKU    IPn  0A  1419 42.65                                            211 300 
 ZNJK    IPn  0A  1419 48.78                                            256 138 
 BST      IAML A  1419 22.76       839.9                                        
 TBZ      IAML A  1419 19.59      1255.4                                        
 SHB      IAML A  1419 26.31       565.2                                        
                                                                                

 2012  812 1515  9.9 L  38.444  46.861 14.1       6 0.0 2.1L                   1
 GAP=205                   4.3     3.4 10.9                                    E
 Action:ARG 24-03-13 15:57 OP:OBSP STATUS:               ID:20120812151509     I
 STAT SP IPHASW D HRMM SECON CODA AMPLIT PERI AZIMU VELO AIN AR TRES W  DIS CAZ7
 HRS     IPg  0A  1515 14.44                                           20.4 127 
 TBZ     IPg  0A  1515 20.76                                           65.7 250 
 BST     IPg  0A  1515 23.58                                           81.2 178 
 MRD     IPg  0A  1515 27.84                                            105 287 
 SHB     IPg  0A  1515 28.70                                            109 261 
 SHB     ESg  0A  1515 42.24                                            109 261 
 AZR     IPg  0A  1515 29.64                                            113 222 
 HRS      IAML A  1515 14.84       498.2                                        
                                                                                

 2012  812 1559 25.2 L  38.453  46.810 15.0       6 0.0 2.5L                   1
 GAP=192                   1.6     1.3  1.6                                    E
 Action:ARG 24-03-13 15:57 OP:OBSP STATUS:               ID:20120812155925     I
 STAT SP IPHASW D HRMM SECON CODA AMPLIT PERI AZIMU VELO AIN AR TRES W  DIS CAZ7
 TVRZ    IPg  0A  1559 28.78                                           13.9 295 
 TVRZ    ESg  0A  1559 31.33                                           13.9 295 
 HRS     IPg  0A  1559 30.18                                           25.0 125 
 HRS     ESg  0A  1559 34.21                                           25.0 125 
 TBZ     IPg  0A  1559 35.74                                           62.6 247 
 TBZ     ESg  0A  1559 44.03                                           62.6 247 
 MRD     IPg  0A  1559 42.80                                            101 287 
 MRD     ESg  0A  1559 54.95                                            101 287 
 SHB     IPg  0A  1559 43.00                                            105 260 
 SHB     ESg  0A  1559 57.19                                            105 260 
 AZR     IPg  0A  1559 44.48                                            112 220 
 AZR     ESg  0A  1559 58.27                                            112 220 
 TVRZ     IAML A  1559 29.12      1979.9                                        
 TBZ      IAML A  1559 36.34       300.4                                        
 MRD      IAML A  1559 42.79       149.3                                        
 HRS      IAML A  1559 30.67       981.3                                        
                                                                                

 2012  812 1718 31.1 L  38.431  46.738 16.0       6 0.0 2.1L                   1
 GAP=152                   1.1     0.9  0.9                                    E
 Action:ARG 24-03-13 15:57 OP:OBSP STATUS:               ID:20120812171831     I
 STAT SP IPHASW D HRMM SECON CODA AMPLIT PERI AZIMU VELO AIN AR TRES W  DIS CAZ7
 TVRZ    IPg  0A  1718 34.35                                           8.24 306 
 TVRZ    ESg  0A  1718 36.88                                           8.24 306 
 HRS     IPg  0A  1718 36.61                                           30.5 121 
 HRS     ESg  0A  1718 41.06                                           30.5 121 
 TBZ     IPg  0A  1718 40.66                                           57.7 244 
 TBZ     ESg  0A  1718 48.18                                           57.7 244 
 MRD     IPg  0A  1718 47.18                                           95.1 287 
 MRD     ESg  0A  1718 58.12                                           95.1 287 
 SHB     IPg  0A  1718 47.84                                            100 259 
 SHB     ESg  0A  1719  0.69                                            100 259 
 AZR     IPg  0A  1718 49.18                                            109 217 
                                                                                

 2012  812 1844 22.3 L  38.410  46.831 16.2       6 0.0 2.1L                   1
 GAP=173                   1.3     1.0  0.9                                    E
 Action:ARG 24-03-13 15:57 OP:OBSP STATUS:               ID:20120812184422     I
 STAT SP IPHASW D HRMM SECON CODA AMPLIT PERI AZIMU VELO AIN AR TRES W  DIS CAZ7
 TVRZ    IPg  0A  1844 26.38                                           18.5 304 
 TVRZ    ESg  0A  1844 29.55                                           18.5 304 
 HRS     IPg  0A  1844 26.77                                           20.2 120 
 HRS     ESg  0A  1844 30.27                                           20.2 120 
 TBZ     IPg  0A  1844 32.96                                           63.7 252 
 TBZ     ESg  0A  1844 41.18                                           63.7 252 
 MRD     IPg  0A  1844 39.52                                            105 288 
 MRD     ESg  0A  1844 53.58                                            105 288 
 SHB     IPg  0A  1844 40.34                                            108 262 
 SHB     ESg  0A  1844 54.36                                            108 262 
 AZR     IPg  0A  1844 40.86                                            111 223 
 SHB      IAML A  1844 40.50        53.5                                        
 HRS      IAML A  1844 26.89       503.1                                        
                                                                                

 2012  812 1846 39.9 L  38.421  46.837 16.5       5 0.0 2.0L                   1
 GAP=181                   2.4     1.9  1.7                                    E
 Action:ARG 24-03-13 15:57 OP:OBSP STATUS:               ID:20120812184639     I
 STAT SP IPHASW D HRMM SECON CODA AMPLIT PERI AZIMU VELO AIN AR TRES W  DIS CAZ7
 TVRZ    IPg  0A  1846 44.06                                           18.7 308 
 TVRZ    ESg  0A  1846 47.09                                           18.7 308 
 HRS     IPg  0A  1846 44.55                                           20.2 116 
 HRS     ESg  0A  1846 48.18                                           20.2 116 
 TBZ     IPg  0A  1846 50.62                                           62.6 253 
 TBZ     ESg  0A  1846 58.74                                           62.6 253 
 MRD     IPg  0A  1846 57.34                                            104 289 
 MRD     ESg  0A  1847 12.16                                            104 289 
 SHB     IPg  0A  1846 58.04                                            107 263 
 SHB     ESg  0A  1847 12.24                                            107 263 
 SHB      IAML A  1846 58.59        43.1                                        
                                                                                

 2012  812 1928  5.1 L  38.406  46.804 17.7       5 0.0 1.7L                   1
 GAP=163                   2.0     1.6  1.5                                    E
 Action:ARG 24-03-13 15:57 OP:OBSP STATUS:               ID:20120812192805     I
 STAT SP IPHASW D HRMM SECON CODA AMPLIT PERI AZIMU VELO AIN AR TRES W  DIS CAZ7
 TVRZ    IPg  0A  1928  9.22                                           14.8 300 
 TVRZ    ESg  0A  1928 12.36                                           14.8 300 
 HRS     IPg  0A  1928 10.10                                           23.9 123 
 HRS     ESg  0A  1928 13.92                                           23.9 123 
 TBZ     IPg  0A  1928 15.28                                           62.3 249 
 TBZ     ESg  0A  1928 23.12                                           62.3 249 
 MRD     IPg  0A  1928 22.28                                            101 287 
 MRD     ESg  0A  1928 33.24                                            101 287 
 SHB     IPg  0A  1928 22.68                                            105 261 
 SHB     ESg  0A  1928 36.64                                            105 261 
 TBZ      IAML A  1928 15.83        47.9                                        
 MRD      IAML A  1928 21.73        23.4                                        
                                                                                

 2012  812 1929 56.6 L  38.427  46.775 17.5       5 0.0 2.1L                   1
 GAP=189                   3.5     2.7  3.9                                    E
 Action:ARG 24-03-13 15:57 OP:OBSP STATUS:               ID:20120812192956     I
 STAT SP IPHASW D HRMM SECON CODA AMPLIT PERI AZIMU VELO AIN AR TRES W  DIS CAZ7
 HRS     IPg  0A  1930  2.21                                           25.7 116 
 TBZ     IPg  0A  1930  6.69                                           58.9 249 
 TBZ     ESg  0A  1930 14.19                                           58.9 249 
 BST     IPg  0A  1930 10.33                                           80.7 173 
 MRD     IPg  0A  1930 13.03                                           99.4 289 
 SHB     IPg  0A  1930 14.15                                            102 261 
 SHB     ESg  0A  1930 27.71                                            102 261 
 SHB      IAML A  1930 14.03        57.9                                        
                                                                                

 2012  812 20 4 31.1 L  38.506  46.761 16.4       5 0.0 1.8L                   1
 GAP=206                   4.0     3.1  1.7                                    E
 Action:ARG 24-03-13 15:57 OP:OBSP STATUS:               ID:20120812200431     I
 STAT SP IPHASW D HRMM SECON CODA AMPLIT PERI AZIMU VELO AIN AR TRES W  DIS CAZ7
 TVRZ    IPg  0A  20 4 34.35                                           8.63 277 
 TVRZ    ESg  0A  20 4 36.81                                           8.63 277 
 HRS     IPg  0A  20 4 37.05                                           31.1 128 
 HRS     ESg  0A  20 4 42.03                                           31.1 128 
 TBZ     IPg  0A  20 4 40.66                                           61.1 242 
 MRD     IPg  0A  20 4 47.40                                           95.9 285 
 MRD     ESg  0A  20 4 59.72                                           95.9 285 
 SHB     IPg  0A  20 4 48.22                                            103 257 
 SHB     ESg  0A  20 5  2.08                                            103 257 
 MRD      IAML A  20 4 47.55        32.3                                        
                                                                                

 2012  812 20 9 35.7 L  38.408  46.872 15.1       5 0.0 2.2L                   1
 GAP=183                   1.2     0.9  1.0                                    E
 Action:ARG 24-03-13 15:57 OP:OBSP STATUS:               ID:20120812200935     I
 STAT SP IPHASW D HRMM SECON CODA AMPLIT PERI AZIMU VELO AIN AR TRES W  DIS CAZ7
 HRS     IPg  0A  20 9 39.66                                           18.3 127 
 HRS     ESg  0A  20 9 42.75                                           18.3 127 
 TVRZ    IPg  0A  20 9 40.12                                           20.6 297 
 TVRZ    ESg  0A  20 9 43.47                                           20.6 297 
 TBZ     IPg  0A  20 9 46.96                                           66.8 252 
 TBZ     ESg  0A  20 9 55.37                                           66.8 252 
 MRD     IPg  0A  20 9 53.82                                            107 288 
 MRD     ESg  0A  2010  6.57                                            107 288 
 SHB     IPg  0A  20 9 54.54                                            111 262 
 SHB     ESg  0A  2010  8.59                                            111 262 
 HRS      IAML A  20 9 40.14       715.6                                        
 MRD      IAML A  20 9 53.68        67.8                                        
                                                                                

 2012  812 2011  2.2 L  38.420  46.670 11.3       5 0.0 1.9L                   1
 GAP=136                   3.0     2.4  4.3                                    E
 Action:ARG 24-03-13 15:57 OP:OBSP STATUS:               ID:20120812201102     I
 STAT SP IPHASW D HRMM SECON CODA AMPLIT PERI AZIMU VELO AIN AR TRES W  DIS CAZ7
 TVRZ    IPg  0A  2011  4.53                                           8.58 349 
 TVRZ    ESg  0A  2011  6.84                                           8.58 349 
 HRS     IPg  0A  2011  8.06                                           33.4 111 
 HRS     ESg  0A  2011 13.41                                           33.4 111 
 TBZ     IPg  0A  2011 10.60                                           51.6 245 
 TBZ     ESg  0A  2011 17.22                                           51.6 245 
 MRD     IPg  0A  2011 17.02                                           91.5 290 
 MRD     ESg  0A  2011 29.62                                           91.5 290 
 SHB     IPg  0A  2011 18.28                                           94.7 260 
 SHB     ESg  0A  2011 31.24                                           94.7 260 
 MRD      IAML A  2011 17.92        43.6                                        
 TBZ      IAML A  2011 11.49        98.1                                        
 HRS      IAML A  2011  8.49       171.7                                        
                                                                                

 2012  812 2126 31.7 L  38.392  46.670 10.0       5 0.0 2.2L                   1
 GAP=145                   4.5     3.5  7.9                                    E
 Action:ARG 24-03-13 15:57 OP:OBSP STATUS:               ID:20120812212631     I
 STAT SP IPHASW D HRMM SECON CODA AMPLIT PERI AZIMU VELO AIN AR TRES W  DIS CAZ7
 TVRZ    IPg  0A  2126 34.45                                           12.4 356 
 TVRZ    ESg  0A  2126 36.74                                           12.4 356 
 HRS     IPg  0A  2126 37.78                                           33.0 104 
 TBZ     IPg  0A  2126 39.91                                           49.4 249 
 MRD     IPg  0A  2126 47.13                                           92.2 292 
 SHB     IPg  0A  2126 48.27                                           93.4 262 
 MRD      IAML A  2126 47.56        86.1                                        
 SHB      IAML A  2126 47.61        84.4                                        
                                                                                

 2012  812 2133 17.6 L  38.446  46.799 11.6       8 0.0 3.1L                   1
 GAP=128                   1.5     1.2  1.7                                    E
 Action:ARG 24-03-13 15:57 OP:OBSP STATUS:               ID:20120812213317     I
 STAT SP IPHASW D HRMM SECON CODA AMPLIT PERI AZIMU VELO AIN AR TRES W  DIS CAZ7
 HRS     IPg  0A  2133 22.37                                           25.9 126 
 HRS     ESg  0A  2133 25.89                                           25.9 126 
 TBZ     IPg  0A  2133 28.25                                           62.4 246 
 MRD     IPg  0A  2133 34.24                                            100 286 
 GRMI    IPg  0A  2133 35.35                                            102  67 
 SHB     IPg  0A  2133 35.35                                            105 259 
 SHB     ESg  0A  2133 49.21                                            105 259 
 AZR     IPg  0A  2133 36.64                                            112 220 
 MAKU    IPn  0A  2133 51.30                                            209 299 
 ZNJK    IPn  0A  2133 57.59                                            258 139 
 TBZ      IAML A  2133 28.34      1200.9                                        
 ZNJK     IAML A  2133 58.94       105.2                                        
                                                                                

 2012  812 22 1 15.8 L  38.441  46.707 14.8       5 0.0 2.4L                   1
 GAP=141                   2.1     1.6  2.1                                    E
 Action:ARG 24-03-13 15:57 OP:OBSP STATUS:               ID:20120812220115     I
 STAT SP IPHASW D HRMM SECON CODA AMPLIT PERI AZIMU VELO AIN AR TRES W  DIS CAZ7
 TVRZ    IPg  0A  22 1 18.56                                           8.13 334 
 TVRZ    ESg  0A  22 1 20.96                                           8.13 334 
 HRS     IPg  0A  22 1 21.83                                           32.1 114 
 HRS     ESg  0A  22 1 26.77                                           32.1 114 
 TBZ     IPg  0A  22 1 24.75                                           53.8 245 
 TBZ     ESg  0A  22 1 32.07                                           53.8 245 
 MRD     IPg  0A  22 1 31.35                                           92.9 289 
 MRD     ESg  0A  22 1 43.71                                           92.9 289 
 SHB     IPg  0A  22 1 32.49                                           96.8 260 
 SHB     ESg  0A  22 1 45.07                                           96.8 260 
 HRS      IAML A  22 1 22.02       571.3                                        
 TBZ      IAML A  22 1 25.89       293.3                                        
                                                                                

