 2012  812  010 52.5 L  38.401  46.697 14.5       5 0.0 2.5L                   1
 GAP=175                   5.0     3.9 11.5                                    E
 Action:ARG 24-03-13 15:57 OP:OBSP STATUS:               ID:20120812001052     I
 STAT SP IPHASW D HRMM SECON CODA AMPLIT PERI AZIMU VELO AIN AR TRES W  DIS CAZ7
 HRS     IPg  0A   010 58.45                                           31.6 106 
 TBZ     IPg  0A   011  1.26                                           51.2 249 
 MRD     IPg  0A   011  8.28                                           93.4 292 
 SHB     IPg  0A   011  9.23                                           95.1 262 
 SRB     IPg  0A   011 10.48                                            106 126 
 SHB      IAML A   011  8.95       163.7                                        
 TBZ      IAML A   011  1.82       394.1                                        
                                                                                

 2012  812  015 22.9 L  38.443  46.754 14.3       8 0.0 3.1L                   1
 GAP=128                   1.2     0.9  1.6                                    E
 Action:ARG 24-03-13 15:57 OP:OBSP STATUS:               ID:20120812001522     I
 STAT SP IPHASW D HRMM SECON CODA AMPLIT PERI AZIMU VELO AIN AR TRES W  DIS CAZ7
 HRS     IPg  0A   015 28.38                                           28.3 119 
 TBZ     IPg  0A   015 32.89                                           58.4 246 
 TBZ     ESg  0A   015 40.59                                           58.4 246 
 MRD     IPg  0A   015 39.11                                           97.1 288 
 SHB     IPg  0A   015 39.92                                            101 260 
 SHB     ESg  0A   015 53.44                                            101 260 
 SRB     IPg  0A   015 40.20                                            104 130 
 SRB     ESg  0A   015 54.09                                            104 130 
 GRMI    IPg  0A   015 41.21                                            106  67 
 MAKU    IPn  0A   015 56.09                                            206 299 
 ZNJK    IPn  0A   016  3.21                                            260 138 
 SHB      IAML A   015 40.19       589.3                                        
 MAKU     IAML A   015 56.14       169.2                                        
 TBZ      IAML A   015 33.23      1314.3                                        
                                                                                

 2012  812  034 16.5 L  38.433  46.751 14.3       8 0.0 3.8L                   1
 GAP=128                   1.9     1.5  2.1                                    E
 Action:ARG 24-03-13 15:57 OP:OBSP STATUS:               ID:20120812003416     I
 STAT SP IPHASW D HRMM SECON CODA AMPLIT PERI AZIMU VELO AIN AR TRES W  DIS CAZ7
 HRS     IPg  0A   034 21.88                                           27.1 115 
 HRS     ESg  0A   034 26.04                                           27.1 115 
 TBZ     IPg  0A   034 26.27                                           57.6 248 
 MRD     IPg  0A   034 32.49                                           98.0 289 
 SHB     IPg  0A   034 33.41                                            101 261 
 SHB     ESg  0A   034 46.91                                            101 261 
 SRB     IPg  0A   034 33.79                                            103 129 
 GRMI    IPg  0A   034 34.90                                            107  66 
 MAKU    IPn  0A   034 49.64                                            208 300 
 ZNJK    IPn  0A   034 56.71                                            258 138 
 MAKU     IAML A   034 49.60       837.9                                        
 HRS      IAML A   034 22.15     17710.1                                        
 GRMI     IAML A   034 34.26      2706.7                                        
 ZNJK     IAML A   034 55.85       528.7                                        
                                                                                

 2012  812  041 26.3 L  38.504  46.748 14.9       5 0.0 2.7L                   1
 GAP=204                   5.1     4.0 10.7                                    E
 Action:ARG 24-03-13 15:57 OP:OBSP STATUS:               ID:20120812004126     I
 STAT SP IPHASW D HRMM SECON CODA AMPLIT PERI AZIMU VELO AIN AR TRES W  DIS CAZ7
 HRS     IPg  0A   041 32.59                                           31.2 123 
 TBZ     IPg  0A   041 35.92                                           58.6 243 
 MRD     IPg  0A   041 42.49                                           94.8 286 
 SHB     IPg  0A   041 43.34                                            100 258 
 SHB     ESg  0A   041 56.66                                            100 258 
 SRB     IPg  0A   041 44.80                                            108 131 
 SHB      IAML A   041 43.40       237.3                                        
 MRD      IAML A   041 42.37       260.9                                        
                                                                                

 2012  812  135 50.2 L  38.459  46.748 12.0       5 0.0 2.2L                   1
 GAP=194                   3.2     2.5  7.7                                    E
 Action:ARG 24-03-13 15:57 OP:OBSP STATUS:               ID:20120812013550     I
 STAT SP IPHASW D HRMM SECON CODA AMPLIT PERI AZIMU VELO AIN AR TRES W  DIS CAZ7
 HRS     IPg  0A   135 55.69                                           29.4 119 
 TBZ     IPg  0A   135 59.71                                           57.4 245 
 MRD     IPg  0A   136  6.52                                           95.9 288 
 SHB     IPg  0A   136  7.18                                            100 259 
 SHB     ESg  0A   136 20.12                                            100 259 
 SRB     IPg  0A   136  8.27                                            105 130 
 SRB      IAML A   136  7.99        69.5                                        
 TBZ      IAML A   136  0.05       169.5                                        
                                                                                

 2012  812  224 42.9 L  38.424  46.791  0.9      14 0.0 3.7L                   1
 GAP=118                   1.8     1.4  3.5                                    E
 Action:ARG 24-03-13 15:57 OP:OBSP STATUS:               ID:20120812022442     I
 STAT SP IPHASW D HRMM SECON CODA AMPLIT PERI AZIMU VELO AIN AR TRES W  DIS CAZ7
 HRS     IPg  0A   224 47.81                                           25.9 119 
 TBZ     IPg  0A   224 53.56                                           59.8 248 
 TBZ     ESg  0A   225  1.78                                           59.8 248 
 ORD     IPg  0A   224 57.80                                           88.2 308 
 MRD     IPg  0A   224 59.66                                           99.5 288 
 SRB     IPg  0A   224 59.97                                            102 130 
 SHB     IPg  0A   225  0.73                                            103 261 
 GRMI    IPg  0A   225  0.99                                            105  66 
 LRK     IPg  0A   225  6.50                                            137  79 
 NAX     IPg  0A   225  6.10                                            139 306 
 GLBA    IPg  0A   225 11.70                                            166  56 
 BRDA    IPn  0A   225 18.40                                            206   9 
 SAAT    IPn  0A   225 17.90                                            212  41 
 ZRD     IPn  0A   225 20.10                                            219  20 
 GANJ    IPn  0A   225 22.80                                            247 350 
 GRMI     IAML A   225  1.39      2219.7                                        
 LRK      IAML A   225  6.66      1430.8                                        
 SHB      IAML A   225  0.65      2284.3                                        
 GLBA     IAML A   225 10.87      1026.1                                        
 MRD      IAML A   224 59.99      2424.8                                        
 BRDA     IAML A   225 16.56       678.4                                        
                                                                                

 2012  812  232 17.2 L  38.399  46.694 15.1       5 0.0 1.7L                   1
 GAP=175                   4.8     3.8  7.5                                    E
 Action:ARG 24-03-13 15:57 OP:OBSP STATUS:               ID:20120812023217     I
 STAT SP IPHASW D HRMM SECON CODA AMPLIT PERI AZIMU VELO AIN AR TRES W  DIS CAZ7
 HRS     IPg  0A   232 22.91                                           31.5 104 
 HRS     ESg  0A   232 28.20                                           31.5 104 
 TBZ     IPg  0A   232 25.94                                           50.7 250 
 MRD     IPg  0A   232 33.15                                           93.7 292 
 SHB     IPg  0A   232 33.74                                           94.8 263 
 SRB     IPg  0A   232 35.20                                            105 126 
 HRS      IAML A   232 23.39       116.7                                        
                                                                                

 2012  812  327 59.9 L  38.500  46.769 15.0       5 0.0 2.4L                   1
 GAP=206                   5.3     4.1 12.1                                    E
 Action:ARG 24-03-13 15:57 OP:OBSP STATUS:               ID:20120812032759     I
 STAT SP IPHASW D HRMM SECON CODA AMPLIT PERI AZIMU VELO AIN AR TRES W  DIS CAZ7
 HRS     IPg  0A   328  5.75                                           31.0 124 
 TBZ     IPg  0A   328 10.32                                           59.1 243 
 MRD     IPg  0A   328 16.65                                           95.1 286 
 SHB     IPg  0A   328 17.41                                            101 258 
 SRB     IPg  0A   328 18.01                                            108 131 
 SRB     ESg  0A   328 32.35                                            108 131 
 MRD      IAML A   328 16.45       130.1                                        
                                                                                

 2012  812  410 44.3 L  38.424  46.877 26.2       4 0.0 2.5L                   1
 GAP=202                   4.6     3.6  4.9                                    E
 Action:ARG 24-03-13 15:57 OP:OBSP STATUS:               ID:20120812041044     I
 STAT SP IPHASW D HRMM SECON CODA AMPLIT PERI AZIMU VELO AIN AR TRES W  DIS CAZ7
 HRS     IPg  0A   410 49.80                                           17.1 124 
 HRS     ESg  0A   410 53.62                                           17.1 124 
 TBZ     IPg  0A   410 55.96                                           66.7 253 
 TBZ     ESg  0A   411  4.20                                           66.7 253 
 MRD     IPg  0A   411  1.96                                            108 288 
 MRD     ESg  0A   411 15.90                                            108 288 
 SHB     IPg  0A   411  3.00                                            111 263 
 SHB     ESg  0A   411 17.40                                            111 263 
 TBZ      IAML A   410 56.10       274.8                                        
 HRS      IAML A   410 50.00      1547.6                                        
                                                                                

 2012  812  435 39.2 L  38.489  46.737 14.6       4 0.0 2.6L                   1
 GAP=200                   3.5     2.7 10.0                                    E
 Action:ARG 24-03-13 15:57 OP:OBSP STATUS:               ID:20120812043539     I
 STAT SP IPHASW D HRMM SECON CODA AMPLIT PERI AZIMU VELO AIN AR TRES W  DIS CAZ7
 HRS     IPg  0A   435 45.31                                           32.4 124 
 HRS     ESg  0A   435 50.07                                           32.4 124 
 TBZ     IPg  0A   435 49.09                                           58.3 241 
 TBZ     ESg  0A   435 56.49                                           58.3 241 
 MRD     IPg  0A   435 55.41                                           93.8 286 
 MRD     ESg  0A   436  6.79                                           93.8 286 
 SHB     IPg  0A   435 56.21                                            100 257 
 SHB     ESg  0A   436  9.95                                            100 257 
 TBZ      IAML A   435 49.81       417.0                                        
                                                                                

 2012  812  440 40.3 L  38.433  46.755 14.5       5 0.0 2.9L                   1
 GAP=188                   3.0     2.4  6.9                                    E
 Action:ARG 24-03-13 15:57 OP:OBSP STATUS:               ID:20120812044040     I
 STAT SP IPHASW D HRMM SECON CODA AMPLIT PERI AZIMU VELO AIN AR TRES W  DIS CAZ7
 HRS     IPg  0A   440 45.73                                           28.2 115 
 HRS     ESg  0A   440 49.88                                           28.2 115 
 TABZ    IPg  0A   440 50.71                                           55.6 222 
 TBZ     IPg  0A   440 50.17                                           56.9 248 
 TBZ     ESg  0A   440 57.63                                           56.9 248 
 MRD     IPg  0A   440 56.35                                           96.9 289 
 MRD     ESg  0A   441  9.91                                           96.9 289 
 SHB     IPg  0A   440 57.45                                            100 261 
 SHB     ESg  0A   441 10.11                                            100 261 
 SHB      IAML A   440 57.76       378.5                                        
                                                                                

 2012  812  513 20.4 L  38.466  46.858 13.9       4 0.0 2.3L                   1
 GAP=210                   3.0     2.3  6.2                                    E
 Action:ARG 24-03-13 15:57 OP:OBSP STATUS:               ID:20120812051320     I
 STAT SP IPHASW D HRMM SECON CODA AMPLIT PERI AZIMU VELO AIN AR TRES W  DIS CAZ7
 HRS     IPg  0A   513 25.11                                           24.3 137 
 HRS     ESg  0A   513 28.37                                           24.3 137 
 TBZ     IPg  0A   513 31.90                                           67.5 246 
 TBZ     ESg  0A   513 40.20                                           67.5 246 
 MRD     IPg  0A   513 38.16                                            103 284 
 MRD     ESg  0A   513 50.92                                            103 284 
 SHB     IPg  0A   513 39.34                                            110 258 
 SHB     ESg  0A   513 53.70                                            110 258 
 TBZ      IAML A   513 32.13       170.6                                        
 MRD      IAML A   513 38.09        90.2                                        
                                                                                

 2012  812  517 55.8 L  38.320  46.842 18.3       4 0.0 2.2L                   1
 GAP=171                   8.0     6.3  6.1                                    E
 Action:ARG 24-03-13 15:57 OP:OBSP STATUS:               ID:20120812051755     I
 STAT SP IPHASW D HRMM SECON CODA AMPLIT PERI AZIMU VELO AIN AR TRES W  DIS CAZ7
 HRS     IPg  0A   517 59.35                                           9.59  84 
 HRS     ESg  0A   518  2.77                                           9.59  84 
 TBZ     IPg  0A   518  5.60                                           69.1 263 
 SHB     IPg  0A   518 13.20                                            115 268 
 SHB     ESg  0A   518 26.92                                            115 268 
 MRD     IPg  0A   518 12.40                                            116 293 
 MRD     ESg  0A   518 27.60                                            116 293 
 TBZ      IAML A   518  5.79       131.1                                        
                                                                                

 2012  812  537 55.5 L  38.427  46.791 15.5       4 0.0 2.2L                   1
 GAP=190                   2.7     2.1  5.5                                    E
 Action:ARG 24-03-13 15:57 OP:OBSP STATUS:               ID:20120812053755     I
 STAT SP IPHASW D HRMM SECON CODA AMPLIT PERI AZIMU VELO AIN AR TRES W  DIS CAZ7
 HRS     IPg  0A   538  0.51                                           25.9 118 
 HRS     ESg  0A   538  4.56                                           25.9 118 
 TBZ     IPg  0A   538  5.63                                           59.4 248 
 TBZ     ESg  0A   538 13.47                                           59.4 248 
 MRD     IPg  0A   538 12.05                                           99.4 288 
 MRD     ESg  0A   538 25.51                                           99.4 288 
 SHB     IPg  0A   538 13.09                                            103 261 
 SHB     ESg  0A   538 26.59                                            103 261 
 SHB      IAML A   538 13.61        72.6                                        
                                                                                

 2012  812  6 3 57.5 L  38.468  46.798 14.8       4 0.0 2.6L                   1
 GAP=202                   2.9     2.3  6.7                                    E
 Action:ARG 24-03-13 15:57 OP:OBSP STATUS:               ID:20120812060357     I
 STAT SP IPHASW D HRMM SECON CODA AMPLIT PERI AZIMU VELO AIN AR TRES W  DIS CAZ7
 HRS     IPg  0A   6 4  2.91                                           27.1 125 
 HRS     ESg  0A   6 4  6.83                                           27.1 125 
 TBZ     IPg  0A   6 4  8.00                                           61.4 246 
 TBZ     ESg  0A   6 4 16.04                                           61.4 246 
 MRD     IPg  0A   6 4 14.12                                           99.0 286 
 MRD     ESg  0A   6 4 27.42                                           99.0 286 
 SHB     IPg  0A   6 4 15.10                                            104 259 
 SHB     ESg  0A   6 4 29.06                                            104 259 
 MRD      IAML A   6 4 14.53       193.9                                        
 SHB      IAML A   6 4 15.40       178.6                                        
                                                                                

 2012  812  617 49.5 L  38.447  46.852 16.8       5 0.0 2.6L                   1
 GAP=204                   3.1     2.4  2.7                                    E
 Action:ARG 24-03-13 15:57 OP:OBSP STATUS:               ID:20120812061749     I
 STAT SP IPHASW D HRMM SECON CODA AMPLIT PERI AZIMU VELO AIN AR TRES W  DIS CAZ7
 HRS     IPg  0A   617 54.19                                           22.5 128 
 HRS     ESg  0A   617 57.93                                           22.5 128 
 TBZ     IPg  0A   618  0.69                                           64.8 249 
 TBZ     ESg  0A   618  9.19                                           64.8 249 
 MRD     IPg  0A   618  6.96                                            103 287 
 MRD     ESg  0A   618 20.96                                            103 287 
 SHB     IPg  0A   618  7.83                                            108 260 
 SHB     ESg  0A   618 22.42                                            108 260 
 AZR     IPg  0A   618  8.81                                            113 221 
 MRD      IAML A   618  7.92       180.5                                        
 TBZ      IAML A   618  1.45       360.2                                        
                                                                                

