 2012  811 1223 15.3 L  38.417  46.814  5.3      15 0.0 6.5L                   1
 GAP=76                    1.7     1.3  3.0                                    E
 Action:ARG 24-03-13 15:57 OP:OBSP STATUS:               ID:20120811122315     I
 STAT SP IPHASW D HRMM SECON CODA AMPLIT PERI AZIMU VELO AIN AR TRES W  DIS CAZ7
 HRS     IPg  0A  1223 19.51                                           23.1 118 
 TBZ     IPg  0A  1223 26.20                                           61.1 250 
 BST     IPg  0A  1223 28.66                                           79.7 174 
 ORD     IPg  0A  1223 30.70                                           91.0 308 
 MRD     IPg  0A  1223 32.20                                            102 289 
 GRMI    IPg  0A  1223 32.55                                            104  64 
 SHB     IPg  0A  1223 33.34                                            105 262 
 LRK     IPg  0A  1223 37.80                                            135  78 
 NAX     IPg  0A  1223 38.70                                            141 306 
 GLBA    IPg  0A  1223 43.80                                            165  55 
 BRDA    IPn  0A  1223 50.20                                            207   8 
 SAAT    IPn  0A  1223 49.40                                            212  40 
 ZRD     IPn  0A  1223 52.10                                            220  19 
 GANJ    IPn  0A  1223 54.70                                            251 350 
 ZNJK    IPn  0A  1223 55.20                                            254 138 
 TBZ      IAML A  1223 26.02      31.1e5                                        
 SHB      IAML A  1223 33.17      14.0e5                                        
 NAX      IAML A  1223 39.06      85.7e4                                        
 GLBA     IAML A  1223 43.43      65.2e4                                        
 ZNJK     IAML A  1223 56.32      27.3e4                                        
 MRD      IAML A  1223 32.59      14.7e5                                        
                                                                                

 2012  811 1228 46.1 L  38.434  46.758 19.0       5 0.0 3.5L                   1
 GAP=189                   5.3     4.2  4.4                                    E
 Action:ARG 24-03-13 15:57 OP:OBSP STATUS:               ID:20120811122846     I
 STAT SP IPHASW D HRMM SECON CODA AMPLIT PERI AZIMU VELO AIN AR TRES W  DIS CAZ7
 HRS     IPg  0A  1228 51.99                                           27.5 120 
 TBZ     IPg  0A  1228 56.26                                           59.1 247 
 BST     IPg  0A  1229  0.16                                           83.2 172 
 MRD     IPg  0A  1229  2.27                                           97.9 288 
 SHB     IPg  0A  1229  3.64                                            102 260 
 BST      IAML A  1229  0.21      2001.9                                        
 TBZ      IAML A  1228 56.92      3249.7                                        
                                                                                

 2012  811 1249 15.3 L  38.395  46.683  1.8      12 0.0 4.6L                   1
 GAP=82                    1.2     0.9  4.0                                    E
 Action:ARG 24-03-13 15:57 OP:OBSP STATUS:               ID:20120811124915     I
 STAT SP IPHASW D HRMM SECON CODA AMPLIT PERI AZIMU VELO AIN AR TRES W  DIS CAZ7
 HRS     IPg  0A  1249 21.23                                           32.1 104 
 HRS     ESg  0A  1249 25.91                                           32.1 104 
 TBZ     IPg  0A  1249 23.92                                           50.3 249 
 BST     IPg  0A  1249 29.06                                           78.9 167 
 MRD     IPg  0A  1249 30.69                                           93.1 292 
 SHB     IPg  0A  1249 31.48                                           94.3 262 
 SHB     ESg  0A  1249 43.98                                           94.3 262 
 SRB     IPg  0A  1249 33.24                                            106 126 
 LRK     IPg  0A  1249 40.00                                            146  78 
 GLBA    IPg  0A  1249 45.20                                            175  56 
 ASTR    IPg  0A  1249 46.40                                            184  83 
 BRDA    IPn  0A  1249 50.90                                            212  11 
 SAAT    IPn  0A  1249 50.60                                            221  42 
 GNI     IPn  0A  1249 56.00                                            257 319 
 BRDA     IAML A  1249 49.86      5090.9                                        
 MRD      IAML A  1249 31.66     21312.7                                        
 SHB      IAML A  1249 31.74     20879.6                                        
 HRS      IAML A  1249 21.44     90707.1                                        
 GLBA     IAML A  1249 44.54      7350.0                                        
                                                                                

 2012  811 1314  5.4 L  38.400  46.673  7.4      18 0.0 4.4L                   1
 GAP=82                    1.5     1.2  2.4                                    E
 Action:ARG 24-03-13 15:57 OP:OBSP STATUS:               ID:20120811131405     I
 STAT SP IPHASW D HRMM SECON CODA AMPLIT PERI AZIMU VELO AIN AR TRES W  DIS CAZ7
 HRS     IPg  0A  1314 11.23                                           33.2 103 
 TBZ     IPg  0A  1314 14.01                                           48.8 249 
 BST     IPg  0A  1314 19.07                                           78.6 165 
 MRD     IPg  0A  1314 20.65                                           92.1 293 
 SHB     IPg  0A  1314 21.38                                           93.0 263 
 SRB     IPg  0A  1314 23.16                                            107 125 
 GRMI    IPg  2A  1314 24.77                                            116  65 
 NAX     IPg  0A  1314 28.40                                            134 310 
 LRK     IPg  0A  1314 30.40                                            148  78 
 SBZ     IPg  0A  1314 30.00                                            148 319 
 GLBA    IPg  0A  1314 35.40                                            177  57 
 ASTR    IPg  0A  1314 36.40                                            185  83 
 MAKU    IPn  2A  1314 37.85                                            203 302 
 SAAT    IPn  0A  1314 40.70                                            222  42 
 ZRD     IPn  0A  1314 42.00                                            227  22 
 GANJ    IPn  0A  1314 44.70                                            252 353 
 GNI     IPn  2A  1314 47.40                                            257 320 
 ZNJK    IPn  2A  1314 46.49                                            260 136 
 ASTR     IAML A  1314 36.67      4162.6                                        
 BST      IAML A  1314 18.69     17264.0                                        
 TBZ      IAML A  1314 13.84     33357.1                                        
 ZRD      IAML A  1314 42.89      2777.9                                        
 SHB      IAML A  1314 21.18     13471.8                                        
 SAAT     IAML A  1314 42.45      2896.7                                        
 GRMI     IAML A  1314 25.24      9500.4                                        
                                                                                

 2012  811 1323 15.7 L  38.463  46.701 10.0       6 0.0 3.7L                   1
 GAP=142                   4.9     3.8 44.6                                    E
 Action:ARG 24-03-13 15:57 OP:OBSP STATUS:               ID:20120811132315     I
 STAT SP IPHASW D HRMM SECON CODA AMPLIT PERI AZIMU VELO AIN AR TRES W  DIS CAZ7
 HRS     IPg  0A  1323 20.93                                           34.0 122 
 BST     IPg  0A  1323 29.91                                           88.1 169 
 MRD     IPg  0A  1323 30.00                                           91.9 286 
 SHB     IPg  0A  1323 31.79                                           98.3 257 
 GRMI    IPg  2A  1323 34.20                                            109  70 
 SRB     IPg  0A  1323 33.09                                            110 130 
 GRMI     IAML A  1323 33.15      2100.6                                        
 SRB      IAML A  1323 33.58      2049.3                                        
                                                                                

 2012  811 1342 11.3 L  38.410  46.685  1.8      17 0.0 4.0L                   1
 GAP=80                    1.3     1.0  5.7                                    E
 Action:ARG 24-03-13 15:57 OP:OBSP STATUS:               ID:20120811134211     I
 STAT SP IPHASW D HRMM SECON CODA AMPLIT PERI AZIMU VELO AIN AR TRES W  DIS CAZ7
 HRS     IPg  0A  1342 17.03                                           33.3 107 
 HRS     ESg  0A  1342 22.31                                           33.3 107 
 TBZ     IPg  0A  1342 20.34                                           50.1 247 
 BST     IPg  0A  1342 25.21                                           80.6 166 
 ORD     IPg  0A  1342 25.10                                           83.1 314 
 MRD     IPg  0A  1342 27.35                                           91.8 292 
 SHB     IPg  0A  1342 27.42                                           93.8 261 
 SRB     IPg  0A  1342 29.22                                            107 126 
 NAX     IPg  0A  1342 33.80                                            133 309 
 SBZ     IPg  0A  1342 35.80                                            147 318 
 LRK     IPg  2A  1342 35.80                                            147  79 
 GLBA    IPg  0A  1342 41.10                                            175  57 
 ASTR    IPg  0A  1342 42.40                                            185  84 
 LKRN    IPg  0A  1342 42.50                                            186  78 
 BRDA    IPn  0A  1342 47.10                                            210  11 
 SAAT    IPn  0A  1342 46.90                                            221  42 
 GANJ    IPn  0A  1342 51.10                                            250 353 
 GNI     IPn  2A  1342 53.20                                            254 319 
 MRD      IAML A  1342 27.39      5469.7                                        
 LRK      IAML A  1342 35.98      2539.4                                        
 TBZ      IAML A  1342 20.42     12840.1                                        
 GLBA     IAML A  1342 40.49      1850.0                                        
 GNI      IAML A  1342 51.18       857.3                                        
 ASTR     IAML A  1342 41.72      1670.2                                        
                                                                                

 2012  811 1414 54.9 L  38.320  46.360 10.0       5 0.0 2.8L                   1
 GAP=143                   1.8     1.4  9.6                                    E
 Action:ARG 24-03-13 15:57 OP:OBSP STATUS:               ID:20120811141454     I
 STAT SP IPHASW D HRMM SECON CODA AMPLIT PERI AZIMU VELO AIN AR TRES W  DIS CAZ7
 HRS     IPg  0A  1415  1.13                                           35.7 122 
 HRS     ESg  0A  1415  6.43                                           35.7 122 
 TBZ     IPg  0A  1415  3.57                                           55.5 239 
 BST     IPg  0A  1415  8.72                                           89.2 168 
 BST     ESg  0A  1415 19.80                                           89.2 168 
 MRD     IPg  0A  1415  8.42                                           90.2 286 
 SHB     IPg  0A  1415 10.53                                           96.9 256 
 MRD      IAML A  1415  9.26       354.4                                        
                                                                                

 2012  811 1425 15.5 L  38.425  46.665  5.3      10 0.0 4.3L                   1
 GAP=109                   1.8     1.4  4.9                                    E
 Action:ARG 24-03-13 15:57 OP:OBSP STATUS:               ID:20120811142515     I
 STAT SP IPHASW D HRMM SECON CODA AMPLIT PERI AZIMU VELO AIN AR TRES W  DIS CAZ7
 HRS     IPg  0A  1425 21.35                                           34.5 113 
 HRS     ESg  0A  1425 26.27                                           34.5 113 
 TBZ     IPg  0A  1425 24.13                                           51.7 243 
 BST     IPg  0A  1425 29.13                                           84.2 167 
 BST     ESg  0A  1425 40.51                                           84.2 167 
 MRD     IPg  0A  1425 30.57                                           90.5 289 
 SHB     IPg  0A  1425 31.44                                           94.5 259 
 SRB     IPg  0A  1425 33.29                                            110 128 
 GRMI    IPg  2A  1425 34.95                                            113  68 
 MAKU    IPn  2A  1425 48.11                                            200 300 
 GNI     IPn  0A  1425 57.00                                            253 319 
 ZNJK    IPn  2A  1425 56.43                                            264 137 
 SRB      IAML A  1425 33.79      8230.5                                        
 GNI      IAML A  1425 54.77      1753.1                                        
 TBZ      IAML A  1425 24.21     24554.1                                        
 MRD      IAML A  1425 30.80     11144.6                                        
                                                                                

 2012  811 1455 57.1 L  38.441  46.751 10.6       6 0.0 3.1L                   1
 GAP=190                   2.6     2.0  9.9                                    E
 Action:ARG 24-03-13 15:57 OP:OBSP STATUS:               ID:20120811145557     I
 STAT SP IPHASW D HRMM SECON CODA AMPLIT PERI AZIMU VELO AIN AR TRES W  DIS CAZ7
 HRS     IPg  0A  1456  2.39                                           29.5 118 
 HRS     ESg  0A  1456  6.53                                           29.5 118 
 TBZ     IPg  0A  1456  6.75                                           57.0 246 
 TBZ     ESg  0A  1456 13.67                                           57.0 246 
 BST     IPg  0A  1456 10.95                                           83.4 171 
 BST     ESg  0A  1456 22.37                                           83.4 171 
 MRD     IPg  0A  1456 13.71                                           95.8 288 
 SHB     IPg  0A  1456 14.52                                            100 260 
 SRB     IPg  0A  1456 14.46                                            105 130 
 SHB      IAML A  1456 14.02       603.0                                        
 SRB      IAML A  1456 14.85       552.8                                        
                                                                                

 2012  811 1521 14.5 L  38.426  46.800  1.8      20 0.0 4.7L                   1
 GAP=110                   2.0     1.6  6.7                                    E
 Action:ARG 24-03-13 15:57 OP:OBSP STATUS:               ID:20120811152114     I
 STAT SP IPHASW D HRMM SECON CODA AMPLIT PERI AZIMU VELO AIN AR TRES W  DIS CAZ7
 HRS     IPg  0A  1521 19.53                                           25.1 119 
 TBZ     IPg  0A  1521 25.34                                           60.3 249 
 ORD     IPg  2A  1521 29.20                                           88.9 308 
 MRD     IPg  0A  1521 31.27                                            100 288 
 SRB     IPg  0A  1521 31.52                                            101 131 
 SHB     IPg  0A  1521 32.40                                            104 261 
 GRMI    IPg  2A  1521 32.43                                            104  66 
 LRK     IPg  0A  1521 37.70                                            137  79 
 SBZ     IPg  0A  1521 39.60                                            152 315 
 GLBA    IPg  0A  1521 42.90                                            165  56 
 ASTR    IPg  0A  1521 43.20                                            175  84 
 LKRN    IPg  0A  1521 43.80                                            176  79 
 BRDA    IPn  0A  1521 49.60                                            206   9 
 MAKU    IPn  2A  1521 48.14                                            210 299 
 SAAT    IPn  2A  1521 48.30                                            212  41 
 ZRD     IPn  0A  1521 50.70                                            219  20 
 GANJ    IPn  0A  1521 53.70                                            247 350 
 ZNJK    IPn  2A  1521 54.65                                            257 138 
 GNI     IPn  0A  1521 56.70                                            260 317 
 VANB    IPn  0A  1522  1.30                                            297 274 
 MRD      IAML A  1521 31.44     23962.1                                        
 GRMI     IAML A  1521 32.56     22367.0                                        
 LRK      IAML A  1521 37.56     14420.9                                        
 SHB      IAML A  1521 32.03     22621.9                                        
 GANJ     IAML A  1521 52.75      4544.1                                        
 ZRD      IAML A  1521 49.05      5980.0                                        
 ORD      IAML A  1521 29.59     28748.4                                        
 SRB      IAML A  1521 32.15     23416.4                                        
                                                                                

