 2012  811 16 0 50.4 L  38.397  46.769 11.1      19 0.0 4.0L                   1
 GAP=79                    1.4     1.1  1.8                                    E
 Action:ARG 24-03-13 15:57 OP:OBSP STATUS:               ID:20120811160050     I
 STAT SP IPHASW D HRMM SECON CODA AMPLIT PERI AZIMU VELO AIN AR TRES W  DIS CAZ7
 HRS     IPg  0A  16 0 55.23                                           25.3 114 
 HRS     ESg  0A  16 0 58.95                                           25.3 114 
 TBZ     IPg  0A  16 1  0.75                                           58.5 250 
 BST     IPg  0A  16 1  3.78                                           79.6 172 
 ORD     IPg  0A  16 1  4.90                                           89.2 310 
 MRD     IPg  0A  16 1  6.97                                           99.7 289 
 SRB     IPg  0A  16 1  7.11                                            101 129 
 SHB     IPg  0A  16 1  7.86                                            102 262 
 GRMI    IPg  0A  16 1  8.31                                            106  65 
 LRK     IPg  0A  16 1 13.60                                            138  78 
 NAX     IPg  0A  16 1 13.50                                            140 307 
 SBZ     IPg  0A  16 1 16.00                                            152 316 
 GLBA    IPg  0A  16 1 18.70                                            167  56 
 ASTR    IPg  0A  16 1 19.40                                            176  84 
 BRDA    IPn  0A  16 1 25.30                                            208   9 
 MAKU    IPn  0A  16 1 24.02                                            210 300 
 SAAT    IPn  0A  16 1 24.60                                            214  40 
 ZRD     IPn  0A  16 1 26.70                                            221  20 
 GANJ    IPn  0A  16 1 29.90                                            251 351 
 ZNJK    IPn  0A  16 1 29.83                                            256 138 
 SHB      IAML A  16 1  7.95      4616.4                                        
 NAX      IAML A  16 1 13.76      2770.2                                        
 MRD      IAML A  16 1  7.60      4817.4                                        
 SRB      IAML A  16 1  7.41      4697.7                                        
 BST      IAML A  16 1  4.01      6755.9                                        
 GANJ     IAML A  16 1 29.04       892.6                                        
 ASTR     IAML A  16 1 18.86      1830.8                                        
 TBZ      IAML A  16 1  0.86     10428.8                                        
                                                                                

 2012  811 1615  4.1 L  38.418  46.672 14.3       6 0.0 2.7L                   1
 GAP=178                   1.4     1.1  4.6                                    E
 Action:ARG 24-03-13 15:57 OP:OBSP STATUS:               ID:20120811161504     I
 STAT SP IPHASW D HRMM SECON CODA AMPLIT PERI AZIMU VELO AIN AR TRES W  DIS CAZ7
 HRS     IPg  0A  1615 10.18                                           34.0 109 
 HRS     ESg  0A  1615 15.43                                           34.0 109 
 TBZ     IPg  0A  1615 12.54                                           50.5 245 
 TBZ     ESg  0A  1615 19.38                                           50.5 245 
 BST     IPg  0A  1615 17.63                                           82.3 166 
 BST     ESg  0A  1615 28.81                                           82.3 166 
 MRD     IPg  0A  1615 19.48                                           90.9 291 
 SHB     IPg  0A  1615 20.46                                           93.8 260 
 SHB     ESg  0A  1615 32.05                                           93.8 260 
 SRB     IPg  0A  1615 22.53                                            109 127 
 SHB      IAML A  1615 20.12       265.4                                        
 TBZ      IAML A  1615 13.28       636.6                                        
 MRD      IAML A  1615 19.62       278.0                                        
                                                                                

 2012  811 1621 53.2 L  38.405  46.660 10.3      10 0.0 4.1L                   1
 GAP=126                   1.7     1.3  3.1                                    E
 Action:ARG 24-03-13 15:57 OP:OBSP STATUS:               ID:20120811162153     I
 STAT SP IPHASW D HRMM SECON CODA AMPLIT PERI AZIMU VELO AIN AR TRES W  DIS CAZ7
 HRS     IPg  0A  1621 59.43                                           34.9 107 
 TBZ     IPg  0A  1622  1.74                                           48.9 246 
 BST     IPg  0A  1622  6.86                                           81.5 165 
 MRD     IPg  0A  1622  8.33                                           90.1 292 
 SHB     IPg  0A  1622  9.20                                           92.3 261 
 SRB     IPg  0A  1622 11.16                                            109 126 
 GRMI    IPg  0A  1622 12.98                                            116  67 
 MAKU    IPg  0A  1622 25.75                                            201 301 
 GNI     IPn  2A  1622 34.70                                            254 319 
 ZNJK    IPn  0A  1622 34.10                                            263 136 
 SRB      IAML A  1622 11.40      5240.0                                        
 GNI      IAML A  1622 31.47      1092.9                                        
 MAKU     IAML A  1622 24.91      1789.3                                        
 HRS      IAML A  1621 59.91     25768.5                                        
                                                                                

 2012  811 1634 32.7 L  38.429  46.664  9.8       9 0.0 3.3L                   1
 GAP=128                   1.0     0.8  2.2                                    E
 Action:ARG 24-03-13 15:57 OP:OBSP STATUS:               ID:20120811163432     I
 STAT SP IPHASW D HRMM SECON CODA AMPLIT PERI AZIMU VELO AIN AR TRES W  DIS CAZ7
 HRS     IPg  0A  1634 38.77                                           35.4 111 
 HRS     ESg  0A  1634 43.74                                           35.4 111 
 TBZ     IPg  0A  1634 41.18                                           50.3 243 
 BST     IPg  0A  1634 46.37                                           83.9 166 
 BST     ESg  0A  1634 57.55                                           83.9 166 
 MRD     IPg  0A  1634 47.88                                           89.6 290 
 SHB     IPg  0A  1634 48.63                                           93.1 259 
 SRB     IPg  0A  1634 50.86                                            110 127 
 GRMI    IPg  0A  1634 52.18                                            114  68 
 MAKU    IPg  0A  1635  5.19                                            200 301 
 ZNJK    IPn  0A  1635 13.71                                            265 137 
 BST      IAML A  1634 47.21      1248.1                                        
 MRD      IAML A  1634 47.74      1131.7                                        
 SRB      IAML A  1634 51.45       816.5                                        
 GRMI     IAML A  1634 52.15       770.1                                        
                                                                                

 2012  811 1737 58.5 L  38.395  46.858 18.9       5 0.0 2.1L                   1
 GAP=189                   2.1     1.6  1.6                                    E
 Action:ARG 24-03-13 15:57 OP:OBSP STATUS:               ID:20120811173758     I
 STAT SP IPHASW D HRMM SECON CODA AMPLIT PERI AZIMU VELO AIN AR TRES W  DIS CAZ7
 HRS     IPg  0A  1738  2.86                                           17.6 124 
 HRS     ESg  0A  1738  6.55                                           17.6 124 
 TBZ     IPg  0A  1738  9.71                                           66.4 253 
 TBZ     ESg  0A  1738 17.71                                           66.4 253 
 BST     IPg  0A  1738 11.69                                           78.6 179 
 BST     ESg  0A  1738 21.86                                           78.6 179 
 MRD     IPg  0A  1738 16.21                                            107 288 
 SHB     IPg  0A  1738 16.79                                            110 263 
 SHB     ESg  0A  1738 31.18                                            110 263 
 SHB      IAML A  1738 16.79        51.4                                        
                                                                                

 2012  811 1745 43.9 L  38.414  46.817 15.8       6 0.0 2.5L                   1
 GAP=190                   2.8     2.2  4.0                                    E
 Action:ARG 24-03-13 15:57 OP:OBSP STATUS:               ID:20120811174543     I
 STAT SP IPHASW D HRMM SECON CODA AMPLIT PERI AZIMU VELO AIN AR TRES W  DIS CAZ7
 HRS     IPg  0A  1745 47.95                                           23.4 116 
 HRS     ESg  0A  1745 52.91                                           23.4 116 
 TABZ    IPg  2A  1745 54.50                                           57.4 226 
 TBZ     IPg  0A  1745 54.33                                           60.4 251 
 TBZ     ESg  0A  1746  2.27                                           60.4 251 
 BST     IPg  0A  1745 57.28                                           79.4 174 
 BST     ESg  0A  1746  7.76                                           79.4 174 
 MRD     IPg  0A  1746  1.45                                            101 289 
 SHB     IPg  0A  1746  1.77                                            104 262 
 SHB     ESg  0A  1746 15.73                                            104 262 
 TABZ     IAML A  1745 54.09       338.1                                        
 TBZ      IAML A  1745 54.64       315.1                                        
                                                                                

 2012  811 1749 25.2 L  38.433  46.825 16.6       7 0.0 2.6L                   1
 GAP=196                   1.4     1.1  1.0                                    E
 Action:ARG 24-03-13 15:57 OP:OBSP STATUS:               ID:20120811174925     I
 STAT SP IPHASW D HRMM SECON CODA AMPLIT PERI AZIMU VELO AIN AR TRES W  DIS CAZ7
 HRS     IPg  0A  1749 30.05                                           22.3 120 
 HRS     ESg  0A  1749 33.63                                           22.3 120 
 TABZ    IPg  0A  1749 35.94                                           59.2 227 
 TBZ     IPg  0A  1749 36.31                                           62.3 250 
 TBZ     ESg  0A  1749 44.72                                           62.3 250 
 BST     IPg  0A  1749 39.01                                           80.1 175 
 BST     ESg  0A  1749 48.72                                           80.1 175 
 SRB     IPg  0A  1749 42.07                                           99.1 131 
 SRB     ESg  0A  1749 55.15                                           99.1 131 
 MRD     IPg  0A  1749 42.70                                            102 288 
 MRD     ESg  0A  1749 55.46                                            102 288 
 SHB     IPg  0A  1749 43.49                                            106 262 
 SRB      IAML A  1749 42.56       193.7                                        
 TABZ     IAML A  1749 36.27       407.8                                        
 HRS      IAML A  1749 30.53      1414.4                                        
                                                                                

 2012  811 1758 33.1 L  38.367  46.802 13.1       9 0.0 4.1L                   1
 GAP=105                   2.0     1.6  3.5                                    E
 Action:ARG 24-03-13 15:57 OP:OBSP STATUS:               ID:20120811175833     I
 STAT SP IPHASW D HRMM SECON CODA AMPLIT PERI AZIMU VELO AIN AR TRES W  DIS CAZ7
 HRS     IPg  0A  1758 37.17                                           21.5 106 
 TBZ     IPg  0A  1758 43.58                                           59.6 255 
 BST     IPg  0A  1758 45.85                                           75.1 174 
 BST     ESg  0A  1758 55.43                                           75.1 174 
 SRB     IPg  0A  1758 49.16                                           96.8 128 
 MRD     IPg  0A  1758 50.09                                            103 291 
 SHB     IPg  0A  1758 50.91                                            104 264 
 GRMI    IPg  0A  1758 51.33                                            106  62 
 MAKU    IPn  0A  1759  7.05                                            214 301 
 GNI     IPn  0A  1759 15.40                                            266 318 
 GRMI     IAML A  1758 51.43      5487.1                                        
 BST      IAML A  1758 46.08      9245.0                                        
 MRD      IAML A  1758 50.50      5723.4                                        
                                                                                

 2012  811 1813  3.1 L  38.412  46.648 11.5       9 0.0 3.0L                   1
 GAP=126                   2.2     1.7  4.0                                    E
 Action:ARG 24-03-13 15:57 OP:OBSP STATUS:               ID:20120811181303     I
 STAT SP IPHASW D HRMM SECON CODA AMPLIT PERI AZIMU VELO AIN AR TRES W  DIS CAZ7
 HRS     IPg  0A  1813  9.19                                           34.4 103 
 TBZ     IPg  0A  1813 11.45                                           48.0 248 
 BST     IPg  0A  1813 16.77                                           79.5 165 
 MRD     IPg  0A  1813 18.10                                           90.8 293 
 SHB     IPg  0A  1813 18.96                                           91.9 262 
 SRB     IPg  0A  1813 20.96                                            108 125 
 GRMI    IPg  0A  1813 23.08                                            117  66 
 MAKU    IPn  0A  1813 35.57                                            202 302 
 ZNJK    IPn  0A  1813 44.50                                            262 136 
 GRMI     IAML A  1813 23.23       374.0                                        
 ZNJK     IAML A  1813 44.70        81.3                                        
 MAKU     IAML A  1813 36.83       140.7                                        
                                                                                

 2012  811 1821 44.6 L  38.428  46.695 17.9       6 0.0 2.6L                   1
 GAP=182                   1.5     1.2  1.5                                    E
 Action:ARG 24-03-13 15:57 OP:OBSP STATUS:               ID:20120811182144     I
 STAT SP IPHASW D HRMM SECON CODA AMPLIT PERI AZIMU VELO AIN AR TRES W  DIS CAZ7
 HRS     IPg  0A  1821 50.86                                           32.7 112 
 HRS     ESg  0A  1821 56.06                                           32.7 112 
 TBZ     IPg  0A  1821 53.79                                           52.6 245 
 TBZ     ESg  0A  1822  0.87                                           52.6 245 
 BST     IPg  0A  1821 58.70                                           83.0 168 
 BST     ESg  0A  1822  9.52                                           83.0 168 
 MRD     IPg  0A  1822  0.15                                           92.2 290 
 SHB     IPg  0A  1822  1.49                                           95.7 260 
 SRB     IPg  0A  1822  2.72                                            108 128 
 SRB     ESg  0A  1822 16.18                                            108 128 
 SHB      IAML A  1822  0.86       204.2                                        
 MRD      IAML A  1822  0.50       216.1                                        
                                                                                

 2012  811 1912  4.8 L  38.441  46.806 19.7       7 0.0 2.9L                   1
 GAP=196                   2.2     1.7  1.7                                    E
 Action:ARG 24-03-13 15:57 OP:OBSP STATUS:               ID:20120811191204     I
 STAT SP IPHASW D HRMM SECON CODA AMPLIT PERI AZIMU VELO AIN AR TRES W  DIS CAZ7
 HRS     IPg  0A  1912 10.02                                           25.0 123 
 HRS     ESg  0A  1912 14.26                                           25.0 123 
 TABZ    IPg  0A  1912 15.56                                           59.8 224 
 TABZ    ESg  0A  1912 23.94                                           59.8 224 
 TBZ     IPg  0A  1912 15.07                                           61.7 248 
 TBZ     ESg  0A  1912 22.93                                           61.7 248 
 BST     IPg  0A  1912 18.74                                           82.7 174 
 BST     ESg  0A  1912 28.80                                           82.7 174 
 MRD     IPg  0A  1912 21.23                                            100 287 
 MRD     ESg  0A  1912 35.03                                            100 287 
 SRB     IPg  0A  1912 22.20                                            101 132 
 SRB     ESg  0A  1912 34.88                                            101 132 
 SHB     IPg  0A  1912 22.15                                            105 260 
 SHB     ESg  0A  1912 36.09                                            105 260 
 MRD      IAML A  1912 21.62       376.9                                        
                                                                                

 2012  811 1929 29.7 L  38.430  46.752 19.1       6 0.0 2.6L                   1
 GAP=187                   2.6     2.0  2.3                                    E
 Action:ARG 24-03-13 15:57 OP:OBSP STATUS:               ID:20120811192929     I
 STAT SP IPHASW D HRMM SECON CODA AMPLIT PERI AZIMU VELO AIN AR TRES W  DIS CAZ7
 HRS     IPg  0A  1929 35.69                                           27.1 122 
 HRS     ESg  0A  1929 40.14                                           27.1 122 
 TABZ    IPg  2A  1929 39.82                                           58.9 222 
 TBZ     IPg  0A  1929 39.25                                           60.0 246 
 BST     IPg  0A  1929 43.44                                           83.7 173 
 BST     ESg  0A  1929 54.28                                           83.7 173 
 MRD     IPg  0A  1929 45.93                                           98.5 287 
 SHB     IPg  0A  1929 46.65                                            103 260 
 SHB     ESg  0A  1929 59.64                                            103 260 
 TABZ     IAML A  1929 40.06       410.8                                        
 SHB      IAML A  1929 46.95       181.8                                        
                                                                                

