 2012  812  629 57.8 L  38.396  46.712 18.3       4 0.0 1.7L                   1
 GAP=175                   5.8     4.5  5.7                                    E
 Action:ARG 24-03-13 15:57 OP:OBSP STATUS:               ID:20120812062957     I
 STAT SP IPHASW D HRMM SECON CODA AMPLIT PERI AZIMU VELO AIN AR TRES W  DIS CAZ7
 HRS     IPg  0A   630  3.67                                           26.3  96 
 HRS     ESg  0A   630  8.72                                           26.3  96 
 TBZ     IPg  0A   630  6.76                                           53.5 256 
 TBZ     ESg  0A   630 13.98                                           53.5 256 
 SHB     IPg  0A   630 13.94                                           98.7 266 
 SHB     ESg  0A   630 27.02                                           98.7 266 
 MRD     IPg  0A   630 13.46                                           99.7 294 
 MRD     ESg  0A   630 26.46                                           99.7 294 
 TBZ      IAML A   630  7.13        59.0                                        
 HRS      IAML A   630  3.91       146.2                                        
                                                                                

 2012  812  640 44.5 L  38.393  46.647  0.8      19 0.0 4.1L                   1
 GAP=52                    1.5     1.2  5.2                                    E
 Action:ARG 24-03-13 15:57 OP:OBSP STATUS:               ID:20120812064044     I
 STAT SP IPHASW D HRMM SECON CODA AMPLIT PERI AZIMU VELO AIN AR TRES W  DIS CAZ7
 HRS     IPg  0A   640 51.05                                           35.3 103 
 HRS     ESg  0A   640 56.55                                           35.3 103 
 TBZ     IPg  0A   640 53.06                                           47.1 248 
 BST     IPg  0A   640 58.38                                           79.6 164 
 MRD     IPg  0A   640 59.72                                           90.1 293 
 SHB     IPg  0A   641  0.31                                           91.0 262 
 AZR     IPg  0A   641  1.45                                           98.6 216 
 SRB     IPg  0A   641  2.89                                            108 125 
 GRMI    IPg  0A   641  4.20                                            117  66 
 LRK     IPg  0A   641  9.60                                            150  78 
 GLBA    IPg  0A   641 15.10                                            178  57 
 ASTR    IPg  0A   641 15.90                                            187  83 
 LKRN    IPg  0A   641 15.90                                            189  78 
 MAKU    IPn  0A   641 17.30                                            201 302 
 BRDA    IPn  0A   641 20.40                                            212  12 
 SAAT    IPn  0A   641 20.50                                            224  42 
 ZRD     IPn  0A   641 22.80                                            227  22 
 GANJ    IPn  0A   641 24.80                                            252 353 
 GNI     IPn  0A   641 26.30                                            254 320 
 ZNJK    IPn  0A   641 25.97                                            262 136 
 HRS      IAML A   640 51.64     25450.9                                        
 BRDA     IAML A   641 18.29      1597.7                                        
 SRB      IAML A   641  2.91      5279.1                                        
 GANJ     IAML A   641 23.15      1116.7                                        
 GRMI     IAML A   641  4.48      4653.6                                        
 ASTR     IAML A   641 15.12      2044.9                                        
 MAKU     IAML A   641 16.71      1782.6                                        
                                                                                

 2012  812  722 55.5 L  38.449  46.772 17.7       6 0.0 3.0L                   1
 GAP=194                   2.4     1.9  2.6                                    E
 Action:ARG 24-03-13 15:57 OP:OBSP STATUS:               ID:20120812072255     I
 STAT SP IPHASW D HRMM SECON CODA AMPLIT PERI AZIMU VELO AIN AR TRES W  DIS CAZ7
 HRS     IPg  0A   723  0.77                                           27.4 121 
 HRS     ESg  0A   723  5.54                                           27.4 121 
 TABZ    IPg  2A   723  6.35                                           58.3 222 
 TBZ     IPg  0A   723  5.79                                           59.4 246 
 TBZ     ESg  0A   723 13.69                                           59.4 246 
 MRD     IPg  0A   723 12.47                                           98.1 287 
 MRD     ESg  0A   723 23.95                                           98.1 287 
 SHB     IPg  0A   723 13.19                                            102 260 
 SHB     ESg  0A   723 26.31                                            102 260 
 AZR     IPg  0A   723 13.99                                            109 219 
 AZR     ESg  0A   723 27.59                                            109 219 
 TBZ      IAML A   723  6.38      1020.0                                        
 AZR      IAML A   723 13.98       413.3                                        
                                                                                

 2012  812  726 53.2 L  38.459  46.706 14.7       5 0.0 2.3L                   1
 GAP=190                   2.1     1.6  6.7                                    E
 Action:ARG 24-03-13 15:57 OP:OBSP STATUS:               ID:20120812072653     I
 STAT SP IPHASW D HRMM SECON CODA AMPLIT PERI AZIMU VELO AIN AR TRES W  DIS CAZ7
 HRS     IPg  0A   726 59.23                                           33.1 118 
 HRS     ESg  0A   727  4.28                                           33.1 118 
 TBZ     IPg  0A   727  2.43                                           55.2 242 
 TBZ     ESg  0A   727  9.59                                           55.2 242 
 MRD     IPg  0A   727  8.91                                           92.3 287 
 MRD     ESg  0A   727 20.65                                           92.3 287 
 SHB     IPg  0A   727 10.19                                           97.6 258 
 SHB     ESg  0A   727 22.13                                           97.6 258 
 AZR     IPg  0A   727 10.91                                            108 216 
 AZR     ESg  0A   727 25.57                                            108 216 
 MRD      IAML A   727  9.40       108.2                                        
 HRS      IAML A   726 59.42       436.5                                        
 TBZ      IAML A   727  3.35       224.7                                        
                                                                                

 2012  812  729 29.2 L  38.411  46.836 15.5       5 0.0 2.3L                   1
 GAP=191                   2.7     2.1  2.4                                    E
 Action:ARG 24-03-13 15:57 OP:OBSP STATUS:               ID:20120812072929     I
 STAT SP IPHASW D HRMM SECON CODA AMPLIT PERI AZIMU VELO AIN AR TRES W  DIS CAZ7
 HRS     IPg  0A   729 33.49                                           15.8 116 
 HRS     ESg  0A   729 37.08                                           15.8 116 
 TBZ     IPg  0A   729 39.91                                           66.0 255 
 TBZ     ESg  0A   729 48.25                                           66.0 255 
 MRD     IPg  0A   729 46.59                                            109 290 
 MRD     ESg  0A   730  0.70                                            109 290 
 SHB     IPg  0A   729 47.35                                            110 264 
 SHB     ESg  0A   730  1.62                                            110 264 
 AZR     IPg  0A   729 47.63                                            111 225 
 SHB      IAML A   729 47.33        81.3                                        
                                                                                

 2012  812  733  2.3 L  38.457  46.708 18.0       5 0.0 2.4L                   1
 GAP=190                   3.7     2.9  4.0                                    E
 Action:ARG 24-03-13 15:57 OP:OBSP STATUS:               ID:20120812073302     I
 STAT SP IPHASW D HRMM SECON CODA AMPLIT PERI AZIMU VELO AIN AR TRES W  DIS CAZ7
 HRS     IPg  0A   733  8.59                                           32.5 111 
 HRS     ESg  0A   733 13.88                                           32.5 111 
 TBZ     IPg  0A   733 11.37                                           52.2 246 
 TBZ     ESg  0A   733 18.45                                           52.2 246 
 MRD     IPg  0A   733 17.37                                           92.5 290 
 MRD     ESg  0A   733 31.15                                           92.5 290 
 SHB     IPg  0A   733 18.65                                           95.5 260 
 SHB     ESg  0A   733 32.11                                           95.5 260 
 AZR     IPg  0A   733 20.39                                            103 217 
 AZR     ESg  0A   733 33.45                                            103 217 
 AZR      IAML A   733 20.83       113.7                                        
 MRD      IAML A   733 19.00       135.8                                        
                                                                                

 2012  812  736 35.7 L  38.446  46.763 11.2       5 0.0 2.7L                   1
 GAP=193                   0.8     0.6  3.2                                    E
 Action:ARG 24-03-13 15:57 OP:OBSP STATUS:               ID:20120812073635     I
 STAT SP IPHASW D HRMM SECON CODA AMPLIT PERI AZIMU VELO AIN AR TRES W  DIS CAZ7
 HRS     IPg  0A   736 40.93                                           27.3 122 
 HRS     ESg  0A   736 44.88                                           27.3 122 
 TBZ     IPg  0A   736 45.93                                           59.9 246 
 TBZ     ESg  0A   736 53.43                                           59.9 246 
 MRD     IPg  0A   736 52.29                                           98.3 287 
 MRD     ESg  0A   737  4.19                                           98.3 287 
 SHB     IPg  0A   736 53.09                                            103 260 
 SHB     ESg  0A   737  6.71                                            103 260 
 AZR     IPg  0A   736 54.09                                            110 219 
 AZR     ESg  0A   737  7.87                                            110 219 
 MRD      IAML A   736 52.82       246.8                                        
 TBZ      IAML A   736 46.50       505.9                                        
 SHB      IAML A   736 53.54       229.5                                        
 AZR      IAML A   736 54.42       205.7                                        
                                                                                

 2012  812  8 1 20.2 L  38.418  46.798 17.8       5 0.0 2.9L                   1
 GAP=189                   1.9     1.5  1.8                                    E
 Action:ARG 24-03-13 15:57 OP:OBSP STATUS:               ID:20120812080120     I
 STAT SP IPHASW D HRMM SECON CODA AMPLIT PERI AZIMU VELO AIN AR TRES W  DIS CAZ7
 HRS     IPg  0A   8 1 25.33                                           22.4 119 
 HRS     ESg  0A   8 1 29.21                                           22.4 119 
 TBZ     IPg  0A   8 1 30.51                                           61.9 251 
 TBZ     ESg  0A   8 1 38.47                                           61.9 251 
 MRD     IPg  0A   8 1 36.49                                            102 288 
 MRD     ESg  0A   8 1 50.53                                            102 288 
 SHB     IPg  2A   8 1 38.17                                            106 262 
 SHB     ESg  0A   8 1 51.09                                            106 262 
 AZR     IPg  0A   8 1 38.77                                            110 222 
 AZR     ESg  0A   8 1 51.89                                            110 222 
 TBZ      IAML A   8 1 31.19       765.2                                        
 SHB      IAML A   8 1 37.88       347.8                                        
 MRD      IAML A   8 1 37.54       364.8                                        
 AZR      IAML A   8 1 38.68       327.7                                        
                                                                                

 2012  812  8 3 43.9 L  38.431  46.745 14.9       5 0.0 2.1L                   1
 GAP=187                   2.1     1.6  5.0                                    E
 Action:ARG 24-03-13 15:57 OP:OBSP STATUS:               ID:20120812080343     I
 STAT SP IPHASW D HRMM SECON CODA AMPLIT PERI AZIMU VELO AIN AR TRES W  DIS CAZ7
 HRS     IPg  0A   8 3 49.28                                           28.2 115 
 HRS     ESg  0A   8 3 53.84                                           28.2 115 
 TBZ     IPg  0A   8 3 53.34                                           56.9 248 
 TBZ     ESg  0A   8 4  0.96                                           56.9 248 
 MRD     IPg  0A   8 4  0.06                                           96.9 289 
 MRD     ESg  0A   8 4 12.60                                           96.9 289 
 SHB     IPg  0A   8 4  1.08                                            100 261 
 SHB     ESg  0A   8 4 13.88                                            100 261 
 AZR     IPg  0A   8 4  2.14                                            107 219 
 MRD      IAML A   8 4  0.27        63.4                                        
                                                                                

 2012  812 1015 33.6 L  38.442  46.728 11.6       9 0.0 3.3L                   1
 GAP=128                   1.2     0.9  1.6                                    E
 Action:ARG 24-03-13 15:57 OP:OBSP STATUS:               ID:20120812101533     I
 STAT SP IPHASW D HRMM SECON CODA AMPLIT PERI AZIMU VELO AIN AR TRES W  DIS CAZ7
 HRS     IPg  0A  1015 39.11                                           28.0 114 
 HRS     ESg  0A  1015 43.57                                           28.0 114 
 TBZ     IPg  0A  1015 43.26                                           56.5 248 
 BST     IPg  0A  1015 47.30                                           81.0 171 
 MRD     IPg  0A  1015 49.44                                           97.0 289 
 SHB     IPg  0A  1015 50.53                                            100 261 
 SHB     ESg  0A  1016  3.63                                            100 261 
 AZR     IPg  0A  1015 51.57                                            106 219 
 GRMI    IPg  0A  1015 52.22                                            108  66 
 MAKU    IPn  0A  1016  6.76                                            207 300 
 ZNJK    IPn  0A  1016 14.23                                            259 138 
 AZR      IAML A  1015 51.58       866.5                                        
 MRD      IAML A  1015 49.80      1003.5                                        
 SHB      IAML A  1015 50.38       954.9                                        
                                                                                

 2012  812 1029 27.4 L  38.407  46.661 18.9       5 0.0 2.0L                   1
 GAP=175                   4.0     3.1  3.8                                    E
 Action:ARG 24-03-13 15:57 OP:OBSP STATUS:               ID:20120812102927     I
 STAT SP IPHASW D HRMM SECON CODA AMPLIT PERI AZIMU VELO AIN AR TRES W  DIS CAZ7
 HRS     IPg  0A  1029 33.75                                           35.6 105 
 HRS     ESg  0A  1029 39.35                                           35.6 105 
 TBZ     IPg  0A  1029 36.05                                           47.6 246 
 BST     IPg  0A  1029 41.31                                           80.9 164 
 MRD     IPg  0A  1029 42.72                                           89.5 292 
 SHB     IPg  0A  1029 43.92                                           91.2 261 
 MRD      IAML A  1029 42.95        56.8                                        
 SHB      IAML A  1029 43.17        55.2                                        
                                                                                

 2012  812 1121 16.5 L  38.421  46.695 14.3       6 0.0 2.2L                   1
 GAP=180                   3.2     2.5  9.6                                    E
 Action:ARG 24-03-13 15:57 OP:OBSP STATUS:               ID:20120812112116     I
 STAT SP IPHASW D HRMM SECON CODA AMPLIT PERI AZIMU VELO AIN AR TRES W  DIS CAZ7
 HRS     IPg  0A  1121 22.45                                           31.5 111 
 HRS     ESg  0A  1121 27.15                                           31.5 111 
 TBZ     IPg  0A  1121 25.80                                           53.0 246 
 BST     IPg  0A  1121 30.55                                           81.8 168 
 MRD     IPg  0A  1121 32.02                                           93.4 290 
 SHB     IPg  0A  1121 33.09                                           96.5 261 
 AZR     IPg  0A  1121 33.53                                            104 217 
 HRS      IAML A  1121 22.57       368.8                                        
                                                                                

 2012  812 1151 31.6 L  38.402  46.782 11.8       8 0.0 3.3L                   1
 GAP=135                   1.2     0.9  2.3                                    E
 Action:ARG 24-03-13 15:57 OP:OBSP STATUS:               ID:20120812115131     I
 STAT SP IPHASW D HRMM SECON CODA AMPLIT PERI AZIMU VELO AIN AR TRES W  DIS CAZ7
 HRS     IPg  0A  1151 36.07                                           23.2 113 
 HRS     ESg  0A  1151 39.69                                           23.2 113 
 TBZ     IPg  0A  1151 41.82                                           59.6 252 
 TBZ     ESg  0A  1151 49.76                                           59.6 252 
 BST     IPg  0A  1151 44.49                                           78.1 174 
 MRD     IPg  0A  1151 48.30                                            101 290 
 SHB     IPg  0A  1151 49.01                                            103 263 
 GRMI    IPg  0A  1151 49.82                                            105  64 
 AZR     IPg  0A  1151 49.52                                            107 221 
 AZR     ESg  0A  1152  3.38                                            107 221 
 ZNJK    IPn  0A  1152 11.16                                            254 138 
 TBZ      IAML A  1151 41.95      2026.4                                        
 HRS      IAML A  1151 36.67      6765.7                                        
 MRD      IAML A  1151 48.91       931.8                                        
                                                                                

