 2012  813  358 28.9 L  38.460  46.871  8.7       5 0.0 2.9L                   1
 GAP=211                   4.7     3.7 15.3                                    E
 Action:ARG 24-03-13 15:57 OP:OBSP STATUS:               ID:20120813035828     I
 STAT SP IPHASW D HRMM SECON CODA AMPLIT PERI AZIMU VELO AIN AR TRES W  DIS CAZ7
 HRS     IPg  0A   358 32.90                                           22.6 140 
 HRS     ESg  0A   358 36.12                                           22.6 140 
 TBZ     IPg  0A   358 39.98                                           68.8 247 
 MRD     IPg  0A   358 47.03                                            105 284 
 SHB     IPg  0A   358 47.51                                            111 259 
 SHB     ESg  0A   359  1.73                                            111 259 
 AZR     IPg  0A   358 49.12                                            117 221 
 HRS      IAML A   358 33.32      2780.3                                        
                                                                                

 2012  813  415 52.7 L  38.430  46.672  8.6       8 0.0 3.7L                   1
 GAP=128                   2.1     1.6  3.8                                    E
 Action:ARG 24-03-13 15:57 OP:OBSP STATUS:               ID:20120813041552     I
 STAT SP IPHASW D HRMM SECON CODA AMPLIT PERI AZIMU VELO AIN AR TRES W  DIS CAZ7
 HRS     IPg  0A   415 58.58                                           32.6 105 
 HRS     ESg  0A   416  3.92                                           32.6 105 
 TBZ     IPg  0A   416  1.27                                           50.0 249 
 MRD     IPg  0A   416  7.74                                           92.5 292 
 MRD     ESg  0A   416 20.46                                           92.5 292 
 SHB     IPg  0A   416  8.48                                           94.0 262 
 AZR     IPg  0A   416  9.86                                            100 217 
 GRMI    IPg  0A   416 12.00                                            115  66 
 MAKU    IPn  0A   416 25.33                                            203 302 
 ZNJK    IPn  0A   416 34.34                                            261 136 
 TBZ      IAML A   416  1.51      6450.5                                        
 MAKU     IAML A   416 25.02       694.9                                        
 MRD      IAML A   416  8.30      2708.1                                        
 AZR      IAML A   416  9.27      2376.2                                        
                                                                                

 2012  813  522 28.8 L  38.404  46.671 19.6       5 0.0 2.6L                   1
 GAP=174                   3.6     2.8  4.4                                    E
 Action:ARG 24-03-13 15:57 OP:OBSP STATUS:               ID:20120813052228     I
 STAT SP IPHASW D HRMM SECON CODA AMPLIT PERI AZIMU VELO AIN AR TRES W  DIS CAZ7
 HRS     IPg  0A   522 35.38                                           33.9 104 
 HRS     ESg  0A   522 40.70                                           33.9 104 
 TBZ     IPg  0A   522 37.50                                           48.6 248 
 MRD     IPg  0A   522 44.18                                           91.3 293 
 SHB     IPg  0A   522 45.19                                           92.5 262 
 AZR     IPg  0A   522 45.56                                           99.7 217 
 AZR      IAML A   522 45.44       192.0                                        
 SHB      IAML A   522 44.48       215.0                                        
                                                                                

 2012  813  658 22.3 L  38.443  46.671 11.4       9 0.0 3.2L                   1
 GAP=129                   1.1     0.9  2.0                                    E
 Action:ARG 24-03-13 15:57 OP:OBSP STATUS:               ID:20120813065822     I
 STAT SP IPHASW D HRMM SECON CODA AMPLIT PERI AZIMU VELO AIN AR TRES W  DIS CAZ7
 HRS     IPg  0A   658 28.54                                           35.5 114 
 HRS     ESg  0A   658 33.64                                           35.5 114 
 TBZ     IPg  0A   658 30.97                                           51.8 242 
 MRD     IPg  0A   658 37.40                                           89.6 289 
 SHB     IPg  0A   658 38.38                                           94.2 258 
 AZR     IPg  0A   658 40.07                                            105 215 
 SRB     IPg  0A   658 40.43                                            111 128 
 GRMI    IPg  0A   658 41.51                                            113  69 
 MAKU    IPg  0A   658 54.83                                            199 300 
 ZNJK    IPn  0A   659  3.51                                            266 137 
 MAKU     IAML A   658 54.36       228.2                                        
 SHB      IAML A   658 38.09       833.5                                        
 HRS      IAML A   658 29.01      3182.5                                        
                                                                                

 2012  813  728 30.5 L  38.399  46.780 13.7      10 0.0 3.2L                   1
 GAP=125                   0.5     0.4  0.6                                    E
 Action:ARG 24-03-13 15:57 OP:OBSP STATUS:               ID:20120813072830     I
 STAT SP IPHASW D HRMM SECON CODA AMPLIT PERI AZIMU VELO AIN AR TRES W  DIS CAZ7
 HRS     IPg  0A   728 35.34                                           23.3 110 
 HRS     ESg  0A   728 39.06                                           23.3 110 
 TBZ     IPg  0A   728 40.73                                           59.0 252 
 TBZ     ESg  0A   728 48.31                                           59.0 252 
 BST     IPg  0A   728 43.67                                           77.3 173 
 SRB     IPg  0A   728 47.46                                           99.1 129 
 MRD     IPg  0A   728 47.35                                            101 290 
 SHB     IPg  0A   728 47.90                                            103 263 
 SHB     ESg  0A   729  1.68                                            103 263 
 GRMI    IPg  0A   728 48.68                                            106  64 
 AZR     IPg  0A   728 48.50                                            106 222 
 MAKU    IPn  0A   729  4.30                                            212 300 
 ZNJK    IPn  0A   729  9.89                                            254 138 
 GRMI     IAML A   728 48.87       689.2                                        
 HRS      IAML A   728 35.80      5340.1                                        
 SHB      IAML A   728 47.93       721.1                                        
 MAKU     IAML A   729  4.30       202.5                                        
                                                                                

 2012  813  750 54.5 L  38.407  46.651  0.5       5 0.0 2.2L                   1
 GAP=174                   3.8     3.0 13.4                                    E
 Action:ARG 24-03-13 15:57 OP:OBSP STATUS:               ID:20120813075054     I
 STAT SP IPHASW D HRMM SECON CODA AMPLIT PERI AZIMU VELO AIN AR TRES W  DIS CAZ7
 HRS     IPg  0A   751  0.44                                           35.1 108 
 TBZ     IPg  0A   751  2.07                                           49.1 245 
 BST     IPg  0A   751  8.03                                           82.1 165 
 BST     ESg  0A   751 18.81                                           82.1 165 
 MRD     IPg  0A   751  9.61                                           89.8 291 
 SHB     IPg  0A   751 10.46                                           92.4 260 
 HRS      IAML A   751  0.72       322.1                                        
 SHB      IAML A   751  9.80        85.8                                        
                                                                                

 2012  813  816 49.9 L  38.426  46.885 10.4      20 0.0 4.0L                   1
 GAP=83                    1.9     1.5  2.3                                    E
 Action:ARG 24-03-13 15:57 OP:OBSP STATUS:               ID:20120813081649     I
 STAT SP IPHASW D HRMM SECON CODA AMPLIT PERI AZIMU VELO AIN AR TRES W  DIS CAZ7
 HRS     IPg  0A   816 53.16                                           18.9 134 
 HRS     ESg  0A   816 56.24                                           18.9 134 
 TBZ     IPg  0A   817  1.42                                           68.5 251 
 ORD     IPg  0A   817  5.50                                           95.1 305 
 SRB     IPg  0A   817  5.55                                           96.2 134 
 GRMI    IPg  0A   817  6.61                                           96.8  64 
 MRD     IPg  0A   817  7.59                                            107 286 
 MRD     ESg  0A   817 22.15                                            107 286 
 SHB     IPg  0A   817  8.80                                            112 261 
 SHB     ESg  0A   817 24.26                                            112 261 
 AZR     IPg  0A   817  9.46                                            115 223 
 LRK     IPg  0A   817 12.00                                            128  79 
 NAX     IPg  0A   817 13.90                                            146 304 
 SBZ     IPg  0A   817 15.60                                            157 312 
 GLBA    IPg  2A   817 17.80                                            158  55 
 ASTR    IPg  0A   817 18.30                                            166  84 
 LKRN    IPg  0A   817 18.30                                            167  79 
 BRDA    IPn  0A   817 23.10                                            204   6 
 ZRD     IPn  0A   817 24.90                                            215  18 
 MAKU    IPn  0A   817 24.48                                            216 298 
 GANJ    IPn  0A   817 28.50                                            250 348 
 ZNJK    IPn  0A   817 29.46                                            252 140 
 GNI     IPn  2A   817 33.30                                            265 316 
 BRDA     IAML A   817 23.67      1378.3                                        
 HRS      IAML A   816 53.82     43413.5                                        
 LRK      IAML A   817 11.67      3201.8                                        
 ZNJK     IAML A   817 30.67       882.8                                        
 GNI      IAML A   817 31.89       788.6                                        
 MAKU     IAML A   817 25.86      1220.7                                        
 SHB      IAML A   817  9.11      3990.6                                        
 GLBA     IAML A   817 16.44      2235.4                                        
 ORD      IAML A   817  6.02      5183.2                                        
                                                                                

 2012  813 1028 13.4 L  38.411  46.692 16.9       4 0.0 1.9L                   1
 GAP=178                   2.3     1.8  2.5                                    E
 Action:ARG 24-03-13 15:57 OP:OBSP STATUS:               ID:20120813102813     I
 STAT SP IPHASW D HRMM SECON CODA AMPLIT PERI AZIMU VELO AIN AR TRES W  DIS CAZ7
 HRS     IPg  0A  1028 19.58                                           33.8 114 
 HRS     ESg  0A  1028 24.46                                           33.8 114 
 TBZ     IPg  0A  1028 22.41                                           52.6 244 
 MRD     IPg  0A  1028 29.20                                           91.2 289 
 SHB     IPg  0A  1028 29.64                                           95.4 259 
 SHB     ESg  0A  1028 42.08                                           95.4 259 
 TBZ      IAML A  1028 22.75        95.5                                        
 SHB      IAML A  1028 29.87        41.0                                        
                                                                                

 2012  813 1029 30.9 L  38.409  46.642  0.7       6 0.0 2.2L                   1
 GAP=174                   3.3     2.6412.4                                    E
 Action:ARG 24-03-13 15:57 OP:OBSP STATUS:               ID:20120813102930     I
 STAT SP IPHASW D HRMM SECON CODA AMPLIT PERI AZIMU VELO AIN AR TRES W  DIS CAZ7
 HRS     IPg  0A  1029 37.26                                           35.9 107 
 TBZ     IPg  0A  1029 39.36                                           48.1 245 
 MRD     IPg  0A  1029 46.10                                           89.1 292 
 SHB     IPg  0A  1029 47.02                                           91.4 261 
 AZR     IPg  0A  1029 47.90                                            100 215 
 SRB     IPg  0A  1029 50.07                                            110 126 
 TBZ      IAML A  1029 39.39       214.9                                        
 MRD      IAML A  1029 46.15        90.6                                        
                                                                                

 2012  813 1045 44.4 L  38.448  46.604 14.5      11 0.0 4.2L                   1
 GAP=111                   1.9     1.5  2.6                                    E
 Action:ARG 24-03-13 15:57 OP:OBSP STATUS:               ID:20120813104544     I
 STAT SP IPHASW D HRMM SECON CODA AMPLIT PERI AZIMU VELO AIN AR TRES W  DIS CAZ7
 HRS     IPg  0A  1045 51.32                                           41.1 113 
 HRS     ESg  0A  1045 57.60                                           41.1 113 
 TBZ     IPg  0A  1045 52.55                                           47.6 237 
 MRD     IPg  0A  1045 58.71                                           83.9 289 
 BST     IPg  0A  1045 58.94                                           88.2 163 
 BST     ESg  0A  1046 10.80                                           88.2 163 
 SHB     IPg  0A  1045 59.54                                           89.0 257 
 AZR     IPg  0A  1046  1.33                                            103 212 
 SRB     IPg  0A  1046  3.36                                            116 127 
 GRMI    IPg  0A  1046  4.29                                            117  70 
 MAKU    IPg  0A  1046 16.30                                            194 301 
 GNI     IPn  0A  1046 25.20                                            247 319 
 ZNJK    IPn  0A  1046 25.83                                            270 136 
 ZNJK     IAML A  1046 25.05      1195.5                                        
 TBZ      IAML A  1045 53.09     21763.5                                        
 MRD      IAML A  1045 58.61      9914.0                                        
 MAKU     IAML A  1046 15.47      2410.9                                        
 GRMI     IAML A  1046  3.89      5830.8                                        
                                                                                

 2012  813 1147 52.2 L  38.459  46.868  3.8       4 0.0 1.8L                   1
 GAP=210                   5.6     4.4 10.4                                    E
 Action:ARG 24-03-13 15:57 OP:OBSP STATUS:               ID:20120813114752     I
 STAT SP IPHASW D HRMM SECON CODA AMPLIT PERI AZIMU VELO AIN AR TRES W  DIS CAZ7
 HRS     IPg  0A  1147 55.89                                           21.7 134 
 HRS     ESg  0A  1147 59.27                                           21.7 134 
 TBZ     IPg  0A  1148  3.63                                           67.1 248 
 SRB     IPg  2A  1148  9.64                                           99.0 134 
 MRD     IPg  0A  1148 10.05                                            105 286 
 MRD      IAML A  1148 10.01        27.9                                        
                                                                                

 2012  813 12 7 37.3 L  38.442  46.582  3.7       6 0.0 2.1L                   1
 GAP=177                   2.7     2.1  7.1                                    E
 Action:ARG 24-03-13 15:57 OP:OBSP STATUS:               ID:20120813120737     I
 STAT SP IPHASW D HRMM SECON CODA AMPLIT PERI AZIMU VELO AIN AR TRES W  DIS CAZ7
 HRS     IPg  0A  12 7 44.11                                           41.9 109 
 HRS     ESg  0A  12 7 50.15                                           41.9 109 
 TBZ     IPg  0A  12 7 44.95                                           45.2 238 
 MRD     IPg  0A  12 7 51.30                                           83.0 291 
 SHB     IPg  0A  12 7 52.27                                           86.9 258 
 AZR     IPg  0A  12 7 54.06                                            100 212 
 SRB     IPg  0A  12 7 57.17                                            116 125 
 HRS      IAML A  12 7 44.96       204.0                                        
 SHB      IAML A  12 7 51.93        74.7                                        
                                                                                

 2012  813 1245 58.3 L  38.437  46.721 11.4      11 0.0 3.9L                   1
 GAP=110                   1.7     1.3  3.0                                    E
 Action:ARG 24-03-13 15:57 OP:OBSP STATUS:               ID:20120813124558     I
 STAT SP IPHASW D HRMM SECON CODA AMPLIT PERI AZIMU VELO AIN AR TRES W  DIS CAZ7
 HRS     IPg  0A  1246  3.87                                           29.9 116 
 HRS     ESg  0A  1246  8.55                                           29.9 116 
 TBZ     IPg  0A  1246  7.40                                           56.1 246 
 BST     IPg  0A  1246 11.97                                           83.1 170 
 BST     ESg  0A  1246 23.13                                           83.1 170 
 MRD     IPg  0A  1246 13.74                                           95.2 288 
 SHB     IPg  0A  1246 14.68                                           99.2 260 
 SHB     ESg  0A  1246 28.28                                           99.2 260 
 SRB     IPg  0A  1246 15.87                                            106 129 
 AZR     IPg  0A  1246 16.15                                            107 218 
 GRMI    IPg  0A  1246 17.06                                            108  67 
 MAKU    IPn  0A  1246 31.33                                            205 300 
 GNI     IPn  2A  1246 40.60                                            256 318 
 ZNJK    IPn  0A  1246 39.43                                            261 138 
 TBZ      IAML A  1246  8.12      8769.9                                        
 ZNJK     IAML A  1246 37.90       649.7                                        
 GRMI     IAML A  1246 16.22      3332.5                                        
 GNI      IAML A  1246 36.75       677.6                                        
                                                                                

