 2001  2 2 2359 59.8 L  33.845  52.611 18.0  New 13 0.3 4.1LNew                1
 GAP=138        0.89       1.6     1.3  2.2 -0.2532E+00 -0.6316E+00  0.6615E+00E
 Action:ARG 24-03-13 14:50 OP:OBSP STATUS:               ID:20010203000000     I
 STAT SP IPHASW D HRMM SECON CODA AMPLIT PERI AZIMU VELO AIN AR TRES W  DIS CAZ7
 RHPW    IP   0A  24 0 10.20                              94   -0.0110 41.0  35 
 RHPW    ES   0A  24 0 17.85                              94    0.2410 41.0  35 
 XBVK     IAML A  24 0 12.61     14583.2                               54.0   8 
 XBVK    IP   0A  24 0 12.61                              92   -0.1210 54.0   8 
 XBVK    ES   0A  24 0 22.07                              92    0.1610 54.0   8 
 LUEX    IP   0A  24 0 13.71                              92   -0.0710 59.5 273 
 LUEX    ES   0A  24 0 23.99                              92    0.2810 59.5 273 
 CBZA    IP   0A  24 0 17.44                              57   -0.0310 81.1 251 
 CBZA    ES   0A  24 0 30.52                              57    0.5010 81.1 251 
 DNOA    IP   0A  24 0 18.95                              57   -0.0310 90.5  54 
 DNOA    ES   0A  24 0 33.17                              57    0.5710 90.5  54 
 DQYH    IP   0A  24 0 20.44                              57   -0.1110  100 317 
 DQYH     IAML A  24 0 20.44      5950.7                                100 317 
 DQYH    ES   0A  24 0 35.76                              57    0.4710  100 317 
 FOUH     IAML A  24 0 20.94      5637.3                                104   8 
 FOUH    IP   0A  24 0 20.94                              57   -0.2310  104   8 
 FOUH    ES   0A  24 0 36.65                              57    0.3110  104   8 
 MGUS     IAML A  24 0 21.32      5378.1                                107  93 
 MGUS    IP   0A  24 0 21.32                              57   -0.2810  107  93 
 MGUS    ES   0A  24 0 37.32                              57    0.2410  107  93 
 APSL    IP   0A  24 0 22.14                              57   -0.2010  111  72 
 APSL     IAML A  24 0 22.14      5045.4                                111  72 
 APSL    ES   0A  24 0 38.74                              57    0.4010  111  72 
 RAWC    IP   0A  24 0 22.82                              46   -0.3310  117 113 
 RAWC    ES   0A  24 0 39.93                              46    0.1910  117 113 
 VOCA     IAML A  24 0 23.54      4287.1                                123  41 
 VOCA    IP   0A  24 0 23.54                              43   -0.4910  123  41 
 VOCA    ES   0A  24 0 41.20                              43   -0.0410  123  41 
 RPKV    IP   0A  24 0 29.90                              43   -0.33 9  170 334 
 RPKV    ES   0A  24 0 51.61                              43   -0.22 9  170 334 
 QYDI    IP   0A  24 0 30.17                              43   -0.67 9  175 351 
 QYDI     IAML A  24 0 30.17      2317.9                                175 351 
 QYDI    ES   0A  24 0 52.17                              43   -0.71 9  175 351 
                                                                                
 2001  2 3 0001  9.7 L  33.485  52.679 20.5  New 14 0.6 2.2LNew                1
 GAP=186        1.34       5.0     2.3  7.0  0.3095E+01 -0.3489E+01 -0.2171E+02E
 Action:ARG 24-03-13 14:50 OP:OBSP STATUS:               ID:20010203000110     I
 STAT SP IPHASW D HRMM SECON CODA AMPLIT PERI AZIMU VELO AIN AR TRES W  DIS CAZ7
 RHPW    IP   0A   0 1 26.44                              57    0.2510 75.5  13 
 RHPW    ES   0A   0 1 38.77                              57    0.8610 75.5  13 
 LUEX     IAML A   0 1 26.88       118.1                               78.7 303 
 LUEX    IP   0A   0 1 26.88                              57    0.1810 78.7 303 
 LUEX    ES   0A   0 1 39.54                              57    0.7510 78.7 303 
 CBZA    IP   0A   0 1 27.48                              57   -0.1210 84.3 280 
 CBZA     IAML A   0 1 27.48       108.4                               84.3 280 
 CBZA    ES   0A   0 1 40.60                              57    0.2610 84.3 280 
 AVTK    IP   0A   0 1 29.59                              57   -0.0710 97.1 310 
 AVTK    ES   0A   0 1 44.28                              57    0.4210 97.1 310 
 RAWC    IP   0A   0 1 30.33                              57    0.0310  101  94 
 RAWC    ES   0A   0 1 45.58                              57    0.6410  101  94 
 MGUS     IAML A   0 1 30.77        75.8                                106  71 
 MGUS    IP   0A   0 1 30.77                              57   -0.2910  106  71 
 MGUS    ES   0A   0 1 46.34                              57    0.1010  106  71 
 DNOA    IP   0A   0 1 32.27                              46   -0.1610  115  36 
 DNOA    ES   0A   0 1 48.96                              46    0.3810  115  36 
 APSL     IAML A   0 1 33.33        58.4                                124  54 
 APSL    IP   0A   0 1 33.33                              43   -0.3210  124  54 
 APSL    ES   0A   0 1 50.84                              43    0.1710  124  54 
 DQYH    IP   0A   0 1 35.16                              43   -0.0310  136 327 
 DQYH    ES   0A   0 1 53.89                              43    0.5710  136 327 
 FOUH    IP   0A   0 1 35.91                              43   -0.2610  143   4 
 FOUH    ES   0A   0 1 55.15                              43    0.1610  143   4 
 VOCA    IP   0A   0 1 36.94                              43   -0.46 9  152  29 
 VOCA     IAML A   0 1 36.94        40.9                                152  29 
 VOCA    ES   0A   0 1 56.97                              43   -0.11 9  152  29 
 RPKV    IP   0A   0 1 44.43                              43   -0.46 7  209 337 
 RPKV     IAML A   0 1 44.43        22.6                                209 337 
 RPKV    ES   0A   0 2  8.88                              43   -1.01 7  209 337 
 QYDI    IP   0A   0 1 44.92                              43   -0.77 7  215 351 
 QYDI     IAML A   0 1 44.92        21.3                                215 351 
 QYDI    ES   0A   0 2  9.60                              43   -1.67 7  215 351 
 HLUH     IAML A   0 1 45.66        20.2                                221 331 
 HLUH    IP   0A   0 1 45.66                              43   -0.78 7  221 331 
 HLUH    ES   0A   0 2 11.06                              43   -1.49 7  221 331 
                                                                                
 2001  2 3 0002 19.6 L  33.874  52.883 25.6  New 13 0.3 4.3LNew                1
 GAP=133        0.80       1.5     1.3  3.7  0.9237E-01  0.1167E+01 -0.1127E+01E
 Action:ARG 24-03-13 14:50 OP:OBSP STATUS:               ID:20010203000220     I
 STAT SP IPHASW D HRMM SECON CODA AMPLIT PERI AZIMU VELO AIN AR TRES W  DIS CAZ7
 XBVK    IP   0A   0 2 32.14                              80   -0.0310 53.4 340 
 XBVK     IAML A   0 2 32.14     21439.0                               53.4 340 
 XBVK    ES   0A   0 2 41.25                              80    0.1610 53.4 340 
 DNOA    IP   0A   0 2 34.89                              75    0.1410 69.4  44 
 DNOA    ES   0A   0 2 46.05                              75    0.5410 69.4  44 
 MGUS    IP   0A   0 2 36.74                              75   -0.0410 82.0  97 
 MGUS    ES   0A   0 2 49.29                              75    0.3110 82.0  97 
 LUEX     IAML A   0 2 37.16     11328.5                               84.6 270 
 LUEX    IP   0A   0 2 37.16                              75   -0.0410 84.6 270 
 LUEX    ES   0A   0 2 50.03                              75    0.3410 84.6 270 
 AVTK    IP   0A   0 2 38.74                              75   -0.1310 94.9 282 
 AVTK    ES   0A   0 2 52.79                              75    0.2510 94.9 282 
 RAWC    IP   0A   0 2 38.69                              75   -0.3110 95.7 121 
 RAWC    ES   0A   0 2 52.71                              75   -0.0610 95.7 121 
 FOUH     IAML A   0 2 39.44      8745.9                                100 354 
 FOUH    IP   0A   0 2 39.44                              75   -0.2810  100 354 
 FOUH    ES   0A   0 2 54.02                              75    0.0210  100 354 
 VOCA    IP   0A   0 2 40.33                              57   -0.2010  106  32 
 VOCA    ES   0A   0 2 55.58                              57    0.1910  106  32 
 CBZA     IAML A   0 2 40.43      8038.6                                106 254 
 CBZA    IP   0A   0 2 40.43                              57   -0.1510  106 254 
 CBZA    ES   0A   0 2 55.75                              57    0.2710  106 254 
 DQYH    IP   0A   0 2 42.01                              52   -0.0010  117 307 
 DQYH    ES   0A   0 2 58.51                              52    0.5810  117 307 
 QYDI    IP   0A   0 2 49.51                              52   -0.49 8  177 343 
 QYDI     IAML A   0 2 49.51      3320.5                                177 343 
 QYDI    ES   0A   0 3 11.17                              52   -0.42 8  177 343 
 RPKV    IP   0A   0 2 50.22                              52   -0.14 8  180 326 
 RPKV    ES   0A   0 3 12.14                              52   -0.06 8  180 326 
 HLUH     IAML A   0 2 51.91      2744.3                                196 320 
 HLUH    IP   0A   0 2 51.91                              52   -0.53 8  196 320 
 HLUH    ES   0A   0 3 15.00                              52   -0.76 8  196 320 
                                                                                
 2001  2 3 0003 29.8 L  33.992  52.537 15.5  New 15 0.4 1.1LNew                1
 GAP=120        1.01       1.9     1.4  3.2 -0.9046E+00  0.3931E+00 -0.1493E+01E
 Action:ARG 24-03-13 14:50 OP:OBSP STATUS:               ID:20010203000330     I
 STAT SP IPHASW D HRMM SECON CODA AMPLIT PERI AZIMU VELO AIN AR TRES W  DIS CAZ7
 RHPW    IP   0A   0 3 39.15                              77    0.0710 34.8  60 
 RHPW    ES   0A   0 3 46.01                              77    0.3510 34.8  60 
 XBVK     IAML A   0 3 39.98        19.6                               39.8  21 
 XBVK    IP   0A   0 3 39.98                              77   -0.0710 39.8  21 
 XBVK    ES   0A   0 3 47.47                              77    0.1510 39.8  21 
 LUEX    IP   0A   0 3 43.00                              73    0.1710 54.1 256 
 LUEX     IAML A   0 3 43.00        13.0                               54.1 256 
 LUEX    ES   0A   0 3 52.75                              73    0.6810 54.1 256 
 AVTK    IP   0A   0 3 44.05                              73   -0.1410 61.2 276 
 AVTK    ES   0A   0 3 54.59                              73    0.1910 61.2 276 
 CBZA    IP   0A   0 3 47.64                              54   -0.2210 81.7 239 
 CBZA    ES   0A   0 4  0.86                              54    0.1810 81.7 239 
 DQYH    IP   0A   0 3 48.19                              53   -0.0110 83.8 313 
 DQYH    ES   0A   0 4  1.83                              53    0.5710 83.8 313 
 DNOA    IP   0A   0 3 48.94                              53    0.0510 88.1  65 
 DNOA     IAML A   0 3 48.94         6.5                               88.1  65 
 DNOA    ES   0A   0 4  3.14                              53    0.7110 88.1  65 
 FOUH     IAML A   0 3 49.04         6.4                               89.4  14 
 FOUH    IP   0A   0 3 49.04                              53   -0.0610 89.4  14 
 FOUH    ES   0A   0 4  3.32                              53    0.5310 89.4  14 
 APSL    IP   0A   0 3 52.83                              53   -0.2810  114  81 
 APSL     IAML A   0 3 52.83         4.3                                114  81 
 APSL    ES   0A   0 4  9.95                              53    0.3010  114  81 
 MGUS    IP   0A   0 3 53.09                              53   -0.2310  116 101 
 MGUS     IAML A   0 3 53.09         4.2                                116 101 
 VOCA    IP   0A   0 3 53.01                              53   -0.4710  117  49 
 VOCA    ES   0A   0 4 10.27                              53   -0.0110  117  49 
 RAWC    IP   0A   0 3 55.12                              41   -0.1710  130 119 
 RPKV     IAML A   0 3 57.87         2.7                                153 333 
 RPKV    IP   0A   0 3 57.87                              41   -0.41 9  153 333 
 RPKV    ES   0A   0 4 18.51                              41    0.02 9  153 333 
 QYDI    IP   0A   0 3 58.27                              41   -0.70 9  158 353 
 QYDI    ES   0A   0 4 19.33                              41   -0.34 9  158 353 
 HLUH    IP   0A   0 3 59.24                              41   -0.82 9  166 326 
 HLUH     IAML A   0 3 59.24         2.3                                166 326 
 HLUH    ES   0A   0 4 20.97                              41   -0.57 9  166 326 
                                                                                
 2001  2 3 0004 39.8 L  33.644  52.537 17.7  New 15 0.4 1.8LNew                1
 GAP=165        1.04       2.2     1.6  2.7  0.2375E+00 -0.1065E+01 -0.1609E+00E
 Action:ARG 24-03-13 14:50 OP:OBSP STATUS:               ID:20010203000440     I
 STAT SP IPHASW D HRMM SECON CODA AMPLIT PERI AZIMU VELO AIN AR TRES W  DIS CAZ7
 LUEX    IP   0A   0 4 53.67                              91    0.0410 58.5 296 
 LUEX     IAML A   0 4 53.67        57.2                               58.5 296 
 LUEX    ES   0A   0 5  3.91                              91    0.4910 58.5 296 
 RHPW    IP   0A   0 4 54.59                              91   -0.0210 63.6  28 
 RHPW     IAML A   0 4 54.59        51.4                               63.6  28 
 RHPW    ES   0A   0 5  5.52                              91    0.4310 63.6  28 
 CBZA    IP   0A   0 4 55.70                              60   -0.0410 70.1 267 
 CBZA    ES   0A   0 5  7.48                              60    0.4610 70.1 267 
 AVTK    IP   0A   0 4 56.59                              58   -0.1010 75.8 307 
 AVTK    ES   0A   0 5  9.04                              58    0.3910 75.8 307 
 XBVK    IP   0A   0 4 56.78                              58   -0.1210 77.1  10 
 XBVK    ES   0A   0 5  9.37                              58    0.3510 77.1  10 
 DNOA     IAML A   0 5  1.94        22.6                                110  47 
 DNOA    IP   0A   0 5  1.94                              57   -0.2710  110  47 
 DNOA    ES   0A   0 5 18.39                              57    0.3010  110  47 
 DQYH    IP   0A   0 5  2.58                              57   -0.2310  114 327 
 DQYH    ES   0A   0 5 19.51                              57    0.4010  114 327 
 MGUS    IP   0A   0 5  2.54                              57   -0.4010  115  82 
 MGUS    ES   0A   0 5 19.45                              57    0.1110  115  82 
 RAWC    IP   0A   0 5  3.16                              46   -0.0610  117 102 
 RAWC     IAML A   0 5  3.16        20.4                                117 102 
 RAWC    ES   0A   0 5 20.52                              46    0.7110  117 102 
 APSL    IP   0A   0 5  4.27                              43   -0.2210  126  64 
 APSL    ES   0A   0 5 22.47                              43    0.4910  126  64 
 FOUH     IAML A   0 5  4.21        18.0                                127  10 
 FOUH    IP   0A   0 5  4.21                              43   -0.4210  127  10 
 FOUH    ES   0A   0 5 22.36                              43    0.1410  127  10 
 VOCA    IP   0A   0 5  6.50                              43   -0.4710  145  37 
 VOCA     IAML A   0 5  6.50        14.3                                145  37 
 VOCA    ES   0A   0 5 26.38                              43    0.1610  145  37 
 RPKV    IP   0A   0 5 12.34                              43   -0.30 8  188 339 
 RPKV    ES   0A   0 5 35.71                              43   -0.22 8  188 339 
 QYDI     IAML A   0 5 12.98         8.2                                196 354 
 QYDI    IP   0A   0 5 12.98                              43   -0.75 8  196 354 
 QYDI    ES   0A   0 5 36.80                              43   -0.98 8  196 354 
 HLUH    IP   0A   0 5 13.45                              43   -0.69 8  199 332 
 HLUH    ES   0A   0 5 37.82                              43   -0.66 8  199 332 
                                                                                
 2001  2 3 0005 49.8 L  33.904  52.670 19.9  New 15 0.3 2.3LNew                1
 GAP=131        0.93       1.6     1.3  2.2 -0.2015E+00  0.1327E+00  0.1134E+01E
 Action:ARG 24-03-13 14:50 OP:OBSP STATUS:               ID:20010203000550     I
 STAT SP IPHASW D HRMM SECON CODA AMPLIT PERI AZIMU VELO AIN AR TRES W  DIS CAZ7
 RHPW    IP   0A   0 5 58.73                             106    0.0210 32.5  34 
 RHPW     IAML A   0 5 58.73       390.3                               32.5  34 
 RHPW    ES   0A   0 6  5.27                             106    0.2510 32.5  34 
 XBVK    IP   0A   0 6  1.31                              98   -0.1510 47.1   2 
 XBVK     IAML A   0 6  1.31       244.0                               47.1   2 
 XBVK    ES   0A   0 6  9.80                              98    0.0810 47.1   2 
 LUEX    IP   0A   0 6  4.62                              62   -0.0410 64.9 267 
 LUEX    ES   0A   0 6 15.58                              62    0.3910 64.9 267 
 AVTK    IP   0A   0 6  6.37                              58    0.0510 75.0 283 
 AVTK    ES   0A   0 6 18.64                              58    0.6110 75.0 283 
 DNOA    IP   0A   0 6  7.48                              57   -0.0210 82.3  55 
 DNOA    ES   0A   0 6 20.60                              57    0.5610 82.3  55 
 CBZA    IP   0A   0 6  8.34                              57   -0.1510 88.4 249 
 CBZA     IAML A   0 6  8.34       104.5                               88.4 249 
 CBZA    ES   0A   0 6 22.10                              57    0.3610 88.4 249 
 FOUH    IP   0A   0 6  9.80                              57   -0.0510 96.9   6 
 FOUH    ES   0A   0 6 24.64                              57    0.5710 96.9   6 
 DQYH    IP   0A   0 6 10.31                              57    0.0410 99.5 312 
 MGUS    IP   0A   0 6 10.46                              57   -0.2010  102  97 
 MGUS    ES   0A   0 6 25.80                              57    0.3510  102  97 
 APSL    IP   0A   0 6 10.85                              57   -0.1910  104  75 
 APSL     IAML A   0 6 10.85        80.4                                104  75 
 APSL    ES   0A   0 6 26.49                              57    0.3910  104  75 
 VOCA     IAML A   0 6 12.20        68.6                                115  41 
 VOCA    ES   0A   0 6 28.85                              46   -0.0510  115  41 
 RAWC    IP   0A   0 6 12.20                              46   -0.4410  115 117 
 RAWC    ES   0A   0 6 28.84                              46    0.0010  115 117 
 VOCA    IP   0A   0 6 12.20                              46   -0.4810  115  41 
 RPKV     IAML A   0 6 19.33        36.1                                167 331 
 RPKV    IP   0A   0 6 19.33                              43   -0.24 9  167 331 
 RPKV    ES   0A   0 6 40.64                              43   -0.04 9  167 331 
 QYDI     IAML A   0 6 19.32        35.1                                169 349 
 QYDI    IP   0A   0 6 19.32                              43   -0.57 9  169 349 
 QYDI    ES   0A   0 6 40.76                              43   -0.47 9  169 349 
 HLUH    IP   0A   0 6 20.81                              43   -0.63 8  181 324 
 HLUH    ES   0A   0 6 43.20                              43   -0.68 8  181 324 
                                                                                
