 2001  2 3 0020 59.9 L  33.800  52.786 24.5  New 15 0.3 1.1LNew                1
 GAP=143        0.88       1.7     1.4  3.2 -0.5536E-01  0.7521E+00 -0.9131E+00E
 Action:ARG 24-03-13 14:50 OP:OBSP STATUS:               ID:20010203002100     I
 STAT SP IPHASW D HRMM SECON CODA AMPLIT PERI AZIMU VELO AIN AR TRES W  DIS CAZ7
 RHPW    IP   0A   021 10.08                              96   -0.0010 39.2  11 
 RHPW     IAML A   021 10.08        22.4                               39.2  11 
 RHPW    ES   0A   021 17.63                              96    0.3010 39.2  11 
 XBVK    IP   0A   021 13.28                              79   -0.1510 59.2 351 
 XBVK    ES   0A   021 23.23                              79    0.1810 59.2 351 
 LUEX     IAML A   021 16.04         9.3                               76.1 276 
 LUEX    IP   0A   021 16.04                              72   -0.1210 76.1 276 
 LUEX    ES   0A   021 28.06                              72    0.3410 76.1 276 
 DNOA    IP   0A   021 17.15                              72    0.1210 81.5  44 
 DNOA     IAML A   021 17.15         8.3                               81.5  44 
 AVTK    IP   0A   021 17.97                              72   -0.1810 88.4 289 
 AVTK     IAML A   021 17.97         7.5                               88.4 289 
 AVTK    ES   0A   021 31.44                              72    0.3210 88.4 289 
 MGUS    IP   0A   021 18.39                              72   -0.0810 90.4  91 
 MGUS     IAML A   021 18.39         7.1                               90.4  91 
 CBZA    IP   0A   021 19.10                              72   -0.1710 95.4 257 
 CBZA    ES   0A   021 33.42                              72    0.3810 95.4 257 
 APSL     IAML A   021 19.57         6.3                               97.9  67 
 APSL    IP   0A   021 19.57                              72   -0.1010 97.9  67 
 APSL    ES   0A   021 34.25                              72    0.5210 97.9  67 
 RAWC    IP   0A   021 19.76                              72   -0.2410 99.9 114 
 RAWC    ES   0A   021 34.58                              72    0.2910 99.9 114 
 FOUH    IP   0A   021 20.86                              55   -0.3610  108 360 
 FOUH    ES   0A   021 36.51                              55    0.1310  108 360 
 DQYH    IP   0A   021 22.14                              51   -0.0610  115 313 
 DQYH    ES   0A   021 38.75                              51    0.6910  115 313 
 VOCA    IP   0A   021 22.18                              51   -0.3210  117  34 
 VOCA     IAML A   021 22.18         4.7                                117  34 
 VOCA    ES   0A   021 38.82                              51    0.2610  117  34 
 RPKV     IAML A   021 30.79         2.2                                182 330 
 RPKV    IP   0A   021 30.79                              51   -0.26 8  182 330 
 RPKV    ES   0A   021 53.13                              51   -0.05 8  182 330 
 QYDI    IP   0A   021 30.59                              51   -0.54 8  183 347 
 QYDI    ES   0A   021 52.93                              51   -0.39 8  183 347 
 HLUH    IP   0A   021 32.27                              51   -0.69 8  197 324 
 HLUH    ES   0A   021 55.67                              51   -0.78 8  197 324 
                                                                                
 2001  2 3 0022  9.9 L  33.787  52.568 16.6  New 14 0.4 0.5LNew                1
 GAP=145        1.11       2.2     1.7  3.6  0.7826E-01 -0.1443E+00  0.1255E+01E
 Action:ARG 24-03-13 14:50 OP:OBSP STATUS:               ID:20010203002210     I
 STAT SP IPHASW D HRMM SECON CODA AMPLIT PERI AZIMU VELO AIN AR TRES W  DIS CAZ7
 RHPW    IP   0A   022 21.81                              78    0.0710 48.5  34 
 RHPW     IAML A   022 21.81         4.4                               48.5  34 
 RHPW    ES   0A   022 30.67                              78    0.5010 48.5  34 
 XBVK    IP   0A   022 24.11                              78   -0.0310 61.0  10 
 XBVK    ES   0A   022 34.69                              78    0.4010 61.0  10 
 AVTK    IP   0A   022 25.76                              60   -0.1110 70.2 295 
 AVTK     IAML A   022 25.76         2.7                               70.2 295 
 AVTK    ES   0A   022 37.59                              60    0.3610 70.2 295 
 CBZA     IAML A   022 26.84         2.4                               75.4 255 
 CBZA    IP   0A   022 26.84                              58    0.1010 75.4 255 
 CBZA    ES   0A   022 39.48                              58    0.7510 75.4 255 
 DNOA    IP   0A   022 30.32                              55    0.0010 97.5  52 
 DNOA    ES   0A   022 45.56                              55    0.7110 97.5  52 
 DQYH    IP   0A   022 31.06                              55   -0.0610  103 321 
 DQYH    ES   0A   022 46.86                              55    0.6310  103 321 
 FOUH     IAML A   022 32.13         1.3                                111  10 
 MGUS     IAML A   022 32.08         1.3                                111  90 
 MGUS    ES   0A   022 48.63                              55    0.2010  111  90 
 FOUH    IP   0A   022 32.13                              55   -0.3610  111  10 
 MGUS    IP   0A   022 32.08                              55   -0.3310  111  90 
 APSL     IAML A   022 33.18         1.2                                117  70 
 APSL    IP   0A   022 33.18                              45   -0.2810  117  70 
 APSL    ES   0A   022 50.56                              45    0.3410  117  70 
 RAWC    IP   0A   022 33.28                              45   -0.3010  118 110 
 RAWC     IAML A   022 33.28         1.2                                118 110 
 RAWC    ES   0A   022 50.74                              45    0.3210  118 110 
 VOCA    IP   0A   022 34.69                              42   -0.5710  131  40 
 VOCA    ES   0A   022 53.20                              42   -0.1110  131  40 
 RPKV    IP   0A   022 40.70                              42   -0.32 9  174 336 
 RPKV    ES   0A   023  2.97                              42   -0.18 9  174 336 
 QYDI     IAML A   022 41.16         0.6                                181 353 
 QYDI    IP   0A   022 41.16                              42   -0.70 8  181 353 
 QYDI    ES   0A   023  3.84                              42   -0.74 8  181 353 
 HLUH    IP   0A   022 42.00                              42   -0.66 8  187 329 
 HLUH    ES   0A   023  5.31                              42   -0.65 8  187 329 
                                                                                
 2001  2 3 0023 19.5 L  34.030  52.858 25.2  New 15 0.3 3.3LNew                1
 GAP=117        0.69       1.3     1.0  1.6  0.1089E+00  0.2416E+00  0.6843E+00E
 Action:ARG 24-03-13 14:50 OP:OBSP STATUS:               ID:20010203002320     I
 STAT SP IPHASW D HRMM SECON CODA AMPLIT PERI AZIMU VELO AIN AR TRES W  DIS CAZ7
 RHPW    IP   0A   023 25.98                             143    0.0410 13.1   3 
 RHPW    ES   0A   023 30.46                             143   -0.0310 13.1   3 
 XBVK    IP   0A   023 29.20                              97   -0.1010 36.5 335 
 XBVK    ES   0A   023 36.10                              97   -0.1310 36.5 335 
 DNOA    IP   0A   023 33.19                              80   -0.0010 60.0  57 
 DNOA     IAML A   023 33.19      1953.8                               60.0  57 
 DNOA    ES   0A   023 43.08                              80    0.1910 60.0  57 
 FOUH    IP   0A   023 36.89                              75    0.0410 82.7 355 
 LUEX    IP   0A   023 37.09                              75    0.0410 84.0 258 
 LUEX    ES   0A   023 49.90                              75    0.4110 84.0 258 
 APSL    IP   0A   023 37.09                              75   -0.0210 84.4  81 
 APSL    ES   0A   023 49.91                              75    0.3110 84.4  81 
 MGUS    IP   0A   023 37.63                              75   -0.0610 87.9 108 
 MGUS    ES   0A   023 50.85                              75    0.2610 87.9 108 
 AVTK     IAML A   023 38.01      1047.7                               90.5 272 
 AVTK    IP   0A   023 38.01                              75   -0.0910 90.5 272 
 AVTK    ES   0A   023 51.51                              75    0.2210 90.5 272 
 VOCA    IP   0A   023 38.36                              75   -0.1310 92.9  39 
 VOCA    ES   0A   023 52.12                              75    0.1710 92.9  39 
 DQYH    IP   0A   023 40.55                              57    0.1210  105 300 
 DQYH    ES   0A   023 55.97                              57    0.7010  105 300 
 RAWC     IAML A   023 40.45       827.9                                108 128 
 RAWC    IP   0A   023 40.45                              57   -0.3110  108 128 
 RAWC    ES   0A   023 55.78                              57   -0.0510  108 128 
 CBZA     IAML A   023 40.70       779.4                                110 245 
 CBZA    IP   0A   023 40.70                              52   -0.3910  110 245 
 CBZA    ES   0A   023 56.22                              52   -0.1810  110 245 
 QYDI    IP   0A   023 47.23                              52   -0.48 9  160 342 
 QYDI     IAML A   023 47.23       415.5                                160 342 
 QYDI    ES   0A   024  7.34                              52   -0.37 9  160 342 
 RPKV    IP   0A   023 48.22                              52   -0.07 9  165 324 
 RPKV     IAML A   023 48.22       394.4                                165 324 
 RPKV    ES   0A   024  8.75                              52    0.04 9  165 324 
 HLUH    IP   0A   023 50.10                              52   -0.39 8  181 318 
 HLUH     IAML A   023 50.10       329.2                                181 318 
                                                                                
 2001  2 3 0024 29.4 L  33.266  52.525 14.6  New 14 0.6 3.2LNew                1
 GAP=218        1.31       6.5     3.1  6.9  0.1200E+02 -0.1104E+02 -0.3146E+02E
 Action:ARG 24-03-13 14:50 OP:OBSP STATUS:               ID:20010203002430     I
 STAT SP IPHASW D HRMM SECON CODA AMPLIT PERI AZIMU VELO AIN AR TRES W  DIS CAZ7
 CBZA    IP   0A   024 47.19                              53    0.1610 78.8 299 
 CBZA     IAML A   024 47.19      1200.5                               78.8 299 
 CBZA    ES   0A   025  0.08                              53    0.4910 78.8 299 
 LUEX    IP   0A   024 48.21                              51    0.1810 84.9 323 
 LUEX    ES   0A   025  1.86                              51    0.5610 84.9 323 
 RHPW    IP   0A   024 51.03                              51    0.1310  103  18 
 RHPW    ES   0A   025  6.80                              51    0.6010  103  18 
 AVTK    IP   0A   024 51.44                              51    0.0710  106 326 
 AVTK    ES   0A   025  7.52                              51    0.5110  106 326 
 RAWC    IP   0A   024 53.14                              51    0.0110  117  81 
 RAWC    ES   0A   025 10.50                              51    0.4810  117  81 
 XBVK    IP   0A   024 53.27                              42   -0.2010  119   7 
 XBVK    ES   0A   025 10.73                              42    0.1310  119   7 
 MGUS    IP   0A   024 54.62                              40   -0.1410  128  63 
 MGUS    ES   0A   025 13.07                              40    0.2610  128  63 
 DNOA    IP   0A   024 56.44                              40   -0.2210  143  35 
 DNOA    ES   0A   025 16.26                              40    0.2110  143  35 
 APSL     IAML A   024 57.55       428.0                                150  49 
 DQYH    IP   0A   024 57.56                              40   -0.09 9  150 336 
 APSL    IP   0A   024 57.55                              40   -0.10 9  150  49 
 APSL    ES   0A   025 18.15                              40    0.41 9  150  49 
 DQYH    ES   0A   025 17.97                              40    0.22 9  150 336 
 VOCA    IP   0A   025  1.09                              40   -0.55 8  181  29 
 VOCA     IAML A   025  1.09       306.2                                181  29 
 VOCA    ES   0A   025 23.94                              40   -0.62 8  181  29 
 RPKV     IAML A   025  7.31       193.9                                227 343 
 RPKV    IP   0A   025  7.31                              40   -0.47 7  227 343 
 RPKV    ES   0A   025 33.87                              40   -1.20 7  227 343 
 HLUH    IP   0A   025  8.24                              40   -0.80 6  237 337 
 HLUH    ES   0A   025 35.30                              40   -1.92 6  237 337 
 QYDI    IP   0A   025  8.39                              40   -0.80 6  238 356 
 QYDI    ES   0A   025 35.60                              40   -1.87 6  238 356 
                                                                                
 2001  2 3 0025 39.6 L  34.051  52.934 27.5  New 14 0.3 1.0LNew                1
 GAP=114        0.74       1.4     1.1  1.8  0.2604E+00  0.5575E+00  0.1031E+01E
 Action:ARG 24-03-13 14:50 OP:OBSP STATUS:               ID:20010203002540     I
 STAT SP IPHASW D HRMM SECON CODA AMPLIT PERI AZIMU VELO AIN AR TRES W  DIS CAZ7
 RHPW    IP   0A   025 46.23                             147   -0.0110 12.5 330 
 RHPW    ES   0A   025 50.90                             147   -0.0810 12.5 330 
 XBVK    IP   0A   025 49.58                             101   -0.0910 38.1 324 
 XBVK     IAML A   025 49.58        17.9                               38.1 324 
 XBVK    ES   0A   025 56.77                             101   -0.0710 38.1 324 
 DNOA    IP   0A   025 52.03                              92   -0.0110 53.0  55 
 DNOA    ES   0A   026  1.05                              92    0.1510 53.0  55 
 APSL    IP   0A   025 55.83                              91   -0.1010 77.1  82 
 APSL    ES   0A   026  7.70                              91    0.1610 77.1  82 
 FOUH     IAML A   025 56.60         6.5                               81.4 350 
 FOUH    IP   0A   025 56.60                              91   -0.0210 81.4 350 
 FOUH    ES   0A   026  9.06                              91    0.3410 81.4 350 
 MGUS    IP   0A   025 56.68                              91   -0.0510 82.1 111 
 MGUS    ES   0A   026  9.19                              91    0.2710 82.1 111 
 VOCA    IP   0A   025 57.32                              91   -0.1710 86.8  36 
 VOCA    ES   0A   026 10.31                              91    0.0910 86.8  36 
 LUEX    IP   0A   025 58.12                              91   -0.0910 91.3 258 
 LUEX    ES   0A   026 11.71                              91    0.2710 91.3 258 
 AVTK    IP   0A   025 59.01                              60   -0.1910 97.5 270 
 AVTK     IAML A   025 59.01         5.0                               97.5 270 
 AVTK    ES   0A   026 13.27                              60    0.1410 97.5 270 
 RAWC    IP   0A   025 59.78                              60   -0.2810  104 132 
 RAWC     IAML A   025 59.78         4.6                                104 132 
 RAWC    ES   0A   026 14.61                              60   -0.0010  104 132 
 DQYH    IP   0A   026  1.06                              55    0.1210  110 298 
 DQYH    ES   0A   026 16.85                              55    0.7410  110 298 
 CBZA     IAML A   026  1.67         3.7                                117 246 
 CBZA    IP   0A   026  1.67                              55   -0.2010  117 246 
 CBZA    ES   0A   026 17.90                              55    0.2010  117 246 
 RPKV     IAML A   026  8.23         2.0                                167 321 
 RPKV    IP   0A   026  8.23                              55   -0.20 9  167 321 
 HLUH    IP   0A   026 10.19                              55   -0.53 8  184 315 
 HLUH     IAML A   026 10.19         1.7                                184 315 
 HLUH    ES   0A   026 31.94                              55   -0.90 8  184 315 
                                                                                
 2001  2 3 0026 50.0 L  33.754  52.554 18.8  New 15 0.4 0.8LNew                1
 GAP=150        1.01       2.0     1.5  2.6 -0.3224E-01 -0.6253E+00 -0.1051E+00E
 Action:ARG 24-03-13 14:50 OP:OBSP STATUS:               ID:20010203002650     I
 STAT SP IPHASW D HRMM SECON CODA AMPLIT PERI AZIMU VELO AIN AR TRES W  DIS CAZ7
 RHPW    IP   0A   027  2.62                              94    0.0010 52.3  33 
 RHPW     IAML A   027  2.62         7.3                               52.3  33 
 RHPW    ES   0A   027 12.09                              94    0.5210 52.3  33 
 LUEX    IP   0A   027  3.19                              94   -0.1010 55.8 284 
 LUEX    ES   0A   027 13.08                              94    0.3610 55.8 284 
 XBVK     IAML A   027  4.83         5.5                               64.9  11 
 XBVK    IP   0A   027  4.83                              62   -0.1010 64.9  11 
 XBVK    ES   0A   027 15.95                              62    0.4310 64.9  11 
 AVTK    IP   0A   027  5.68                              60   -0.2110 70.6 298 
 AVTK    ES   0A   027 17.44                              60    0.2710 70.6 298 
 CBZA    IP   0A   027  6.26                              58   -0.0710 73.3 258 
 CBZA    ES   0A   027 18.46                              58    0.5410 73.3 258 
 DNOA    IP   0A   027 10.76                              57   -0.0210  101  51 
 DNOA     IAML A   027 10.76         2.8                                101  51 
 DQYH     IAML A   027 11.24         2.7                                105 323 
 DQYH    IP   0A   027 11.24                              57   -0.1510  105 323 
 DQYH    ES   0A   027 27.16                              57    0.5910  105 323 
 MGUS    IP   0A   027 12.27                              57   -0.2910  112  88 
 MGUS    ES   0A   027 28.96                              57    0.3910  112  88 
 FOUH     IAML A   027 12.58         2.3                                115  10 
 FOUH    IP   0A   027 12.58                              46   -0.4310  115  10 
 FOUH    ES   0A   027 29.51                              46    0.1710  115  10 
 RAWC     IAML A   027 13.27         2.2                                118 108 
 RAWC    IP   0A   027 13.27                              43   -0.1810  118 108 
 RAWC    ES   0A   027 30.72                              43    0.6310  118 108 
 APSL    IP   0A   027 13.46                              43   -0.2010  120  69 
 VOCA     IAML A   027 15.14         1.8                                134  40 
 VOCA    IP   0A   027 15.14                              43   -0.4610  134  40 
 VOCA    ES   0A   027 34.00                              43    0.2410  134  40 
 RPKV    IP   0A   027 20.94                              43   -0.31 8  177 337 
 RPKV    ES   0A   027 43.43                              43   -0.00 8  177 337 
 QYDI    IP   0A   027 21.47                              43   -0.70 8  184 353 
 QYDI    ES   0A   027 44.34                              43   -0.66 8  184 353 
 HLUH    IP   0A   027 22.15                              43   -0.70 8  189 330 
 HLUH    ES   0A   027 45.63                              43   -0.53 8  189 330 
                                                                                
