 2001  2 3 0027 59.9 L  33.806  52.242  6.1  New 15 0.4 1.4LNew                1
 GAP=137        1.12       2.2     2.0  2.8  0.8897E+00 -0.4164E+01 -0.2596E+01E
 Action:ARG 24-03-13 14:50 OP:OBSP STATUS:               ID:20010203002800     I
 STAT SP IPHASW D HRMM SECON CODA AMPLIT PERI AZIMU VELO AIN AR TRES W  DIS CAZ7
 LUEX    IP   0A   028  7.02                              91   -0.1210 26.4 287 
 LUEX    ES   0A   028 12.29                              91   -0.0010 26.4 287 
 AVTK     IAML A   028 11.15        38.4                               43.2 309 
 AVTK    IP   0A   028 11.15                              90   -0.1010 43.2 309 
 AVTK    ES   0A   028 19.52                              90    0.1910 43.2 309 
 CBZA    IP   0A   028 12.57                              90    0.2010 47.8 243 
 CBZA    ES   0A   028 21.99                              90    0.7410 47.8 243 
 RHPW    IP   0A   028 17.16                              52    0.1910 68.9  56 
 RHPW     IAML A   028 17.16        20.7                               68.9  56 
 RHPW    ES   0A   028 30.04                              52    0.9310 68.9  56 
 XBVK     IAML A   028 17.27        19.9                               71.1  35 
 XBVK    IP   0A   028 17.27                              52   -0.1210 71.1  35 
 XBVK    ES   0A   028 30.22                              52    0.3910 71.1  35 
 DQYH    IP   0A   028 20.00                              43   -0.0310 85.0 336 
 DQYH     IAML A   028 20.00        15.2                               85.0 336 
 DQYH    ES   0A   028 35.00                              43    0.6710 85.0 336 
 FOUH    IP   0A   028 25.00                              41   -0.3710  118  24 
 FOUH     IAML A   028 25.00         9.2                                118  24 
 FOUH    ES   0A   028 43.75                              41    0.2810  118  24 
 DNOA    IP   0A   028 25.65                              41   -0.3210  122  61 
 DNOA    ES   0A   028 44.90                              41    0.4110  122  61 
 MGUS    IP   0A   028 28.17                              33   -0.4210  141  91 
 MGUS    ES   0A   028 49.31                              33    0.3410  141  91 
 APSL     IAML A   028 28.91         6.4                                145  75 
 APSL    IP   0A   028 28.91                              33   -0.2810  145  75 
 RAWC     IAML A   028 29.25         6.2                                147 106 
 RAWC    IP   0A   028 29.25                              33   -0.2110  147 106 
 VOCA    IP   0A   028 29.39                              33   -0.52 9  151  50 
 VOCA    ES   0A   028 51.43                              33    0.20 9  151  50 
 RPKV    IP   0A   028 31.02                              33   -0.43 9  162 345 
 RPKV     IAML A   028 31.02         5.3                                162 345 
 RPKV    ES   0A   028 53.96                              33    0.09 9  162 345 
 HLUH    IP   0A   028 31.98                              33   -0.65 9  171 337 
 HLUH    ES   0A   028 55.46                              33   -0.43 9  171 337 
 QYDI     IAML A   028 32.69         4.5                                177   2 
 QYDI    IP   0A   028 32.69                              33   -0.74 8  177   2 
 QYDI    ES   0A   028 56.54                              33   -0.71 8  177   2 
                                                                                
 2001  2 3 0029  9.6 L  34.136  52.865 25.4  New 13 0.3 1.6LNew                1
 GAP=107        0.89       1.8     1.3  1.7  0.5449E+00  0.1751E+00  0.3931E+00E
 Action:ARG 24-03-13 14:50 OP:OBSP STATUS:               ID:20010203002910     I
 STAT SP IPHASW D HRMM SECON CODA AMPLIT PERI AZIMU VELO AIN AR TRES W  DIS CAZ7
 RHPW    IP   0A   029 15.28                             176   -0.1010 1.37   1 
 RHPW     IAML A   029 15.28       852.0                               1.37   1 
 RHPW    ES   0A   029 19.24                             176   -0.2310 1.37   1 
 XBVK     IAML A   029 17.80        72.5                               26.8 323 
 XBVK    IP   0A   029 17.80                             114   -0.0510 26.8 323 
 XBVK    ES   0A   029 23.64                             114   -0.0510 26.8 323 
 DNOA    IP   0A   029 22.42                              80    0.1210 54.0  67 
 DNOA    ES   0A   029 31.73                              80    0.4310 54.0  67 
 APSL    IP   0A   029 26.79                              75   -0.1710 82.8  89 
 APSL     IAML A   029 26.79        17.9                               82.8  89 
 APSL    ES   0A   029 39.39                              75    0.1310 82.8  89 
 LUEX    IP   0A   029 27.69                              75   -0.0610 87.7 251 
 LUEX    ES   0A   029 40.96                              75    0.3510 87.7 251 
 AVTK    IP   0A   029 28.37                              75   -0.0010 91.5 264 
 AVTK    ES   0A   029 42.14                              75    0.4710 91.5 264 
 MGUS    IP   0A   029 28.33                              75   -0.0610 91.6 115 
 MGUS     IAML A   029 28.33        15.6                               91.6 115 
 MGUS    ES   0A   029 42.08                              75    0.3810 91.6 115 
 DQYH    IP   0A   029 29.97                              75    0.1910  100 295 
 DQYH     IAML A   029 29.97        13.0                                100 295 
 DQYH    ES   0A   029 44.96                              75    0.8810  100 295 
 RAWC     IAML A   029 31.53        11.0                                115 133 
 RAWC    IP   0A   029 31.53                              52   -0.2910  115 133 
 RAWC    ES   0A   029 47.67                              52    0.1110  115 133 
 CBZA    IP   0A   029 31.41                              52   -0.5510  116 240 
 CBZA    ES   0A   029 47.47                              52   -0.3410  116 240 
 QYDI    IP   0A   029 35.94                              52   -0.42 9  149 341 
 QYDI    ES   0A   029 55.15                              52   -0.18 9  149 341 
 RPKV    IP   0A   029 37.12                              52   -0.09 9  156 321 
 RPKV    ES   0A   029 56.99                              52    0.21 9  156 321 
 HLUH    IP   0A   029 39.09                              52   -0.44 9  173 315 
 HLUH     IAML A   029 39.09         5.2                                173 315 
 HLUH    ES   0A   030  0.22                              52   -0.53 9  173 315 
                                                                                
 2001  2 3 0030 20.1 L  33.709  52.725 24.4  New 14 0.4 0.7LNew                1
 GAP=155        1.07       2.4     1.6  4.8  0.3721E+00  0.8830E-01 -0.3513E+01E
 Action:ARG 24-03-13 14:50 OP:OBSP STATUS:               ID:20010203003020     I
 STAT SP IPHASW D HRMM SECON CODA AMPLIT PERI AZIMU VELO AIN AR TRES W  DIS CAZ7
 RHPW    IP   0A   030 32.19                              79    0.0210 50.3  15 
 RHPW    ES   0A   030 41.32                              79    0.5710 50.3  15 
 XBVK    IP   0A   030 34.93                              72   -0.2610 68.7 357 
 XBVK    ES   0A   030 46.13                              72    0.2210 68.7 357 
 LUEX    IP   0A   030 35.66                              72   -0.1210 72.3 285 
 LUEX    ES   0A   030 47.40                              72    0.4910 72.3 285 
 AVTK    IP   0A   030 37.89                              72   -0.2410 87.0 296 
 AVTK    ES   0A   030 51.31                              72    0.3610 87.0 296 
 CBZA    IP   0A   030 38.11                              72   -0.2010 88.1 263 
 CBZA    ES   0A   030 51.69                              72    0.4510 88.1 263 
 DNOA     IAML A   030 38.96         2.6                               92.7  42 
 DNOA    IP   0A   030 38.96                              72   -0.1010 92.7  42 
 MGUS    IP   0A   030 39.41                              72   -0.2510 96.4  85 
 MGUS     IAML A   030 39.41         2.4                               96.4  85 
 MGUS    ES   0A   030 53.96                              72    0.4010 96.4  85 
 RAWC    IP   0A   030 40.24                              72   -0.2410  102 108 
 RAWC    ES   0A   030 55.42                              72    0.4710  102 108 
 APSL    IP   0A   030 41.03                              55   -0.3310  107  63 
 APSL     IAML A   030 41.03         2.1                                107  63 
 APSL    ES   0A   030 56.80                              55    0.3510  107  63 
 DQYH    IP   0A   030 42.74                              51   -0.1210  118 319 
 DQYH     IAML A   030 42.74         1.7                                118 319 
 DQYH    ES   0A   030 59.80                              51    0.7810  118 319 
 VOCA    IP   0A   030 43.79                              51   -0.4510  129  33 
 VOCA    ES   0A   031  1.63                              51    0.2510  129  33 
 RPKV    IP   0A   030 51.69                              51   -0.39 8  188 333 
 RPKV    ES   0A   031 14.59                              51   -0.21 8  188 333 
 QYDI     IAML A   030 51.86         0.7                                192 349 
 QYDI    IP   0A   030 51.86                              51   -0.63 8  192 349 
 QYDI    ES   0A   031 14.92                              51   -0.58 8  192 349 
 HLUH    IP   0A   030 53.10                              51   -0.75 8  202 327 
 HLUH     IAML A   030 53.10         0.7                                202 327 
 HLUH    ES   0A   031 16.97                              51   -0.85 8  202 327 
                                                                                
 2001  2 3 0031 29.8 L  33.706  52.525 16.9  New 13 0.4 1.7LNew                1
 GAP=176        1.02       2.5     1.6  3.4 -0.5160E+00 -0.1137E+01 -0.1599E+01E
 Action:ARG 24-03-13 14:50 OP:OBSP STATUS:               ID:20010203003130     I
 STAT SP IPHASW D HRMM SECON CODA AMPLIT PERI AZIMU VELO AIN AR TRES W  DIS CAZ7
 LUEX    IP   0A   031 42.91                              78    0.0310 54.8 290 
 LUEX     IAML A   031 42.91        51.2                               54.8 290 
 LUEX    ES   0A   031 52.60                              78    0.4410 54.8 290 
 RHPW    IP   0A   031 43.59                              78    0.0610 58.2  33 
 RHPW    ES   0A   031 53.78                              78    0.5010 58.2  33 
 CBZA    IP   0A   031 45.73                              60    0.0210 69.7 261 
 CBZA    ES   0A   031 57.54                              60    0.5410 69.7 261 
 XBVK     IAML A   031 45.73        35.7                               70.6  12 
 XBVK    IP   0A   031 45.73                              60   -0.1310 70.6  12 
 XBVK    ES   0A   031 57.52                              60    0.2710 70.6  12 
 AVTK    IP   0A   031 45.68                              60   -0.2410 71.0 303 
 AVTK    ES   0A   031 57.44                              60    0.0710 71.0 303 
 DNOA     IAML A   031 51.51        18.9                                106  50 
 DNOA    IP   0A   031 51.51                              55   -0.1410  106  50 
 DNOA    ES   0A   032  7.64                              55    0.4910  106  50 
 DQYH    IP   0A   031 51.64                              55   -0.1810  107 326 
 DQYH    ES   0A   032  7.88                              55    0.4210  107 326 
 MGUS    IP   0A   031 52.81                              55   -0.2310  115  85 
 MGUS    ES   0A   032  9.92                              55    0.3910  115  85 
 FOUH    IP   0A   031 53.32                              42   -0.5110  121  11 
 FOUH    ES   0A   032 10.81                              42   -0.0810  121  11 
 APSL    IP   0A   031 54.13                              42   -0.1810  124  67 
 APSL    ES   0A   032 12.23                              42    0.5210  124  67 
 VOCA    IP   0A   031 55.88                              42   -0.5410  140  39 
 VOCA    ES   0A   032 15.30                              42   -0.0110  140  39 
 RPKV    IP   0A   032  1.39                              42   -0.42 8  181 338 
 RPKV     IAML A   032  1.39         7.7                                181 338 
 RPKV    ES   0A   032 24.31                              42   -0.23 8  181 338 
 QYDI    IP   0A   032  2.11                              42   -0.77 8  189 354 
 QYDI    ES   0A   032 25.41                              42   -0.95 8  189 354 
                                                                                
 2001  2 3 0032 39.4 L  33.484  52.561 15.8  New 14 0.4 1.1LNew                1
 GAP=188        1.04       3.3     1.8  4.2  0.2335E+01 -0.3088E+01 -0.6668E+01E
 Action:ARG 24-03-13 14:50 OP:OBSP STATUS:               ID:20010203003240     I
 STAT SP IPHASW D HRMM SECON CODA AMPLIT PERI AZIMU VELO AIN AR TRES W  DIS CAZ7
 LUEX    IP   0A   032 55.51                              73    0.1110 69.9 308 
 LUEX    ES   0A   033  7.14                              73    0.3610 69.9 308 
 CBZA    IP   0A   032 56.00                              56   -0.0510 73.6 281 
 CBZA    ES   0A   033  8.01                              56    0.1210 73.6 281 
 RHPW    IP   0A   032 57.03                              54    0.1210 78.8  21 
 RHPW     IAML A   032 57.03         8.7                               78.8  21 
 RHPW    ES   0A   033  9.80                              54    0.4410 78.8  21 
 AVTK     IAML A   032 58.67         7.4                               89.1 315 
 AVTK    IP   0A   032 58.67                              53    0.0910 89.1 315 
 AVTK    ES   0A   033 12.68                              53    0.4610 89.1 315 
 XBVK    IP   0A   032 59.30                              53   -0.1210 94.3   7 
 XBVK    ES   0A   033 13.78                              53    0.1310 94.3   7 
 RAWC    IP   0A   033  2.44                              53    0.1710  112  93 
 RAWC     IAML A   033  2.44         5.0                                112  93 
 RAWC    ES   0A   033 19.27                              53    0.7510  112  93 
 MGUS    IP   0A   033  2.66                              53   -0.2910  116  73 
 MGUS    ES   0A   033 19.66                              53   -0.0310  116  73 
 DNOA     IAML A   033  3.43         4.5                                122  40 
 DNOA    IP   0A   033  3.43                              41   -0.2610  122  40 
 DNOA    ES   0A   033 21.00                              41    0.0510  122  40 
 DQYH    IP   0A   033  4.83                              41    0.0010  130 331 
 DQYH     IAML A   033  4.83         4.0                                130 331 
 DQYH    ES   0A   033 23.40                              41    0.5010  130 331 
 APSL    IP   0A   033  4.95                              41   -0.2610  133  56 
 APSL    ES   0A   033 23.65                              41    0.1010  133  56 
 FOUH    IP   0A   033  6.52                              41   -0.1710  144   8 
 FOUH    ES   0A   033 26.36                              41    0.2710  144   8 
 VOCA    IP   0A   033  8.03                              41   -0.49 9  158  33 
 VOCA    ES   0A   033 28.86                              41   -0.35 9  158  33 
 RPKV     IAML A   033 14.34         1.7                                205 340 
 RPKV    IP   0A   033 14.34                              41   -0.40 7  205 340 
 RPKV    ES   0A   033 38.87                              41   -0.98 7  205 340 
 HLUH    IP   0A   033 15.47                              41   -0.69 7  216 334 
 HLUH    ES   0A   033 40.82                              41   -1.45 7  216 334 
                                                                                
 2001  2 3 0033 49.1 L  33.619  52.229  8.0  New 14 0.4 2.3LNew                1
 GAP=222        0.91       3.1     3.1  2.4  0.7096E+01 -0.5222E+01 -0.3463E+01E
 Action:ARG 24-03-13 14:50 OP:OBSP STATUS:               ID:20010203003350     I
 STAT SP IPHASW D HRMM SECON CODA AMPLIT PERI AZIMU VELO AIN AR TRES W  DIS CAZ7
 LUEX    IP   0A   033 59.15                              94    0.1610 37.2 320 
 LUEX    ES   0A   034  6.01                              94   -0.0210 37.2 320 
 AVTK    IP   0A   034  3.98                              53    0.2210 57.8 326 
 AVTK    ES   0A   034 14.47                              53    0.2910 57.8 326 
 RHPW    IP   0A   034  8.64                              43    0.0510 83.1  45 
 RHPW    ES   0A   034 22.62                              43    0.1810 83.1  45 
 XBVK     IAML A   034  9.55       107.1                               89.4  28 
 XBVK    IP   0A   034  9.55                              42   -0.0810 89.4  28 
 XBVK    ES   0A   034 24.22                              42    0.0010 89.4  28 
 DQYH    IP   0A   034 12.26                              41    0.3010  104 342 
 DQYH    ES   0A   034 28.95                              41    0.7410  104 342 
 DNOA    IP   0A   034 16.37                              33   -0.1510  134  54 
 DNOA     IAML A   034 16.37        54.4                                134  54 
 DNOA    ES   0A   034 36.14                              33    0.1510  134  54 
 FOUH    IP   0A   034 16.68                              33   -0.3310  138  21 
 FOUH    ES   0A   034 36.68                              33   -0.1510  138  21 
 MGUS    IP   0A   034 17.48                              33   -0.2710  143  82 
 MGUS    ES   0A   034 38.08                              33   -0.0310  143  82 
 RAWC    IP   0A   034 17.98                              33    0.1110  144  98 
 RAWC     IAML A   034 17.98        45.7                                144  98 
 RAWC    ES   0A   034 38.95                              33    0.6410  144  98 
 APSL     IAML A   034 19.03        42.4                                153  67 
 APSL    IP   0A   034 19.03                              33   -0.04 9  153  67 
 APSL    ES   0A   034 40.77                              33    0.41 9  153  67 
 VOCA    IP   0A   034 20.37                              33   -0.35 9  166  44 
 VOCA     IAML A   034 20.37        37.2                                166  44 
 VOCA    ES   0A   034 43.11                              33   -0.07 9  166  44 
 RPKV    IP   0A   034 22.73                              33   -0.16 8  182 347 
 RPKV    ES   0A   034 46.71                              33   -0.18 8  182 347 
 HLUH     IAML A   034 23.67        28.0                                190 340 
 HLUH    IP   0A   034 23.67                              33   -0.27 8  190 340 
 HLUH    ES   0A   034 48.20                              33   -0.49 8  190 340 
 QYDI    IP   0A   034 24.36                              33   -0.63 8  198   2 
 QYDI     IAML A   034 24.36        26.2                                198   2 
 QYDI    ES   0A   034 49.30                              33   -1.18 8  198   2 
                                                                                
