 2001  2 3 0049  0.1 L  33.805  52.572 17.8  New 15 0.4 1.6LNew                1
 GAP=143        0.97       1.8     1.4  2.4 -0.3652E+00 -0.6727E+00  0.9460E+00E
 Action:ARG 24-03-13 14:50 OP:OBSP STATUS:               ID:20010203004900     I
 STAT SP IPHASW D HRMM SECON CODA AMPLIT PERI AZIMU VELO AIN AR TRES W  DIS CAZ7
 RHPW    IP   0A   049 11.52                              92   -0.0710 46.7  35 
 RHPW     IAML A   049 11.52        50.5                               46.7  35 
 RHPW    ES   0A   049 20.16                              92    0.4010 46.7  35 
 LUEX    IP   0A   049 13.39                              91   -0.0610 56.4 278 
 LUEX    ES   0A   049 23.43                              91    0.4810 56.4 278 
 XBVK    IP   0A   049 13.82                              91   -0.1410 59.0  10 
 XBVK     IAML A   049 13.82        36.8                               59.0  10 
 XBVK    ES   0A   049 24.19                              91    0.3710 59.0  10 
 AVTK    IP   0A   049 15.73                              60   -0.1710 69.7 293 
 AVTK    ES   0A   049 27.52                              60    0.3810 69.7 293 
 CBZA    IP   0A   049 16.89                              58   -0.1010 76.3 254 
 CBZA     IAML A   049 16.89        25.4                               76.3 254 
 CBZA    ES   0A   049 29.56                              58    0.5510 76.3 254 
 DNOA    IP   0A   049 20.21                              57    0.0410 96.0  53 
 DQYH    IP   0A   049 20.88                              57   -0.1310  101 320 
 FOUH     IAML A   049 21.97        14.9                                109  10 
 FOUH    IP   0A   049 21.97                              57   -0.2910  109  10 
 FOUH    ES   0A   049 38.45                              57    0.4210  109  10 
 MGUS    IP   0A   049 22.06                              57   -0.3910  110  91 
 MGUS    ES   0A   049 38.61                              57    0.2710  110  91 
 APSL    IP   0A   049 23.12                              46   -0.2610  116  71 
 APSL     IAML A   049 23.12        13.5                                116  71 
 APSL    ES   0A   049 40.47                              46    0.5410  116  71 
 RAWC    IP   0A   049 23.36                              43   -0.3210  118 111 
 RAWC    ES   0A   049 40.89                              43    0.4410  118 111 
 VOCA    IP   0A   049 24.62                              43   -0.4710  129  41 
 VOCA    ES   0A   049 43.09                              43    0.2310  129  41 
 RPKV    IP   0A   049 30.56                              43   -0.30 9  173 336 
 RPKV    ES   0A   049 52.81                              43    0.08 9  173 336 
 QYDI     IAML A   049 31.01         6.4                                179 353 
 QYDI    IP   0A   049 31.01                              43   -0.65 8  179 353 
 QYDI    ES   0A   049 53.59                              43   -0.50 8  179 353 
 HLUH    IP   0A   049 31.83                              43   -0.69 8  185 329 
 HLUH    ES   0A   049 55.11                              43   -0.46 8  185 329 
                                                                                
 2001  2 3 0050  9.8 L  33.427  52.860 30.0  New 13 0.5 1.9LNew                1
 GAP=192        1.25       3.8     2.5  5.0  0.4306E+00  0.3917E+01 -0.5310E+01E
 Action:ARG 24-03-13 14:50 OP:OBSP STATUS:               ID:20010203005010     I
 STAT SP IPHASW D HRMM SECON CODA AMPLIT PERI AZIMU VELO AIN AR TRES W  DIS CAZ7
 RHPW    IP   0A   050 26.58                              94   -0.0310 80.0   0 
 RHPW    ES   0A   050 39.01                              94    0.4410 80.0   0 
 RAWC    IP   0A   050 27.14                              94   -0.1310 84.1  90 
 RAWC    ES   0A   050 39.99                              94    0.3010 84.1  90 
 MGUS    IP   0A   050 28.27                              60   -0.2610 92.6  64 
 MGUS     IAML A   050 28.27        42.3                               92.6  64 
 MGUS    ES   0A   050 41.98                              60    0.1410 92.6  64 
 LUEX     IAML A   050 29.09        38.5                               96.4 301 
 LUEX    IP   0A   050 29.09                              60    0.0410 96.4 301 
 LUEX    ES   0A   050 43.41                              60    0.6810 96.4 301 
 XBVK    IP   0A   050 29.50                              60   -0.2210  101 351 
 XBVK     IAML A   050 29.50        36.3                                101 351 
 XBVK    ES   0A   050 44.13                              60    0.2510  101 351 
 CBZA    IP   0A   050 29.77                              60   -0.0710  102 282 
 CBZA     IAML A   050 29.77        35.2                                102 282 
 CBZA    ES   0A   050 44.60                              60    0.5110  102 282 
 DNOA     IAML A   050 30.95        31.4                                112  27 
 DNOA    IP   0A   050 30.95                              55   -0.1510  112  27 
 DNOA    ES   0A   050 46.65                              55    0.4210  112  27 
 AVTK    IP   0A   050 31.36                              55   -0.0910  114 307 
 AVTK    ES   0A   050 47.38                              55    0.5410  114 307 
 APSL    IP   0A   050 31.41                              55   -0.1810  115  46 
 APSL    ES   0A   050 47.47                              55    0.4010  115  46 
 FOUH     IAML A   050 35.86        19.1                                150 357 
 FOUH    IP   0A   050 35.86                              55   -0.24 9  150 357 
 FOUH    ES   0A   050 55.17                              55    0.39 9  150 357 
 RPKV     IAML A   050 45.20         8.9                                222 334 
 RPKV    IP   0A   050 45.20                              55   -0.46 7  222 334 
 RPKV    ES   0A   051 10.02                              55   -1.12 7  222 334 
 QYDI    IP   0A   050 45.35                              55   -0.67 7  225 347 
 QYDI     IAML A   050 45.35         8.7                                225 347 
 QYDI    ES   0A   051 10.22                              55   -1.54 7  225 347 
 HLUH    IP   0A   050 46.53                              55   -0.85 6  235 329 
 HLUH    ES   0A   051 12.41                              55   -1.66 6  235 329 
                                                                                
 2001  2 3 0051 19.8 L  33.638  52.581 18.3  New 13 0.4 0.9LNew                1
 GAP=166        1.03       2.8     1.6  4.7  0.6949E+00 -0.9856E+00 -0.5434E+01E
 Action:ARG 24-03-13 14:50 OP:OBSP STATUS:               ID:20010203005120     I
 STAT SP IPHASW D HRMM SECON CODA AMPLIT PERI AZIMU VELO AIN AR TRES W  DIS CAZ7
 RHPW    IP   0A   051 34.40                              64    0.0410 62.4  25 
 RHPW    ES   0A   051 45.21                              64    0.5310 62.4  25 
 LUEX     IAML A   051 34.41         8.1                               62.5 295 
 LUEX    IP   0A   051 34.41                              64    0.0410 62.5 295 
 LUEX    ES   0A   051 45.21                              64    0.5110 62.5 295 
 CBZA    IP   0A   051 36.21                              58   -0.1310 74.1 268 
 CBZA     IAML A   051 36.21         6.3                               74.1 268 
 CBZA    ES   0A   051 48.37                              58    0.3110 74.1 268 
 AVTK     IAML A   051 37.17         5.7                               79.5 305 
 AVTK    IP   0A   051 37.17                              57   -0.0510 79.5 305 
 AVTK    ES   0A   051 50.04                              57    0.4710 79.5 305 
 DNOA     IAML A   051 41.51         3.6                                108  45 
 DNOA    IP   0A   051 41.51                              57   -0.2410  108  45 
 DNOA    ES   0A   051 57.64                              57    0.3310  108  45 
 MGUS    IP   0A   051 41.85                              57   -0.3810  111  81 
 MGUS    ES   0A   051 58.24                              57    0.1010  111  81 
 RAWC     IAML A   051 42.40         3.4                                112 102 
 RAWC    IP   0A   051 42.40                              57   -0.1210  112 102 
 RAWC    ES   0A   051 59.20                              57    0.5810  112 102 
 DQYH     IAML A   051 42.93         3.2                                117 326 
 DQYH    IP   0A   051 42.93                              46   -0.2010  117 326 
 DQYH    ES   0A   052  0.12                              46    0.4410  117 326 
 APSL    IP   0A   051 43.72                              43   -0.2410  123  63 
 APSL    ES   0A   052  1.50                              43    0.4110  123  63 
 VOCA     IAML A   051 46.15         2.3                                143  36 
 VOCA    IP   0A   051 46.15                              43   -0.4810  143  36 
 VOCA    ES   0A   052  5.77                              43    0.1110  143  36 
 RPKV    IP   0A   051 52.58                              43   -0.25 8  190 338 
 RPKV    ES   0A   052 15.96                              43   -0.31 8  190 338 
 QYDI    IP   0A   051 53.10                              43   -0.69 8  197 353 
 QYDI    ES   0A   052 16.99                              43   -0.90 8  197 353 
 HLUH    IP   0A   051 53.80                              43   -0.58 8  202 331 
 HLUH     IAML A   051 53.80         1.2                                202 331 
 HLUH    ES   0A   052 18.14                              43   -0.77 8  202 331 
                                                                                
 2001  2 3 0052 29.7 L  33.976  52.695 19.3  New 15 0.3 2.9LNew                1
 GAP=123        0.88       1.6     1.2  2.1 -0.1157E-01  0.5260E+00  0.7217E+00E
 Action:ARG 24-03-13 14:50 OP:OBSP STATUS:               ID:20010203005230     I
 STAT SP IPHASW D HRMM SECON CODA AMPLIT PERI AZIMU VELO AIN AR TRES W  DIS CAZ7
 RHPW    IP   0A   052 37.16                             113    0.0810 24.7  39 
 RHPW    ES   0A   052 42.54                             113    0.1910 24.7  39 
 XBVK    IP   0A   052 39.66                              99   -0.0710 39.0 359 
 LUEX    IP   0A   052 45.08                              60    0.0210 68.1 261 
 LUEX    ES   0A   052 56.39                              60    0.3910 68.1 261 
 AVTK    IP   0A   052 46.34                              58   -0.0110 75.9 276 
 AVTK     IAML A   052 46.34       505.5                               75.9 276 
 AVTK    ES   0A   052 58.59                              58    0.3810 75.9 276 
 DNOA     IAML A   052 46.35       492.4                               76.0  59 
 DNOA    IP   0A   052 46.35                              58   -0.0110 76.0  59 
 DNOA    ES   0A   052 58.62                              58    0.4010 76.0  59 
 FOUH    IP   0A   052 48.29                              57   -0.1210 88.7   5 
 FOUH     IAML A   052 48.29       398.5                               88.7   5 
 FOUH    ES   0A   053  2.01                              57    0.2810 88.7   5 
 CBZA    IP   0A   052 48.95                              57   -0.2810 93.8 245 
 CBZA     IAML A   052 48.95       367.0                               93.8 245 
 CBZA    ES   0A   053  3.16                              57    0.0310 93.8 245 
 DQYH     IAML A   052 49.71       356.0                               96.1 308 
 DQYH    IP   0A   052 49.71                              57    0.1110 96.1 308 
 DQYH    ES   0A   053  4.48                              57    0.7210 96.1 308 
 APSL    IP   0A   052 50.16                              57   -0.1010  100  79 
 APSL    ES   0A   053  5.28                              57    0.3810  100  79 
 MGUS     IAML A   052 50.26       320.5                                101 102 
 MGUS    IP   0A   052 50.26                              57   -0.1310  101 102 
 MGUS    ES   0A   053  5.46                              57    0.3510  101 102 
 VOCA    IP   0A   052 51.00                              57   -0.4010  107  43 
 RAWC    IP   0A   052 52.42                              46   -0.3810  116 121 
 RAWC    ES   0A   053  9.24                              46   -0.0010  116 121 
 RPKV    IP   0A   052 58.52                              43   -0.18 9  161 329 
 RPKV     IAML A   052 58.52       150.1                                161 329 
 RPKV    ES   0A   053 19.35                              43    0.03 9  161 329 
 QYDI    IP   0A   052 58.27                              43   -0.54 9  162 348 
 QYDI     IAML A   052 58.27       148.3                                162 348 
 QYDI    ES   0A   053 19.05                              43   -0.46 9  162 348 
 HLUH     IAML A   053  0.09       127.4                                176 322 
 HLUH    IP   0A   053  0.09                              43   -0.58 8  176 322 
 HLUH    ES   0A   053 22.01                              43   -0.68 8  176 322 
                                                                                
 2001  2 3 0053 40.0 L  33.693  52.776 28.1  New 14 0.4 2.3LNew                1
 GAP=157        1.06       2.3     1.9  3.2 -0.3372E+00 -0.1877E+01 -0.2709E+00E
 Action:ARG 24-03-13 14:50 OP:OBSP STATUS:               ID:20010203005340     I
 STAT SP IPHASW D HRMM SECON CODA AMPLIT PERI AZIMU VELO AIN AR TRES W  DIS CAZ7
 RHPW    IP   0A   053 52.08                              95   -0.1210 51.2   9 
 RHPW    ES   0A   054  1.15                              95    0.2910 51.2   9 
 XBVK    IP   0A   053 55.09                              92   -0.2910 70.9 354 
 XBVK    ES   0A   054  6.41                              92    0.1210 70.9 354 
 LUEX     IAML A   053 56.28       143.6                               77.4 285 
 LUEX    IP   0A   053 56.28                              92   -0.1410 77.4 285 
 LUEX    ES   0A   054  8.50                              92    0.4410 77.4 285 
 DNOA    IP   0A   053 58.41                              91   -0.2010 91.0  40 
 DNOA    ES   0A   054 12.22                              91    0.4010 91.0  40 
 AVTK    IP   0A   053 58.47                              91   -0.3110 92.0 296 
 AVTK    ES   0A   054 12.31                              91    0.2210 92.0 296 
 CBZA    IP   0A   053 58.68                              91   -0.1810 92.5 265 
 CBZA     IAML A   053 58.68       109.9                               92.5 265 
 CBZA    ES   0A   054 12.70                              91    0.4610 92.5 265 
 RAWC     IAML A   053 59.27       106.0                               96.5 108 
 RAWC    IP   0A   053 59.27                              60   -0.1910 96.5 108 
 RAWC    ES   0A   054 13.73                              60    0.4710 96.5 108 
 APSL    IP   0A   054  0.25                              60   -0.2510  104  61 
 APSL    ES   0A   054 15.44                              60    0.4010  104  61 
 FOUH    IP   0A   054  2.16                              55   -0.4410  120   0 
 FOUH    ES   0A   054 18.78                              55    0.1510  120   0 
 DQYH    IP   0A   054  3.05                              55    0.0410  123 318 
 DQYH    ES   0A   054 20.33                              55    0.9910  123 318 
 VOCA    IP   0A   054  3.34                              55   -0.3410  128  31 
 VOCA    ES   0A   054 20.85                              55    0.3710  128  31 
 RPKV    IP   0A   054 11.85                              55   -0.30 8  192 332 
 RPKV    ES   0A   054 34.73                              55   -0.23 8  192 332 
 QYDI    IP   0A   054 11.87                              55   -0.55 8  194 348 
 QYDI     IAML A   054 11.87        31.5                                194 348 
 QYDI    ES   0A   054 34.79                              55   -0.64 8  194 348 
 HLUH    IP   0A   054 13.27                              55   -0.69 7  206 326 
 HLUH    ES   0A   054 37.17                              55   -0.89 7  206 326 
                                                                                
 2001  2 3 0054 50.0 L  33.715  52.552 16.5  New 15 0.4 0.7LNew                1
 GAP=155        1.14       2.3     1.7  3.6 -0.8243E-01 -0.7908E+00  0.8214E+00E
 Action:ARG 24-03-13 14:50 OP:OBSP STATUS:               ID:20010203005450     I
 STAT SP IPHASW D HRMM SECON CODA AMPLIT PERI AZIMU VELO AIN AR TRES W  DIS CAZ7
 RHPW    IP   0A   055  3.32                              78    0.0310 56.0  31 
 RHPW     IAML A   055  3.32         6.0                               56.0  31 
 RHPW    ES   0A   055 13.31                              78    0.5510 56.0  31 
 LUEX     IAML A   055  3.51         5.8                               56.8 288 
 LUEX    IP   0A   055  3.51                              78    0.0710 56.8 288 
 LUEX    ES   0A   055 13.65                              78    0.6410 56.8 288 
 XBVK    IP   0A   055  5.60                              78   -0.2110 69.1  11 
 XBVK    ES   0A   055 17.30                              78    0.2310 69.1  11 
 CBZA    IP   0A   055  6.26                              58   -0.0810 72.3 261 
 CBZA    ES   0A   055 18.45                              58    0.4710 72.3 261 
 AVTK     IAML A   055  6.20         4.2                               72.6 301 
 AVTK    IP   0A   055  6.20                              58   -0.1910 72.6 301 
 AVTK    ES   0A   055 18.35                              58    0.2910 72.6 301 
 DNOA     IAML A   055 11.37         2.4                                104  49 
 DNOA    IP   0A   055 11.37                              55   -0.0810  104  49 
 DNOA    ES   0A   055 27.40                              55    0.7010  104  49 
 DQYH    IP   0A   055 11.97                              55   -0.1610  108 325 
 DQYH     IAML A   055 11.97         2.3                                108 325 
 DQYH    ES   0A   055 28.45                              55    0.5810  108 325 
 MGUS     IAML A   055 12.54         2.1                                112  86 
 MGUS    IP   0A   055 12.54                              55   -0.2910  112  86 
 MGUS    ES   0A   055 29.45                              55    0.3810  112  86 
 RAWC    IP   0A   055 13.39                              45   -0.1810  117 106 
 RAWC    ES   0A   055 30.94                              45    0.6010  117 106 
 FOUH    IP   0A   055 13.33                              45   -0.5310  119  10 
 APSL    IP   0A   055 13.91                              42   -0.2710  122  67 
 VOCA     IAML A   055 15.83         1.5                                138  39 
 VOCA    IP   0A   055 15.83                              42   -0.5010  138  39 
 VOCA    ES   0A   055 35.21                              42    0.1510  138  39 
 RPKV    IP   0A   055 21.68                              42   -0.36 8  181 337 
 RPKV    ES   0A   055 44.70                              42   -0.12 8  181 337 
 QYDI     IAML A   055 22.21         0.9                                189 354 
 QYDI    IP   0A   055 22.21                              42   -0.80 8  189 354 
 QYDI    ES   0A   055 45.62                              42   -0.85 8  189 354 
 HLUH    IP   0A   055 22.88                              42   -0.72 8  193 331 
 HLUH    ES   0A   055 46.87                              42   -0.62 8  193 331 
                                                                                
