 2001  2 3 0013 59.9 L  33.760  52.578 18.1  New 15 0.4 0.3LNew                1
 GAP=149        1.05       2.0     1.5  2.9 -0.1746E+00 -0.1100E+01  0.2339E+00E
 Action:ARG 24-03-13 14:50 OP:OBSP STATUS:               ID:20010203001400     I
 STAT SP IPHASW D HRMM SECON CODA AMPLIT PERI AZIMU VELO AIN AR TRES W  DIS CAZ7
 RHPW    IP   0A   014 12.17                              93   -0.0110 50.5  32 
 RHPW     IAML A   014 12.17         2.7                               50.5  32 
 RHPW    ES   0A   014 21.30                              93    0.4110 50.5  32 
 LUEX    IP   0A   014 13.56                              92   -0.0010 57.7 283 
 LUEX    ES   0A   014 23.73                              92    0.4810 57.7 283 
 XBVK    IP   0A   014 14.52                              64   -0.1910 63.8   9 
 XBVK     IAML A   014 14.52         1.9                               63.8   9 
 XBVK    ES   0A   014 25.42                              64    0.2110 63.8   9 
 AVTK    IP   0A   014 16.00                              60   -0.1410 72.2 297 
 AVTK    ES   0A   014 28.01                              60    0.3610 72.2 297 
 CBZA     IAML A   014 16.63         1.5                               75.6 257 
 CBZA    IP   0A   014 16.63                              58   -0.0610 75.6 257 
 CBZA    ES   0A   014 29.11                              58    0.5210 75.6 257 
 DNOA    IP   0A   014 20.45                              57    0.0310 98.7  50 
 DNOA    ES   0A   014 35.78                              57    0.8010 98.7  50 
 DQYH    IP   0A   014 21.32                              57   -0.1810  105 322 
 DQYH    ES   0A   014 37.32                              57    0.5110  105 322 
 MGUS     IAML A   014 21.85         0.9                                110  88 
 MGUS    IP   0A   014 21.85                              57   -0.3510  110  88 
 MGUS    ES   0A   014 38.24                              57    0.2210  110  88 
 FOUH    IP   0A   014 22.37                              57   -0.4810  114   9 
 FOUH    ES   0A   014 39.14                              57    0.0010  114   9 
 RAWC    IP   0A   014 22.91                              46   -0.3010  116 108 
 RAWC     IAML A   014 22.91         0.8                                116 108 
 RAWC    ES   0A   014 40.10                              46    0.3610  116 108 
 APSL    IP   0A   014 23.10                              46   -0.2710  117  68 
 APSL     IAML A   014 23.10         0.8                                117  68 
 APSL    ES   0A   014 40.42                              46    0.4010  117  68 
 VOCA     IAML A   014 24.90         0.6                                132  39 
 VOCA    IP   0A   014 24.90                              43   -0.4610  132  39 
 VOCA    ES   0A   014 43.57                              43    0.1610  132  39 
 RPKV    IP   0A   014 30.97                              43   -0.32 8  178 336 
 QYDI    IP   0A   014 31.41                              43   -0.71 8  184 353 
 QYDI    ES   0A   014 54.25                              43   -0.74 8  184 353 
 HLUH    IP   0A   014 32.24                              43   -0.68 8  190 329 
 HLUH    ES   0A   014 55.74                              43   -0.61 8  190 329 
                                                                                
 2001  2 3 0015  9.7 L  33.789  52.653 20.0  New 15 0.4 2.5LNew                1
 GAP=145        0.96       1.9     1.4  3.3  0.1039E-01  0.2202E-01 -0.9515E+00E
 Action:ARG 24-03-13 14:50 OP:OBSP STATUS:               ID:20010203001510     I
 STAT SP IPHASW D HRMM SECON CODA AMPLIT PERI AZIMU VELO AIN AR TRES W  DIS CAZ7
 RHPW    IP   0A   015 21.10                              99    0.2510 44.4  26 
 RHPW     IAML A   015 21.10       495.1                               44.4  26 
 XBVK    IP   0A   015 23.66                              64   -0.0210 59.9   3 
 XBVK     IAML A   015 23.66       334.8                               59.9   3 
 XBVK    ES   0A   015 33.91                              64    0.3210 59.9   3 
 LUEX    IP   0A   015 24.40                              62    0.0210 64.0 279 
 LUEX    ES   0A   015 35.19                              62    0.4110 64.0 279 
 AVTK    IP   0A   015 26.58                              57    0.0110 77.3 292 
 AVTK    ES   0A   015 39.01                              57    0.4810 77.3 292 
 CBZA    IP   0A   015 27.47                              57   -0.0310 83.1 256 
 CBZA     IAML A   015 27.47       218.7                               83.1 256 
 CBZA    ES   0A   015 40.57                              57    0.4510 83.1 256 
 DNOA    IP   0A   015 29.01                              57    0.1710 91.4  49 
 DNOA    ES   0A   015 43.26                              57    0.8510 91.4  49 
 MGUS    IP   0A   015 30.37                              57   -0.3010  103  90 
 MGUS    ES   0A   015 45.64                              57    0.1010  103  90 
 DQYH    IP   0A   015 31.38                              57   -0.0510  107 318 
 FOUH    IP   0A   015 31.48                              57   -0.3210  110   6 
 FOUH     IAML A   015 31.48       138.8                                110   6 
 FOUH    ES   0A   015 47.59                              57    0.1110  110   6 
 APSL    IP   0A   015 31.62                              57   -0.1810  110  69 
 APSL    ES   0A   015 47.83                              57    0.3510  110  69 
 RAWC    IP   0A   015 31.60                              57   -0.3610  111 111 
 RAWC    ES   0A   015 47.81                              57    0.0610  111 111 
 VOCA    IP   0A   015 33.62                              43   -0.3710  126  38 
 VOCA    ES   0A   015 51.34                              43    0.1210  126  38 
 RPKV     IAML A   015 40.57        61.0                                178 334 
 RPKV    IP   0A   015 40.57                              43   -0.26 8  178 334 
 RPKV    ES   0A   016  2.69                              43   -0.23 8  178 334 
 QYDI    IP   0A   015 40.80                              43   -0.58 8  182 350 
 QYDI     IAML A   015 40.80        58.3                                182 350 
 QYDI    ES   0A   016  3.22                              43   -0.63 8  182 350 
 HLUH    IP   0A   015 41.98                              43   -0.60 8  191 327 
 HLUH    ES   0A   016  5.12                              43   -0.80 8  191 327 
                                                                                
 2001  2 3 0016 19.2 L  33.584  52.481 12.8  New 13 0.4 5.0LNew                1
 GAP=175        1.01       2.5     1.7  3.1  0.6278E+00 -0.1679E+01 -0.2438E+01E
 Action:ARG 24-03-13 14:50 OP:OBSP STATUS:               ID:20010203001620     I
 STAT SP IPHASW D HRMM SECON CODA AMPLIT PERI AZIMU VELO AIN AR TRES W  DIS CAZ7
 LUEX    IP   0A   016 33.32                              52    0.2110 57.4 304 
 LUEX     IAML A   016 33.32      10.7e4                               57.4 304 
 LUEX    ES   0A   016 43.31                              52    0.3610 57.4 304 
 CBZA    IP   0A   016 34.66                              52    0.1110 64.9 273 
 CBZA     IAML A   016 34.66     88290.7                               64.9 273 
 CBZA    ES   0A   016 45.65                              52    0.2310 64.9 273 
 RHPW    IP   0A   016 36.23                              52    0.3110 72.0  29 
 RHPW     IAML A   016 36.23     75420.9                               72.0  29 
 RHPW    ES   0A   016 48.41                              52    0.6610 72.0  29 
 XBVK    IP   0A   016 38.18                              42    0.0310 84.8  13 
 XBVK    ES   0A   016 51.81                              42    0.2410 84.8  13 
 DQYH    IP   0A   016 43.22                              41   -0.1010  117 331 
 DQYH    ES   0A   017  0.64                              41    0.2210  117 331 
 DNOA    IP   0A   016 43.37                              41   -0.2110  118  46 
 DNOA    ES   0A   017  0.90                              41    0.0510  118  46 
 RAWC     IAML A   016 43.96     33176.7                                120  98 
 RAWC    IP   0A   016 43.96                              35    0.0610  120  98 
 RAWC    ES   0A   017  1.92                              35    0.5210  120  98 
 MGUS    IP   0A   016 43.60                              35   -0.3410  121  79 
 MGUS    ES   0A   017  1.30                              35   -0.1810  121  79 
 APSL     IAML A   016 45.58     28347.0                                134  62 
 APSL    IP   0A   016 45.58                              33   -0.0810  134  62 
 APSL    ES   0A   017  4.75                              33    0.3310  134  62 
 FOUH    IP   0A   016 45.53                              33   -0.2610  135  12 
 FOUH    ES   0A   017  4.67                              33    0.0410  135  12 
 VOCA    IP   0A   016 47.89                              33   -0.36 9  153  37 
 VOCA    ES   0A   017  8.79                              33   -0.05 9  153  37 
 RPKV    IP   0A   016 53.04                              33   -0.36 8  193 341 
 RPKV    ES   0A   017 17.05                              33   -0.60 8  193 341 
 QYDI    IP   0A   016 54.03                              33   -0.68 8  202 356 
 QYDI    ES   0A   017 18.40                              33   -1.50 8  202 356 
                                                                                
 2001  2 3 0017 30.0 L  33.586  52.810 29.0  New 13 0.4 0.8LNew                1
 GAP=171        1.01       2.5     1.7  3.1  0.3258E+00  0.6947E+00 -0.1440E+01E
 Action:ARG 24-03-13 14:50 OP:OBSP STATUS:               ID:20010203001730     I
 STAT SP IPHASW D HRMM SECON CODA AMPLIT PERI AZIMU VELO AIN AR TRES W  DIS CAZ7
 RHPW    IP   0A   017 44.03                              95   -0.0110 62.6   5 
 RHPW    ES   0A   017 54.54                              95    0.5410 62.6   5 
 XBVK     IAML A   017 46.94         3.8                               83.1 352 
 XBVK    IP   0A   017 46.94                              93   -0.3910 83.1 352 
 XBVK    ES   0A   017 59.65                              93    0.0210 83.1 352 
 LUEX    IP   0A   017 47.37                              93   -0.1410 84.2 293 
 LUEX    ES   0A   018  0.40                              93    0.4610 84.2 293 
 RAWC     IAML A   017 48.44         3.2                               90.5 101 
 RAWC    IP   0A   017 48.44                              92   -0.0810 90.5 101 
 RAWC    ES   0A   018  2.28                              92    0.6210 90.5 101 
 MGUS    IP   0A   017 48.20                              92   -0.4110 91.0  76 
 MGUS     IAML A   017 48.20         3.2                               91.0  76 
 MGUS    ES   0A   018  1.84                              92    0.0310 91.0  76 
 CBZA    IP   0A   017 49.08                              60   -0.1310 95.3 272 
 CBZA    ES   0A   018  3.39                              60    0.5510 95.3 272 
 DNOA    IP   0A   017 49.39                              60   -0.2810 98.7  34 
 DNOA    ES   0A   018  3.93                              60    0.2910 98.7  34 
 AVTK    IP   0A   017 49.69                              60   -0.2310  100 301 
 AVTK    ES   0A   018  4.46                              60    0.4010  100 301 
 APSL    IP   0A   017 50.58                              55   -0.3210  108  55 
 APSL     IAML A   017 50.58         2.5                                108  55 
 APSL    ES   0A   018  6.01                              55    0.2810  108  55 
 FOUH    IP   0A   017 53.67                              55   -0.4010  132 359 
 FOUH     IAML A   017 53.67         1.8                                132 359 
 FOUH    ES   0A   018 11.43                              55    0.2810  132 359 
 VOCA     IAML A   017 54.47         1.7                                137  27 
 VOCA    IP   0A   017 54.47                              55   -0.2810  137  27 
 VOCA    ES   0A   018 12.79                              55    0.4810  137  27 
 RPKV    IP   0A   018  3.35                              55   -0.28 7  204 333 
 RPKV    ES   0A   018 26.96                              55   -0.54 7  204 333 
 QYDI     IAML A   018  3.40         0.8                                207 348 
 QYDI    IP   0A   018  3.40                              55   -0.54 7  207 348 
 QYDI    ES   0A   018 27.06                              55   -0.97 7  207 348 
                                                                                
 2001  2 3 0018 39.6 L  33.686  52.770 20.3  New 14 0.4 3.7LNew                1
 GAP=158        1.11       2.9     1.7  5.5  0.2896E+00  0.8470E+00 -0.7009E+01E
 Action:ARG 24-03-13 14:50 OP:OBSP STATUS:               ID:20010203001840     I
 STAT SP IPHASW D HRMM SECON CODA AMPLIT PERI AZIMU VELO AIN AR TRES W  DIS CAZ7
 XBVK    IP   0A   018 55.66                              58    0.2110 71.6 354 
 XBVK    ES   0A   019  7.41                              58    0.6710 71.6 354 
 LUEX    IP   0A   018 56.43                              57    0.0910 77.1 286 
 LUEX    ES   0A   019  8.75                              57    0.4910 77.1 286 
 AVTK    IP   0A   018 58.67                              57   -0.0610 91.9 296 
 AVTK    ES   0A   019 12.68                              57    0.3410 91.9 296 
 DNOA    ES   0A   019 13.02                              57    0.6710 91.9  39 
 AVTK     IAML A   018 58.67      2860.8                               91.9 296 
 DNOA    IP   0A   018 58.87                              57    0.1410 91.9  39 
 CBZA    IP   0A   018 58.64                              57   -0.1010 92.0 265 
 CBZA    ES   0A   019 12.62                              57    0.2610 92.0 265 
 MGUS     IAML A   018 58.71      2871.2                               92.6  83 
 MGUS    IP   0A   018 58.71                              57   -0.1310 92.6  83 
 MGUS    ES   0A   019 12.74                              57    0.2210 92.6  83 
 RAWC     IAML A   018 59.37      2718.1                               96.8 107 
 RAWC    IP   0A   018 59.37                              57   -0.1410 96.8 107 
 RAWC    ES   0A   019 13.89                              57    0.2110 96.8 107 
 APSL    IP   0A   019  0.60                              57   -0.2110  105  61 
 APSL    ES   0A   019 16.05                              57    0.1610  105  61 
 FOUH    IP   0A   019  2.71                              43   -0.4110  121   0 
 FOUH    ES   0A   019 19.75                              43   -0.0910  121   0 
 DQYH    IP   0A   019  3.45                              43   -0.0110  123 318 
 DQYH    ES   0A   019 21.03                              43    0.6010  123 318 
 VOCA     IAML A   019  3.82      1664.7                                129  31 
 VOCA    IP   0A   019  3.82                              43   -0.4010  129  31 
 RPKV    IP   0A   019 12.33                              43   -0.29 8  193 332 
 RPKV    ES   0A   019 35.51                              43   -0.58 8  193 332 
 QYDI    IP   0A   019 12.39                              43   -0.53 8  195 348 
 QYDI    ES   0A   019 35.61                              43   -0.99 8  195 348 
 HLUH    IP   0A   019 13.74                              43   -0.68 7  206 326 
 HLUH    ES   0A   019 37.92                              43   -1.26 7  206 326 
                                                                                
 2001  2 3 0019 49.5 L  33.732  52.487 12.3  New 14 0.5 3.6LNew                1
 GAP=153        1.26       2.7     1.8  3.7  0.3863E+00 -0.1724E+01 -0.2941E+01E
 Action:ARG 24-03-13 14:50 OP:OBSP STATUS:               ID:20010203001950     I
 STAT SP IPHASW D HRMM SECON CODA AMPLIT PERI AZIMU VELO AIN AR TRES W  DIS CAZ7
 LUEX    IP   0A   020  2.34                              53    0.2510 50.5 288 
 LUEX     IAML A   020  2.34      5502.4                               50.5 288 
 LUEX    ES   0A   020 11.59                              53    0.5510 50.5 288 
 RHPW     IAML A   020  4.00      4520.2                               57.9  37 
 RHPW    IP   0A   020  4.00                              52    0.4710 57.9  37 
 RHPW    ES   0A   020 14.50                              52    1.0010 57.9  37 
 AVTK    IP   0A   020  5.20                              52    0.0310 66.4 302 
 AVTK    ES   0A   020 16.60                              52    0.2910 66.4 302 
 CBZA    IP   0A   020  5.29                              52    0.0810 66.7 258 
 CBZA    ES   0A   020 16.76                              52    0.3810 66.7 258 
 DQYH    IP   0A   020 11.41                              41   -0.0210  103 327 
 DQYH    ES   0A   020 27.48                              41    0.4710  103 327 
 DNOA    IP   0A   020 12.17                              41    0.0610  107  52 
 DNOA    ES   0A   020 28.80                              41    0.6310  107  52 
 MGUS    IP   0A   020 13.55                              41   -0.3310  118  87 
 MGUS    ES   0A   020 31.21                              41    0.0010  118  87 
 FOUH    IP   0A   020 13.59                              41   -0.3310  119  13 
 FOUH    ES   0A   020 31.29                              41    0.0110  119  13 
 RAWC    IP   0A   020 14.43                              33   -0.2110  123 106 
 RAWC    ES   0A   020 32.75                              33    0.2510  123 106 
 APSL     IAML A   020 14.85      1401.8                                126  69 
 APSL    IP   0A   020 14.85                              33   -0.1910  126  69 
 APSL    ES   0A   020 33.49                              33    0.3110  126  69 
 VOCA    IP   0A   020 16.40                              33   -0.4710  140  41 
 VOCA    ES   0A   020 36.19                              33   -0.1310  140  41 
 RPKV    IP   0A   020 21.25                              33   -0.48 8  177 339 
 RPKV    ES   0A   020 44.18                              33   -0.45 8  177 339 
 QYDI    IP   0A   020 22.19                              33   -0.71 8  186 355 
 QYDI     IAML A   020 22.19       709.3                                186 355 
 QYDI    ES   0A   020 45.59                              33   -1.05 8  186 355 
 HLUH    IP   0A   020 22.38                              33   -0.84 8  189 332 
 HLUH     IAML A   020 22.38       692.6                                189 332 
 HLUH    ES   0A   020 45.98                              33   -1.20 8  189 332 
                                                                                
