 2001  2 3 0006 59.8 L  33.830  52.542 16.0  New 15 0.4 2.7LNew                1
 GAP=140        1.02       1.9     1.5  3.1 -0.3929E+00 -0.1454E+01  0.3386E+00E
 Action:ARG 24-03-13 14:50 OP:OBSP STATUS:               ID:20010203000700     I
 STAT SP IPHASW D HRMM SECON CODA AMPLIT PERI AZIMU VELO AIN AR TRES W  DIS CAZ7
 RHPW    IP   0A   0 7 11.31                              73    0.0110 46.2  40 
 RHPW     IAML A   0 7 11.31       670.1                               46.2  40 
 RHPW    ES   0A   0 7 19.79                              73    0.3510 46.2  40 
 LUEX    IP   0A   0 7 12.79                              73    0.1310 53.2 275 
 LUEX     IAML A   0 7 12.79       549.8                               53.2 275 
 LUEX    ES   0A   0 7 22.38                              73    0.6210 53.2 275 
 XBVK    IP   0A   0 7 13.30                              73   -0.0610 56.9  14 
 XBVK    ES   0A   0 7 23.27                              73    0.3210 56.9  14 
 AVTK     IAML A   0 7 15.01       411.5                               66.0 292 
 AVTK    IP   0A   0 7 15.01                              73   -0.1110 66.0 292 
 AVTK    ES   0A   0 7 26.27                              73    0.3010 66.0 292 
 CBZA     IAML A   0 7 16.59       340.7                               74.5 251 
 CBZA    IP   0A   0 7 16.59                              56   -0.0610 74.5 251 
 CBZA    ES   0A   0 7 29.03                              56    0.4610 74.5 251 
 DNOA    IP   0A   0 7 20.26                              53    0.0110 96.7  55 
 DNOA    ES   0A   0 7 35.45                              53    0.7210 96.7  55 
 DQYH    IP   0A   0 7 20.25                              53   -0.0910 97.3 321 
 FOUH    IP   0A   0 7 21.73                              53   -0.1510  107  12 
 FOUH    ES   0A   0 7 38.02                              53    0.5010  107  12 
 MGUS    IP   0A   0 7 22.52                              53   -0.3710  113  92 
 MGUS    ES   0A   0 7 39.41                              53    0.1610  113  92 
 APSL    IP   0A   0 7 23.37                              44   -0.2810  118  73 
 APSL     IAML A   0 7 23.37       169.7                                118  73 
 APSL    ES   0A   0 7 40.89                              44    0.3410  118  73 
 RAWC    IP   0A   0 7 23.88                              41   -0.3210  122 111 
 RAWC     IAML A   0 7 23.88       158.8                                122 111 
 RAWC    ES   0A   0 7 41.78                              41    0.2910  122 111 
 VOCA     IAML A   0 7 24.56       148.0                                129  43 
 VOCA    IP   0A   0 7 24.56                              41   -0.5310  129  43 
 VOCA    ES   0A   0 7 42.98                              41   -0.0410  129  43 
 RPKV    IP   0A   0 7 30.03                              41   -0.37 9  169 336 
 RPKV    ES   0A   0 7 52.05                              41   -0.05 9  169 336 
 QYDI    IP   0A   0 7 30.63                              41   -0.65 8  176 353 
 QYDI    ES   0A   0 7 52.95                              41   -0.65 8  176 353 
 HLUH    IP   0A   0 7 31.29                              41   -0.75 8  182 329 
 HLUH     IAML A   0 7 31.29        80.7                                182 329 
 HLUH    ES   0A   0 7 54.25                              41   -0.66 8  182 329 
                                                                                
 2001  2 3 0008  9.5 L  33.518  52.697 21.0  New 13 0.5 2.0LNew                1
 GAP=205        1.15       3.8     2.2  5.5  0.3152E+01 -0.2216E+01 -0.1037E+02E
 Action:ARG 24-03-13 14:50 OP:OBSP STATUS:               ID:20010203000810     I
 STAT SP IPHASW D HRMM SECON CODA AMPLIT PERI AZIMU VELO AIN AR TRES W  DIS CAZ7
 RHPW    IP   0A   0 8 25.54                              58    0.2410 71.6  13 
 RHPW     IAML A   0 8 25.54        70.7                               71.6  13 
 RHPW    ES   0A   0 8 37.20                              58    0.6610 71.6  13 
 LUEX     IAML A   0 8 26.59        61.4                               78.2 301 
 LUEX    IP   0A   0 8 26.59                              57    0.2310 78.2 301 
 LUEX    ES   0A   0 8 39.03                              57    0.6710 78.2 301 
 XBVK     IAML A   0 8 28.09        50.5                               89.9 360 
 XBVK    IP   0A   0 8 28.09                              57   -0.1610 89.9 360 
 XBVK    ES   0A   0 8 41.65                              57    0.0810 89.9 360 
 AVTK    IP   0A   0 8 29.20                              57   -0.0510 96.1 308 
 AVTK    ES   0A   0 8 43.61                              57    0.3210 96.1 308 
 RAWC    IP   0A   0 8 29.95                              57    0.1210 99.7  96 
 RAWC    ES   0A   0 8 44.92                              57    0.6310 99.7  96 
 MGUS    IP   0A   0 8 30.12                              57   -0.2610  103  73 
 MGUS    ES   0A   0 8 45.21                              57   -0.0110  103  73 
 DNOA     IAML A   0 8 31.44        36.8                                111  36 
 DNOA    IP   0A   0 8 31.44                              46   -0.1810  111  36 
 DNOA    ES   0A   0 8 47.52                              46    0.1810  111  36 
 APSL    IP   0A   0 8 32.62                              43   -0.3110  121  55 
 APSL    ES   0A   0 8 49.59                              43    0.0110  121  55 
 DQYH     IAML A   0 8 34.65        26.8                                134 325 
 DQYH    IP   0A   0 8 34.65                              43   -0.0010  134 325 
 DQYH    ES   0A   0 8 53.02                              43    0.4910  134 325 
 FOUH     IAML A   0 8 35.10        25.0                                139   3 
 FOUH    IP   0A   0 8 35.10                              43   -0.3110  139   3 
 FOUH    ES   0A   0 8 53.90                              43    0.0710  139   3 
 VOCA    IP   0A   0 8 36.21                              43   -0.4010  148  30 
 VOCA    ES   0A   0 8 55.72                              43   -0.1510  148  30 
 RPKV    IP   0A   0 8 43.84                              43   -0.43 7  207 336 
 RPKV    ES   0A   0 9  7.86                              43   -1.11 7  207 336 
 HLUH    IP   0A   0 8 45.10                              43   -0.76 7  219 330 
 HLUH    ES   0A   0 9 10.08                              43   -1.62 7  219 330 
                                                                                
 2001  2 3 0009 19.5 L  33.615  52.649 19.4  New 13 0.4 2.3LNew                1
 GAP=168        1.03       2.6     1.7  4.5  0.3392E+00 -0.3574E+00 -0.4254E+01E
 Action:ARG 24-03-13 14:50 OP:OBSP STATUS:               ID:20010203000920     I
 STAT SP IPHASW D HRMM SECON CODA AMPLIT PERI AZIMU VELO AIN AR TRES W  DIS CAZ7
 RHPW    IP   0A   0 9 34.20                              64    0.2310 62.4  19 
 RHPW     IAML A   0 9 34.20       189.3                               62.4  19 
 RHPW    ES   0A   0 9 44.86                              64    0.6410 62.4  19 
 LUEX     IAML A   0 9 35.29       160.4                               69.2 295 
 LUEX    IP   0A   0 9 35.29                              60    0.1610 69.2 295 
 LUEX    ES   0A   0 9 46.75                              60    0.5510 69.2 295 
 XBVK    IP   0A   0 9 36.64                              57   -0.1110 79.1   3 
 XBVK     IAML A   0 9 36.64       134.5                               79.1   3 
 XBVK    ES   0A   0 9 49.12                              57    0.1510 79.1   3 
 CBZA    IP   0A   0 9 36.95                              57    0.0010 80.4 270 
 CBZA     IAML A   0 9 36.95       129.0                               80.4 270 
 CBZA    ES   0A   0 9 49.66                              57    0.3510 80.4 270 
 DNOA    IP   0A   0 9 40.84                              57   -0.1010  105  41 
 DNOA    ES   0A   0 9 56.47                              57    0.3410  105  41 
 MGUS    IP   0A   0 9 40.59                              57   -0.3010  105  79 
 MGUS    ES   0A   0 9 56.04                              57   -0.0110  105  79 
 RAWC    IP   0A   0 9 41.02                              57   -0.0110  106 101 
 RAWC    ES   0A   0 9 56.78                              57    0.4910  106 101 
 APSL    IP   0A   0 9 42.65                              43   -0.2810  118  60 
 APSL     IAML A   0 9 42.65        72.4                                118  60 
 APSL    ES   0A   0 9 59.64                              43    0.0910  118  60 
 DQYH    IP   0A   0 9 43.35                              43   -0.0910  122 324 
 DQYH    ES   0A   010  0.85                              43    0.4510  122 324 
 FOUH     IAML A   0 9 43.95        62.8                                129   5 
 FOUH    IP   0A   0 9 43.95                              43   -0.3710  129   5 
 FOUH    ES   0A   010  1.91                              43   -0.0110  129   5 
 VOCA    IP   0A   0 9 45.56                              43   -0.4210  142  33 
 VOCA    ES   0A   010  4.72                              43   -0.0310  142  33 
 RPKV     IAML A   0 9 52.66        29.6                                195 336 
 RPKV    IP   0A   0 9 52.66                              43   -0.35 8  195 336 
 RPKV    ES   0A   010 15.99                              43   -0.79 8  195 336 
 HLUH    IP   0A   0 9 53.95                              43   -0.67 7  207 330 
 HLUH    ES   0A   010 18.21                              43   -1.32 7  207 330 
                                                                                
 2001  2 3 0010 29.6 L  34.112  52.530 14.7  New 15 0.3 2.2LNew                1
 GAP=108        0.82       1.3     1.1  2.0 -0.1875E+00  0.2507E+00  0.4674E-01E
 Action:ARG 24-03-13 14:50 OP:OBSP STATUS:               ID:20010203001030     I
 STAT SP IPHASW D HRMM SECON CODA AMPLIT PERI AZIMU VELO AIN AR TRES W  DIS CAZ7
 XBVK    IP   0A   010 37.59                              96    0.0910 28.1  31 
 XBVK    ES   0A   010 43.29                              96    0.1810 28.1  31 
 RHPW     IAML A   010 38.24       350.4                               31.2  83 
 RHPW    IP   0A   010 38.24                              77    0.1110 31.2  83 
 RHPW    ES   0A   010 44.43                              77    0.2410 31.2  83 
 LUEX    IP   0A   010 43.66                              68    0.2310 58.1 243 
 LUEX     IAML A   010 43.66       155.6                               58.1 243 
 AVTK     IAML A   010 43.85       147.3                               60.5 264 
 AVTK    IP   0A   010 43.85                              68   -0.0510 60.5 264 
 AVTK    ES   0A   010 54.24                              68    0.1910 60.5 264 
 DQYH    IP   0A   010 46.67                              53    0.0710 74.8 306 
 DQYH     IAML A   010 46.67       109.5                               74.8 306 
 DQYH    ES   0A   010 59.17                              53    0.4910 74.8 306 
 FOUH    IP   0A   010 46.98                              53    0.0510 76.8  17 
 FOUH     IAML A   010 46.98       105.6                               76.8  17 
 FOUH    ES   0A   010 59.71                              53    0.4810 76.8  17 
 DNOA    IP   0A   010 48.12                              51    0.0110 84.0  73 
 DNOA    ES   0A   011  1.72                              51    0.4610 84.0  73 
 CBZA     IAML A   010 48.77        85.1                               88.8 231 
 CBZA    IP   0A   010 48.77                              51   -0.1210 88.8 231 
 CBZA    ES   0A   011  2.85                              51    0.2710 88.8 231 
 VOCA    IP   0A   010 51.65                              51   -0.4610  109  54 
 VOCA     IAML A   010 51.65        62.3                                109  54 
 VOCA    ES   0A   011  7.89                              51   -0.2110  109  54 
 APSL    IP   0A   010 52.61                              51   -0.2910  114  88 
 APSL    ES   0A   011  9.56                              51    0.1210  114  88 
 MGUS     IAML A   010 53.57        53.6                                120 107 
 MGUS    IP   0A   010 53.57                              42   -0.2410  120 107 
 RAWC    IP   0A   010 55.90                              40   -0.2810  137 123 
 RAWC    ES   0A   011 15.30                              40    0.2410  137 123 
 RPKV    IP   0A   010 56.37                              40   -0.2210  141 331 
 RPKV    ES   0A   011 16.04                              40    0.2810  141 331 
 QYDI    IP   0A   010 56.57                              40   -0.5510  145 352 
 QYDI    ES   0A   011 16.42                              40   -0.2510  145 352 
 HLUH    IP   0A   010 57.86                              40   -0.63 9  155 323 
 HLUH    ES   0A   011 18.61                              40   -0.39 9  155 323 
                                                                                
 2001  2 3 0011 39.6 L  33.947  52.926 28.7  New 14 0.2 3.7LNew                1
 GAP=124        0.58       1.1     0.9  1.4  0.1138E+00  0.2756E+00  0.2382E+00E
 Action:ARG 24-03-13 14:50 OP:OBSP STATUS:               ID:20010203001140     I
 STAT SP IPHASW D HRMM SECON CODA AMPLIT PERI AZIMU VELO AIN AR TRES W  DIS CAZ7
 RHPW    IP   0A   011 47.48                             127   -0.0510 23.0 346 
 RHPW    ES   0A   011 53.10                             127   -0.0810 23.0 346 
 XBVK     IAML A   011 51.08      6290.0                               47.6 333 
 XBVK    IP   0A   011 51.08                              99   -0.1110 47.6 333 
 XBVK    ES   0A   011 59.39                              99   -0.0610 47.6 333 
 DNOA    IP   0A   011 53.38                              94    0.0710 60.8  46 
 DNOA    ES   0A   012  3.42                              94    0.3510 60.8  46 
 MGUS     IAML A   011 56.17      3185.6                               79.4 103 
 MGUS    IP   0A   011 56.17                              92   -0.1310 79.4 103 
 MGUS    ES   0A   012  8.30                              92    0.1210 79.4 103 
 APSL    IP   0A   011 56.36                              92   -0.0610 80.2  74 
 APSL    ES   0A   012  8.63                              92    0.2410 80.2  74 
 LUEX    IP   0A   011 57.75                              92   -0.0710 88.9 265 
 LUEX    ES   0A   012 11.07                              92    0.2910 88.9 265 
 FOUH    IP   0A   011 58.27                              60   -0.1610 92.7 352 
 FOUH     IAML A   011 58.27      2488.6                               92.7 352 
 FOUH    ES   0A   012 11.98                              60    0.1610 92.7 352 
 VOCA    IP   0A   011 58.87                              60   -0.1210 96.7  33 
 VOCA    ES   0A   012 13.03                              60    0.2410 96.7  33 
 RAWC     IAML A   011 58.70      2363.0                               96.9 127 
 RAWC    IP   0A   011 58.70                              60   -0.3210 96.9 127 
 RAWC    ES   0A   012 12.73                              60   -0.1110 96.9 127 
 AVTK    IP   0A   011 58.97                              60   -0.1310 97.5 277 
 AVTK     IAML A   011 58.97      2297.2                               97.5 277 
 AVTK    ES   0A   012 13.20                              60    0.2210 97.5 277 
 CBZA     IAML A   012  1.07      1847.0                                112 251 
 CBZA    IP   0A   012  1.07                              55   -0.0410  112 251 
 CBZA    ES   0A   012 16.85                              55    0.4510  112 251 
 QYDI    IP   0A   012  8.52                              55   -0.31 9  171 341 
 QYDI     IAML A   012  8.52       898.4                                171 341 
 QYDI    ES   0A   012 29.52                              55   -0.08 9  171 341 
 RPKV    IP   0A   012  9.48                              55    0.02 8  176 324 
 RPKV    ES   0A   012 30.86                              55    0.17 8  176 324 
 HLUH     IAML A   012 11.34       716.9                                192 318 
 HLUH    IP   0A   012 11.34                              55   -0.31 8  192 318 
 HLUH    ES   0A   012 33.89                              55   -0.55 8  192 318 
                                                                                
 2001  2 3 0012 49.1 L  33.397  52.543 12.6  New 14 0.4 1.6LNew                1
 GAP=200        1.06       4.0     2.1  3.8  0.4313E+01 -0.3855E+01 -0.9485E+01E
 Action:ARG 24-03-13 14:50 OP:OBSP STATUS:               ID:20010203001250     I
 STAT SP IPHASW D HRMM SECON CODA AMPLIT PERI AZIMU VELO AIN AR TRES W  DIS CAZ7
 CBZA    IP   0A   013  6.36                              52    0.0410 74.4 289 
 CBZA    ES   0A   013 18.63                              52    0.1110 74.4 289 
 LUEX    IP   0A   013  6.65                              52    0.2110 75.0 315 
 LUEX    ES   0A   013 19.13                              52    0.4010 75.0 315 
 RHPW    IP   0A   013  8.93                              41    0.2410 88.4  20 
 RHPW    ES   0A   013 23.13                              41    0.5710 88.4  20 
 AVTK     IAML A   013  9.86        23.1                               95.1 320 
 AVTK    IP   0A   013  9.86                              41    0.1110 95.1 320 
 AVTK    ES   0A   013 24.76                              41    0.3710 95.1 320 
 XBVK    IP   0A   013 11.15                              41   -0.0610  104   7 
 XBVK     IAML A   013 11.15        19.9                                104   7 
 XBVK    ES   0A   013 27.02                              41    0.1510  104   7 
 RAWC    IP   0A   013 12.91                              41    0.1710  114  88 
 RAWC     IAML A   013 12.91        17.1                                114  88 
 RAWC    ES   0A   013 30.10                              41    0.6110  114  88 
 MGUS    IP   0A   013 13.74                              35   -0.1810  121  69 
 MGUS    ES   0A   013 31.55                              35    0.0510  121  69 
 DNOA    IP   0A   013 14.90                              33   -0.2310  130  38 
 DNOA     IAML A   013 14.90        13.8                                130  38 
 DNOA    ES   0A   013 33.56                              33   -0.0210  130  38 
 DQYH    IP   0A   013 16.17                              33    0.0210  138 333 
 DQYH    ES   0A   013 35.70                              33    0.3710  138 333 
 APSL    IP   0A   013 16.25                              33   -0.1810  140  53 
 APSL    ES   0A   013 35.91                              33    0.1110  140  53 
 FOUH    IP   0A   013 18.13                              33   -0.16 9  154   8 
 FOUH    ES   0A   013 38.99                              33    0.00 9  154   8 
 VOCA     IAML A   013 19.48         8.9                                167  31 
 VOCA    IP   0A   013 19.48                              33   -0.54 9  167  31 
 VOCA    ES   0A   013 41.27                              33   -0.67 9  167  31 
 RPKV    IP   0A   013 25.76                              33   -0.41 7  214 341 
 RPKV    ES   0A   013 51.36                              33   -1.10 7  214 341 
 HLUH    IP   0A   013 26.82                              33   -0.69 7  224 335 
 HLUH     IAML A   013 26.82         5.0                                224 335 
 HLUH    ES   0A   013 53.13                              33   -1.63 7  224 335 
                                                                                
