 2001  2 3 0041 59.6 L  33.772  52.637 18.4  New 14 0.4 0.7LNew                1
 GAP=147        1.00       2.3     1.5  4.7 -0.1910E+00  0.1973E-01 -0.4557E+01E
 Action:ARG 24-03-13 14:50 OP:OBSP STATUS:               ID:20010203004200     I
 STAT SP IPHASW D HRMM SECON CODA AMPLIT PERI AZIMU VELO AIN AR TRES W  DIS CAZ7
 XBVK    IP   0A   042 14.08                              64    0.0110 61.8   4 
 XBVK    ES   0A   042 24.65                              64    0.3310 61.8   4 
 LUEX    IP   0A   042 14.28                              64    0.0210 62.9 281 
 LUEX    ES   0A   042 24.99                              64    0.3610 62.9 281 
 AVTK    IP   0A   042 16.54                              58   -0.0210 76.7 294 
 AVTK    ES   0A   042 28.95                              58    0.3710 76.7 294 
 CBZA    IP   0A   042 17.28                              57   -0.0210 81.3 257 
 CBZA    ES   0A   042 30.24                              57    0.4010 81.3 257 
 DNOA    IP   0A   042 19.47                              57    0.1710 93.6  49 
 DNOA    ES   0A   042 34.07                              57    0.8210 93.6  49 
 MGUS    IP   0A   042 20.82                              57   -0.1710  104  89 
 MGUS     IAML A   042 20.82         2.1                                104  89 
 MGUS    ES   0A   042 36.43                              57    0.2810  104  89 
 DQYH    IP   0A   042 21.52                              57   -0.0710  108 319 
 DQYH    ES   0A   042 37.67                              57    0.5010  108 319 
 RAWC    IP   0A   042 21.87                              57   -0.2910  111 110 
 RAWC     IAML A   042 21.87         1.9                                111 110 
 APSL     IAML A   042 22.03         1.9                                112  68 
 FOUH    IP   0A   042 21.88                              57   -0.3310  112   7 
 FOUH    ES   0A   042 38.30                              57    0.0610  112   7 
 APSL    IP   0A   042 22.03                              57   -0.1910  112  68 
 APSL    ES   0A   042 38.55                              57    0.3110  112  68 
 VOCA    IP   0A   042 24.08                              43   -0.3610  128  38 
 VOCA     IAML A   042 24.08         1.5                                128  38 
 VOCA    ES   0A   042 42.14                              43    0.0910  128  38 
 RPKV    IP   0A   042 30.84                              43   -0.28 8  179 334 
 RPKV     IAML A   042 30.84         0.8                                179 334 
 RPKV    ES   0A   042 53.15                              43   -0.32 8  179 334 
 QYDI     IAML A   042 31.12         0.8                                183 351 
 QYDI    IP   0A   042 31.12                              43   -0.62 8  183 351 
 QYDI    ES   0A   042 53.77                              43   -0.75 8  183 351 
 HLUH     IAML A   042 32.22         0.7                                192 328 
 HLUH    IP   0A   042 32.22                              43   -0.62 8  192 328 
 HLUH    ES   0A   042 55.55                              43   -0.85 8  192 328 
                                                                                
 2001  2 3 0043  9.4 L  33.663  52.479 12.0  New 13 0.4 2.3LNew                1
 GAP=163        1.09       2.3     1.6  3.2  0.4502E+00 -0.1470E+01 -0.1741E+01E
 Action:ARG 24-03-13 14:50 OP:OBSP STATUS:               ID:20010203004310     I
 STAT SP IPHASW D HRMM SECON CODA AMPLIT PERI AZIMU VELO AIN AR TRES W  DIS CAZ7
 LUEX    IP   0A   043 22.65                              53    0.1610 52.7 296 
 LUEX     IAML A   043 22.65       258.2                               52.7 296 
 LUEX    ES   0A   043 32.14                              53    0.3710 52.7 296 
 RHPW     IAML A   043 25.12       189.2                               64.6  34 
 RHPW    IP   0A   043 25.12                              52    0.3510 64.6  34 
 RHPW    ES   0A   043 36.46                              52    0.7810 64.6  34 
 CBZA     IAML A   043 24.94       190.1                               64.8 265 
 CBZA    IP   0A   043 24.94                              52    0.1210 64.8 265 
 CBZA    ES   0A   043 36.15                              52    0.3810 64.8 265 
 AVTK     IAML A   043 25.75       172.7                               70.2 308 
 AVTK    IP   0A   043 25.75                              52   -0.1110 70.2 308 
 AVTK    ES   0A   043 37.56                              52    0.0210 70.2 308 
 XBVK    IP   0A   043 27.10                              52    0.0810 76.2  15 
 XBVK    ES   0A   043 39.92                              52    0.3910 76.2  15 
 DQYH    IP   0A   043 32.30                              41   -0.0810  109 329 
 DQYH    ES   0A   043 49.02                              41    0.3310  109 329 
 MGUS    IP   0A   043 33.78                              41   -0.3110  120  83 
 MGUS    ES   0A   043 51.62                              41    0.0110  120  83 
 RAWC    IP   0A   043 34.45                              35   -0.0210  122 102 
 RAWC    ES   0A   043 52.78                              35    0.5110  122 102 
 FOUH    IP   0A   043 34.55                              33   -0.4310  126  13 
 FOUH    ES   0A   043 52.97                              33   -0.1710  126  13 
 APSL    IP   0A   043 35.36                              33   -0.1410  130  66 
 APSL    ES   0A   043 54.38                              33    0.3510  130  66 
 VOCA     IAML A   043 37.19        52.8                                147  39 
 VOCA    IP   0A   043 37.19                              33   -0.4910  147  39 
 VOCA    ES   0A   043 57.58                              33   -0.1810  147  39 
 RPKV    IP   0A   043 42.11                              33   -0.51 8  184 340 
 RPKV    ES   0A   044  5.66                              33   -0.54 8  184 340 
 QYDI    IP   0A   043 43.09                              33   -0.79 8  194 356 
 QYDI    ES   0A   044  7.07                              33   -1.28 8  194 356 
                                                                                
 2001  2 3 0044 19.8 L  33.912  52.679 19.9  New 14 0.4 2.6LNew                1
 GAP=130        0.98       1.7     1.5  2.3 -0.1458E+00  0.4463E+00  0.1174E+01E
 Action:ARG 24-03-13 14:50 OP:OBSP STATUS:               ID:20010203004420     I
 STAT SP IPHASW D HRMM SECON CODA AMPLIT PERI AZIMU VELO AIN AR TRES W  DIS CAZ7
 RHPW    IP   0A   044 28.52                             107    0.0810 31.3  33 
 RHPW     IAML A   044 28.52       943.6                               31.3  33 
 RHPW    ES   0A   044 34.91                             107    0.3210 31.3  33 
 XBVK    IP   0A   044 31.04                              98   -0.2010 46.2   1 
 XBVK    ES   0A   044 39.31                              98   -0.0710 46.2   1 
 LUEX    IP   0A   044 34.70                              60   -0.0610 65.8 267 
 LUEX    ES   0A   044 45.72                              60    0.3210 65.8 267 
 AVTK    IP   0A   044 36.37                              57   -0.0110 75.6 282 
 AVTK     IAML A   044 36.37       307.1                               75.6 282 
 AVTK    ES   0A   044 48.65                              57    0.4910 75.6 282 
 DNOA     IAML A   044 37.30       271.1                               81.1  55 
 DNOA    IP   0A   044 37.30                              57    0.0410 81.1  55 
 DNOA    ES   0A   044 50.27                              57    0.6110 81.1  55 
 CBZA    IP   0A   044 38.45                              57   -0.1710 89.6 248 
 CBZA    ES   0A   044 52.28                              57    0.2810 89.6 248 
 FOUH    IP   0A   044 39.58                              57   -0.0710 96.0   5 
 FOUH     IAML A   044 39.58       211.1                               96.0   5 
 FOUH    ES   0A   044 54.26                              57    0.5010 96.0   5 
 DQYH     IAML A   044 40.23       201.9                               99.5 312 
 DQYH    IP   0A   044 40.23                              57   -0.0010 99.5 312 
 DQYH    ES   0A   044 55.40                              57    0.6510 99.5 312 
 MGUS    IP   0A   044 40.37                              57   -0.1310  101  98 
 MGUS    ES   0A   044 55.64                              57    0.4410  101  98 
 VOCA    IP   0A   044 42.02                              46   -0.4410  114  41 
 VOCA    ES   0A   044 58.54                              46   -0.0210  114  41 
 RAWC    IP   0A   044 42.14                              46   -0.4110  114 118 
 RAWC    ES   0A   044 58.74                              46    0.0310  114 118 
 VOCA     IAML A   044 42.02       162.3                                114  41 
 RPKV    IP   0A   044 49.21                              43   -0.26 9  167 331 
 RPKV    ES   0A   045 10.43                              43   -0.12 9  167 331 
 QYDI    IP   0A   044 49.15                              43   -0.60 9  169 349 
 QYDI     IAML A   044 49.15        82.7                                169 349 
 QYDI    ES   0A   045 10.48                              43   -0.54 9  169 349 
 HLUH    IP   0A   044 50.69                              43   -0.67 8  181 324 
 HLUH    ES   0A   045 13.00                              43   -0.79 8  181 324 
                                                                                
 2001  2 3 0045 29.9 L  33.642  52.831 29.9  New 14 0.4 2.0LNew                1
 GAP=163        0.95       2.2     1.6  2.8  0.2382E+00 -0.8936E-01  0.2565E+00E
 Action:ARG 24-03-13 14:50 OP:OBSP STATUS:               ID:20010203004530     I
 STAT SP IPHASW D HRMM SECON CODA AMPLIT PERI AZIMU VELO AIN AR TRES W  DIS CAZ7
 RHPW    IP   0A   045 42.88                              99   -0.0610 56.2   3 
 RHPW    ES   0A   045 52.55                              99    0.3610 56.2   3 
 XBVK    IP   0A   045 46.09                              94   -0.2110 77.2 350 
 XBVK     IAML A   045 46.09        64.3                               77.2 350 
 XBVK    ES   0A   045 58.15                              94    0.2110 77.2 350 
 LUEX    IP   0A   045 47.28                              94   -0.1010 83.9 288 
 LUEX    ES   0A   046  0.24                              94    0.4610 83.9 288 
 MGUS    IP   0A   045 47.66                              60   -0.3310 87.7  79 
 MGUS    ES   0A   046  0.91                              60    0.0810 87.7  79 
 RAWC    IP   0A   045 48.19                              60   -0.1210 90.0 105 
 RAWC    ES   0A   046  1.83                              60    0.4610 90.0 105 
 DNOA    IP   0A   045 48.41                              60   -0.2310 92.3  35 
 DNOA     IAML A   045 48.41        49.7                               92.3  35 
 DNOA    ES   0A   046  2.22                              60    0.2910 92.3  35 
 CBZA    IP   0A   045 49.23                              60   -0.1010 97.3 268 
 CBZA    ES   0A   046  3.65                              60    0.5410 97.3 268 
 AVTK     IAML A   045 49.40        43.9                               99.1 297 
 AVTK    IP   0A   045 49.40                              60   -0.1810 99.1 297 
 AVTK    ES   0A   046  3.96                              60    0.4210 99.1 297 
 APSL    IP   0A   045 49.76                              60   -0.2910  102  57 
 APSL    ES   0A   046  4.57                              60    0.2310  102  57 
 FOUH    IP   0A   045 52.77                              55   -0.3210  126 358 
 FOUH    ES   0A   046  9.85                              55    0.3210  126 358 
 VOCA    IP   0A   045 53.53                              55   -0.2010  130  28 
 VOCA    ES   0A   046 11.17                              55    0.5410  130  28 
 RPKV     IAML A   046  2.69        13.1                                200 332 
 RPKV    IP   0A   046  2.69                              55   -0.16 8  200 332 
 RPKV    ES   0A   046 25.88                              55   -0.35 8  200 332 
 QYDI    IP   0A   046  2.59                              55   -0.44 8  201 347 
 QYDI    ES   0A   046 25.80                              55   -0.73 8  201 347 
 HLUH    IP   0A   046  4.11                              55   -0.58 7  214 326 
 HLUH     IAML A   046  4.11        11.4                                214 326 
 HLUH    ES   0A   046 28.34                              55   -1.03 7  214 326 
                                                                                
 2001  2 3 0046 39.5 L  33.685  52.448 11.3  New 15 0.5 2.3LNew                1
 GAP=159        1.23       2.6     1.8  3.4  0.4124E+00 -0.1529E+01 -0.1837E+01E
 Action:ARG 24-03-13 14:50 OP:OBSP STATUS:               ID:20010203004640     I
 STAT SP IPHASW D HRMM SECON CODA AMPLIT PERI AZIMU VELO AIN AR TRES W  DIS CAZ7
 LUEX    IP   0A   046 52.10                              53    0.1310 49.0 295 
 LUEX    ES   0A   047  1.18                              53    0.3610 49.0 295 
 CBZA     IAML A   046 54.74       168.8                               62.2 262 
 CBZA    IP   0A   046 54.74                              52    0.2110 62.2 262 
 CBZA    ES   0A   047  5.80                              52    0.6110 62.2 262 
 RHPW    IP   0A   046 55.26                              52    0.3510 64.2  37 
 RHPW     IAML A   046 55.26       165.3                               64.2  37 
 RHPW    ES   0A   047  6.71                              52    0.8510 64.2  37 
 AVTK     IAML A   046 55.30       158.0                               66.5 308 
 AVTK    IP   0A   046 55.30                              52   -0.0410 66.5 308 
 AVTK    ES   0A   047  6.77                              52    0.1810 66.5 308 
 XBVK    IP   0A   046 57.09                              52    0.1610 74.7  17 
 XBVK     IAML A   046 57.09       134.1                               74.7  17 
 XBVK    ES   0A   047  9.91                              52    0.6010 74.7  17 
 DQYH    IP   0A   047  2.00                              41   -0.0310  106 330 
 DQYH    ES   0A   047 18.50                              41    0.4710  106 330 
 DNOA    IP   0A   047  3.21                              41   -0.0710  113  51 
 MGUS     IAML A   047  4.34        61.1                                122  84 
 MGUS    IP   0A   047  4.34                              35   -0.3610  122  84 
 MGUS    ES   0A   047 22.59                              35   -0.0110  122  84 
 FOUH    IP   0A   047  4.60                              33   -0.4010  124  14 
 FOUH     IAML A   047  4.60        60.8                                124  14 
 FOUH    ES   0A   047 23.05                              33   -0.0510  124  14 
 RAWC     IAML A   047  5.06        58.1                                126 103 
 RAWC    IP   0A   047  5.06                              33   -0.0910  126 103 
 RAWC    ES   0A   047 23.85                              33    0.4910  126 103 
 APSL    IP   0A   047  5.81                              33   -0.1510  132  67 
 APSL    ES   0A   047 25.16                              33    0.4210  132  67 
 VOCA    IP   0A   047  7.45                              33   -0.4710  147  41 
 VOCA     IAML A   047  7.45        45.6                                147  41 
 VOCA    ES   0A   047 28.03                              33   -0.0710  147  41 
 RPKV    IP   0A   047 11.92                              33   -0.51 8  181 341 
 RPKV    ES   0A   047 35.35                              33   -0.46 8  181 341 
 QYDI    IP   0A   047 13.01                              33   -0.76 8  191 357 
 QYDI    ES   0A   047 36.98                              33   -1.13 8  191 357 
 HLUH    IP   0A   047 12.99                              33   -0.84 8  192 334 
 HLUH    ES   0A   047 37.02                              33   -1.19 8  192 334 
                                                                                
 2001  2 3 0047 49.4 L  33.992  52.441 10.3  New 13 0.3 1.3LNew                1
 GAP=119        0.80       1.3     1.1  2.2 -0.4177E+00 -0.2449E+00 -0.4839E+00E
 Action:ARG 24-03-13 14:50 OP:OBSP STATUS:               ID:20010203004750     I
 STAT SP IPHASW D HRMM SECON CODA AMPLIT PERI AZIMU VELO AIN AR TRES W  DIS CAZ7
 RHPW    IP   0A   048  0.97                              58    0.1910 42.8  66 
 RHPW    ES   0A   048  9.20                              58    0.3710 42.8  66 
 XBVK    IP   0A   048  0.98                              58    0.0110 43.8  31 
 XBVK    ES   0A   048  9.21                              58    0.0510 43.8  31 
 LUEX    IP   0A   048  1.52                              58    0.1910 45.5 253 
 LUEX    ES   0A   048 10.16                              58    0.3810 45.5 253 
 AVTK    IP   0A   048  2.78                              53    0.0810 52.4 277 
 AVTK    ES   0A   048 12.37                              53    0.2510 52.4 277 
 CBZA    IP   0A   048  6.73                              52   -0.1910 74.2 235 
 CBZA     IAML A   048  6.73        13.4                               74.2 235 
 CBZA    ES   0A   048 19.28                              52   -0.0510 74.2 235 
 DQYH    IP   0A   048  7.60                              52    0.0410 77.6 318 
 DQYH     IAML A   048  7.60        12.5                               77.6 318 
 DQYH    ES   0A   048 20.80                              52    0.3610 77.6 318 
 FOUH    IP   0A   048 10.04                              41    0.0710 92.0  20 
 FOUH    ES   0A   048 25.07                              41    0.5210 92.0  20 
 APSL    IP   0A   048 14.68                              35   -0.2710  123  82 
 APSL    ES   0A   048 33.19                              35    0.1110  123  82 
 VOCA    IP   0A   048 14.67                              35   -0.3310  123  52 
 VOCA    ES   0A   048 33.17                              35    0.0110  123  52 
 RAWC    IP   0A   048 16.69                              33   -0.2210  138 117 
 RAWC     IAML A   048 16.69         5.1                                138 117 
 RAWC    ES   0A   048 36.70                              33    0.2910  138 117 
 RPKV     IAML A   048 18.09         4.4                                149 336 
 RPKV    IP   0A   048 18.09                              33   -0.27 9  149 336 
 RPKV    ES   0A   048 38.99                              33    0.09 9  149 336 
 QYDI     IAML A   048 18.89         4.0                                157 356 
 QYDI    IP   0A   048 18.89                              33   -0.54 9  157 356 
 QYDI    ES   0A   048 40.36                              33   -0.37 9  157 356 
 HLUH    IP   0A   048 19.35                              33   -0.65 9  161 328 
 HLUH    ES   0A   048 41.23                              33   -0.48 9  161 328 
                                                                                
