 2001  2 3 0034 59.7 L  33.353  52.757 21.8  New 14 0.7 1.8LNew                1
 GAP=203        1.53       5.8     2.8  7.9  0.3434E+01 -0.3454E+01 -0.2635E+02E
 Action:ARG 24-03-13 14:50 OP:OBSP STATUS:               ID:20010203003500     I
 STAT SP IPHASW D HRMM SECON CODA AMPLIT PERI AZIMU VELO AIN AR TRES W  DIS CAZ7
 RHPW    IP   0A   035 18.43                              57    0.2710 88.7   6 
 RHPW     IAML A   035 18.43        35.8                               88.7   6 
 RHPW    ES   0A   035 32.25                              57    0.9510 88.7   6 
 LUEX     IAML A   035 19.20        33.4                               93.2 309 
 LUEX    IP   0A   035 19.20                              57    0.3110 93.2 309 
 LUEX    ES   0A   035 33.61                              57    1.0710 93.2 309 
 RAWC    IP   0A   035 18.95                              57   -0.0710 94.0  85 
 RAWC    ES   0A   035 33.17                              57    0.4110 94.0  85 
 CBZA    IP   0A   035 19.23                              57    0.0710 94.9 288 
 CBZA     IAML A   035 19.23        32.7                               94.9 288 
 CBZA    ES   0A   035 33.65                              57    0.6510 94.9 288 
 MGUS     IAML A   035 20.57        28.4                                105  63 
 MGUS    IP   0A   035 20.57                              57   -0.1910  105  63 
 MGUS    ES   0A   035 36.00                              57    0.2610  105  63 
 XBVK     IAML A   035 21.02        26.4                                108 357 
 XBVK    IP   0A   035 21.02                              57   -0.3010  108 357 
 XBVK    ES   0A   035 36.79                              57    0.1010  108 357 
 AVTK    IP   0A   035 21.64                              46   -0.2710  112 314 
 AVTK    ES   0A   035 37.87                              46    0.1710  112 314 
 DNOA    IP   0A   035 23.27                              43   -0.0910  123  29 
 DNOA    ES   0A   035 40.72                              43    0.5310  123  29 
 APSL    IP   0A   035 23.82                              43   -0.1510  128  46 
 APSL    ES   0A   035 41.66                              43    0.4410  128  46 
 FOUH    IP   0A   035 27.41                              43   -0.46 9  157   1 
 FOUH     IAML A   035 27.41        14.1                                157   1 
 FOUH    ES   0A   035 47.80                              43   -0.10 9  157   1 
 VOCA     IAML A   035 28.09        13.5                                162  25 
 VOCA    IP   0A   035 28.09                              43   -0.40 9  162  25 
 VOCA    ES   0A   035 48.69                              43   -0.27 9  162  25 
 RPKV     IAML A   035 36.26         7.1                                226 337 
 RPKV    IP   0A   035 36.26                              43   -0.59 7  226 337 
 RPKV    ES   0A   036  1.90                              43   -1.34 7  226 337 
 QYDI     IAML A   035 36.64         6.7                                231 350 
 QYDI    IP   0A   035 36.64                              43   -0.92 6  231 350 
 QYDI    ES   0A   036  2.39                              43   -2.07 6  231 350 
 HLUH    IP   0A   035 37.52                              43   -0.89 6  237 331 
 HLUH    ES   0A   036  4.04                              43   -1.87 6  237 331 
                                                                                
 2001  2 3 0036  9.6 L  33.986  52.747 21.9  New 15 0.3 2.3LNew                1
 GAP=122        0.82       1.4     1.2  1.8  0.4062E-01  0.3969E+00  0.6225E+00E
 Action:ARG 24-03-13 14:50 OP:OBSP STATUS:               ID:20010203003610     I
 STAT SP IPHASW D HRMM SECON CODA AMPLIT PERI AZIMU VELO AIN AR TRES W  DIS CAZ7
 RHPW    IP   0A   036 16.75                             127    0.0710 21.0  31 
 RHPW     IAML A   036 16.75       721.4                               21.0  31 
 RHPW    ES   0A   036 21.81                             127    0.1210 21.0  31 
 XBVK    IP   0A   036 19.50                              66   -0.1410 38.3 352 
 XBVK    ES   0A   036 26.63                              66   -0.1310 38.3 352 
 DNOA    IP   0A   036 25.30                              58    0.0110 71.3  58 
 DNOA     IAML A   036 25.30       149.1                               71.3  58 
 DNOA    ES   0A   036 36.78                              58    0.3610 71.3  58 
 LUEX    IP   0A   036 25.63                              57    0.0610 73.0 260 
 LUEX    ES   0A   036 37.35                              57    0.4410 73.0 260 
 AVTK    IP   0A   036 26.79                              57   -0.0010 80.6 275 
 AVTK     IAML A   036 26.79       124.1                               80.6 275 
 AVTK    ES   0A   036 39.38                              57    0.3910 80.6 275 
 FOUH    IP   0A   036 27.82                              57   -0.0610 87.3   2 
 FOUH    ES   0A   036 41.18                              57    0.3410 87.3   2 
 APSL    IP   0A   036 29.12                              57   -0.0410 95.3  79 
 APSL    ES   0A   036 43.45                              57    0.4210 95.3  79 
 MGUS    IP   0A   036 29.22                              57   -0.1310 96.5 103 
 MGUS    ES   0A   036 43.64                              57    0.2710 96.5 103 
 CBZA    IP   0A   036 29.39                              57   -0.3010 98.6 245 
 CBZA    ES   0A   036 43.94                              57   -0.0110 98.6 245 
 DQYH    IP   0A   036 29.86                              57    0.0610 99.3 306 
 DQYH    ES   0A   036 44.75                              57    0.6210 99.3 306 
 VOCA    IP   0A   036 30.21                              57   -0.2310  103  42 
 VOCA     IAML A   036 30.21        85.9                                103  42 
 RAWC     IAML A   036 31.54        74.6                                113 123 
 RAWC    IP   0A   036 31.54                              46   -0.3910  113 123 
 RAWC    ES   0A   036 47.70                              46   -0.0810  113 123 
 QYDI    IP   0A   036 37.97                              43   -0.44 9  162 346 
 QYDI    ES   0A   036 58.51                              43   -0.34 9  162 346 
 RPKV    IP   0A   036 38.37                              43   -0.13 9  163 328 
 RPKV     IAML A   036 38.37        39.8                                163 328 
 HLUH    IP   0A   036 39.99                              43   -0.56 8  178 321 
 HLUH     IAML A   036 39.99        33.7                                178 321 
 HLUH    ES   0A   037  1.78                              43   -0.73 8  178 321 
                                                                                
 2001  2 3 0037 19.5 L  34.125  52.410 10.0  New 14 0.3 1.3LNew                1
 GAP=114        0.89       1.4     1.1  1.4 -0.1271E+00  0.4934E+00  0.6292E-01E
 Action:ARG 24-03-13 14:50 OP:OBSP STATUS:               ID:20010203003720     I
 STAT SP IPHASW D HRMM SECON CODA AMPLIT PERI AZIMU VELO AIN AR TRES W  DIS CAZ7
 XBVK    IP   0A   037 28.82                             100    0.0710 34.1  49 
 XBVK     IAML A   037 28.82        41.3                               34.1  49 
 XBVK    ES   0A   037 35.44                             100    0.1310 34.1  49 
 RHPW     IAML A   037 30.73        31.0                               42.0  86 
 RHPW    IP   0A   037 30.73                              97    0.0810 42.0  86 
 RHPW    ES   0A   037 38.77                              97    0.2110 42.0  86 
 LUEX     IAML A   037 32.37        25.5                               49.4 236 
 LUEX    IP   0A   037 32.37                              56    0.1310 49.4 236 
 LUEX    ES   0A   037 41.65                              56    0.3810 49.4 236 
 AVTK    IP   0A   037 32.34                              56    0.0110 49.8 261 
 AVTK    ES   0A   037 41.59                              56    0.1610 49.8 261 
 DQYH     IAML A   037 35.46        17.9                               65.3 311 
 DQYH    IP   0A   037 35.46                              52    0.1310 65.3 311 
 DQYH    ES   0A   037 47.05                              52    0.5010 65.3 311 
 FOUH    IP   0A   037 38.10                              44    0.0610 79.4  25 
 FOUH    ES   0A   037 51.68                              44    0.4910 79.4  25 
 DNOA    IP   0A   037 40.56                              41    0.0910 94.3  76 
 DNOA     IAML A   037 40.56        10.2                               94.3  76 
 DNOA    ES   0A   037 55.98                              41    0.6310 94.3  76 
 VOCA     IAML A   037 43.69         7.3                                117  58 
 VOCA    IP   0A   037 43.69                              41   -0.4710  117  58 
 APSL    IP   0A   037 44.93                              33   -0.3910  125  89 
 APSL    ES   0A   038  3.63                              33   -0.0110  125  89 
 MGUS    IP   0A   037 45.70                              33   -0.3910  131 106 
 MGUS     IAML A   037 45.70         6.0                                131 106 
 MGUS    ES   0A   038  4.98                              33    0.0310  131 106 
 RPKV    IP   0A   037 46.30                              33   -0.2810  134 335 
 RPKV    ES   0A   038  6.02                              33    0.2210  134 335 
 QYDI    IP   0A   037 47.07                              33   -0.5510  142 357 
 QYDI    ES   0A   038  7.33                              33   -0.2410  142 357 
 HLUH     IAML A   037 47.66         5.0                                147 326 
 HLUH    IP   0A   037 47.66                              33   -0.6510  147 326 
 HLUH    ES   0A   038  8.41                              33   -0.3510  147 326 
 RAWC     IAML A   037 48.00         4.9                                148 121 
 RAWC    IP   0A   037 48.00                              33   -0.3310  148 121 
 RAWC    ES   0A   038  8.97                              33    0.1910  148 121 
                                                                                
 2001  2 3 0038 29.7 L  33.807  52.963 31.3  New 13 0.3 1.6LNew                1
 GAP=139        0.78       1.7     1.4  2.2  0.5018E+00  0.9494E+00  0.1468E+01E
 Action:ARG 24-03-13 14:50 OP:OBSP STATUS:               ID:20010203003830     I
 STAT SP IPHASW D HRMM SECON CODA AMPLIT PERI AZIMU VELO AIN AR TRES W  DIS CAZ7
 RHPW    IP   0A   038 40.09                             113    0.0110 38.8 347 
 RHPW     IAML A   038 40.09        54.7                               38.8 347 
 RHPW    ES   0A   038 47.66                             113    0.2010 38.8 347 
 XBVK    IP   0A   038 43.72                              99   -0.1210 63.0 336 
 XBVK    ES   0A   038 54.01                              99    0.1210 63.0 336 
 DNOA     IAML A   038 44.92        25.3                               70.4  35 
 DNOA    IP   0A   038 44.92                              98   -0.0910 70.4  35 
 DNOA    ES   0A   038 56.10                              98    0.2210 70.4  35 
 MGUS    IP   0A   038 45.46                              97   -0.1410 74.0  92 
 MGUS    ES   0A   038 57.05                              97    0.1610 74.0  92 
 APSL    IP   0A   038 46.75                              60   -0.2110 82.7  63 
 APSL     IAML A   038 46.75        20.3                               82.7  63 
 APSL    ES   0A   038 59.31                              60    0.0910 82.7  63 
 RAWC    IP   0A   038 47.12                              60   -0.2510 85.6 120 
 RAWC    ES   0A   038 59.95                              60    0.0310 85.6 120 
 LUEX     IAML A   038 48.14        17.3                               92.3 275 
 LUEX    IP   0A   038 48.14                              60   -0.1510 92.3 275 
 LUEX    ES   0A   039  1.75                              60    0.2510 92.3 275 
 AVTK    IP   0A   038 49.71                              55   -0.1710  104 285 
 AVTK    ES   0A   039  4.49                              55    0.2810  104 285 
 VOCA    IP   0A   038 50.51                              55    0.0210  109  27 
 VOCA     IAML A   038 50.51        13.3                                109  27 
 VOCA    ES   0A   039  5.89                              55    0.6310  109  27 
 CBZA    IP   0A   038 50.88                              55   -0.0110  112 259 
 CBZA    ES   0A   039  6.53                              55    0.5910  112 259 
 QYDI    IP   0A   039  0.39                              55   -0.40 8  187 342 
 QYDI    ES   0A   039 22.52                              55   -0.34 8  187 342 
 RPKV    IP   0A   039  1.20                              55   -0.07 8  190 326 
 RPKV     IAML A   039  1.20         5.0                                190 326 
 RPKV    ES   0A   039 23.48                              55   -0.21 8  190 326 
 HLUH    IP   0A   039  2.94                              55   -0.44 7  206 320 
 HLUH    ES   0A   039 26.31                              55   -0.98 7  206 320 
                                                                                
 2001  2 3 0039 39.2 L  33.487  52.474 11.7  New 14 0.5 1.2LNew                1
 GAP=189        1.13       4.0     2.2  3.9  0.3349E+01 -0.3116E+01 -0.8375E+01E
 Action:ARG 24-03-13 14:50 OP:OBSP STATUS:               ID:20010203003940     I
 STAT SP IPHASW D HRMM SECON CODA AMPLIT PERI AZIMU VELO AIN AR TRES W  DIS CAZ7
 CBZA    IP   0A   039 54.95                              52    0.1710 65.6 282 
 CBZA     IAML A   039 54.95        13.1                               65.6 282 
 CBZA    ES   0A   040  6.16                              52    0.3010 65.6 282 
 RHPW    IP   0A   039 58.08                              43    0.3010 81.8  26 
 RHPW    ES   0A   040 11.64                              43    0.6410 81.8  26 
 AVTK    IP   0A   039 58.16                              42    0.1210 83.4 319 
 AVTK    ES   0A   040 11.77                              42    0.3210 83.4 319 
 XBVK     IAML A   040  0.13         7.4                               95.4  12 
 XBVK    IP   0A   040  0.13                              41    0.1410 95.4  12 
 RAWC     IAML A   040  3.92         5.1                                120  93 
 RAWC    IP   0A   040  3.92                              41   -0.0510  120  93 
 RAWC    ES   0A   040 21.86                              41    0.2810  120  93 
 MGUS    IP   0A   040  4.25                              33   -0.2710  124  74 
 MGUS    ES   0A   040 22.43                              33   -0.0910  124  74 
 DQYH    IP   0A   040  4.90                              33    0.0910  126 334 
 DQYH    ES   0A   040 23.56                              33    0.5510  126 334 
 DNOA    IP   0A   040  4.78                              33   -0.0910  127  43 
 DNOA    ES   0A   040 23.36                              33    0.2310  127  43 
 APSL    IP   0A   040  6.44                              33   -0.1510  140  58 
 APSL    ES   0A   040 26.26                              33    0.1910  140  58 
 FOUH    IP   0A   040  7.34                              33   -0.0010  145  11 
 FOUH     IAML A   040  7.34         3.7                                145  11 
 FOUH    ES   0A   040 27.75                              33    0.4010  145  11 
 VOCA     IAML A   040  9.28         3.0                                162  35 
 VOCA    IP   0A   040  9.28                              33   -0.31 9  162  35 
 VOCA    ES   0A   040 30.99                              33   -0.21 9  162  35 
 RPKV    IP   0A   040 14.64                              33   -0.22 8  202 342 
 RPKV    ES   0A   040 39.49                              33   -0.72 8  202 342 
 HLUH     IAML A   040 15.65         1.8                                212 336 
 HLUH    IP   0A   040 15.65                              33   -0.52 7  212 336 
 HLUH    ES   0A   040 41.16                              33   -1.29 7  212 336 
 QYDI    IP   0A   040 15.63                              33   -0.64 7  213 356 
 QYDI    ES   0A   040 40.94                              33   -1.68 7  213 356 
                                                                                
 2001  2 3 0040 49.8 L  33.855  52.612 18.0  New 14 0.4 0.6LNew                1
 GAP=137        0.98       1.8     1.5  2.6  0.1213E+00  0.4169E+00  0.1246E+01E
 Action:ARG 24-03-13 14:50 OP:OBSP STATUS:               ID:20010203004050     I
 STAT SP IPHASW D HRMM SECON CODA AMPLIT PERI AZIMU VELO AIN AR TRES W  DIS CAZ7
 RHPW    IP   0A   041  0.06                              94   -0.0010 40.1  36 
 RHPW    ES   0A   041  7.60                              94    0.2610 40.1  36 
 XBVK    IP   0A   041  2.45                              92   -0.0910 53.0   8 
 XBVK    ES   0A   041 11.79                              92    0.2110 53.0   8 
 AVTK     IAML A   041  5.86         3.3                               71.2 288 
 AVTK    IP   0A   041  5.86                              60   -0.0110 71.2 288 
 AVTK    ES   0A   041 17.76                              60    0.5010 71.2 288 
 CBZA    IP   0A   041  7.54                              57   -0.0110 81.5 251 
 CBZA     IAML A   041  7.54         2.7                               81.5 251 
 CBZA    ES   0A   041 20.70                              57    0.5610 81.5 251 
 DNOA    IP   0A   041  8.84                              57   -0.0510 89.8  54 
 DNOA    ES   0A   041 22.96                              57    0.5310 89.8  54 
 DQYH     IAML A   041 10.38         2.0                               99.5 317 
 DQYH    IP   0A   041 10.38                              57   -0.0710 99.5 317 
 DQYH    ES   0A   041 25.67                              57    0.5710 99.5 317 
 FOUH    IP   0A   041 10.85                              57   -0.1610  103   8 
 FOUH    ES   0A   041 26.48                              57    0.4210  103   8 
 MGUS     IAML A   041 11.34         1.8                                107  94 
 MGUS    IP   0A   041 11.34                              57   -0.2710  107  94 
 MGUS    ES   0A   041 27.35                              57    0.2610  107  94 
 APSL    IP   0A   041 12.08                              57   -0.2110  111  73 
 APSL     IAML A   041 12.08         1.7                                111  73 
 APSL    ES   0A   041 28.64                              57    0.3910  111  73 
 RAWC     IAML A   041 12.88         1.6                                117 114 
 RAWC    IP   0A   041 12.88                              46   -0.3310  117 114 
 RAWC    ES   0A   041 30.04                              46    0.2110  117 114 
 VOCA    IP   0A   041 13.44                              43   -0.4910  122  41 
 VOCA    ES   0A   041 31.02                              43   -0.0410  122  41 
 RPKV    IP   0A   041 19.82                              43   -0.30 9  169 334 
 RPKV    ES   0A   041 41.48                              43   -0.15 9  169 334 
 QYDI     IAML A   041 20.09         0.8                                174 351 
 QYDI    IP   0A   041 20.09                              43   -0.63 9  174 351 
 QYDI    ES   0A   041 42.04                              43   -0.62 9  174 351 
 HLUH    IP   0A   041 21.21                              43   -0.66 8  183 327 
 HLUH    ES   0A   041 43.92                              43   -0.72 8  183 327 
                                                                                
