# 2012 08 13 16 31 48.900000 38.415 46.686   4.1  1.6 0.0 0.0 0.0       113
TVRZ  2.040 1.00 P
TVRZ  3.570 1.00 S
HRS   5.440 1.00 Pg
TAHR  5.860 1.00 P
TBZ   8.660 1.00 Pg
FTB  15.970 1.00 S
BST  13.400 1.00 Pg
ORD  25.230 1.00 S
MRD  15.370 1.00 Pg
MRD  27.760 1.00 S
SHB  16.150 1.00 Pg
SHB  28.210 1.00 S
AZR  30.830 1.00 S
SRB  18.670 1.00 Pg
GRMI 33.760 1.00 S
HSH  22.700 1.00 P
HSH  39.730 1.00 S
LRK  24.660 1.00 P
SBZ  24.960 1.00 P
GLBA 29.240 1.00 P
GLBA 51.170 1.00 S
ASTR 30.870 1.00 P
LKRN 31.080 1.00 P
MAKU 59.610 1.00 S
SAAT 36.560 1.00 P
SAAT 63.830 1.00 S
ZRD  36.900 1.00 P
ZRD  64.390 1.00 S
GANJ 39.880 1.00 P
GNI  40.880 1.00 P
GNI  71.270 1.00 S
VANB 44.760 1.00 P
VANB 77.980 1.00 S
# 2012 08 13 17 08 41.800000 38.436 46.678   4.6  2.8 0.0 0.0 0.0       114
TVRZ  1.550 1.00 P
TAHR 10.180 1.00 S
HRS   6.390 1.00 Pg
HRS  10.870 1.00 S
TBZ   8.110 1.00 Pg
TBZ  15.710 1.00 S
TABZ 16.180 1.00 S
FTB   9.380 1.00 P
FTB  16.410 1.00 S
ORD  13.530 1.00 P
ORD  23.670 1.00 S
BST  13.820 1.00 Pg
MRD  15.340 1.00 Pg
MRD  26.620 1.00 S
SHB  16.020 1.00 Pg
SHB  27.950 1.00 S
AZR  18.330 1.00 Pg
AZR  31.110 1.00 S
SRB  18.290 1.00 Pg
GRMI 19.060 1.00 P
SBZ  42.110 1.00 S
LRK  24.600 1.00 P
GLBA 50.620 1.00 S
MAKU 33.310 1.00 P
MAKU 58.290 1.00 S
BRDA 34.100 1.00 P
BRDA 59.670 1.00 S
SAAT 36.000 1.00 P
ZRD  36.320 1.00 P
GNI  40.210 1.00 P
ZNJK 42.040 1.00 P
VANB 44.550 1.00 P
VANB 77.620 1.00 S
# 2012 08 13 18 31 10.900000 38.416 46.784   4.1  1.9 0.0 0.0 0.0       115
TVRZ  5.060 1.00 S
TAHR  4.270 1.00 P
TAHR  7.470 1.00 S
HRS   4.550 1.00 Pg
FTB   9.830 1.00 P
TABZ 17.420 1.00 S
TBZ   9.830 1.00 Pg
TBZ  18.230 1.00 S
BST  13.090 1.00 Pg
BST  23.750 1.00 S
MRD  16.730 1.00 Pg
MRD  30.090 1.00 S
SRB  17.230 1.00 Pg
SHB  17.490 1.00 Pg
AZR  18.640 1.00 Pg
AZR  32.210 1.00 S
HSH  21.860 1.00 P
LRK  22.970 1.00 P
NAX  23.750 1.00 P
SBZ  25.750 1.00 P
GLBA 48.690 1.00 S
ASTR 29.170 1.00 P
ASTR 51.040 1.00 S
BRDA 34.330 1.00 P
BRDA 60.070 1.00 S
MAKU 35.120 1.00 P
MAKU 61.440 1.00 S
ZRD  63.330 1.00 S
ZNJK 40.830 1.00 P
ZNJK 71.190 1.00 S
GNI  41.510 1.00 P
VANB 45.920 1.00 P
VANB 79.980 1.00 S
# 2012 08 13 18 40 05.700000 38.422 46.674  20.5  3.4 0.0 0.0 0.0       116
HRS   6.340 1.00 Pg
HRS  11.710 1.00 Sg
TBZ   8.330 1.00 Pg
TBZ  16.360 1.00 S
TABZ  9.570 1.00 P
TABZ 16.740 1.00 S
FTB   9.650 1.00 P
ORD  24.290 1.00 S
BST  13.720 1.00 Pg
BST  24.580 1.00 Sg
MRD  15.040 1.00 Pg
SHB  15.620 1.00 Pg
SHB  28.380 1.00 Sg
AZR  16.870 1.00 Pg
AZR  30.700 1.00 S
SRB  18.330 1.00 Pg
GRMI 19.470 1.00 Pg
NAX  21.640 1.00 P
HSH  39.200 1.00 S
SBZ  23.690 1.00 P
SBZ  41.470 1.00 S
LRK  42.580 1.00 S
GLBA 28.690 1.00 P
MAKU 32.110 1.00 Pg
BRDA 32.900 1.00 P
BRDA 57.370 1.00 S
SAAT 34.630 1.00 P
SAAT 60.380 1.00 S
ZRD  34.850 1.00 P
GNI  38.640 1.00 P
GNI  67.330 1.00 S
ZNJK 41.140 1.00 Pn
VANB 74.220 1.00 S
# 2012 08 13 19 43 22.000000 38.428 46.647  19.5  3.3 0.0 0.0 0.0       117
TVRZ  6.740 1.00 S
TAHR  7.230 1.00 P
HRS   6.750 1.00 Pg
HRS  12.250 1.00 Sg
TBZ   8.820 1.00 Pg
TBZ  15.260 1.00 Sg
TABZ 16.120 1.00 S
ORD  23.580 1.00 S
BST  14.280 1.00 Pg
BST  25.460 1.00 Sg
MRD  15.490 1.00 Pg
SHB  16.150 1.00 Pg
AZR  17.270 1.00 Pg
AZR  29.790 1.00 Sg
SRB  18.660 1.00 Pg
SRB  33.230 1.00 S
GRMI 19.980 1.00 Pg
GRMI 34.500 1.00 S
NAX  21.240 1.00 P
NAX  37.170 1.00 S
HSH  22.840 1.00 P
SBZ  23.310 1.00 P
LRK  43.410 1.00 S
ASTR 30.580 1.00 P
LKRN 30.730 1.00 P
MAKU 32.780 1.00 Pg
MAKU 55.400 1.00 S
ZRD  34.920 1.00 P
GANJ 37.740 1.00 P
GANJ 65.760 1.00 S
GNI  38.230 1.00 P
ZNJK 41.140 1.00 Pn
ZNJK 70.600 1.00 S
# 2012 08 13 19 55 52.700000 38.361 46.726  28.6  1.8 0.0 0.0 0.0       118
TVRZ  5.750 1.00 P
TVRZ 10.060 1.00 S
HRS   6.870 1.00 P
HRS  12.030 1.00 S
TAHR 12.940 1.00 S
TABZ  9.280 1.00 P
TABZ 16.240 1.00 S
TBZ   9.660 1.00 Pg
BST  13.390 1.00 Pg
BST  22.970 1.00 S
ORD  15.170 1.00 P
SHB  17.180 1.00 Pg
SHB  28.520 1.00 S
MRD  16.200 1.00 Pg
MRD  28.730 1.00 S
AZR  16.340 1.00 Pg
SRB  17.010 1.00 Pg
HSH  21.080 1.00 P
NAX  22.830 1.00 P
NAX  39.960 1.00 S
SBZ  24.910 1.00 P
SBZ  43.590 1.00 S
GLBA 28.300 1.00 P
ASTR 29.080 1.00 P
LKRN 51.110 1.00 S
BRDA 57.420 1.00 S
SAAT 34.120 1.00 P
SAAT 59.460 1.00 S
ZRD  34.720 1.00 P
ZNJK 38.330 1.00 P
GANJ 66.340 1.00 S
VANB 42.460 1.00 P
VANB 73.860 1.00 S
# 2012 08 13 20 12 42.800000 38.417 46.884  11.3  2.8 0.0 0.0 0.0       119
TAHR  6.710 1.00 S
HRS   3.530 1.00 Pg
TVRZ  7.610 1.00 S
TABZ 11.240 1.00 P
TBZ  11.630 1.00 Pg
BST  12.920 1.00 Pg
SRB  15.710 1.00 Pg
SRB  28.310 1.00 Sg
ORD  16.330 1.00 P
MRD  18.080 1.00 Pg
SHB  18.950 1.00 Pg
AZR  19.260 1.00 Pg
HSH  38.140 1.00 S
LRK  22.030 1.00 P
LRK  38.550 1.00 S
NAX  24.760 1.00 P
NAX  43.330 1.00 S
SBZ  46.630 1.00 S
GLBA 27.020 1.00 P
ASTR 27.830 1.00 P
ASTR 48.700 1.00 S
LKRN 28.100 1.00 P
LKRN 49.170 1.00 S
SAAT 34.280 1.00 P
SAAT 59.820 1.00 S
ZNJK 39.600 1.00 P
ZNJK 69.020 1.00 S
GANJ 39.400 1.00 P
GANJ 68.680 1.00 S
GNI  41.480 1.00 P
GNI  72.260 1.00 S
VANB 46.040 1.00 P
VANB 80.150 1.00 S
# 2012 08 13 20 22 37.600000 38.384 46.980   4.1  1.5 0.0 0.0 0.0       120
HRS   1.650 1.00 Pg
HRS   3.550 1.00 S
TAHR  2.400 1.00 P
TAHR  4.200 1.00 S
TVRZ  9.800 1.00 S
FTB  11.590 1.00 P
TBZ  12.870 1.00 Pg
TBZ  22.920 1.00 S
BST  12.610 1.00 Pg
SRB  14.950 1.00 Pg
GRMI 15.390 1.00 P
GRMI 26.930 1.00 S
ORD  31.160 1.00 S
MRD  19.250 1.00 Pg
AZR  35.260 1.00 S
SHB  20.340 1.00 Pg
SHB  35.900 1.00 S
LRK  20.370 1.00 P
GLBA 25.740 1.00 P
NAX  45.930 1.00 S
ASTR 26.550 1.00 P
SBZ  28.030 1.00 P
SBZ  49.050 1.00 S
SAAT 34.030 1.00 P
BRDA 34.430 1.00 P
BRDA 60.240 1.00 S
ZRD  35.880 1.00 P
ZRD  62.690 1.00 S
MAKU 37.290 1.00 P
GANJ 40.720 1.00 P
GANJ 70.990 1.00 S
GNI  43.140 1.00 P
GNI  75.180 1.00 S
# 2012 08 13 20 29 51.900000 38.552 46.768   4.1  1.8 0.0 0.0 0.0       121
TVRZ  2.290 1.00 P
HRS   6.210 1.00 Pg
HRS  10.750 1.00 Sg
TBZ  10.410 1.00 Pg
TABZ 11.510 1.00 P
FTB  20.260 1.00 S
ORD  13.790 1.00 P
ORD  24.130 1.00 S
MRD  16.210 1.00 Pg
BST  27.870 1.00 S
GRMI 30.180 1.00 S
SHB  17.250 1.00 Pg
SRB  18.660 1.00 Pg
AZR  20.490 1.00 Pg
NAX  38.900 1.00 S
SBZ  42.000 1.00 S
GLBA 26.940 1.00 P
LKRN 29.400 1.00 P
ASTR 29.390 1.00 P
ASTR 51.440 1.00 S
BRDA 32.470 1.00 P
MAKU 33.950 1.00 P
MAKU 59.410 1.00 S
SAAT 34.090 1.00 P
SAAT 59.660 1.00 S
ZRD  34.620 1.00 P
ZRD  60.570 1.00 S
GANJ 38.360 1.00 P
GANJ 66.890 1.00 S
GNI  70.030 1.00 S
ZNJK 42.290 1.00 P
ZNJK 73.700 1.00 S
VANB 45.730 1.00 P
# 2012 08 13 20 44 57.200000 38.367 46.819  10.0  1.6 0.0 0.0 0.0       122
TVRZ  7.210 1.00 S
HRS   3.570 1.00 Pg
HRS   6.790 1.00 Sg
TAHR  8.310 1.00 S
FTB   9.640 1.00 P
TABZ  9.830 1.00 P
TABZ 17.210 1.00 S
TBZ   9.960 1.00 Pg
TBZ  18.400 1.00 S
BST  12.440 1.00 Pg
SRB  16.510 1.00 Pg
MRD  17.570 1.00 Pg
SHB  18.160 1.00 Pg
GRMI 31.250 1.00 S
HSH  21.190 1.00 P
HSH  37.080 1.00 S
LRK  22.970 1.00 P
LRK  40.190 1.00 S
NAX  42.750 1.00 S
SBZ  26.520 1.00 P
GLBA 28.060 1.00 P
ASTR 28.910 1.00 P
LKRN 29.230 1.00 P
BRDA 34.590 1.00 P
BRDA 60.380 1.00 S
MAKU 35.310 1.00 P
MAKU 61.620 1.00 S
SAAT 35.400 1.00 P
SAAT 61.750 1.00 S
ZRD  36.220 1.00 P
ZNJK 69.210 1.00 S
GANJ 40.060 1.00 P
GANJ 69.810 1.00 S
# 2012 08 13 20 57 07.500000 38.385 46.661   4.3  1.5 0.0 0.0 0.0       123
TVRZ  3.960 1.00 S
HRS   5.740 1.00 Pg
HRS  10.520 1.00 Sg
TAHR  6.590 1.00 P
TAHR 11.530 1.00 S
TABZ  8.270 1.00 P
FTB   8.390 1.00 P
FTB  14.690 1.00 S
TBZ   7.840 1.00 Pg
BST  13.580 1.00 Pg
BST  23.890 1.00 S
ORD  13.920 1.00 P
MRD  15.640 1.00 Pg
MRD  26.620 1.00 S
SHB  15.630 1.00 Pg
SHB  27.100 1.00 S
GRMI 19.950 1.00 P
GRMI 34.910 1.00 S
HSH  22.370 1.00 P
HSH  39.150 1.00 S
NAX  38.870 1.00 S
SBZ  24.530 1.00 P
GLBA 29.880 1.00 P
GLBA 52.290 1.00 S
ASTR 31.600 1.00 P
ASTR 55.290 1.00 S
LKRN 31.760 1.00 P
LKRN 55.590 1.00 S
MAKU 33.490 1.00 P
ZRD  64.720 1.00 S
GANJ 40.060 1.00 P
GNI  40.570 1.00 P
ZNJK 41.770 1.00 P
# 2012 08 13 21 01 40.200000 38.407 46.679   4.3  1.8 0.0 0.0 0.0       124
HRS   5.430 1.00 Pg
HRS  10.350 1.00 Sg
TAHR  6.170 1.00 P
TABZ  8.480 1.00 P
TABZ 14.850 1.00 S
FTB  15.020 1.00 S
TBZ   8.610 1.00 Pg
BST  13.210 1.00 Pg
ORD  14.420 1.00 P
MRD  15.200 1.00 Pg
MRD  27.560 1.00 S
SHB  16.190 1.00 Pg
SHB  27.830 1.00 S
AZR  17.030 1.00 P
AZR  29.800 1.00 S
SRB  18.490 1.00 Pg
SRB  32.450 1.00 S
GRMI 19.590 1.00 P
GRMI 34.290 1.00 S
NAX  22.740 1.00 P
NAX  39.800 1.00 S
SBZ  43.740 1.00 S
LRK  24.840 1.00 P
GLBA 29.630 1.00 P
ASTR 54.280 1.00 S
MAKU 33.980 1.00 P
MAKU 59.460 1.00 S
BRDA 34.910 1.00 P
SAAT 63.980 1.00 S
ZRD  37.050 1.00 P
ZNJK 41.770 1.00 P
ZNJK 72.800 1.00 S
VANB 44.610 1.00 P
# 2012 08 13 21 10 31.500000 38.477 46.763  14.8  1.6 0.0 0.0 0.0       125
HRS   5.630 1.00 Pg
HRS   9.990 1.00 Sg
TBZ  10.100 1.00 Pg
TABZ 10.960 1.00 P
TABZ 19.180 1.00 S
FTB  10.970 1.00 P
FTB  19.200 1.00 S
BST  14.260 1.00 Pg
MRD  16.310 1.00 Pg
SHB  17.200 1.00 Pg
GRMI 17.910 1.00 P
SRB  18.170 1.00 Pg
AZR  19.480 1.00 Pg
NAX  39.910 1.00 S
HSH  40.600 1.00 S
LRK  23.070 1.00 P
LRK  40.370 1.00 S
GLBA 27.060 1.00 P
ASTR 28.920 1.00 P
ASTR 50.610 1.00 S
LKRN 29.030 1.00 P
LKRN 50.800 1.00 S
BRDA 32.520 1.00 P
MAKU 33.450 1.00 P
MAKU 58.360 1.00 S
SAAT 33.870 1.00 P
ZRD  59.960 1.00 S
GANJ 37.810 1.00 P
GANJ 65.900 1.00 S
GNI  68.750 1.00 S
ZNJK 40.600 1.00 P
ZNJK 70.730 1.00 S
VANB 77.160 1.00 S
# 2012 08 13 21 18 45.800000 38.394 46.771  17.5  1.2 0.0 0.0 0.0       126
TVRZ  7.740 1.00 S
HRS   5.040 1.00 Pg
HRS   9.140 1.00 Sg
TAHR  9.750 1.00 S
TABZ  9.880 1.00 P
TABZ 17.300 1.00 S
TBZ   9.480 1.00 Pg
BST  13.470 1.00 Pg
ORD  15.810 1.00 P
MRD  17.320 1.00 P
SRB  16.900 1.00 Pg
SRB  29.530 1.00 S
SHB  17.680 1.00 Pg
SHB  30.760 1.00 S
AZR  17.920 1.00 P
AZR  31.360 1.00 S
GRMI 18.270 1.00 P
LRK  23.030 1.00 P
SBZ  25.570 1.00 P
SBZ  44.750 1.00 S
ASTR 50.320 1.00 S
LKRN 29.000 1.00 P
LKRN 50.750 1.00 S
MAKU 59.020 1.00 S
BRDA 33.700 1.00 P
BRDA 58.760 1.00 S
SAAT 34.450 1.00 P
ZRD  35.330 1.00 P
GANJ 38.980 1.00 P
ZNJK 39.000 1.00 P
ZNJK 67.950 1.00 S
GNI  40.220 1.00 P
GNI  70.050 1.00 S
# 2012 08 13 21 25 25.100000 38.458 46.800  19.2  1.8 0.0 0.0 0.0       127
TAHR  9.180 1.00 S
HRS   5.630 1.00 Pg
HRS   9.680 1.00 Sg
TBZ  10.550 1.00 Pg
BST  14.060 1.00 Pg
ORD  15.160 1.00 P
ORD  26.530 1.00 S
MRD  17.060 1.00 Pg
MRD  29.590 1.00 S
GRMI 17.610 1.00 P
SRB  17.670 1.00 Pg
SHB  17.930 1.00 Pg
SHB  30.840 1.00 S
AZR  19.790 1.00 Pg
AZR  32.620 1.00 S
HSH  22.260 1.00 P
HSH  38.960 1.00 S
LRK  22.580 1.00 P
NAX  22.990 1.00 P
SBZ  24.860 1.00 P
ASTR 28.390 1.00 P
LKRN 28.550 1.00 P
BRDA 32.470 1.00 P
MAKU 33.230 1.00 P
MAKU 57.950 1.00 S
SAAT 58.430 1.00 S
ZRD  34.130 1.00 P
ZRD  59.520 1.00 S
GANJ 66.060 1.00 S
GNI  39.460 1.00 P
GNI  68.740 1.00 S
ZNJK 68.960 1.00 S
VANB 76.580 1.00 S
# 2012 08 13 21 29 06.200000 38.416 46.837  21.0  1.3 0.0 0.0 0.0       128
TAHR  5.130 1.00 P
HRS   4.840 1.00 Pg
HRS   8.800 1.00 Sg
FTB  10.780 1.00 P
TABZ 19.160 1.00 S
TBZ  11.450 1.00 P
BST  13.370 1.00 Pg
ORD  16.020 1.00 P
ORD  28.040 1.00 S
SRB  16.380 1.00 P
SRB  28.660 1.00 S
GRMI 17.050 1.00 P
MRD  31.140 1.00 S
SHB  17.650 1.00 Pg
SHB  31.810 1.00 S
AZR  19.250 1.00 Pg
AZR  31.810 1.00 Sg
HSH  21.290 1.00 P
HSH  37.250 1.00 S
LRK  21.940 1.00 P
ASTR 27.700 1.00 P
LKRN 27.910 1.00 P
LKRN 48.840 1.00 S
BRDA 32.670 1.00 P
BRDA 56.960 1.00 S
SAAT 33.270 1.00 P
MAKU 33.870 1.00 P
MAKU 59.050 1.00 S
ZRD  34.220 1.00 P
ZRD  59.660 1.00 S
GNI  39.980 1.00 P
GNI  69.620 1.00 S
VANB 77.520 1.00 S
# 2012 08 13 21 33 29.800000 38.436 46.680  16.6  1.7 0.0 0.0 0.0       129
TVRZ  5.720 1.00 S
TAHR  6.360 1.00 P
TAHR 11.120 1.00 S
HRS   6.140 1.00 Pg
HRS  11.460 1.00 Sg
TBZ   8.770 1.00 Pg
TABZ  9.670 1.00 P
TABZ 16.930 1.00 S
FTB   9.790 1.00 P
ORD  13.930 1.00 P
ORD  24.370 1.00 S
BST  14.130 1.00 Pg
MRD  15.150 1.00 Pg
MRD  27.180 1.00 S
SHB  16.780 1.00 Pg
SHB  28.400 1.00 S
AZR  17.550 1.00 Pg
AZR  31.360 1.00 S
SRB  18.690 1.00 Pg
GRMI 19.050 1.00 P
NAX  21.750 1.00 P
NAX  38.070 1.00 S
HSH  22.830 1.00 P
LRK  24.190 1.00 P
ASTR 52.570 1.00 S
SAAT 34.590 1.00 P
SAAT 60.330 1.00 S
ZRD  34.890 1.00 P
GANJ 37.920 1.00 P
GANJ 66.080 1.00 S
GNI  67.690 1.00 S
ZNJK 40.570 1.00 P
ZNJK 70.670 1.00 S
# 2012 08 13 22 37 04.500000 38.390 46.688  20.0  3.3 0.0 0.0 0.0       130
HRS   6.240 1.00 Pg
HRS  11.340 1.00 Sg
TABZ  8.840 1.00 P
TBZ   8.730 1.00 Pg
BST  13.760 1.00 Pg
BST  23.510 1.00 S
ORD  14.790 1.00 P
ORD  25.890 1.00 S
MRD  15.320 1.00 Pg
MRD  28.500 1.00 Sg
SHB  15.930 1.00 Pg
SHB  28.040 1.00 S
AZR  17.250 1.00 Pg
SRB  18.090 1.00 Pg
GRMI 19.390 1.00 Pg
HSH  37.590 1.00 S
NAX  39.410 1.00 S
LRK  24.120 1.00 P
SBZ  43.120 1.00 S
GLBA 50.110 1.00 S
LKRN 30.070 1.00 P
MAKU 32.740 1.00 Pn
SAAT 60.810 1.00 S
ZRD  35.430 1.00 P
ZRD  61.760 1.00 S
GANJ 67.180 1.00 S
GNI  39.330 1.00 P
ZNJK 40.650 1.00 Pn
ZNJK 68.600 1.00 S
VANB 74.900 1.00 S
# 2012 08 13 23 22 37.000000 38.444 46.746  10.0  1.5 0.0 0.0 0.0       131
TVRZ  2.670 1.00 P
TAHR  4.980 1.00 P
TAHR  8.720 1.00 S
HRS   5.440 1.00 Pg
HRS   9.240 1.00 S
TABZ  9.600 1.00 P
TBZ   9.600 1.00 Pg
BST  14.050 1.00 Pg
ORD  14.590 1.00 P
ORD  25.540 1.00 S
MRD  15.940 1.00 Pg
MRD  28.570 1.00 S
SHB  17.420 1.00 Pg
GRMI 18.380 1.00 P
HSH  22.490 1.00 P
NAX  22.970 1.00 P
NAX  40.200 1.00 S
LRK  23.750 1.00 P
LRK  41.560 1.00 S
SBZ  25.080 1.00 P
GLBA 28.280 1.00 P
ASTR 52.020 1.00 S
LKRN 52.310 1.00 S
MAKU 33.910 1.00 P
MAKU 59.270 1.00 S
ZRD  62.280 1.00 S
GANJ 68.180 1.00 S
GNI  40.330 1.00 P
GNI  70.290 1.00 S
ZNJK 40.790 1.00 P
ZNJK 71.080 1.00 S
VANB 44.670 1.00 P
VANB 77.790 1.00 S
# 2012 08 13 23 43 33.600000 38.398 46.863  12.1  1.5 0.0 0.0 0.0       132
HRS   3.700 1.00 Pg
HRS   7.160 1.00 S
FTB  10.090 1.00 P
FTB  17.660 1.00 S
TBZ  11.320 1.00 Pg
BST  12.770 1.00 Pg
SRB  16.220 1.00 Pg
SRB  28.680 1.00 S
ORD  16.480 1.00 P
ORD  28.830 1.00 S
GRMI 17.530 1.00 P
MRD  17.620 1.00 Pg
SHB  18.760 1.00 Pg
AZR  18.670 1.00 Pg
AZR  32.670 1.00 S
LRK  22.570 1.00 P
LRK  39.500 1.00 S
NAX  24.680 1.00 P
NAX  43.200 1.00 S
SBZ  46.530 1.00 S
GLBA 47.910 1.00 S
ASTR 49.520 1.00 S
LKRN 49.960 1.00 S
BRDA 34.120 1.00 P
SAAT 34.620 1.00 P
MAKU 61.110 1.00 S
ZRD  35.630 1.00 P
ZNJK 39.300 1.00 P
GANJ 39.780 1.00 P
GNI  41.310 1.00 P
GNI  71.980 1.00 S
VANB 45.570 1.00 P
VANB 79.330 1.00 S
# 2012 08 14 01 32 41.700000 38.454 46.693   9.4  2.2 0.0 0.0 0.0       133
TVRZ  2.150 1.00 P
TAHR  5.550 1.00 P
HRS   6.260 1.00 Pg
TBZ   8.730 1.00 Pg
TBZ  16.720 1.00 S
FTB  16.900 1.00 S
ORD  13.950 1.00 P
BST  14.000 1.00 Pg
BST  25.250 1.00 S
MRD  15.350 1.00 Pg
SHB  16.120 1.00 Pg
AZR  18.550 1.00 Pg
AZR  31.740 1.00 S
SRB  18.360 1.00 Pg
SRB  32.160 1.00 S
GRMI 18.940 1.00 P
GRMI 33.150 1.00 S
NAX  22.320 1.00 P
HSH  22.950 1.00 P
HSH  40.160 1.00 S
SBZ  42.780 1.00 S
LRK  24.360 1.00 P
LRK  42.630 1.00 S
GLBA 50.370 1.00 S
LKRN 30.490 1.00 P
LKRN 53.350 1.00 S
MAKU 33.410 1.00 P
MAKU 58.460 1.00 S
SAAT 35.490 1.00 P
GNI  39.980 1.00 P
ZNJK 72.110 1.00 S
VANB 44.290 1.00 P
VANB 77.130 1.00 S
# 2012 08 14 01 39 59.300000 38.467 46.726  19.3  1.4 0.0 0.0 0.0       134
TAHR  6.060 1.00 P
TAHR 10.610 1.00 S
HRS   6.490 1.00 Pg
HRS  11.780 1.00 S
TBZ   9.870 1.00 Pg
TABZ 10.160 1.00 P
FTB  17.930 1.00 S
ORD  24.420 1.00 S
BST  14.630 1.00 Pg
MRD  15.660 1.00 Pg
SHB  17.420 1.00 Pg
GRMI 32.410 1.00 S
SRB  18.510 1.00 P
AZR  31.810 1.00 S
NAX  38.130 1.00 S
LRK  23.600 1.00 P
LRK  41.290 1.00 S
SBZ  41.400 1.00 S
GLBA 27.690 1.00 P
GLBA 48.460 1.00 S
LKRN 29.560 1.00 P
LKRN 51.720 1.00 S
MAKU 32.350 1.00 P
BRDA 32.380 1.00 P
SAAT 33.890 1.00 P
SAAT 59.100 1.00 S
ZRD  34.210 1.00 P
ZRD  59.650 1.00 S
GANJ 37.490 1.00 P
GANJ 65.330 1.00 S
GNI  38.580 1.00 P
ZNJK 40.240 1.00 P
VANB 43.140 1.00 P
# 2012 08 14 01 49 20.100000 38.419 46.692  17.7  3.0 0.0 0.0 0.0       135
TVRZ  3.670 1.00 P
TVRZ  6.420 1.00 S
TAHR  6.340 1.00 P
TAHR 11.090 1.00 S
HRS   6.010 1.00 Pg
HRS  10.950 1.00 Sg
TABZ  9.600 1.00 P
TABZ 16.800 1.00 S
TBZ   8.850 1.00 Pg
FTB  16.840 1.00 S
BST  13.620 1.00 Pg
BST  24.440 1.00 Sg
MRD  15.180 1.00 Pg
MRD  28.140 1.00 S
SHB  16.270 1.00 Pg
SHB  28.730 1.00 Sg
AZR  17.340 1.00 Pg
SRB  18.410 1.00 Pg
SRB  32.230 1.00 S
GRMI 19.450 1.00 Pg
HSH  22.430 1.00 P
SBZ  24.440 1.00 P
SBZ  42.780 1.00 S
ASTR 29.800 1.00 P
LKRN 29.970 1.00 P
MAKU 32.460 1.00 Pn
MAKU 57.300 1.00 S
GANJ 66.540 1.00 S
GNI  68.350 1.00 S
ZNJK 40.670 1.00 Pn
ZNJK 70.030 1.00 S
VANB 43.270 1.00 P
# 2012 08 14 02 00 50.700000 38.477 46.690   4.3  2.0 0.0 0.0 0.0       136
TVRZ  1.250 1.00 P
TVRZ  2.180 1.00 S
TAHR  5.520 1.00 P
HRS   6.090 1.00 Pg
HRS  11.300 1.00 S
TBZ   8.710 1.00 Pg
TBZ  16.830 1.00 S
FTB  17.700 1.00 S
ORD  13.690 1.00 P
BST  26.470 1.00 S
MRD  15.380 1.00 Pg
MRD  27.200 1.00 S
SHB  16.100 1.00 Pg
SHB  28.710 1.00 S
AZR  18.620 1.00 Pg
AZR  32.440 1.00 S
GRMI 18.670 1.00 P
SRB  18.760 1.00 Pg
NAX  22.100 1.00 P
HSH  23.740 1.00 P
LRK  24.320 1.00 P
GLBA 28.410 1.00 P
ASTR 30.650 1.00 P
ASTR 53.640 1.00 S
LKRN 30.740 1.00 P
MAKU 33.580 1.00 P
BRDA 33.550 1.00 P
BRDA 58.720 1.00 S
SAAT 62.070 1.00 S
ZRD  62.630 1.00 S
GANJ 38.930 1.00 P
GANJ 67.890 1.00 S
GNI  70.080 1.00 S
# 2012 08 14 02 37 06.900000 38.440 46.805  15.0  2.3 0.0 0.0 0.0       137
TVRZ  3.800 1.00 P
TAHR  4.950 1.00 P
HRS   4.910 1.00 Pg
HRS   8.610 1.00 Sg
FTB  10.300 1.00 P
FTB  18.020 1.00 S
TABZ 10.370 1.00 P
TBZ  10.100 1.00 Pg
TBZ  18.750 1.00 S
BST  14.010 1.00 P
MRD  30.300 1.00 S
SRB  17.370 1.00 P
SRB  30.130 1.00 Sg
GRMI 17.960 1.00 P
SHB  17.850 1.00 P
SHB  31.490 1.00 Sg
AZR  18.670 1.00 P
AZR  32.510 1.00 Sg
HSH  21.970 1.00 P
HSH  38.460 1.00 S
LRK  22.910 1.00 P
NAX  40.940 1.00 S
SBZ  44.240 1.00 S
GLBA 27.330 1.00 P
ASTR 28.720 1.00 P
ASTR 50.260 1.00 S
LKRN 28.890 1.00 P
LKRN 50.560 1.00 S
BRDA 57.990 1.00 S
SAAT 34.210 1.00 P
ZRD  34.890 1.00 P
GANJ 67.370 1.00 S
VANB 44.640 1.00 P
# 2012 08 14 03 46 54.400000 38.442 46.805  18.2  2.1 0.0 0.0 0.0       138
TVRZ  3.930 1.00 Pg
TVRZ  6.940 1.00 Sg
TAHR  5.190 1.00 P
HRS   4.980 1.00 Pg
HRS   8.890 1.00 Sg
FTB  10.400 1.00 P
FTB  18.210 1.00 S
TBZ  10.600 1.00 Pg
TBZ  18.800 1.00 Sg
BST  24.580 1.00 S
MRD  16.870 1.00 Pg
MRD  29.910 1.00 Sg
SRB  17.360 1.00 Pg
SRB  30.180 1.00 Sg
GRMI 30.890 1.00 S
SHB  18.000 1.00 Pg
SHB  30.760 1.00 Sg
AZR  20.200 0.50 Pg
HSH  21.830 1.00 P
NAX  23.180 1.00 P
SBZ  25.050 1.00 P
SBZ  43.840 1.00 S
GLBA 27.000 1.00 P
GLBA 47.260 1.00 S
BRDA 32.850 1.00 P
BRDA 57.290 1.00 S
SAAT 33.770 1.00 P
SAAT 58.900 1.00 S
ZRD  34.480 1.00 P
GANJ 38.280 1.00 P
ZNJK 39.370 1.00 P
VANB 44.250 1.00 P
VANB 77.010 1.00 S
# 2012 08 14 04 08 43.300000 38.462 46.640   4.3  2.3 0.0 0.0 0.0       139
TAHR 10.620 1.00 S
HRS   6.270 1.00 Pg
HRS  11.870 1.00 Sg
TBZ   8.260 1.00 Pg
TBZ  15.570 1.00 S
FTB   9.410 1.00 P
MRD  14.660 1.00 Pg
MRD  26.140 1.00 S
BST  14.730 1.00 P
SHB  15.710 1.00 Pg
SHB  27.580 1.00 S
AZR  17.770 1.00 P
SRB  19.570 1.00 Pg
GRMI 19.380 1.00 P
NAX  37.840 1.00 S
HSH  40.830 1.00 S
SBZ  23.760 1.00 P
SBZ  41.580 1.00 S
LRK  43.580 1.00 S
GLBA 29.180 1.00 P
GLBA 51.060 1.00 S
ASTR 31.180 1.00 P
ASTR 54.570 1.00 S
LKRN 31.320 1.00 P
MAKU 33.080 1.00 P
BRDA 34.020 1.00 P
SAAT 36.100 1.00 P
SAAT 63.090 1.00 S
ZRD  63.480 1.00 S
GANJ 39.240 1.00 P
GNI  40.030 1.00 P
VANB 44.280 1.00 P
VANB 77.130 1.00 S
# 2012 08 14 04 52 17.700000 38.446 46.661  20.0  2.1 0.0 0.0 0.0       140
TVRZ  3.830 1.00 P
TVRZ  6.700 1.00 S
TAHR  7.050 1.00 P
HRS   6.890 1.00 Pg
HRS  12.290 1.00 Sg
TBZ   8.680 1.00 Pg
TABZ 16.250 1.00 S
FTB   9.440 1.00 P
ORD  13.760 1.00 P
ORD  24.070 1.00 S
BST  14.380 1.00 Pg
BST  25.640 1.00 Sg
MRD  15.200 1.00 Pg
MRD  26.510 1.00 S
SHB  16.360 1.00 Pg
SHB  27.470 1.00 S
AZR  30.240 1.00 S
SRB  18.820 1.00 Pg
HSH  22.590 1.00 P
SBZ  23.590 1.00 P
GLBA 28.650 1.00 P
ASTR 30.390 1.00 P
ASTR 53.130 1.00 S
LKRN 30.520 1.00 P
BRDA 32.940 1.00 P
SAAT 34.640 1.00 P
SAAT 60.400 1.00 S
ZRD  60.790 1.00 S
GANJ 65.910 1.00 S
GNI  38.440 1.00 P
ZNJK 70.220 1.00 S
VANB 42.450 1.00 P
VANB 73.890 1.00 S
