# 2012 08 14 05 28 13.200000 38.437 46.804  18.1  3.4 0.0 0.0 0.0       141
TVRZ  4.080 1.00 P
HRS   5.070 1.00 Pg
HRS   8.890 1.00 Sg
FTB  10.720 1.00 P
TABZ 18.830 1.00 S
TBZ  10.590 1.00 Pg
TBZ  18.710 1.00 Sg
BST  13.810 1.00 Pg
BST  25.200 1.00 S
ORD  15.080 1.00 P
ORD  26.390 1.00 S
MRD  16.670 1.00 Pg
SRB  16.940 1.00 Pg
SRB  30.250 1.00 Sg
GRMI 17.920 1.00 Pg
SHB  17.430 1.00 Pg
SHB  31.670 1.00 Sg
AZR  18.750 1.00 Pg
LRK  22.680 1.00 P
NAX  40.090 1.00 S
SBZ  43.310 1.00 S
ASTR 28.510 1.00 P
ASTR 49.890 1.00 S
BRDA 56.790 1.00 S
MAKU 33.790 1.00 Pn
MAKU 58.120 1.00 S
ZRD  59.670 1.00 S
ZNJK 40.670 1.00 Pn
GNI  39.470 1.00 P
GNI  68.750 1.00 S
VANB 44.260 1.00 P
# 2012 08 14 06 58 45.500000 38.402 46.657  16.5  1.8 0.0 0.0 0.0       142
TVRZ  6.560 1.00 S
HRS   6.400 1.00 Pg
HRS  11.520 1.00 Sg
TABZ 14.990 1.00 S
TBZ   8.250 1.00 Pg
FTB   8.670 1.00 P
FTB  15.170 1.00 S
BST  13.690 1.00 Pg
BST  24.540 1.00 S
ORD  14.490 1.00 P
ORD  25.360 1.00 S
MRD  15.150 1.00 Pg
SHB  16.190 1.00 Pg
SHB  27.420 1.00 S
SRB  18.710 1.00 P
SRB  32.740 1.00 S
HSH  22.190 1.00 P
SBZ  24.400 1.00 P
GLBA 51.140 1.00 S
ASTR 30.640 1.00 P
ASTR 53.600 1.00 S
LKRN 30.840 1.00 P
MAKU 32.570 1.00 P
MAKU 56.850 1.00 S
BRDA 33.870 1.00 P
BRDA 59.070 1.00 S
SAAT 35.440 1.00 P
GANJ 38.770 1.00 P
GNI  39.290 1.00 P
ZNJK 40.350 1.00 P
ZNJK 70.280 1.00 S
VANB 42.780 1.00 P
VANB 74.480 1.00 S
# 2012 08 14 08 11 48.900000 38.392 46.662  15.5  2.1 0.0 0.0 0.0       143
HRS   6.120 1.00 Pg
HRS  11.380 1.00 Sg
TAHR  7.090 1.00 P
TAHR 12.410 1.00 S
TABZ  8.400 1.00 P
FTB   8.490 1.00 P
FTB  14.850 1.00 S
TBZ   8.270 1.00 Pg
BST  13.650 1.00 Pg
BST  24.000 1.00 S
ORD  14.630 1.00 P
MRD  15.490 1.00 Pg
MRD  27.550 1.00 S
SHB  16.070 1.00 Pg
AZR  29.390 1.00 S
GRMI 20.110 1.00 P
HSH  21.990 1.00 P
HSH  38.490 1.00 S
NAX  22.380 1.00 P
SBZ  24.570 1.00 P
SBZ  43.010 1.00 S
LRK  25.010 1.00 P
LRK  43.770 1.00 S
GLBA 29.410 1.00 P
LKRN 54.200 1.00 S
MAKU 57.270 1.00 S
SAAT 35.680 1.00 P
SAAT 62.210 1.00 S
GANJ 68.060 1.00 S
GNI  39.530 1.00 P
ZNJK 40.270 1.00 P
ZNJK 70.150 1.00 S
VANB 43.030 1.00 P
# 2012 08 14 10 28 44.200000 38.408 46.706  15.8  3.6 0.0 0.0 0.0       144
HRS   5.600 1.00 Pg
HRS  10.440 1.00 Sg
TABZ 16.520 1.00 S
FTB  16.460 1.00 S
TBZ   9.180 1.00 Pg
BST  13.650 1.00 Pg
BST  24.320 1.00 S
ORD  14.100 1.00 Pg
MRD  15.610 1.00 Pg
MRD  28.130 1.00 Sg
SHB  16.500 1.00 Pg
AZR  17.700 1.00 Pg
AZR  31.020 1.00 S
SRB  17.650 1.00 Pg
GRMI 18.750 1.00 Pg
NAX  22.800 1.00 Pg
LRK  24.200 1.00 Pg
LRK  41.770 1.00 S
SBZ  24.500 1.00 Pg
GLBA 29.800 1.00 Pg
GLBA 49.490 1.00 S
ASTR 30.600 1.00 Pg
LKRN 30.600 1.00 Pg
MAKU 33.030 1.00 Pn
MAKU 58.080 1.00 S
BRDA 33.200 1.00 Pn
BRDA 58.850 1.00 S
SAAT 35.300 1.00 Pn
SAAT 60.850 1.00 S
ZRD  35.600 1.00 Pn
ZRD  61.860 1.00 S
GANJ 39.000 1.00 Pn
GANJ 67.500 1.00 S
GNI  69.200 1.00 S
ZNJK 40.900 1.00 Pn
# 2012 08 14 10 50 24.700000 38.504 46.805  14.4  2.1 0.0 0.0 0.0       145
TAHR  8.300 1.00 S
HRS   5.520 1.00 Pg
TBZ  11.080 1.00 Pg
TABZ 11.240 1.00 P
TABZ 19.680 1.00 S
FTB  11.270 1.00 P
ORD  14.830 1.00 P
ORD  25.950 1.00 S
MRD  16.310 1.00 Pg
GRMI 30.610 1.00 S
SRB  18.010 1.00 Pg
SHB  18.660 1.00 Pg
AZR  19.230 1.00 Pg
AZR  34.290 1.00 S
LRK  22.640 1.00 P
LRK  39.620 1.00 S
NAX  22.850 1.00 P
NAX  39.980 1.00 S
HSH  40.590 1.00 S
GLBA 26.720 1.00 P
ASTR 28.520 1.00 P
BRDA 32.330 1.00 P
BRDA 56.530 1.00 S
SAAT 33.590 1.00 P
SAAT 58.620 1.00 S
MAKU 58.500 1.00 S
ZRD  34.170 1.00 P
GANJ 37.890 1.00 P
GNI  39.550 1.00 P
GNI  68.920 1.00 S
ZNJK 70.630 1.00 S
VANB 44.590 1.00 P
VANB 77.620 1.00 S
# 2012 08 14 11 17 14.100000 38.398 46.666   5.2  1.7 0.0 0.0 0.0       146
TVRZ  2.420 1.00 P
TVRZ  4.240 1.00 S
HRS   5.900 1.00 Pg
TAHR 11.130 1.00 S
TABZ  8.130 1.00 P
TABZ 14.230 1.00 S
FTB   8.230 1.00 P
FTB  14.410 1.00 S
TBZ   7.950 1.00 Pg
BST  13.620 1.00 Pg
SHB  15.920 1.00 Pg
SHB  27.230 1.00 S
AZR  16.650 1.00 P
SRB  18.500 1.00 P
SRB  32.370 1.00 S
HSH  22.260 1.00 P
HSH  38.950 1.00 S
NAX  22.550 1.00 P
NAX  39.460 1.00 S
SBZ  24.880 1.00 P
SBZ  43.540 1.00 S
LRK  25.050 1.00 P
LRK  43.840 1.00 S
GLBA 29.810 1.00 P
GLBA 52.160 1.00 S
ASTR 31.240 1.00 P
ASTR 54.670 1.00 S
SAAT 64.170 1.00 S
ZRD  37.160 1.00 P
GANJ 40.150 1.00 P
GANJ 70.010 1.00 S
ZNJK 41.590 1.00 P
VANB 44.290 1.00 P
# 2012 08 14 11 44 11.800000 38.452 46.686   5.3  1.8 0.0 0.0 0.0       147
HRS   6.030 1.00 Pg
HRS  10.440 1.00 S
TBZ   8.720 1.00 Pg
TABZ 16.020 1.00 S
FTB   9.290 1.00 P
FTB  16.260 1.00 S
ORD  13.840 1.00 P
ORD  24.210 1.00 S
BST  13.920 1.00 Pg
BST  25.130 1.00 S
MRD  14.970 1.00 Pg
SHB  16.420 1.00 Pg
SHB  28.140 1.00 S
AZR  18.010 1.00 Pg
AZR  30.940 1.00 S
SRB  18.740 1.00 Pg
SRB  32.200 1.00 S
GRMI 19.060 1.00 P
GRMI 33.350 1.00 S
NAX  38.860 1.00 S
HSH  22.910 1.00 P
HSH  40.100 1.00 S
LRK  24.480 1.00 P
LRK  42.850 1.00 S
GLBA 28.980 1.00 P
ASTR 30.730 1.00 P
LKRN 54.040 1.00 S
MAKU 33.550 1.00 P
BRDA 34.180 1.00 P
SAAT 36.010 1.00 P
GANJ 39.390 1.00 P
GNI  40.370 1.00 P
ZNJK 72.990 1.00 S
# 2012 08 14 12 42 55.300000 38.415 46.679  19.9  2.2 0.0 0.0 0.0       148
HRS   6.590 1.00 Pg
HRS  11.970 1.00 S
TAHR  6.820 1.00 P
TAHR 11.940 1.00 S
TABZ  9.520 1.00 P
TBZ   9.060 1.00 Pg
TBZ  16.480 1.00 S
BST  14.200 1.00 Pg
ORD  25.420 1.00 S
MRD  15.300 1.00 Pg
SHB  16.710 1.00 Pg
SHB  28.060 1.00 S
AZR  16.930 1.00 Pg
SRB  18.350 1.00 Pg
NAX  22.290 1.00 P
NAX  39.010 1.00 S
HSH  22.290 1.00 P
LRK  24.260 1.00 P
ASTR 29.990 1.00 P
LKRN 30.200 1.00 P
LKRN 52.810 1.00 S
MAKU 56.660 1.00 S
BRDA 33.100 1.00 P
SAAT 34.760 1.00 P
SAAT 60.600 1.00 S
ZRD  61.090 1.00 S
GANJ 38.050 1.00 P
GANJ 66.280 1.00 S
GNI  39.020 1.00 P
GNI  67.960 1.00 S
ZNJK 40.050 1.00 P
ZNJK 69.750 1.00 S
VANB 74.470 1.00 S
# 2012 08 14 13 31 03.400000 38.431 46.694  17.5  2.2 0.0 0.0 0.0       149
TVRZ  6.120 1.00 S
TAHR 10.830 1.00 S
HRS   6.570 1.00 Pg
HRS  11.360 1.00 S
TBZ   8.770 1.00 Pg
TBZ  16.890 1.00 S
TABZ  9.770 1.00 P
FTB   9.850 1.00 P
BST  14.030 1.00 Pg
BST  25.660 1.00 S
MRD  15.600 1.00 Pg
MRD  28.160 1.00 S
SHB  16.510 1.00 Pg
AZR  18.090 1.00 Pg
AZR  31.400 1.00 S
SRB  18.130 1.00 Pg
GRMI 18.820 1.00 P
NAX  22.310 1.00 P
HSH  22.670 1.00 P
LRK  23.930 1.00 P
LRK  41.880 1.00 S
GLBA 28.010 1.00 P
GLBA 49.030 1.00 S
MAKU 32.790 1.00 P
MAKU 57.200 1.00 S
BRDA 32.990 1.00 P
BRDA 57.530 1.00 S
SAAT 34.380 1.00 P
ZRD  34.810 1.00 P
ZRD  60.690 1.00 S
GANJ 66.140 1.00 S
ZNJK 40.280 1.00 P
VANB 75.530 1.00 S
# 2012 08 14 14 02 25.700000 38.474 46.790  18.6  5.2 0.0 0.0 0.0       150
TAHR  9.250 1.00 S
HRS   5.580 1.00 Pg
HRS  10.700 1.00 S
FTB  18.970 1.00 S
TBZ  11.110 1.00 Pg
ORD  25.490 1.00 S
BST  14.450 1.00 Pg
BST  26.070 1.00 S
MRD  16.870 1.00 Pg
GRMI 17.920 0.50 Pg
SHB  17.800 1.00 Pg
SRB  17.800 1.00 Pg
AZR  19.180 0.50 Pg
AZR  33.050 1.00 S
HSH  39.670 1.00 S
LRK  23.200 1.00 Pg
LRK  39.890 1.00 S
NAX  23.100 1.00 Pg
NAX  39.230 1.00 S
SBZ  24.700 1.00 Pg
SBZ  42.310 1.00 S
GLBA 27.700 1.00 Pg
ASTR 29.400 1.00 Pg
LKRN 29.000 1.00 Pg
LKRN 50.320 1.00 S
BRDA 33.100 1.00 Pg
MAKU 33.480 0.50 Pn
MAKU 57.440 1.00 S
SAAT 33.700 1.00 Pn
ZRD  35.600 1.00 Pn
ZRD  59.070 1.00 S
GANJ 37.500 1.00 Pn
GNI  67.910 1.00 S
ZNJK 40.310 1.00 Pn
VANB 46.000 1.00 Pn
# 2012 08 14 15 48 20.200000 38.436 46.650  17.0  3.8 0.0 0.0 0.0       151
TAHR 12.320 1.00 S
HRS   6.550 1.00 Pg
HRS  11.850 1.00 Sg
TBZ   8.640 1.00 Pg
FTB   9.500 1.00 P
ORD  23.520 1.00 S
BST  13.940 1.00 Pg
BST  25.300 1.00 Sg
MRD  15.180 1.00 Pg
SHB  15.970 1.00 Pg
SHB  27.370 1.00 S
AZR  17.480 1.00 Pg
SRB  18.180 1.00 Pg
SRB  33.180 1.00 Sg
GRMI 20.070 1.00 Pg
NAX  37.200 1.00 S
SBZ  40.800 1.00 S
LRK  43.540 1.00 S
GLBA 28.800 1.00 P
GLBA 50.400 1.00 S
MAKU 32.760 1.00 Pg
MAKU 55.680 1.00 S
SAAT 60.780 1.00 S
GNI  42.100 0.50 Pn
GNI  66.900 1.00 S
ZNJK 41.960 1.00 Pn
ZNJK 71.140 1.00 S
# 2012 08 14 16 07 08.700000 38.397 46.848  12.9  1.9 0.0 0.0 0.0       152
HRS   3.720 1.00 Pg
HRS   7.040 1.00 Sg
TABZ 18.530 1.00 S
TBZ  20.050 1.00 S
BST  13.250 1.00 Pg
BST  22.750 1.00 Sg
ORD  16.660 1.00 P
SRB  16.310 1.00 Pg
GRMI 17.400 1.00 P
GRMI 30.440 1.00 S
MRD  17.480 1.00 Pg
MRD  32.260 1.00 S
SHB  18.710 1.00 Pg
AZR  33.100 1.00 S
HSH  21.290 1.00 P
LRK  22.280 1.00 P
LRK  38.990 1.00 S
NAX  24.750 1.00 P
NAX  43.310 1.00 S
SBZ  26.620 1.00 P
GLBA 27.150 1.00 P
GLBA 47.510 1.00 S
ASTR 27.980 1.00 P
ASTR 48.960 1.00 S
LKRN 49.420 1.00 S
BRDA 34.130 1.00 P
SAAT 60.050 1.00 S
MAKU 35.080 1.00 P
ZRD  35.560 1.00 P
ZRD  62.010 1.00 S
ZNJK 39.030 1.00 P
GNI  41.310 1.00 P
VANB 45.660 1.00 P
# 2012 08 14 16 30 46.100000 38.410 46.785  16.3  2.0 0.0 0.0 0.0       153
TVRZ  3.960 1.00 P
TVRZ  6.930 1.00 S
HRS   5.320 1.00 Pg
TAHR  9.530 1.00 S
FTB  17.100 1.00 S
TABZ  9.870 1.00 P
TBZ   9.960 1.00 Pg
TBZ  18.000 1.00 S
BST  13.520 1.00 Pg
BST  22.980 1.00 Sg
ORD  15.340 1.00 P
MRD  16.660 1.00 Pg
SRB  17.430 1.00 Pg
SHB  17.630 1.00 Pg
GRMI 18.320 1.00 P
GRMI 32.050 1.00 S
AZR  18.360 1.00 Pg
AZR  32.300 1.00 Sg
LRK  23.170 1.00 P
LRK  40.540 1.00 S
SBZ  25.080 1.00 P
GLBA 27.680 1.00 P
ASTR 28.910 1.00 P
ASTR 50.590 1.00 S
LKRN 29.130 1.00 P
BRDA 58.340 1.00 S
MAKU 58.560 1.00 S
SAAT 34.390 1.00 P
ZRD  35.090 1.00 P
GANJ 67.430 1.00 S
GNI  69.490 1.00 S
VANB 44.110 1.00 P
VANB 76.770 1.00 S
# 2012 08 14 16 36 24.800000 38.410 46.705  19.0  3.3 0.0 0.0 0.0       154
HRS   5.940 1.00 Pg
HRS  10.840 1.00 Sg
TABZ 16.710 1.00 S
FTB   9.520 1.00 P
TBZ   9.090 1.00 Pg
TBZ  15.870 1.00 Sg
BST  13.790 1.00 Pg
BST  24.930 1.00 Sg
MRD  15.580 1.00 Pg
MRD  28.900 1.00 Sg
SHB  16.350 1.00 Pg
SHB  28.940 1.00 S
AZR  17.420 1.00 Pg
SRB  17.820 1.00 Pg
SRB  31.030 1.00 S
GRMI 19.280 1.00 Pg
NAX  22.570 1.00 P
LRK  23.710 1.00 P
SBZ  24.560 1.00 P
SBZ  42.980 1.00 S
GLBA 49.100 1.00 S
LKRN 51.920 1.00 S
MAKU 33.110 1.00 Pn
SAAT 60.090 1.00 S
ZRD  61.050 1.00 S
GANJ 66.720 1.00 S
GNI  39.300 1.00 P
ZNJK 41.330 1.00 Pn
ZNJK 69.060 1.00 S
VANB 43.350 1.00 P
# 2012 08 14 17 05 18.200000 38.428 46.658   8.1  1.7 0.0 0.0 0.0       155
TVRZ  2.070 1.00 P
TVRZ  3.620 1.00 S
TAHR  6.470 1.00 P
TAHR 11.330 1.00 S
HRS   6.020 1.00 Pg
HRS  11.100 1.00 Sg
TBZ   8.510 1.00 P
TABZ  8.910 1.00 P
FTB  15.950 1.00 S
ORD  13.340 1.00 P
ORD  23.340 1.00 S
BST  13.750 1.00 Pg
BST  24.470 1.00 Sg
MRD  14.790 1.00 Pg
SHB  15.920 1.00 Pg
AZR  17.430 1.00 P
AZR  30.490 1.00 S
SRB  18.870 1.00 Pg
GRMI 19.780 1.00 P
GRMI 34.620 1.00 S
HSH  40.430 1.00 S
LRK  25.240 1.00 P
ASTR 31.320 1.00 P
ASTR 54.820 1.00 S
LKRN 55.120 1.00 S
MAKU 57.570 1.00 S
BRDA 59.750 1.00 S
SAAT 36.070 1.00 P
ZRD  36.250 1.00 P
GANJ 68.250 1.00 S
GNI  39.760 1.00 P
ZNJK 41.810 1.00 P
VANB 43.830 1.00 P
# 2012 08 14 17 09 09.900000 38.419 46.729  20.0  3.1 0.0 0.0 0.0       156
TAHR 11.070 1.00 S
HRS   5.760 1.00 Pg
HRS  10.620 1.00 Sg
TBZ   9.260 1.00 Pg
TBZ  16.600 1.00 Sg
BST  13.610 1.00 Pg
BST  24.850 1.00 Sg
ORD  14.460 1.00 P
MRD  15.650 1.00 Pg
SHB  16.520 1.00 Pg
SHB  30.780 1.00 Sg
AZR  17.590 1.00 Pg
AZR  30.830 1.00 S
SRB  17.710 1.00 Pg
GRMI 19.510 1.00 Pg
GRMI 32.840 1.00 S
HSH  38.540 1.00 S
NAX  22.260 1.00 P
NAX  38.960 1.00 S
LRK  23.670 1.00 P
SBZ  24.230 1.00 P
SBZ  42.390 1.00 S
GLBA 28.060 1.00 P
GLBA 49.100 1.00 S
ASTR 51.490 1.00 S
LKRN 29.640 1.00 P
MAKU 33.170 1.00 Pn
MAKU 56.920 1.00 S
BRDA 32.890 1.00 P
SAAT 34.260 1.00 P
ZRD  60.500 1.00 S
ZNJK 40.910 1.00 Pn
VANB 43.200 1.00 P
# 2012 08 14 17 16 26.100000 38.432 46.794   5.1  2.0 0.0 0.0 0.0       157
TAHR  4.520 1.00 P
HRS   8.520 1.00 S
TABZ 10.100 1.00 P
TBZ  10.130 1.00 Pg
TBZ  17.630 1.00 Sg
BST  13.740 1.00 Pg
BST  24.690 1.00 S
ORD  14.740 1.00 P
ORD  25.800 1.00 S
MRD  16.700 1.00 Pg
MRD  29.290 1.00 S
SRB  17.200 1.00 Pg
SHB  17.290 1.00 Pg
SHB  30.950 1.00 Sg
GRMI 17.900 1.00 P
GRMI 31.330 1.00 S
HSH  22.470 1.00 P
HSH  39.320 1.00 S
SBZ  25.150 1.00 P
SBZ  44.010 1.00 S
GLBA 27.860 1.00 P
GLBA 48.750 1.00 S
ASTR 29.570 1.00 P
ASTR 51.750 1.00 S
LKRN 29.750 1.00 P
LKRN 52.060 1.00 S
BRDA 33.920 1.00 P
ZRD  35.900 1.00 P
GANJ 39.580 1.00 P
GANJ 69.020 1.00 S
ZNJK 71.760 1.00 S
GNI  40.940 1.00 P
VANB 45.620 1.00 P
# 2012 08 14 18 53 41.200000 38.409 46.661  14.6  2.0 0.0 0.0 0.0       158
TVRZ  5.920 1.00 S
HRS   5.940 1.00 Pg
HRS  11.240 1.00 Sg
TAHR 11.970 1.00 S
TBZ   8.180 1.00 Pg
TBZ  15.280 1.00 Sg
TABZ  8.680 1.00 P
TABZ 15.200 1.00 S
FTB  15.390 1.00 S
BST  13.000 1.00 Pg
BST  24.750 1.00 S
MRD  15.000 1.00 Pg
SHB  16.030 1.00 Pg
AZR  17.150 1.00 P
SRB  19.310 1.00 Pg
NAX  22.070 1.00 P
HSH  22.460 1.00 P
HSH  39.310 1.00 S
SBZ  24.180 1.00 P
SBZ  42.310 1.00 S
LRK  24.890 1.00 P
LRK  43.560 1.00 S
GLBA 29.250 1.00 P
GLBA 51.190 1.00 S
ASTR 30.650 1.00 P
MAKU 32.650 1.00 P
MAKU 57.080 1.00 S
SAAT 35.510 1.00 P
ZRD  35.790 1.00 P
ZRD  62.410 1.00 S
ZNJK 40.680 1.00 P
VANB 43.050 1.00 P
VANB 74.950 1.00 S
# 2012 08 14 20 20 33.200000 38.421 46.663  15.4  3.0 0.0 0.0 0.0       159
TAHR  6.840 1.00 P
TAHR 11.970 1.00 S
HRS   6.270 1.00 Pg
HRS  11.410 1.00 Sg
TBZ   8.530 1.00 Pg
TBZ  15.310 1.00 Sg
TABZ  9.340 1.00 P
FTB  16.560 1.00 S
ORD  13.930 1.00 P
BST  13.850 1.00 Pg
BST  24.800 1.00 Sg
MRD  15.190 1.00 Pg
SHB  15.800 1.00 Pg
AZR  17.530 1.00 Pg
AZR  31.010 1.00 S
SRB  18.110 1.00 Pg
GRMI 19.990 1.00 Pg
GRMI 34.720 1.00 S
HSH  22.670 1.00 P
HSH  39.670 1.00 S
LRK  43.390 1.00 S
GLBA 50.870 1.00 S
ASTR 53.470 1.00 S
LKRN 30.760 1.00 P
MAKU 33.270 1.00 Pn
MAKU 56.720 1.00 S
BRDA 58.450 1.00 S
SAAT 35.230 1.00 P
ZRD  35.430 1.00 P
ZNJK 40.740 1.00 P
ZNJK 70.970 1.00 S
VANB 42.990 1.00 P
# 2012 08 14 21 29 04.300000 38.445 46.885  16.8  1.3 0.0 0.0 0.0       160
TAHR  7.350 1.00 S
HRS   4.490 1.00 Pg
TVRZ  4.700 1.00 P
FTB  19.590 1.00 S
TABZ 19.890 1.00 S
TBZ  11.640 1.00 Pg
TBZ  20.920 1.00 S
BST  14.060 1.00 Pg
ORD  16.320 1.00 P
GRMI 16.670 1.00 P
GRMI 29.180 1.00 S
SRB  16.540 1.00 Pg
SRB  28.760 1.00 S
MRD  17.970 1.00 Pg
SHB  19.500 1.00 Pg
AZR  33.930 1.00 S
LRK  37.660 1.00 S
NAX  24.160 1.00 P
SBZ  25.930 1.00 P
SBZ  45.380 1.00 S
GLBA 45.720 1.00 S
LKRN 27.490 1.00 P
BRDA 32.820 1.00 P
BRDA 57.260 1.00 S
SAAT 33.300 1.00 P
SAAT 58.080 1.00 S
ZRD  34.300 1.00 P
MAKU 34.460 1.00 P
GANJ 38.540 1.00 P
GANJ 67.140 1.00 S
ZNJK 38.930 1.00 P
GNI  70.540 1.00 S
VANB 45.350 1.00 P
# 2012 08 14 21 32 40.200000 38.417 46.792  16.3  1.5 0.0 0.0 0.0       161
TVRZ  3.950 1.00 P
TAHR  5.340 1.00 P
HRS   5.130 1.00 Pg
FTB  10.000 1.00 P
FTB  17.490 1.00 S
TABZ 10.080 1.00 P
TABZ 17.650 1.00 S
TBZ  10.010 1.00 Pg
BST  13.700 1.00 Pg
BST  24.440 1.00 S
MRD  16.820 1.00 Pg
SRB  17.030 1.00 Pg
SHB  18.200 1.00 Pg
SHB  30.560 1.00 S
GRMI 31.870 1.00 S
AZR  31.970 1.00 S
HSH  21.850 1.00 P
LRK  40.390 1.00 S
SBZ  43.820 1.00 S
GLBA 27.560 1.00 P
ASTR 28.820 1.00 P
ASTR 50.440 1.00 S
LKRN 29.050 1.00 P
LKRN 50.830 1.00 S
BRDA 57.980 1.00 S
MAKU 33.640 1.00 P
SAAT 34.230 1.00 P
GANJ 38.600 1.00 P
GANJ 67.260 1.00 S
ZNJK 39.610 1.00 P
ZNJK 69.000 1.00 S
VANB 44.230 1.00 P
VANB 76.990 1.00 S
# 2012 08 14 22 10 17.600000 38.422 46.676   4.3  2.0 0.0 0.0 0.0       162
TVRZ  1.840 1.00 P
TAHR 10.840 1.00 S
HRS   6.110 1.00 Pg
TBZ   8.240 1.00 Pg
TBZ  15.600 1.00 S
TABZ  9.100 1.00 P
TABZ 15.920 1.00 S
ORD  13.710 1.00 P
BST  14.260 1.00 Pg
BST  24.770 1.00 S
MRD  15.390 1.00 Pg
SHB  16.110 1.00 Pg
SHB  27.850 1.00 S
AZR  17.630 1.00 P
AZR  30.860 1.00 S
SRB  17.990 1.00 Pg
NAX  22.060 1.00 P
NAX  38.610 1.00 S
HSH  22.840 1.00 P
HSH  39.970 1.00 S
SBZ  24.260 1.00 P
LRK  24.880 1.00 P
LRK  43.550 1.00 S
GLBA 51.810 1.00 S
ASTR 31.070 1.00 P
ASTR 54.370 1.00 S
MAKU 33.510 1.00 P
MAKU 58.650 1.00 S
ZRD  36.740 1.00 P
ZRD  64.110 1.00 S
GANJ 39.680 1.00 P
GNI  40.550 1.00 P
ZNJK 73.130 1.00 S
# 2012 08 14 22 41 54.500000 38.389 46.701  12.0  1.7 0.0 0.0 0.0       163
TVRZ  3.350 1.00 P
HRS   5.790 1.00 Pg
TAHR  5.990 1.00 P
TAHR 10.480 1.00 S
TBZ   8.580 1.00 Pg
BST  13.720 1.00 Pg
ORD  15.110 1.00 P
ORD  26.450 1.00 S
MRD  16.170 1.00 Pg
MRD  28.940 1.00 S
SHB  16.190 1.00 Pg
SHB  29.200 1.00 S
AZR  17.250 1.00 P
AZR  30.180 1.00 S
SRB  17.400 1.00 Pg
HSH  21.870 1.00 P
NAX  40.950 1.00 S
LRK  24.390 1.00 P
LRK  42.690 1.00 S
SBZ  25.460 1.00 P
GLBA 28.970 1.00 P
GLBA 50.700 1.00 S
LKRN 53.120 1.00 S
MAKU 33.910 1.00 P
MAKU 59.210 1.00 S
BRDA 34.570 1.00 P
BRDA 60.300 1.00 S
SAAT 35.670 1.00 P
ZRD  36.310 1.00 P
ZRD  63.320 1.00 S
GNI  70.470 1.00 S
ZNJK 40.150 1.00 P
ZNJK 69.960 1.00 S
# 2012 08 14 23 07 43.000000 38.397 46.750   4.4  1.3 0.0 0.0 0.0       164
HRS   4.810 1.00 Pg
HRS   8.360 1.00 S
TAHR  5.220 1.00 P
FTB   8.920 1.00 P
FTB  15.620 1.00 S
TABZ 15.710 1.00 S
TBZ   9.130 1.00 Pg
BST  13.660 1.00 Pg
ORD  15.220 1.00 P
ORD  26.630 1.00 S
MRD  16.810 1.00 Pg
SRB  17.030 1.00 Pg
SRB  29.920 1.00 S
AZR  17.460 1.00 P
AZR  30.560 1.00 S
GRMI 32.660 1.00 S
HSH  37.940 1.00 S
NAX  23.570 1.00 P
NAX  41.250 1.00 S
SBZ  25.750 1.00 P
SBZ  45.070 1.00 S
GLBA 50.390 1.00 S
ASTR 30.000 1.00 P
LKRN 30.250 1.00 P
LKRN 52.950 1.00 S
MAKU 34.800 1.00 P
MAKU 60.890 1.00 S
BRDA 34.970 1.00 P
BRDA 61.160 1.00 S
SAAT 36.220 1.00 P
ZRD  36.920 1.00 P
GANJ 40.360 1.00 P
GNI  41.490 1.00 P
# 2012 08 14 23 33 30.800000 38.406 46.770  19.9  1.7 0.0 0.0 0.0       165
HRS   5.690 1.00 Pg
HRS   9.770 1.00 S
FTB  10.010 1.00 P
TBZ   9.880 1.00 Pg
TBZ  18.510 1.00 S
BST  13.750 1.00 Pg
ORD  15.450 1.00 P
MRD  16.700 1.00 Pg
SRB  17.070 1.00 Pg
SRB  29.670 1.00 S
SHB  17.790 1.00 Pg
AZR  31.590 1.00 S
GRMI 18.000 1.00 P
GRMI 31.500 1.00 S
HSH  21.390 1.00 P
HSH  37.430 1.00 S
LRK  22.870 1.00 P
NAX  40.710 1.00 S
SBZ  44.080 1.00 S
ASTR 28.620 1.00 P
ASTR 50.090 1.00 S
LKRN 28.840 1.00 P
BRDA 33.180 1.00 P
BRDA 57.860 1.00 S
MAKU 33.430 1.00 P
MAKU 58.290 1.00 S
SAAT 34.080 1.00 P
GANJ 38.420 1.00 P
GANJ 66.930 1.00 S
ZNJK 38.980 1.00 P
ZNJK 67.900 1.00 S
GNI  69.230 1.00 S
VANB 43.960 1.00 P
# 2012 08 14 23 42 05.500000 38.380 46.700  13.4  1.7 0.0 0.0 0.0       166
HRS   5.690 1.00 Pg
HRS  10.030 1.00 S
TAHR 10.530 1.00 S
FTB  15.810 1.00 S
TABZ  9.070 1.00 P
TABZ 15.880 1.00 S
TBZ   8.780 1.00 Pg
BST  13.500 1.00 Pg
ORD  26.300 1.00 S
MRD  16.320 1.00 Pg
SHB  15.760 1.00 Pg
SHB  29.230 1.00 S
AZR  17.550 1.00 P
SRB  17.410 1.00 Pg
GRMI 19.320 1.00 P
HSH  22.100 1.00 P
NAX  40.440 1.00 S
LRK  42.430 1.00 S
SBZ  25.130 1.00 P
SBZ  43.970 1.00 S
ASTR 30.020 1.00 P
LKRN 30.220 1.00 P
MAKU 58.710 1.00 S
BRDA 34.130 1.00 P
BRDA 59.530 1.00 S
SAAT 35.290 1.00 P
ZRD  35.880 1.00 P
ZRD  62.560 1.00 S
GANJ 39.130 1.00 P
GANJ 68.190 1.00 S
ZNJK 40.160 1.00 P
ZNJK 69.980 1.00 S
GNI  40.070 1.00 P
# 2012 08 15 00 42 47.100000 38.396 46.710  16.9  1.0 0.0 0.0 0.0       167
TVRZ  3.980 1.00 P
HRS   5.530 1.00 Pg
HRS  10.450 1.00 Sg
TAHR  6.130 1.00 P
FTB   9.190 1.00 P
TABZ  9.260 1.00 P
TABZ 16.200 1.00 S
TBZ   9.700 1.00 P
BST  13.890 1.00 Pg
BST  23.330 1.00 Sg
ORD  15.210 1.00 P
ORD  26.610 1.00 S
SHB  16.370 1.00 Pg
SHB  29.330 1.00 S
HSH  37.740 1.00 S
NAX  22.980 1.00 P
LRK  23.790 1.00 P
LRK  41.630 1.00 S
SBZ  25.040 1.00 P
GLBA 28.350 1.00 P
GLBA 49.620 1.00 S
ASTR 29.530 1.00 P
ASTR 51.670 1.00 S
LKRN 29.760 1.00 P
SAAT 60.850 1.00 S
ZRD  35.580 1.00 P
GANJ 38.970 1.00 P
GANJ 67.890 1.00 S
GNI  39.830 1.00 P
GNI  69.390 1.00 S
ZNJK 68.860 1.00 S
VANB 43.690 1.00 P
VANB 76.050 1.00 S
# 2012 08 15 01 35 40.000000 38.433 46.680  20.0  1.6 0.0 0.0 0.0       168
TVRZ  3.810 1.00 P
TVRZ  6.660 1.00 S
TAHR  6.620 1.00 P
TAHR 11.590 1.00 S
HRS   6.330 1.00 Pg
HRS  11.950 1.00 Sg
TBZ   9.060 1.00 Pg
TBZ  15.940 1.00 Sg
TABZ  9.700 1.00 P
FTB   9.810 1.00 P
ORD  13.830 1.00 P
BST  25.490 1.00 S
MRD  15.280 1.00 Pg
SHB  16.770 1.00 Pg
SHB  28.120 1.00 S
AZR  17.710 1.00 P
AZR  30.990 1.00 S
SRB  18.350 1.00 Pg
GRMI 33.090 1.00 S
NAX  21.610 1.00 P
SBZ  41.350 1.00 S
LRK  42.070 1.00 S
GLBA 28.080 1.00 P
GLBA 49.130 1.00 S
ASTR 52.290 1.00 S
LKRN 30.000 1.00 P
MAKU 32.140 1.00 P
SAAT 34.280 1.00 P
ZRD  34.590 1.00 P
GANJ 37.630 1.00 P
GNI  67.130 1.00 S
VANB 42.830 1.00 P
VANB 74.550 1.00 S
