# 2012 08 12 23 58 41.500000 38.459 46.896  16.4  1.9 0.0 0.0 0.0        85
HRS   4.410 1.00 Pg
HRS   7.860 1.00 Sg
TVRZ  4.490 1.00 Pg
TVRZ  7.880 1.00 Sg
FTB  11.940 1.00 P
TBZ  11.620 1.00 Pg
TBZ  20.340 1.00 Sg
GRMI 16.480 1.00 P
SRB  16.680 1.00 Pg
MRD  17.920 1.00 Pg
MRD  31.930 1.00 Sg
SHB  19.360 1.00 Pg
SHB  34.170 1.00 Sg
AZR  20.150 1.00 Pg
AZR  35.210 1.00 S
LRK  21.310 1.00 P
LRK  37.300 1.00 S
HSH  21.990 1.00 P
HSH  38.480 1.00 S
NAX  24.280 1.00 P
SBZ  25.980 1.00 P
SBZ  45.470 1.00 S
GLBA 45.410 1.00 S
ASTR 27.100 1.00 P
LKRN 47.750 1.00 S
SAAT 33.130 1.00 P
MAKU 34.590 1.00 P
MAKU 60.310 1.00 S
GANJ 38.320 1.00 P
GANJ 66.780 1.00 S
ZNJK 39.170 1.00 P
VANB 45.540 1.00 P
# 2012 08 13 00 07 53.900000 38.411 46.676  18.8  2.4 0.0 0.0 0.0        86
TVRZ  3.900 1.00 P
HRS   6.670 1.00 Pg
HRS  11.940 1.00 S
TAHR 11.950 1.00 S
TABZ  9.450 1.00 P
TABZ 16.530 1.00 S
TBZ   8.670 1.00 Pg
FTB   9.480 1.00 P
BST  14.150 1.00 P
BST  24.760 1.00 S
ORD  14.580 1.00 P
MRD  15.410 1.00 Pg
SHB  16.450 1.00 Pg
SHB  28.010 1.00 S
AZR  17.290 1.00 Pg
AZR  30.650 1.00 S
SRB  18.210 1.00 Pg
SRB  32.410 1.00 S
GRMI 34.070 1.00 S
NAX  39.070 1.00 S
HSH  22.250 1.00 P
HSH  38.930 1.00 S
LRK  42.600 1.00 S
LKRN 30.300 1.00 P
MAKU 32.580 1.00 P
MAKU 56.820 1.00 S
SAAT 34.930 1.00 P
ZRD  35.240 1.00 P
GANJ 38.250 1.00 P
GNI  39.160 1.00 P
GNI  68.210 1.00 S
ZNJK 69.890 1.00 S
VANB 42.850 1.00 P
# 2012 08 13 00 18 02.600000 38.450 46.897   9.7  3.2 0.0 0.0 0.0        87
HRS   3.600 1.00 Pg
HRS   6.550 1.00 Sg
FTB  11.430 1.00 P
FTB  20.000 1.00 S
TABZ 20.410 1.00 S
TBZ  11.590 1.00 Pg
TBZ  20.670 1.00 Sg
GRMI 16.740 1.00 Pg
SRB  15.920 1.00 Pg
SRB  28.660 1.00 Sg
MRD  17.680 1.00 Pg
MRD  31.920 1.00 Sg
SHB  18.750 1.00 Pg
SHB  33.590 1.00 Sg
AZR  19.210 1.00 Pg
AZR  34.790 1.00 Sg
HSH  21.980 1.00 P
HSH  38.470 1.00 S
NAX  24.730 1.00 P
GLBA 46.320 1.00 S
SBZ  26.580 1.00 P
SBZ  46.520 1.00 S
ASTR 27.630 1.00 P
LKRN 48.690 1.00 S
BRDA 33.460 1.00 P
BRDA 58.510 1.00 S
SAAT 59.350 1.00 S
ZRD  35.120 1.00 P
MAKU 34.610 1.00 Pn
GANJ 39.370 1.00 P
ZNJK 39.620 1.00 Pn
GNI  41.480 1.00 P
VANB 46.460 1.00 P
# 2012 08 13 00 22 08.400000 38.419 46.694  20.0  3.2 0.0 0.0 0.0        88
TVRZ  4.010 1.00 P
TVRZ  7.020 1.00 S
TAHR 11.290 1.00 S
HRS   6.250 1.00 Pg
HRS  11.470 1.00 Sg
TABZ  9.640 1.00 P
TBZ   8.920 1.00 Pg
FTB   9.670 1.00 P
BST  14.280 1.00 P
BST  24.990 1.00 S
ORD  14.560 1.00 P
MRD  15.340 1.00 Pg
SHB  16.200 1.00 Pg
SHB  28.900 1.00 Sg
AZR  30.860 1.00 S
SRB  18.120 1.00 Pg
GRMI 19.430 1.00 Pg
GRMI 32.960 1.00 S
HSH  22.330 1.00 P
HSH  39.080 1.00 S
NAX  22.350 1.00 P
SBZ  24.340 1.00 P
SBZ  42.590 1.00 S
ASTR 29.660 1.00 P
LKRN 52.170 1.00 S
MAKU 32.860 1.00 Pn
MAKU 56.880 1.00 S
BRDA 32.980 1.00 P
BRDA 57.510 1.00 S
GANJ 66.140 1.00 S
ZNJK 41.400 1.00 Pn
ZNJK 69.570 1.00 S
VANB 43.060 1.00 P
# 2012 08 13 01 02 22.500000 38.450 46.801  19.9  1.5 0.0 0.0 0.0        89
TVRZ  4.230 1.00 Pg
TVRZ  7.110 1.00 Sg
HRS   5.520 1.00 Pg
HRS  10.250 1.00 S
FTB  10.490 1.00 P
TABZ 10.540 1.00 P
BST  14.240 1.00 P
BST  24.910 1.00 S
ORD  15.170 1.00 P
MRD  17.530 1.00 Pg
MRD  29.110 1.00 Sg
SRB  17.590 1.00 Pg
SRB  30.210 1.00 Sg
GRMI 30.800 1.00 S
SHB  17.820 1.00 Pg
SHB  31.130 1.00 Sg
HSH  22.030 1.00 P
NAX  22.990 1.00 P
NAX  40.230 1.00 S
SBZ  24.860 1.00 P
GLBA 26.920 1.00 P
ASTR 28.370 1.00 P
ASTR 49.650 1.00 S
LKRN 28.530 1.00 P
BRDA 32.600 1.00 P
BRDA 56.850 1.00 S
ZRD  59.710 1.00 S
GANJ 38.030 1.00 P
GANJ 66.250 1.00 S
ZNJK 39.390 1.00 P
ZNJK 68.600 1.00 S
GNI  68.690 1.00 S
VANB 43.980 1.00 P
# 2012 08 13 01 29 26.600000 38.480 46.791   4.5  2.4 0.0 0.0 0.0        90
TAHR  4.320 1.00 P
HRS   4.700 1.00 Pg
HRS   8.480 1.00 Sg
FTB  19.010 1.00 S
TBZ  10.510 1.00 Pg
TBZ  18.750 1.00 Sg
ORD  14.240 1.00 P
ORD  24.930 1.00 S
BST  14.880 1.00 P
BST  26.030 1.00 S
MRD  16.540 1.00 Pg
SHB  17.450 1.00 Pg
SHB  30.700 1.00 S
SRB  18.600 1.00 Pg
AZR  18.830 1.00 Pg
LRK  23.190 1.00 P
LRK  40.580 1.00 S
NAX  22.680 1.00 P
HSH  23.230 1.00 P
SBZ  24.560 1.00 P
SBZ  42.980 1.00 S
GLBA 48.140 1.00 S
ASTR 51.590 1.00 S
LKRN 29.620 1.00 P
LKRN 51.830 1.00 S
MAKU 34.220 1.00 P
SAAT 60.750 1.00 S
ZRD  35.300 1.00 P
GANJ 39.030 1.00 P
GANJ 68.060 1.00 S
GNI  40.530 1.00 P
VANB 45.550 1.00 P
VANB 79.340 1.00 S
# 2012 08 13 01 38 46.800000 38.452 46.844  16.9  1.5 0.0 0.0 0.0        91
TVRZ  4.060 1.00 Pg
TVRZ  7.120 1.00 Sg
TAHR  7.610 1.00 S
HRS   4.480 1.00 Pg
HRS   8.570 1.00 S
TBZ  11.020 1.00 Pg
TBZ  19.340 1.00 Sg
BST  14.370 1.00 P
ORD  15.940 1.00 P
GRMI 16.970 1.00 P
SRB  17.230 1.00 Pg
MRD  17.400 1.00 Pg
MRD  30.220 1.00 Sg
SHB  18.720 1.00 Pg
SHB  32.520 1.00 Sg
AZR  19.370 1.00 P
AZR  33.890 1.00 S
LRK  21.860 1.00 P
HSH  21.940 1.00 P
NAX  23.790 1.00 P
SBZ  25.540 1.00 P
GLBA 46.170 1.00 S
ASTR 27.650 1.00 P
ASTR 48.390 1.00 S
BRDA 32.860 1.00 P
BRDA 57.340 1.00 S
SAAT 58.260 1.00 S
MAKU 59.580 1.00 S
ZRD  34.380 1.00 P
ZRD  59.950 1.00 S
ZNJK 68.240 1.00 S
GNI  40.200 1.00 P
VANB 45.070 1.00 P
# 2012 08 13 01 56 10.000000 38.437 46.694  17.5  4.7 0.0 0.0 0.0        92
TAHR 10.760 1.00 S
HRS   6.430 1.00 Pg
HRS  11.080 1.00 Sg
TBZ   9.140 1.00 Pg
TBZ  15.920 1.00 Sg
TABZ 17.220 1.00 S
ORD  24.630 1.00 S
BST  25.800 1.00 S
MRD  15.120 1.00 Pg
SHB  16.130 1.00 Pg
SHB  29.150 1.00 Sg
AZR  17.760 1.00 Pg
AZR  31.520 1.00 S
SRB  18.300 1.00 Pg
GRMI 19.250 1.00 Pg
HSH  39.770 1.00 S
LRK  41.790 1.00 S
MAKU 32.450 1.00 Pn
MAKU 56.850 1.00 S
BRDA 57.330 1.00 S
SAAT 59.810 1.00 S
GNI  40.700 1.00 Pn
GNI  67.740 1.00 S
ZNJK 41.100 1.00 Pn
VANB 45.900 1.00 Pn
# 2012 08 13 03 58 28.900000 38.474 46.876   4.2  2.9 0.0 0.0 0.0        93
TAHR  3.030 1.00 P
TAHR  5.300 1.00 S
TVRZ  3.320 1.00 P
TVRZ  5.810 1.00 S
HRS   4.000 1.00 Pg
HRS   7.220 1.00 Sg
FTB  11.620 1.00 P
TABZ 11.700 1.00 P
TABZ 20.480 1.00 S
TBZ  11.080 1.00 Pg
BST  25.480 1.00 S
ORD  15.400 1.00 P
SRB  17.150 1.00 P
MRD  18.130 1.00 Pg
SHB  18.610 1.00 Pg
SHB  32.830 1.00 Sg
AZR  20.220 1.00 Pg
LRK  38.290 1.00 S
HSH  22.740 1.00 P
HSH  39.790 1.00 S
GLBA 26.640 1.00 P
ASTR 28.130 1.00 P
LKRN 28.310 1.00 P
BRDA 33.180 1.00 P
BRDA 58.070 1.00 S
SAAT 59.810 1.00 S
ZRD  35.100 1.00 P
ZRD  61.390 1.00 S
MAKU 61.940 1.00 S
GANJ 39.390 1.00 P
ZNJK 41.070 1.00 P
ZNJK 71.590 1.00 S
GNI  72.330 1.00 S
# 2012 08 13 04 15 52.400000 38.397 46.683  19.8  3.7 0.0 0.0 0.0        94
TVRZ  7.370 1.00 S
HRS   6.180 1.00 Pg
HRS  11.520 1.00 Sg
TABZ 15.600 1.00 S
TBZ   8.870 1.00 Pg
BST  23.880 1.00 S
MRD  15.340 1.00 Pg
MRD  28.060 1.00 Sg
SHB  16.080 1.00 Pg
AZR  17.460 1.00 Pg
AZR  29.520 1.00 S
SRB  31.160 1.00 S
GRMI 19.600 1.00 Pg
HSH  37.920 1.00 S
LRK  42.350 1.00 S
SBZ  42.940 1.00 S
GLBA 50.220 1.00 S
MAKU 32.930 1.00 Pn
MAKU 56.890 1.00 S
ZRD  61.660 1.00 S
GANJ 67.000 1.00 S
ZNJK 41.940 1.00 Pn
# 2012 08 13 05 22 28.800000 38.394 46.667  19.8  2.6 0.0 0.0 0.0        95
TVRZ  4.250 1.00 P
HRS   6.580 1.00 Pg
HRS  11.900 1.00 Sg
TABZ 15.130 1.00 S
FTB   8.720 1.00 P
FTB  15.260 1.00 S
TBZ   8.700 1.00 Pg
TBZ  15.370 1.00 S
BST  23.910 1.00 S
ORD  14.510 1.00 P
ORD  25.400 1.00 S
MRD  15.380 1.00 Pg
MRD  27.330 1.00 S
SHB  16.390 1.00 Pg
SHB  27.450 1.00 S
AZR  16.760 1.00 Pg
SRB  32.130 1.00 S
GRMI 19.600 1.00 P
HSH  38.150 1.00 S
SBZ  24.380 1.00 P
LRK  24.480 1.00 P
LRK  42.840 1.00 S
GLBA 28.930 1.00 P
GLBA 50.620 1.00 S
ASTR 30.220 1.00 P
LKRN 30.430 1.00 P
BRDA 33.610 1.00 P
SAAT 35.100 1.00 P
ZRD  35.510 1.00 P
ZRD  61.900 1.00 S
GANJ 38.560 1.00 P
ZNJK 69.350 1.00 S
VANB 42.640 1.00 P
# 2012 08 13 06 58 22.000000 38.452 46.674  17.2  3.2 0.0 0.0 0.0        96
TVRZ  3.360 1.00 P
TAHR 11.350 1.00 S
HRS   6.540 1.00 Pg
HRS  11.640 1.00 Sg
TBZ   8.970 1.00 Pg
TABZ  9.490 1.00 P
FTB   9.630 1.00 P
ORD  14.050 1.00 P
ORD  24.590 1.00 S
MRD  15.400 1.00 Pg
MRD  27.130 1.00 S
SHB  16.380 1.00 Pg
AZR  18.070 1.00 Pg
AZR  30.930 1.00 S
SRB  18.430 1.00 Pg
SRB  32.990 1.00 S
GRMI 19.510 1.00 Pg
GRMI 33.650 1.00 S
HSH  22.820 1.00 P
HSH  39.930 1.00 S
SBZ  41.800 1.00 S
LRK  24.280 1.00 P
LRK  42.490 1.00 S
ASTR 52.660 1.00 S
LKRN 30.240 1.00 P
LKRN 52.910 1.00 S
MAKU 32.830 1.00 Pg
SAAT 34.700 1.00 P
GANJ 38.000 1.00 P
GNI  38.850 1.00 P
ZNJK 41.510 1.00 Pn
ZNJK 70.860 1.00 S
VANB 74.760 1.00 S
# 2012 08 13 07 28 30.500000 38.393 46.793  17.0  3.2 0.0 0.0 0.0        97
TVRZ  7.660 1.00 S
HRS   4.840 1.00 Pg
HRS   8.560 1.00 Sg
TAHR  5.610 1.00 P
TAHR  9.820 1.00 S
TABZ  9.680 1.00 P
TBZ  10.230 1.00 Pg
TBZ  17.810 1.00 Sg
BST  13.170 1.00 Pg
SRB  16.960 1.00 Pg
SRB  29.790 1.00 S
MRD  16.850 1.00 Pg
SHB  17.400 1.00 Pg
SHB  31.180 1.00 Sg
GRMI 18.180 1.00 Pg
AZR  18.000 1.00 Pg
LRK  40.520 1.00 S
NAX  23.560 1.00 P
NAX  41.240 1.00 S
GLBA 27.810 1.00 P
ASTR 28.890 1.00 P
ASTR 50.550 1.00 S
LKRN 29.120 1.00 P
BRDA 33.730 1.00 P
MAKU 33.800 1.00 Pn
MAKU 58.930 1.00 S
SAAT 34.540 1.00 P
SAAT 60.230 1.00 S
ZRD  35.350 1.00 P
ZRD  61.640 1.00 S
ZNJK 39.390 1.00 Pn
ZNJK 68.150 1.00 S
GNI  70.060 1.00 S
# 2012 08 13 07 50 54.300000 38.418 46.661   4.9  2.2 0.0 0.0 0.0        98
TVRZ  1.950 1.00 P
TVRZ  3.410 1.00 S
TAHR  6.400 1.00 P
TAHR 11.200 1.00 S
HRS   6.140 1.00 Pg
HRS  11.230 1.00 S
TBZ   7.770 1.00 Pg
FTB   8.590 1.00 P
FTB  15.030 1.00 S
ORD  13.560 1.00 P
ORD  23.730 1.00 S
BST  13.730 1.00 Pg
BST  24.510 1.00 Sg
MRD  15.310 1.00 Pg
SHB  16.160 1.00 Pg
SRB  18.770 1.00 P
SRB  32.840 1.00 S
GRMI 19.800 1.00 P
NAX  21.900 1.00 P
HSH  22.770 1.00 P
HSH  39.840 1.00 S
SBZ  42.220 1.00 S
LRK  43.980 1.00 S
GLBA 52.040 1.00 S
ASTR 31.340 1.00 P
LKRN 31.550 1.00 P
MAKU 58.240 1.00 S
BRDA 34.620 1.00 P
BRDA 60.560 1.00 S
SAAT 36.570 1.00 P
GANJ 69.230 1.00 S
GNI  40.310 1.00 P
VANB 44.200 1.00 P
# 2012 08 13 08 16 50.100000 38.438 46.889   4.3  4.0 0.0 0.0 0.0        99
TAHR  4.940 1.00 S
HRS   3.060 1.00 Pg
HRS   6.140 1.00 Sg
FTB  19.490 1.00 S
TABZ 19.770 1.00 S
TBZ  11.320 1.00 Pg
BST  24.470 1.00 S
ORD  15.400 1.00 Pg
SRB  15.450 1.00 Pg
GRMI 16.510 1.00 Pg
MRD  17.490 1.00 Pg
MRD  32.050 1.00 Sg
SHB  18.700 1.00 Pg
SHB  34.160 1.00 Sg
AZR  19.360 1.00 Pg
AZR  34.530 1.00 S
LRK  21.900 1.00 Pg
NAX  23.800 1.00 Pg
SBZ  25.500 1.00 Pg
GLBA 27.700 0.50 Pg
ASTR 28.200 1.00 Pg
ASTR 48.760 1.00 S
LKRN 28.200 1.00 Pg
LKRN 49.000 1.00 S
BRDA 33.000 1.00 Pn
BRDA 58.740 1.00 S
SAAT 59.760 1.00 S
ZRD  34.800 1.00 Pn
ZRD  61.850 1.00 S
MAKU 34.380 1.00 Pn
GANJ 38.400 1.00 Pn
GANJ 69.230 1.00 S
ZNJK 39.360 1.00 Pn
GNI  43.200 0.50 Pn
# 2012 08 13 10 28 13.700000 38.443 46.690  10.0  1.9 0.0 0.0 0.0       100
TVRZ  2.340 1.00 P
TVRZ  4.090 1.00 S
TAHR  5.690 1.00 P
TAHR  9.950 1.00 S
HRS   5.880 1.00 Pg
HRS  10.760 1.00 Sg
TBZ   8.710 1.00 Pg
FTB   9.210 1.00 P
BST  24.790 1.00 S
MRD  15.500 1.00 Pg
MRD  27.350 1.00 S
SHB  15.940 1.00 Pg
SHB  28.380 1.00 Sg
AZR  17.650 1.00 P
AZR  30.880 1.00 S
SRB  32.010 1.00 S
NAX  22.390 1.00 P
HSH  22.750 1.00 P
SBZ  24.560 1.00 P
SBZ  42.980 1.00 S
LRK  24.480 1.00 P
LRK  42.840 1.00 S
ASTR 30.390 1.00 P
LKRN 30.550 1.00 P
MAKU 33.390 1.00 P
MAKU 58.420 1.00 S
SAAT 35.530 1.00 P
SAAT 61.980 1.00 S
ZRD  62.690 1.00 S
GANJ 39.030 1.00 P
GANJ 68.030 1.00 S
GNI  40.000 1.00 P
VANB 44.230 1.00 P
# 2012 08 13 10 29 31.200000 38.414 46.650   4.1  2.2 0.0 0.0 0.0       101
HRS   6.060 1.00 Pg
TAHR  6.600 1.00 P
TAHR 11.550 1.00 S
TBZ   8.160 1.00 Pg
TBZ  14.320 1.00 S
TABZ 14.540 1.00 S
FTB   8.460 1.00 P
ORD  13.540 1.00 P
MRD  14.900 1.00 Pg
MRD  26.170 1.00 S
SHB  15.820 1.00 Pg
SHB  26.680 1.00 S
AZR  16.700 1.00 Pg
SRB  18.870 1.00 Pg
GRMI 20.000 1.00 P
NAX  21.870 1.00 P
SBZ  42.210 1.00 S
LRK  44.370 1.00 S
ASTR 31.560 1.00 P
ASTR 55.230 1.00 S
LKRN 31.770 1.00 P
LKRN 55.600 1.00 S
MAKU 33.220 1.00 P
MAKU 58.140 1.00 S
BRDA 34.820 1.00 P
SAAT 36.800 1.00 P
SAAT 64.220 1.00 S
GANJ 39.880 1.00 P
GNI  40.330 1.00 P
GNI  70.330 1.00 S
ZNJK 42.060 1.00 P
ZNJK 73.320 1.00 S
VANB 76.810 1.00 S
# 2012 08 13 10 45 44.000000 38.464 46.610  20.0  4.2 0.0 0.0 0.0       102
TVRZ  6.790 1.00 S
HRS   7.320 1.00 Pg
HRS  13.600 1.00 Sg
TBZ   8.550 1.00 Pg
TBZ  15.900 1.00 S
TABZ 16.940 1.00 S
MRD  14.710 1.00 Pg
MRD  25.570 1.00 S
BST  14.940 1.00 Pg
BST  26.800 1.00 Sg
SHB  15.540 1.00 Pg
SHB  26.860 1.00 S
AZR  17.330 1.00 Pg
SRB  19.360 1.00 Pg
GRMI 20.290 1.00 Pg
GRMI 34.810 1.00 S
GLBA 50.770 1.00 S
LKRN 53.890 1.00 S
MAKU 32.300 1.00 Pg
BRDA 56.940 1.00 S
SAAT 60.620 1.00 S
GANJ 64.980 1.00 S
GNI  41.200 1.00 Pn
GNI  66.200 1.00 S
ZNJK 41.830 1.00 Pn
# 2012 08 13 11 47 52.300000 38.454 46.864   4.7  1.8 0.0 0.0 0.0       103
TAHR  5.840 1.00 S
HRS   3.590 1.00 Pg
HRS   6.970 1.00 Sg
FTB  10.660 1.00 P
FTB  18.660 1.00 S
TABZ 10.800 1.00 P
TBZ  11.330 1.00 Pg
TBZ  19.780 1.00 S
BST  14.030 1.00 P
ORD  27.460 1.00 S
GRMI 16.860 1.00 P
GRMI 29.500 1.00 S
SRB  17.340 0.50 Pg
MRD  17.750 1.00 Pg
MRD  30.990 1.00 S
SHB  18.500 1.00 P
AZR  19.250 1.00 P
AZR  33.680 1.00 S
LRK  22.180 1.00 P
LRK  38.810 1.00 S
HSH  22.240 1.00 P
NAX  24.110 1.00 P
SBZ  26.050 1.00 P
SBZ  45.590 1.00 S
GLBA 26.920 1.00 P
LKRN 28.610 1.00 P
BRDA 58.960 1.00 S
MAKU 35.450 1.00 P
ZRD  35.570 1.00 P
ZRD  62.190 1.00 S
GANJ 69.440 1.00 S
ZNJK 40.770 1.00 P
GNI  72.540 1.00 S
# 2012 08 13 12 07 37.300000 38.446 46.591   4.1  2.1 0.0 0.0 0.0       104
TVRZ  2.180 1.00 P
TVRZ  3.820 1.00 S
TAHR  7.370 1.00 P
HRS   6.810 1.00 Pg
HRS  12.850 1.00 Sg
TBZ   7.650 1.00 Pg
TBZ  13.380 1.00 S
TABZ  8.300 1.00 P
FTB  15.070 1.00 S
ORD  22.470 1.00 S
MRD  14.000 1.00 Pg
MRD  24.650 1.00 S
BST  14.650 1.00 P
BST  25.630 1.00 S
SHB  14.970 1.00 Pg
SHB  25.600 1.00 S
AZR  16.760 1.00 Pg
SRB  19.870 1.00 Pg
SRB  34.690 1.00 S
GRMI 20.660 1.00 P
SBZ  23.460 1.00 P
LRK  26.190 1.00 P
GLBA 30.450 1.00 P
GLBA 53.280 1.00 S
ASTR 32.440 1.00 P
ASTR 56.780 1.00 S
LKRN 32.570 1.00 P
ZRD  37.060 1.00 P
GANJ 39.580 1.00 P
GANJ 69.010 1.00 S
GNI  69.400 1.00 S
ZNJK 42.700 1.00 P
VANB 75.820 1.00 S
# 2012 08 13 12 45 58.000000 38.439 46.736  20.0  3.9 0.0 0.0 0.0       105
HRS   5.870 1.00 Pg
HRS  10.550 1.00 Sg
TABZ 17.810 1.00 S
FTB  17.910 1.00 S
TBZ   9.400 1.00 Pg
TBZ  17.710 1.00 S
BST  13.970 1.00 Pg
BST  25.130 1.00 Sg
ORD  14.260 1.00 P
MRD  15.740 1.00 Pg
SHB  16.680 1.00 Pg
SHB  30.280 1.00 Sg
SRB  17.870 1.00 Pg
AZR  18.150 1.00 Pg
GRMI 19.060 1.00 Pg
GRMI 31.880 1.00 S
NAX  22.070 1.00 P
NAX  38.620 1.00 S
LRK  23.330 1.00 P
GLBA 48.010 1.00 S
ASTR 51.080 1.00 S
LKRN 29.290 1.00 P
MAKU 33.330 1.00 Pn
BRDA 32.450 1.00 P
BRDA 56.580 1.00 S
SAAT 33.810 1.00 P
SAAT 58.960 1.00 S
ZRD  34.240 1.00 P
ZRD  59.700 1.00 S
GNI  42.600 0.50 Pn
ZNJK 41.430 1.00 Pn
ZNJK 69.500 1.00 S
VANB 43.310 1.00 P
# 2012 08 13 12 53 47.200000 38.433 46.719  12.6  3.2 0.0 0.0 0.0       106
TAHR 10.270 1.00 S
HRS   5.770 1.00 Pg
TABZ  9.630 1.00 P
TABZ 16.850 1.00 S
FTB  17.020 1.00 S
TBZ   9.220 1.00 Pg
TBZ  16.640 1.00 S
BST  13.660 1.00 Pg
BST  24.700 1.00 Sg
ORD  14.110 1.00 P
MRD  15.820 1.00 Pg
SHB  16.690 1.00 Pg
SHB  28.950 1.00 S
AZR  18.210 1.00 Pg
SRB  17.750 1.00 Pg
GRMI 18.890 1.00 Pg
GRMI 33.430 1.00 S
HSH  40.250 1.00 S
NAX  22.400 1.00 P
LRK  24.330 1.00 P
LRK  42.580 1.00 S
SBZ  42.610 1.00 S
GLBA 28.420 1.00 P
GLBA 49.740 1.00 S
ASTR 30.150 1.00 P
ASTR 52.770 1.00 S
MAKU 33.120 1.00 Pn
BRDA 33.480 1.00 P
ZRD  35.320 1.00 P
GANJ 38.570 1.00 P
ZNJK 40.800 1.00 Pn
ZNJK 71.180 1.00 S
VANB 76.450 1.00 S
# 2012 08 13 13 31 40.300000 38.403 46.841  15.4  1.5 0.0 0.0 0.0       107
HRS   4.270 1.00 Pg
HRS   7.590 1.00 Sg
TAHR  4.660 1.00 P
FTB  10.540 1.00 P
FTB  18.440 1.00 S
TBZ  10.650 1.00 Pg
BST  13.170 1.00 Pg
BST  23.650 1.00 S
ORD  16.500 1.00 P
SRB  16.530 1.00 Pg
GRMI 30.680 1.00 S
MRD  17.430 1.00 Pg
MRD  31.900 1.00 S
SHB  19.080 1.00 Pg
SHB  32.520 1.00 S
HSH  21.270 1.00 P
HSH  37.220 1.00 S
LRK  22.200 1.00 P
NAX  24.340 1.00 P
NAX  42.590 1.00 S
SBZ  26.170 1.00 P
GLBA 47.370 1.00 S
LKRN 28.170 1.00 P
LKRN 49.290 1.00 S
BRDA 33.660 1.00 P
BRDA 58.720 1.00 S
MAKU 34.640 1.00 P
ZRD  61.390 1.00 S
ZNJK 38.900 1.00 P
GANJ 39.140 1.00 P
GANJ 68.200 1.00 S
GNI  40.820 1.00 P
VANB 78.770 1.00 S
# 2012 08 13 13 57 03.300000 38.439 46.701   4.1  1.8 0.0 0.0 0.0       108
TVRZ  2.760 1.00 S
TAHR  9.370 1.00 S
HRS   5.690 1.00 Pg
HRS  10.170 1.00 S
TBZ   9.220 1.00 Pg
TABZ  9.610 1.00 P
TABZ 16.830 1.00 S
FTB   9.670 1.00 P
FTB  16.920 1.00 S
BST  13.830 1.00 Pg
BST  25.380 1.00 S
MRD  15.140 1.00 Pg
SHB  16.600 1.00 Pg
AZR  17.460 1.00 Pg
AZR  31.750 1.00 S
SRB  18.410 1.00 Pg
SRB  32.140 1.00 S
GRMI 18.630 1.00 P
GRMI 32.600 1.00 S
NAX  22.380 1.00 P
NAX  39.160 1.00 S
HSH  23.030 1.00 P
HSH  40.300 1.00 S
SBZ  42.760 1.00 S
GLBA 28.510 1.00 P
ASTR 30.470 1.00 P
LKRN 53.500 1.00 S
BRDA 34.050 1.00 P
SAAT 35.680 1.00 P
ZRD  36.190 1.00 P
ZNJK 41.830 1.00 P
ZNJK 72.920 1.00 S
VANB 45.120 1.00 P
# 2012 08 13 14 02 42.800000 38.355 46.702  15.3  1.5 0.0 0.0 0.0       109
TVRZ  4.090 1.00 P
HRS   5.270 1.00 Pg
HRS  10.270 1.00 Sg
TAHR  6.440 1.00 P
TAHR 11.260 1.00 S
FTB  15.070 1.00 S
TABZ  8.730 1.00 P
TBZ   8.410 1.00 Pg
BST  13.230 1.00 Pg
ORD  15.610 1.00 P
ORD  27.310 1.00 S
SHB  16.080 1.00 Pg
SHB  28.910 1.00 S
MRD  16.720 1.00 Pg
MRD  29.380 1.00 S
AZR  17.060 1.00 P
AZR  29.860 1.00 S
SRB  17.180 1.00 Pg
GRMI 19.470 1.00 P
GRMI 34.070 1.00 S
NAX  23.370 1.00 P
LRK  24.200 1.00 P
LRK  42.340 1.00 S
SBZ  44.580 1.00 S
MAKU 33.700 1.00 P
BRDA 34.510 1.00 P
BRDA 60.170 1.00 S
SAAT 35.590 1.00 P
SAAT 62.060 1.00 S
ZNJK 39.510 1.00 P
GANJ 39.480 1.00 P
GNI  70.200 1.00 S
VANB 76.250 1.00 S
# 2012 08 13 15 06 34.400000 38.413 46.676   4.1  2.7 0.0 0.0 0.0       110
TVRZ  2.080 1.00 P
TVRZ  3.630 1.00 S
HRS   5.660 1.00 Pg
HRS  10.460 1.00 Sg
TAHR  6.220 1.00 P
TAHR 10.880 1.00 S
TABZ  9.020 1.00 P
TBZ   8.240 1.00 Pg
TBZ  15.600 1.00 S
FTB  15.870 1.00 S
BST  13.500 1.00 Pg
BST  24.440 1.00 S
ORD  14.370 1.00 P
ORD  25.140 1.00 S
MRD  15.630 1.00 Pg
SHB  15.480 1.00 Pg
SHB  27.870 1.00 S
AZR  17.630 1.00 Pg
NAX  22.690 1.00 P
NAX  39.710 1.00 S
LRK  24.900 1.00 P
GLBA 29.660 1.00 P
ASTR 31.080 1.00 P
ASTR 54.400 1.00 S
LKRN 31.310 1.00 P
LKRN 54.800 1.00 S
MAKU 33.940 1.00 P
BRDA 34.780 1.00 P
BRDA 60.840 1.00 S
GANJ 39.920 1.00 P
GANJ 69.610 1.00 S
GNI  40.860 1.00 P
VANB 77.660 1.00 S
# 2012 08 13 15 32 15.700000 38.427 46.786  15.6  2.2 0.0 0.0 0.0       111
TVRZ  3.650 1.00 P
TAHR  9.250 1.00 S
HRS   5.060 1.00 Pg
HRS   9.000 1.00 Sg
TABZ 10.300 1.00 P
TABZ 18.020 1.00 S
TBZ  10.190 1.00 Pg
TBZ  17.950 1.00 Sg
BST  13.520 1.00 Pg
BST  25.380 1.00 S
ORD  15.100 1.00 P
MRD  16.800 1.00 Pg
SRB  17.270 1.00 Pg
SHB  17.760 1.00 Pg
GRMI 18.230 1.00 P
AZR  18.960 1.00 Pg
HSH  22.390 1.00 P
NAX  22.970 1.00 P
NAX  40.190 1.00 S
GLBA 27.500 1.00 P
GLBA 48.130 1.00 S
ASTR 28.980 1.00 P
ASTR 50.720 1.00 S
LKRN 29.170 1.00 P
LKRN 51.050 1.00 S
BRDA 57.800 1.00 S
MAKU 33.500 1.00 P
MAKU 58.430 1.00 S
SAAT 59.600 1.00 S
ZRD  60.680 1.00 S
GANJ 66.910 1.00 S
ZNJK 39.950 1.00 P
VANB 44.230 1.00 P
# 2012 08 13 16 14 40.600000 38.488 46.676  22.0  2.6 0.0 0.0 0.0       112
TVRZ  6.830 1.00 S
TAHR  6.690 1.00 P
TAHR 11.710 1.00 S
HRS   7.160 1.00 Pg
HRS  12.680 1.00 Sg
TBZ   9.050 1.00 Pg
TBZ  17.110 1.00 Sg
TABZ 18.330 1.00 S
FTB  10.650 1.00 P
MRD  15.070 1.00 Pg
MRD  26.260 1.00 S
BST  15.240 1.00 Pg
SHB  16.340 1.00 Pg
SHB  28.300 1.00 S
AZR  18.010 1.00 Pg
GRMI 18.620 1.00 P
GRMI 32.580 1.00 S
SRB  33.470 1.00 S
NAX  20.930 1.00 P
NAX  36.630 1.00 S
HSH  23.430 1.00 P
LRK  23.930 1.00 P
LRK  41.880 1.00 S
GLBA 27.610 1.00 P
MAKU 31.480 1.00 P
BRDA 55.390 1.00 S
SAAT 33.570 1.00 P
ZRD  33.710 1.00 P
GNI  37.700 1.00 P
GNI  65.670 1.00 S
ZNJK 40.600 1.00 P
VANB 42.490 1.00 P
VANB 73.950 1.00 S
