# 2012 08 12 07 29 28.800000 38.382 46.881  23.0  2.3 0.0 0.0 0.0        57
HRS   4.690 1.00 Pg
HRS   8.280 1.00 Sg
FTB  10.730 1.00 P
FTB  18.780 1.00 S
TABZ 10.940 1.00 P
TABZ 19.150 1.00 S
TBZ  11.110 1.00 Pg
TBZ  19.450 1.00 Sg
BST  13.180 1.00 P
BST  23.060 1.00 S
SRB  15.870 1.00 P
SRB  27.770 1.00 S
GRMI 16.760 1.00 P
MRD  17.790 1.00 Pg
MRD  31.900 1.00 Sg
SHB  18.550 1.00 Pg
SHB  32.820 1.00 Sg
AZR  18.830 1.00 Pg
AZR  32.710 1.00 S
HSH  20.800 1.00 P
HSH  36.400 1.00 S
LRK  37.640 1.00 S
NAX  24.190 1.00 P
SBZ  26.030 1.00 P
ASTR 27.270 1.00 P
ASTR 47.720 1.00 S
LKRN 48.090 1.00 S
BRDA 32.660 1.00 P
SAAT 57.660 1.00 S
MAKU 34.020 1.00 P
ZNJK 37.940 1.00 P
GANJ 38.410 1.00 P
GNI  40.180 1.00 P
# 2012 08 12 07 33 03.000000 38.424 46.696  10.0  2.4 0.0 0.0 0.0        58
TAHR  5.630 1.00 P
HRS   5.590 1.00 Pg
HRS  10.880 1.00 Sg
TBZ   8.370 1.00 Pg
TBZ  15.450 1.00 Sg
FTB   9.350 1.00 P
BST  14.220 1.00 P
ORD  14.380 1.00 P
ORD  25.160 1.00 S
MRD  14.370 1.00 Pg
MRD  28.150 1.00 Sg
SHB  15.650 1.00 Pg
SHB  29.110 1.00 Sg
AZR  17.390 1.00 Pg
AZR  30.450 1.00 Sg
SRB  18.410 1.00 P
SRB  32.210 1.00 S
GRMI 18.940 1.00 P
NAX  39.820 1.00 S
HSH  22.870 1.00 P
SBZ  24.860 1.00 P
GLBA 28.740 1.00 P
GLBA 50.290 1.00 S
ASTR 30.300 1.00 P
MAKU 33.700 1.00 P
MAKU 58.900 1.00 S
BRDA 33.990 1.00 P
BRDA 59.410 1.00 S
SAAT 61.930 1.00 S
GANJ 39.030 1.00 P
GANJ 68.030 1.00 S
VANB 44.310 1.00 P
# 2012 08 12 07 36 35.600000 38.449 46.778  15.2  2.7 0.0 0.0 0.0        59
TVRZ  3.680 1.00 P
HRS   5.330 1.00 Pg
HRS   9.280 1.00 Sg
FTB  10.470 1.00 P
TABZ 10.550 1.00 P
TABZ 18.460 1.00 S
TBZ  10.330 1.00 Pg
TBZ  17.830 1.00 Sg
ORD  15.370 1.00 P
ORD  26.890 1.00 S
MRD  16.690 1.00 Pg
MRD  28.590 1.00 Sg
SHB  17.490 1.00 Pg
SHB  31.110 1.00 Sg
SRB  17.530 1.00 P
GRMI 31.300 1.00 S
AZR  18.490 1.00 Pg
AZR  32.270 1.00 Sg
HSH  22.220 1.00 P
LRK  22.840 1.00 P
SBZ  25.130 1.00 P
GLBA 47.640 1.00 S
ASTR 28.640 1.00 P
BRDA 33.230 1.00 P
SAAT 34.060 1.00 P
ZRD  34.830 1.00 P
ZRD  60.740 1.00 S
GANJ 38.540 1.00 P
GNI  39.970 1.00 P
GNI  69.630 1.00 S
ZNJK 69.260 1.00 S
VANB 77.560 1.00 S
# 2012 08 12 08 01 20.000000 38.417 46.819  21.6  2.9 0.0 0.0 0.0        60
TVRZ  4.960 1.00 P
TAHR  9.650 1.00 S
HRS   5.330 1.00 Pg
HRS   9.210 1.00 Sg
TABZ 10.830 1.00 P
TBZ  10.510 1.00 Pg
TBZ  18.470 1.00 Sg
ORD  15.880 1.00 P
SRB  29.710 1.00 S
MRD  16.490 1.00 Pg
MRD  30.530 1.00 Sg
GRMI 17.650 1.00 P
GRMI 30.880 1.00 S
SHB  18.170 0.50 Pg
SHB  31.090 1.00 Sg
AZR  18.770 1.00 Pg
AZR  31.890 1.00 Sg
HSH  21.620 1.00 P
SBZ  25.550 1.00 P
GLBA 27.080 1.00 P
LKRN 28.360 1.00 P
BRDA 32.590 1.00 P
BRDA 56.830 1.00 S
SAAT 58.520 1.00 S
MAKU 33.620 1.00 P
MAKU 58.630 1.00 S
GANJ 38.090 1.00 P
ZNJK 38.880 1.00 P
ZNJK 67.720 1.00 S
GNI  39.840 1.00 P
VANB 44.180 1.00 P
VANB 76.870 1.00 S
# 2012 08 12 08 03 43.800000 38.428 46.752  17.9  2.1 0.0 0.0 0.0        61
TVRZ  3.940 1.00 P
TVRZ  6.900 1.00 S
TAHR  5.660 1.00 P
HRS   5.480 1.00 Pg
HRS  10.040 1.00 Sg
FTB  10.240 1.00 P
FTB  17.920 1.00 S
TABZ 17.940 1.00 S
TBZ   9.540 1.00 Pg
TBZ  17.160 1.00 Sg
MRD  16.260 1.00 Pg
MRD  28.800 1.00 Sg
SHB  17.280 1.00 Pg
SHB  30.080 1.00 Sg
SRB  17.850 1.00 P
SRB  31.230 1.00 S
AZR  18.340 1.00 Pg
GRMI 31.750 1.00 S
HSH  22.270 1.00 P
NAX  22.570 1.00 P
LRK  40.600 1.00 S
GLBA 27.410 1.00 P
ASTR 50.800 1.00 S
LKRN 51.040 1.00 S
BRDA 32.870 1.00 P
BRDA 57.330 1.00 S
SAAT 34.060 1.00 P
ZRD  34.620 1.00 P
GANJ 38.070 1.00 P
GNI  39.420 1.00 P
GNI  68.680 1.00 S
ZNJK 39.830 1.00 P
VANB 43.840 1.00 P
# 2012 08 12 10 15 33.400000 38.422 46.750  19.8  3.3 0.0 0.0 0.0        62
TVRZ  4.240 1.00 P
TAHR  5.920 1.00 P
TAHR 10.360 1.00 S
HRS   5.710 1.00 Pg
HRS  10.170 1.00 Sg
FTB  10.180 1.00 P
FTB  17.810 1.00 S
TBZ   9.860 1.00 Pg
TBZ  18.040 1.00 S
BST  13.900 1.00 Pg
ORD  25.690 1.00 S
MRD  16.040 1.00 Pg
SHB  17.130 1.00 Pg
SHB  30.230 1.00 Sg
SRB  31.070 1.00 S
AZR  18.170 1.00 Pg
GRMI 18.820 1.00 Pg
GRMI 31.770 1.00 S
HSH  22.060 1.00 P
HSH  38.600 1.00 S
NAX  22.500 1.00 P
NAX  39.380 1.00 S
LRK  23.200 1.00 P
GLBA 27.420 1.00 P
LKRN 51.030 1.00 S
MAKU 33.360 1.00 Pn
SAAT 59.420 1.00 S
GANJ 38.010 1.00 P
GANJ 66.210 1.00 S
GNI  39.350 1.00 P
GNI  68.550 1.00 S
ZNJK 40.830 1.00 Pn
VANB 43.600 1.00 P
# 2012 08 12 10 29 27.900000 38.404 46.650  10.0  2.0 0.0 0.0 0.0        63
TVRZ  2.840 1.00 P
TVRZ  4.970 1.00 S
HRS   5.850 1.00 Pg
HRS  11.450 1.00 Sg
TAHR  6.700 1.00 P
TBZ   8.150 1.00 Pg
TABZ  8.150 1.00 P
BST  13.410 1.00 Pg
ORD  13.750 1.00 P
ORD  24.060 1.00 S
MRD  14.820 1.00 Pg
MRD  26.340 1.00 S
SHB  16.020 1.00 Pg
SHB  26.720 1.00 S
AZR  16.660 1.00 P
SRB  18.770 1.00 P
SRB  32.840 1.00 S
GRMI 20.090 1.00 P
NAX  22.040 1.00 P
HSH  22.530 1.00 P
SBZ  42.590 1.00 S
LRK  25.410 1.00 P
LRK  44.470 1.00 S
GLBA 29.840 1.00 P
MAKU 32.960 1.00 P
MAKU 57.680 1.00 S
BRDA 34.700 1.00 P
SAAT 36.310 1.00 P
SAAT 63.330 1.00 S
ZRD  63.890 1.00 S
GNI  69.530 1.00 S
ZNJK 71.890 1.00 S
VANB 75.670 1.00 S
# 2012 08 12 11 21 16.200000 38.423 46.707  19.6  2.2 0.0 0.0 0.0        64
TAHR 10.790 1.00 S
HRS   6.250 1.00 Pg
HRS  10.950 1.00 Sg
TABZ  9.780 1.00 P
TABZ 17.110 1.00 S
FTB  17.130 1.00 S
TBZ   9.600 1.00 Pg
TBZ  17.280 1.00 S
BST  14.350 1.00 Pg
BST  25.110 1.00 S
ORD  14.570 1.00 P
MRD  15.820 1.00 Pg
SHB  16.890 1.00 Pg
SHB  29.020 1.00 S
AZR  17.330 1.00 Pg
SRB  18.070 1.00 P
SRB  31.630 1.00 S
GRMI 18.610 1.00 P
HSH  22.360 1.00 P
NAX  22.380 1.00 P
LRK  41.340 1.00 S
SBZ  24.320 1.00 P
GLBA 27.840 1.00 P
MAKU 32.730 1.00 P
BRDA 57.350 1.00 S
SAAT 34.130 1.00 P
SAAT 59.530 1.00 S
ZRD  34.640 1.00 P
ZRD  60.410 1.00 S
GANJ 66.120 1.00 S
GNI  67.990 1.00 S
ZNJK 39.850 1.00 P
VANB 43.330 1.00 P
# 2012 08 12 11 51 31.500000 38.400 46.798  15.3  3.3 0.0 0.0 0.0        65
TVRZ  4.180 1.00 P
HRS   4.570 1.00 Pg
HRS   8.190 1.00 Sg
TAHR  5.320 1.00 P
FTB   9.710 1.00 P
TABZ  9.840 1.00 P
TABZ 17.220 1.00 S
TBZ  10.320 1.00 Pg
TBZ  18.260 1.00 Sg
BST  12.990 1.00 Pg
BST  23.620 1.00 S
ORD  15.950 1.00 P
ORD  27.910 1.00 S
SRB  30.190 1.00 S
MRD  16.800 1.00 Pg
SHB  17.510 1.00 Pg
SHB  30.870 1.00 S
GRMI 18.320 1.00 Pg
GRMI 32.070 1.00 S
AZR  18.020 1.00 Pg
AZR  31.880 1.00 Sg
HSH  37.640 1.00 S
SBZ  25.740 1.00 P
GLBA 48.570 1.00 S
ASTR 28.850 1.00 P
ASTR 50.480 1.00 S
BRDA 58.910 1.00 S
MAKU 34.040 1.00 P
SAAT 34.610 1.00 P
GANJ 39.190 1.00 P
GANJ 68.290 1.00 S
ZNJK 39.660 1.00 Pn
GNI  40.450 1.00 P
# 2012 08 12 14 19 08.800000 38.420 46.799  18.9  3.1 0.0 0.0 0.0        66
TAHR  5.480 1.00 P
HRS   5.220 1.00 Pg
HRS   9.060 1.00 Sg
FTB  10.550 1.00 P
FTB  18.460 1.00 S
TABZ 10.600 1.00 P
TBZ  10.590 1.00 Pg
TBZ  18.510 1.00 Sg
BST  13.810 1.00 Pg
ORD  15.220 1.00 P
ORD  26.630 1.00 S
SRB  30.230 1.00 S
MRD  16.770 1.00 Pg
MRD  29.770 1.00 S
SHB  17.690 1.00 Pg
SHB  31.450 1.00 Sg
GRMI 18.100 1.00 Pg
AZR  18.560 1.00 Pg
AZR  32.560 1.00 S
HSH  21.760 1.00 P
HSH  38.080 1.00 S
LRK  39.910 1.00 S
ASTR 28.540 1.00 P
ASTR 49.950 1.00 S
BRDA 32.840 1.00 P
BRDA 57.270 1.00 S
MAKU 33.850 1.00 Pn
SAAT 33.850 1.00 P
ZRD  60.170 1.00 S
GANJ 38.250 1.00 P
GANJ 66.630 1.00 S
ZNJK 39.980 1.00 Pn
VANB 44.080 1.00 P
# 2012 08 12 15 15 10.000000 38.431 46.858  15.0  2.1 0.0 0.0 0.0        67
TVRZ  4.090 1.00 P
HRS   4.440 1.00 Pg
FTB  10.950 1.00 P
TABZ 19.360 1.00 S
TBZ  10.760 1.00 Pg
BST  13.580 1.00 Pg
ORD  15.850 1.00 P
GRMI 17.350 1.00 P
GRMI 30.360 1.00 S
MRD  17.840 1.00 Pg
MRD  31.280 1.00 S
SHB  18.700 1.00 Pg
SHB  32.240 1.00 Sg
AZR  19.640 1.00 Pg
AZR  33.800 1.00 S
HSH  22.150 1.00 P
LRK  22.310 1.00 P
LRK  39.040 1.00 S
NAX  41.540 1.00 S
SBZ  25.500 1.00 P
GLBA 26.690 1.00 P
GLBA 46.700 1.00 S
ASTR 28.100 1.00 P
BRDA 57.540 1.00 S
SAAT 58.730 1.00 S
MAKU 34.190 1.00 P
MAKU 59.630 1.00 S
ZRD  60.190 1.00 S
GANJ 38.530 1.00 P
ZNJK 39.530 1.00 P
ZNJK 68.880 1.00 S
GNI  40.220 1.00 P
VANB 78.520 1.00 S
# 2012 08 12 15 59 25.400000 38.450 46.811  14.5  2.5 0.0 0.0 0.0        68
TVRZ  3.380 1.00 Pg
TVRZ  5.930 1.00 Sg
TAHR  4.660 1.00 P
TAHR  8.150 1.00 S
HRS   4.780 1.00 Pg
HRS   8.810 1.00 Sg
FTB  10.540 1.00 P
TBZ  10.340 1.00 Pg
TBZ  18.630 1.00 Sg
BST  14.290 1.00 P
ORD  15.540 1.00 P
MRD  17.400 1.00 Pg
MRD  29.550 1.00 Sg
SRB  17.490 1.00 P
GRMI 17.730 1.00 P
GRMI 31.030 1.00 S
SHB  17.600 1.00 Pg
SHB  31.790 1.00 Sg
AZR  19.080 1.00 Pg
AZR  32.870 1.00 Sg
LRK  22.660 1.00 P
LRK  39.650 1.00 S
ASTR 28.460 1.00 P
LKRN 28.630 1.00 P
LKRN 50.100 1.00 S
BRDA 33.100 1.00 P
MAKU 59.250 1.00 S
ZRD  34.790 1.00 P
ZRD  60.660 1.00 S
GANJ 38.590 1.00 P
ZNJK 39.940 1.00 P
GNI  69.960 1.00 S
VANB 77.860 1.00 S
# 2012 08 12 17 18 30.600000 38.460 46.744  19.4  2.1 0.0 0.0 0.0        69
TVRZ  3.750 1.00 Pg
TVRZ  6.280 1.00 Sg
TAHR  5.770 1.00 P
HRS   6.010 1.00 Pg
HRS  10.460 1.00 Sg
TBZ  10.060 1.00 Pg
TBZ  17.580 1.00 Sg
FTB  10.280 1.00 P
ORD  25.600 1.00 S
BST  14.690 1.00 P
MRD  16.580 1.00 Pg
MRD  27.520 1.00 Sg
SHB  17.240 1.00 Pg
SHB  30.090 1.00 Sg
SRB  18.310 1.00 P
GRMI 18.260 1.00 P
AZR  18.580 1.00 Pg
NAX  22.440 1.00 P
NAX  39.280 1.00 S
HSH  22.610 1.00 P
HSH  39.570 1.00 S
LRK  23.260 1.00 P
SBZ  24.360 1.00 P
SBZ  42.630 1.00 S
GLBA 27.520 1.00 P
ASTR 50.870 1.00 S
BRDA 32.500 1.00 P
MAKU 32.750 1.00 P
ZRD  59.800 1.00 S
GANJ 65.660 1.00 S
GNI  68.020 1.00 S
VANB 43.450 1.00 P
# 2012 08 12 18 44 22.100000 38.411 46.843  18.1  2.1 0.0 0.0 0.0        70
TVRZ  4.280 1.00 Pg
TVRZ  7.450 1.00 Sg
HRS   4.670 1.00 Pg
HRS   8.170 1.00 Sg
TABZ 10.940 1.00 P
TBZ  10.860 1.00 Pg
TBZ  19.080 1.00 Sg
BST  13.700 1.00 P
BST  23.980 1.00 S
ORD  28.430 1.00 S
SRB  16.360 1.00 P
SRB  28.630 1.00 S
GRMI 29.970 1.00 S
MRD  17.420 1.00 Pg
MRD  31.480 1.00 Sg
SHB  18.240 1.00 Pg
SHB  32.260 1.00 Sg
AZR  18.760 1.00 Pg
LRK  21.940 1.00 P
NAX  42.150 1.00 S
SBZ  45.290 1.00 S
GLBA 26.550 1.00 P
ASTR 27.670 1.00 P
ASTR 48.430 1.00 S
BRDA 33.110 1.00 P
SAAT 33.590 1.00 P
MAKU 34.260 1.00 P
ZRD  34.590 1.00 P
GANJ 38.630 1.00 P
ZNJK 38.760 1.00 P
ZNJK 67.550 1.00 S
VANB 44.940 1.00 P
# 2012 08 12 18 46 40.200000 38.398 46.835  15.6  2.0 0.0 0.0 0.0        71
TVRZ  3.860 1.00 Pg
TVRZ  6.890 1.00 Sg
HRS   4.350 1.00 Pg
HRS   7.980 1.00 Sg
FTB  10.420 1.00 P
TBZ  10.420 1.00 Pg
TBZ  18.540 1.00 Sg
BST  13.390 1.00 P
ORD  28.780 1.00 S
SRB  16.410 1.00 P
GRMI 17.640 1.00 P
MRD  17.140 1.00 Pg
MRD  31.960 1.00 Sg
SHB  17.840 1.00 Pg
SHB  32.040 1.00 Sg
AZR  18.760 1.00 P
AZR  32.840 1.00 S
HSH  21.200 1.00 P
HSH  37.100 1.00 S
LRK  22.320 1.00 P
SBZ  26.160 1.00 P
GLBA 27.170 1.00 P
ASTR 28.030 1.00 P
ASTR 49.060 1.00 S
LKRN 49.510 1.00 S
SAAT 34.240 1.00 P
MAKU 34.570 1.00 P
MAKU 60.280 1.00 S
ZRD  35.260 1.00 P
GANJ 39.210 1.00 P
GANJ 68.310 1.00 S
GNI  71.080 1.00 S
# 2012 08 12 19 28 04.700000 38.437 46.814  21.0  1.7 0.0 0.0 0.0        72
TVRZ  4.520 1.00 Pg
TVRZ  7.660 1.00 Sg
TAHR  5.300 1.00 P
HRS   5.400 1.00 Pg
HRS   9.220 1.00 Sg
TABZ 10.890 1.00 P
TBZ  10.580 1.00 Pg
TBZ  18.420 1.00 Sg
BST  14.240 1.00 P
ORD  26.460 1.00 S
SRB  30.050 1.00 S
MRD  17.580 1.00 Pg
MRD  28.540 1.00 Sg
SHB  17.980 1.00 Pg
SHB  31.940 1.00 Sg
AZR  18.800 1.00 P
LRK  22.230 1.00 P
NAX  40.160 1.00 S
SBZ  24.770 1.00 P
SBZ  43.340 1.00 S
GLBA 26.500 1.00 P
ASTR 49.140 1.00 S
LKRN 28.190 1.00 P
BRDA 32.220 1.00 P
BRDA 56.180 1.00 S
MAKU 33.190 1.00 P
MAKU 57.880 1.00 S
ZRD  33.860 1.00 P
ZNJK 39.180 1.00 P
ZNJK 68.240 1.00 S
GNI  39.310 1.00 P
VANB 44.140 1.00 P
# 2012 08 12 19 29 56.500000 38.422 46.780  19.7  2.1 0.0 0.0 0.0        73
TVRZ  4.400 1.00 P
TAHR  5.380 1.00 P
TAHR  9.410 1.00 S
HRS   5.710 1.00 Pg
HRS   9.750 1.00 S
FTB  10.340 1.00 P
TBZ  10.190 1.00 Pg
TBZ  17.690 1.00 Sg
BST  13.830 1.00 Pg
ORD  15.320 1.00 P
ORD  26.810 1.00 S
MRD  16.530 1.00 Pg
MRD  29.930 1.00 S
SRB  17.070 1.00 P
SHB  17.650 1.00 Pg
SHB  31.210 1.00 Sg
GRMI 17.700 1.00 P
AZR  18.360 1.00 P
AZR  32.130 1.00 S
HSH  21.670 1.00 P
LRK  39.590 1.00 S
SBZ  24.990 1.00 P
GLBA 27.010 1.00 P
GLBA 47.270 1.00 S
LKRN 28.590 1.00 P
BRDA 32.720 1.00 P
BRDA 57.060 1.00 S
MAKU 58.220 1.00 S
SAAT 58.540 1.00 S
ZRD  59.840 1.00 S
ZNJK 39.200 1.00 P
GNI  39.560 1.00 P
GNI  68.910 1.00 S
# 2012 08 12 20 04 31.000000 38.494 46.766  18.4  1.8 0.0 0.0 0.0        74
TVRZ  3.350 1.00 Pg
TVRZ  5.810 1.00 Sg
TAHR  5.260 1.00 P
TAHR  9.210 1.00 S
HRS   6.050 1.00 Pg
HRS  11.030 1.00 Sg
TBZ   9.660 1.00 Pg
TBZ  19.440 1.00 S
TABZ 11.030 1.00 P
FTB  11.020 1.00 P
BST  15.020 1.00 P
BST  26.290 1.00 S
MRD  16.400 1.00 Pg
MRD  28.720 1.00 Sg
SHB  17.220 1.00 Pg
SHB  31.080 1.00 Sg
AZR  19.050 1.00 P
AZR  33.340 1.00 S
NAX  39.210 1.00 S
LRK  22.790 1.00 P
HSH  39.930 1.00 S
SBZ  24.190 1.00 P
ASTR 28.670 1.00 P
ASTR 50.170 1.00 S
LKRN 28.750 1.00 P
LKRN 50.310 1.00 S
BRDA 32.220 1.00 P
BRDA 56.210 1.00 S
MAKU 33.040 1.00 P
MAKU 57.630 1.00 S
ZRD  33.920 1.00 P
GANJ 37.450 1.00 P
ZNJK 39.960 1.00 P
# 2012 08 12 20 09 35.500000 38.419 46.877  16.6  2.2 0.0 0.0 0.0        75
TAHR  4.500 1.00 P
TAHR  7.870 1.00 S
HRS   4.160 1.00 Pg
HRS   7.250 1.00 Sg
TVRZ  4.620 1.00 Pg
TVRZ  7.970 1.00 Sg
TABZ 11.410 1.00 P
TBZ  11.460 1.00 Pg
TBZ  19.870 1.00 Sg
BST  13.850 1.00 P
ORD  16.240 1.00 P
ORD  28.420 1.00 S
SRB  16.630 1.00 P
GRMI 17.140 1.00 P
MRD  18.320 1.00 Pg
MRD  31.070 1.00 Sg
SHB  19.040 1.00 Pg
SHB  33.090 1.00 Sg
AZR  19.450 1.00 P
AZR  34.040 1.00 S
HSH  21.550 1.00 P
NAX  42.160 1.00 S
GLBA 26.630 1.00 P
ASTR 27.540 1.00 P
BRDA 32.980 1.00 P
BRDA 57.530 1.00 S
MAKU 60.220 1.00 S
ZRD  34.490 1.00 P
ZRD  60.150 1.00 S
GNI  40.610 1.00 P
GNI  70.740 1.00 S
VANB 45.230 1.00 P
# 2012 08 12 20 11 02.200000 38.428 46.686  12.7  1.9 0.0 0.0 0.0        76
TVRZ  2.330 1.00 Pg
TVRZ  4.640 1.00 Sg
HRS   5.860 1.00 Pg
HRS  11.210 1.00 Sg
TBZ   8.400 1.00 Pg
TBZ  15.020 1.00 Sg
TABZ  9.470 1.00 P
TABZ 16.570 1.00 S
FTB   9.550 1.00 P
FTB  16.720 1.00 S
ORD  24.630 1.00 S
BST  25.360 1.00 S
MRD  14.820 1.00 Pg
MRD  27.420 1.00 Sg
SHB  16.080 1.00 Pg
SHB  29.040 1.00 Sg
AZR  18.000 1.00 P
NAX  22.420 1.00 P
SBZ  24.450 1.00 P
LRK  24.440 1.00 P
LRK  42.770 1.00 S
GLBA 28.580 1.00 P
ASTR 30.250 1.00 P
ASTR 52.940 1.00 S
LKRN 30.400 1.00 P
MAKU 33.120 1.00 P
MAKU 57.930 1.00 S
BRDA 33.620 1.00 P
SAAT 35.200 1.00 P
ZNJK 40.930 1.00 P
ZNJK 71.300 1.00 S
VANB 43.770 1.00 P
# 2012 08 12 21 26 31.800000 38.393 46.677  10.1  2.2 0.0 0.0 0.0        77
TVRZ  2.650 1.00 Pg
TVRZ  4.940 1.00 Sg
HRS   5.980 1.00 Pg
HRS  10.360 1.00 S
TABZ 14.480 1.00 S
FTB   8.340 1.00 P
TBZ   8.110 1.00 Pg
TBZ  14.870 1.00 S
MRD  15.330 1.00 Pg
SHB  16.470 1.00 Pg
SHB  27.680 1.00 S
AZR  16.780 1.00 P
SRB  17.970 1.00 P
SRB  31.450 1.00 S
GRMI 34.440 1.00 S
HSH  22.020 1.00 P
SBZ  25.140 1.00 P
SBZ  43.990 1.00 S
GLBA 29.530 1.00 P
GLBA 51.670 1.00 S
LKRN 30.960 1.00 P
MAKU 33.590 1.00 P
MAKU 58.750 1.00 S
BRDA 34.770 1.00 P
SAAT 63.100 1.00 S
ZRD  36.630 1.00 P
ZRD  63.870 1.00 S
GANJ 39.700 1.00 P
GANJ 69.190 1.00 S
GNI  40.380 1.00 P
ZNJK 40.850 1.00 P
VANB 43.970 1.00 P
VANB 76.580 1.00 S
# 2012 08 12 21 33 17.800000 38.457 46.805   5.8  3.1 0.0 0.0 0.0        78
TVRZ  2.670 1.00 P
TVRZ  4.680 1.00 S
HRS   4.570 1.00 Pg
HRS   8.090 1.00 Sg
FTB  10.190 1.00 P
TBZ  10.450 1.00 Pg
BST  14.220 1.00 P
BST  24.880 1.00 S
MRD  16.440 1.00 Pg
GRMI 17.550 1.00 Pg
SRB  17.600 1.00 P
SRB  30.800 1.00 S
SHB  17.550 1.00 Pg
SHB  31.410 1.00 Sg
AZR  18.840 1.00 Pg
AZR  32.790 1.00 S
HSH  22.580 1.00 P
HSH  39.520 1.00 S
LRK  22.880 1.00 P
LRK  40.040 1.00 S
NAX  41.070 1.00 S
SBZ  25.470 1.00 P
GLBA 27.540 1.00 P
ASTR 50.990 1.00 S
LKRN 51.290 1.00 S
BRDA 58.880 1.00 S
MAKU 33.500 1.00 Pn
SAAT 61.090 1.00 S
ZRD  35.670 1.00 P
ZRD  62.320 1.00 S
GANJ 39.480 1.00 P
ZNJK 39.790 1.00 Pn
VANB 45.650 1.00 P
# 2012 08 12 22 01 15.900000 38.438 46.708  14.7  2.4 0.0 0.0 0.0        79
TVRZ  2.660 1.00 Pg
TVRZ  5.060 1.00 Sg
TAHR  5.690 1.00 P
HRS   5.930 1.00 Pg
HRS  10.870 1.00 Sg
TBZ   8.850 1.00 Pg
TBZ  16.170 1.00 Sg
TABZ  9.990 1.00 P
TABZ 17.490 1.00 S
FTB  17.570 1.00 S
BST  14.770 1.00 P
MRD  15.450 1.00 Pg
MRD  27.810 1.00 Sg
SHB  16.590 1.00 Pg
SHB  29.170 1.00 Sg
SRB  18.430 1.00 P
GRMI 18.680 1.00 P
NAX  22.380 1.00 P
NAX  39.160 1.00 S
HSH  22.810 1.00 P
LRK  23.800 1.00 P
LRK  41.650 1.00 S
ASTR 29.660 1.00 P
LKRN 52.080 1.00 S
BRDA 33.130 1.00 P
BRDA 57.820 1.00 S
SAAT 34.400 1.00 P
ZRD  34.890 1.00 P
GANJ 66.550 1.00 S
GNI  39.310 1.00 P
GNI  68.490 1.00 S
ZNJK 40.470 1.00 P
# 2012 08 12 22 05 43.000000 38.429 46.803  16.5  2.2 0.0 0.0 0.0        80
TVRZ  3.630 1.00 Pg
TVRZ  6.630 1.00 Sg
TAHR  5.200 1.00 P
HRS   4.740 1.00 Pg
HRS   8.570 1.00 Sg
FTB  18.590 1.00 S
TABZ 11.100 1.00 Pg
TABZ 18.660 1.00 S
TBZ  10.330 1.00 Pg
TBZ  18.250 1.00 Sg
BST  14.340 1.00 P
ORD  15.270 1.00 P
ORD  26.720 1.00 S
SRB  17.490 1.00 P
MRD  17.050 1.00 Pg
MRD  29.850 1.00 Sg
GRMI 31.500 1.00 S
SHB  17.770 1.00 Pg
SHB  30.470 1.00 Sg
HSH  22.170 1.00 P
LRK  22.890 1.00 P
SBZ  43.670 1.00 S
ASTR 28.630 1.00 P
LKRN 28.860 1.00 P
LKRN 50.500 1.00 S
BRDA 32.910 1.00 P
MAKU 33.620 1.00 P
MAKU 58.640 1.00 S
SAAT 33.950 1.00 P
ZNJK 39.710 1.00 P
GNI  39.780 1.00 P
GNI  69.300 1.00 S
# 2012 08 12 22 45 49.200000 38.428 46.729  15.8  1.9 0.0 0.0 0.0        81
TVRZ  2.900 1.00 Pg
TVRZ  5.400 1.00 Sg
TAHR  6.040 1.00 P
HRS   5.710 1.00 Pg
HRS  10.670 1.00 Sg
TABZ  9.920 1.00 P
FTB   9.990 1.00 P
FTB  17.490 1.00 S
TBZ   8.950 1.00 Pg
TBZ  16.510 1.00 Sg
ORD  14.500 1.00 P
MRD  15.410 1.00 Pg
MRD  28.990 1.00 Sg
SHB  16.610 1.00 Pg
SHB  29.950 1.00 Sg
AZR  17.700 1.00 Pg
GRMI 33.200 1.00 S
HSH  39.450 1.00 S
LRK  23.990 1.00 P
SBZ  24.310 1.00 P
SBZ  42.540 1.00 S
ASTR 29.770 1.00 P
ASTR 52.100 1.00 S
LKRN 29.960 1.00 P
ZRD  34.960 1.00 P
ZRD  60.970 1.00 S
GANJ 38.290 1.00 P
GANJ 66.720 1.00 S
GNI  39.290 1.00 P
ZNJK 40.330 1.00 P
ZNJK 70.260 1.00 S
VANB 43.660 1.00 P
# 2012 08 12 22 57 07.600000 38.486 46.901  19.6  2.8 0.0 0.0 0.0        82
TAHR  4.210 1.00 P
TVRZ  5.250 1.00 Pg
TVRZ  8.600 1.00 Sg
HRS   4.950 1.00 Pg
HRS   8.350 1.00 Sg
FTB  12.280 1.00 P
FTB  21.490 1.00 S
TABZ 12.420 1.00 Pg
TABZ 21.340 1.00 Sg
TBZ  12.270 1.00 Pg
TBZ  20.910 1.00 Sg
BST  15.060 1.00 P
ORD  16.100 1.00 P
ORD  28.180 1.00 S
MRD  18.190 1.00 Pg
MRD  31.090 1.00 Sg
SHB  19.670 1.00 Pg
SHB  33.790 1.00 Sg
HSH  22.580 1.00 P
HSH  39.520 1.00 S
NAX  41.910 1.00 S
SBZ  25.480 1.00 P
SBZ  44.600 1.00 S
ASTR 26.830 1.00 P
LKRN 47.070 1.00 S
BRDA 31.620 1.00 P
BRDA 55.170 1.00 S
SAAT 32.110 1.00 P
SAAT 56.030 1.00 S
ZRD  33.090 1.00 P
MAKU 34.150 1.00 P
ZNJK 39.180 1.00 P
GNI  39.830 1.00 P
# 2012 08 12 23 02 03.900000 38.388 46.846  19.9  2.7 0.0 0.0 0.0        83
HRS   4.810 1.00 Pg
HRS   8.560 1.00 Sg
TVRZ  4.340 1.00 Pg
TVRZ  7.870 1.00 Sg
FTB  18.000 1.00 S
TABZ 10.550 1.00 Pg
TABZ 18.790 1.00 Sg
TBZ  10.470 1.00 Pg
TBZ  18.850 1.00 Sg
SRB  15.840 1.00 P
GRMI 17.250 1.00 P
MRD  17.370 1.00 Pg
MRD  32.950 1.00 Sg
SHB  17.930 1.00 Pg
SHB  32.230 1.00 Sg
AZR  18.220 1.00 Pg
AZR  31.860 1.00 Sg
HSH  20.670 1.00 P
HSH  36.170 1.00 S
LRK  21.940 1.00 P
NAX  24.320 1.00 P
GLBA 46.850 1.00 S
ASTR 27.650 1.00 P
ASTR 48.380 1.00 S
BRDA 33.370 1.00 P
BRDA 58.180 1.00 S
SAAT 33.680 1.00 P
MAKU 34.320 1.00 P
ZRD  34.830 1.00 P
ZNJK 66.330 1.00 S
GANJ 38.950 1.00 P
GNI  70.620 1.00 S
VANB 44.920 1.00 P
# 2012 08 12 23 16 13.100000 38.392 46.682  11.2  1.8 0.0 0.0 0.0        84
TVRZ  2.460 1.00 Pg
TVRZ  5.110 1.00 Sg
HRS   5.740 1.00 Pg
HRS  10.820 1.00 Sg
FTB   8.430 1.00 P
FTB  14.750 1.00 S
TBZ   8.200 1.00 Pg
TBZ  15.240 1.00 Sg
BST  13.380 1.00 P
MRD  15.190 1.00 Pg
MRD  28.230 1.00 Sg
SHB  15.790 1.00 Pg
AZR  29.570 1.00 S
SRB  17.940 1.00 P
GRMI 19.660 1.00 P
GRMI 34.400 1.00 S
HSH  22.030 1.00 P
NAX  22.970 1.00 P
LRK  24.800 1.00 P
LRK  43.390 1.00 S
SBZ  25.210 1.00 P
GLBA 51.340 1.00 S
ASTR 30.530 1.00 P
ASTR 53.420 1.00 S
MAKU 33.590 1.00 P
BRDA 34.640 1.00 P
BRDA 60.440 1.00 S
SAAT 62.740 1.00 S
ZRD  36.470 1.00 P
GANJ 68.970 1.00 S
ZNJK 40.560 1.00 P
ZNJK 70.680 1.00 S
VANB 43.970 1.00 P
