 2001  2 3 0048 59.8 L  33.803  52.573 15.9  New 12 0.4 1.6LNew                1
 GAP=143        1.12       2.2     1.7  4.1  0.1657E+00 -0.1503E+01 -0.7499E+00E
 Action:ARG 24-03-13 14:54 OP:OBSP STATUS:               ID:20010203004900     I
 STAT SP IPHASW D HRMM SECON CODA AMPLIT PERI AZIMU VELO AIN AR TRES W  DIS CAZ7
 LUEX    IP   0A   049 13.39                              73    0.1110 56.5 278 
 LUEX     IAML A   049 13.39        38.9                               56.5 278 
 LUEX    ES   0A   049 23.43                              73    0.6110 56.5 278 
 XBVK     IAML A   049 13.82        36.8                               59.2  10 
 XBVK    IP   0A   049 13.82                              73    0.0110 59.2  10 
 XBVK    ES   0A   049 24.19                              73    0.4610 59.2  10 
 CBZA    IP   0A   049 16.89                              56   -0.0710 76.3 254 
 CBZA    ES   0A   049 29.56                              56    0.4510 76.3 254 
 DNOA    IP   0A   049 20.21                              53    0.0510 96.1  53 
 DNOA    ES   0A   049 35.37                              53    0.7810 96.1  53 
 DQYH    IP   0A   049 20.88                              53   -0.1410  101 321 
 DQYH     IAML A   049 20.88        16.8                                101 321 
 DQYH    ES   0A   049 36.54                              53    0.4810  101 321 
 FOUH    IP   0A   049 21.97                              53   -0.3110  109  10 
 FOUH    ES   0A   049 38.45                              53    0.2510  109  10 
 MGUS     IAML A   049 22.06        14.6                                110  91 
 MGUS    IP   0A   049 22.06                              53   -0.3610  110  91 
 MGUS    ES   0A   049 38.61                              53    0.1610  110  91 
 APSL    IP   0A   049 23.12                              53   -0.2710  116  71 
 APSL    ES   0A   049 40.47                              53    0.3610  116  71 
 RAWC     IAML A   049 23.36        13.0                                118 110 
 RAWC    IP   0A   049 23.36                              44   -0.3410  118 110 
 RAWC    ES   0A   049 40.89                              44    0.2510  118 110 
 RPKV    IP   0A   049 30.56                              41   -0.37 9  173 336 
 RPKV    ES   0A   049 52.81                              41   -0.20 9  173 336 
 QYDI    IP   0A   049 31.01                              41   -0.72 8  179 353 
 QYDI    ES   0A   049 53.59                              41   -0.78 8  179 353 
 HLUH    IP   0A   049 31.83                              41   -0.76 8  186 329 
 HLUH    ES   0A   049 55.11                              41   -0.74 8  186 329 
                                                                                
 2001  2 3 0050  9.5 L  33.409  52.849 30.2  New 10 0.5 1.9LNew                1
 GAP=219        1.03       4.1     3.2  4.8  0.6783E+00 -0.2533E+01 -0.1073E+01E
 Action:ARG 24-03-13 14:54 OP:OBSP STATUS:               ID:20010203005010     I
 STAT SP IPHASW D HRMM SECON CODA AMPLIT PERI AZIMU VELO AIN AR TRES W  DIS CAZ7
 RHPW    IP   0A   050 26.58                              94   -0.0310 82.0   1 
 RHPW    ES   0A   050 39.01                              94    0.2110 82.0   1 
 MGUS    IP   0A   050 28.27                              60   -0.1710 94.4  64 
 MGUS    ES   0A   050 41.98                              60    0.0610 94.4  64 
 CBZA    IP   0A   050 29.77                              60    0.3610  101 283 
 CBZA     IAML A   050 29.77        35.2                                101 283 
 DNOA     IAML A   050 30.95        31.4                                114  27 
 DNOA    IP   0A   050 30.95                              55   -0.1010  114  27 
 DNOA    ES   0A   050 46.65                              55    0.2710  114  27 
 APSL    IP   0A   050 31.41                              55   -0.1110  117  46 
 APSL    ES   0A   050 47.47                              55    0.2810  117  46 
 FOUH    IP   0A   050 35.86                              55   -0.15 9  151 358 
 FOUH     IAML A   050 35.86        19.1                                151 358 
 FOUH    ES   0A   050 55.17                              55    0.31 9  151 358 
 DQYH    IP   0A   050 36.23                              55    0.20 9  152 324 
 DQYH    ES   0A   050 55.55                              55    0.64 9  152 324 
 VOCA    IP   0A   050 36.01                              55   -0.21 9  153  23 
 VOCA    ES   0A   050 55.32                              55    0.09 9  153  23 
 RPKV    IP   0A   050 45.20                              55   -0.29 7  223 334 
 RPKV    ES   0A   051 10.02                              55   -1.06 7  223 334 
 QYDI    IP   0A   050 45.35                              55   -0.55 7  227 348 
 QYDI    ES   0A   051 10.22                              55   -1.56 7  227 348 
                                                                                
 2001  2 3 0051 19.8 L  33.634  52.579 18.2  New 10 0.4 0.9LNew                1
 GAP=194        1.08       3.3     2.2  5.7  0.1342E+01 -0.4533E+00 -0.7944E+01E
 Action:ARG 24-03-13 14:54 OP:OBSP STATUS:               ID:20010203005120     I
 STAT SP IPHASW D HRMM SECON CODA AMPLIT PERI AZIMU VELO AIN AR TRES W  DIS CAZ7
 LUEX    IP   0A   051 34.41                              64    0.0610 62.5 295 
 LUEX     IAML A   051 34.41         8.1                               62.5 295 
 LUEX    ES   0A   051 45.21                              64    0.5310 62.5 295 
 RHPW    IP   0A   051 34.40                              64   -0.0210 62.9  25 
 RHPW    ES   0A   051 45.21                              64    0.4010 62.9  25 
 XBVK    IP   0A   051 36.77                              58   -0.1310 77.7   8 
 XBVK    ES   0A   051 49.34                              58    0.3010 77.7   8 
 AVTK    IP   0A   051 37.17                              57   -0.0410 79.6 306 
 AVTK    ES   0A   051 50.04                              57    0.4710 79.6 306 
 DNOA    IP   0A   051 41.51                              57   -0.2910  108  45 
 DNOA    ES   0A   051 57.64                              57    0.2110  108  45 
 RAWC    IP   0A   051 42.40                              57   -0.1110  113 102 
 RAWC    ES   0A   051 59.20                              57    0.5610  113 102 
 DQYH    IP   0A   051 42.93                              46   -0.2110  117 326 
 DQYH    ES   0A   052  0.12                              46    0.4010  117 326 
 FOUH    IP   0A   051 44.16                              43   -0.4210  128   8 
 FOUH     IAML A   051 44.16         2.8                                128   8 
 FOUH    ES   0A   052  2.27                              43    0.0910  128   8 
 QYDI    IP   0A   051 53.10                              43   -0.72 8  198 353 
 QYDI    ES   0A   052 16.99                              43   -0.99 8  198 353 
 HLUH    IP   0A   051 53.80                              43   -0.59 8  202 331 
 HLUH     IAML A   051 53.80         1.2                                202 331 
 HLUH    ES   0A   052 18.14                              43   -0.82 8  202 331 
                                                                                
 2001  2 3 0052 29.7 L  33.978  52.695 19.5  New 13 0.3 2.9LNew                1
 GAP=142        0.87       1.7     1.4  2.1 -0.3178E+00  0.7796E+00  0.2733E+00E
 Action:ARG 24-03-13 14:54 OP:OBSP STATUS:               ID:20010203005230     I
 STAT SP IPHASW D HRMM SECON CODA AMPLIT PERI AZIMU VELO AIN AR TRES W  DIS CAZ7
 RHPW    IP   0A   052 37.16                             114    0.0610 24.5  40 
 RHPW    ES   0A   052 42.54                             114    0.1810 24.5  40 
 XBVK    IP   0A   052 39.66                             100   -0.0710 38.8 359 
 XBVK     IAML A   052 39.66      1241.9                               38.8 359 
 LUEX    IP   0A   052 45.08                              60    0.0210 68.1 260 
 AVTK    IP   0A   052 46.34                              58   -0.0010 75.8 276 
 AVTK    ES   0A   052 58.59                              58    0.4210 75.8 276 
 FOUH    IP   0A   052 48.29                              57   -0.0910 88.5   5 
 FOUH    ES   0A   053  2.01                              57    0.3510 88.5   5 
 CBZA    IP   0A   052 48.95                              57   -0.2810 93.8 244 
 CBZA    ES   0A   053  3.16                              57    0.0410 93.8 244 
 DQYH    IP   0A   052 49.71                              57    0.1410 95.9 308 
 DQYH     IAML A   052 49.71       356.0                               95.9 308 
 DQYH    ES   0A   053  4.48                              57    0.7810 95.9 308 
 APSL     IAML A   052 50.16       325.2                                100  79 
 APSL    IP   0A   052 50.16                              57   -0.1110  100  79 
 APSL    ES   0A   053  5.28                              57    0.3910  100  79 
 MGUS    IP   0A   052 50.26                              57   -0.1410  101 102 
 MGUS    ES   0A   053  5.46                              57    0.3410  101 102 
 VOCA     IAML A   052 51.00       294.6                                107  43 
 VOCA    IP   0A   052 51.00                              57   -0.3910  107  43 
 VOCA    ES   0A   053  6.76                              57   -0.0410  107  43 
 RPKV     IAML A   052 58.52       150.1                                161 329 
 RPKV    IP   0A   052 58.52                              43   -0.15 9  161 329 
 RPKV    ES   0A   053 19.35                              43    0.10 9  161 329 
 QYDI     IAML A   052 58.27       148.3                                162 348 
 QYDI    IP   0A   052 58.27                              43   -0.51 9  162 348 
 QYDI    ES   0A   053 19.05                              43   -0.38 9  162 348 
 HLUH    IP   0A   053  0.09                              43   -0.55 8  176 322 
 HLUH     IAML A   053  0.09       127.4                                176 322 
 HLUH    ES   0A   053 22.01                              43   -0.61 8  176 322 
                                                                                
 2001  2 3 0053 39.9 L  33.684  52.776 28.6  New 11 0.4 2.3LNew                1
 GAP=203        1.07       3.4     2.0  3.7  0.3097E+00  0.1600E+00 -0.2882E+00E
 Action:ARG 24-03-13 14:54 OP:OBSP STATUS:               ID:20010203005340     I
 STAT SP IPHASW D HRMM SECON CODA AMPLIT PERI AZIMU VELO AIN AR TRES W  DIS CAZ7
 RHPW    IP   0A   053 52.08                              97   -0.1610 52.1   9 
 RHPW    ES   0A   054  1.15                              97    0.1510 52.1   9 
 XBVK    IP   0A   053 55.09                              93   -0.3210 71.9 354 
 XBVK    ES   0A   054  6.41                              93   -0.0210 71.9 354 
 LUEX    IP   0A   053 56.28                              92   -0.0710 77.7 286 
 LUEX     IAML A   053 56.28       143.6                               77.7 286 
 LUEX    ES   0A   054  8.50                              92    0.4710 77.7 286 
 DNOA    IP   0A   053 58.41                              92   -0.1910 91.7  39 
 DNOA    ES   0A   054 12.22                              92    0.3310 91.7  39 
 MGUS    IP   0A   053 58.46                              92   -0.1910 92.0  83 
 MGUS    ES   0A   054 12.31                              92    0.3510 92.0  83 
 AVTK    IP   0A   053 58.47                              92   -0.2610 92.5 296 
 AVTK     IAML A   053 58.47       111.5                               92.5 296 
 AVTK    ES   0A   054 12.31                              92    0.2010 92.5 296 
 APSL     IAML A   054  0.25        94.8                                104  61 
 APSL    IP   0A   054  0.25                              60   -0.1410  104  61 
 APSL    ES   0A   054 15.44                              60    0.5010  104  61 
 DQYH    IP   0A   054  3.05                              55    0.1110  124 318 
 DQYH    ES   0A   054 20.33                              55    1.0210  124 318 
 VOCA    IP   0A   054  3.34                              55   -0.2710  129  31 
 QYDI    IP   0A   054 11.87                              55   -0.50 8  195 348 
 QYDI    ES   0A   054 34.79                              55   -0.65 8  195 348 
 HLUH    IP   0A   054 13.27                              55   -0.63 7  207 326 
 HLUH    ES   0A   054 37.17                              55   -0.88 7  207 326 
                                                                                
 2001  2 3 0054 49.5 L  33.719  52.554 12.8  New 13 0.5 0.7LNew                1
 GAP=155        1.19       2.5     1.9  3.9 -0.4073E+00 -0.1363E+01 -0.2360E+01E
 Action:ARG 24-03-13 14:54 OP:OBSP STATUS:               ID:20010203005450     I
 STAT SP IPHASW D HRMM SECON CODA AMPLIT PERI AZIMU VELO AIN AR TRES W  DIS CAZ7
 RHPW    IP   0A   055  3.32                              52    0.3410 55.6  31 
 RHPW     IAML A   055  3.32         6.0                               55.6  31 
 RHPW    ES   0A   055 13.31                              52    0.7210 55.6  31 
 LUEX    IP   0A   055  3.51                              52    0.2910 56.9 288 
 LUEX    ES   0A   055 13.65                              52    0.6510 56.9 288 
 XBVK    IP   0A   055  5.60                              52    0.1010 68.7  10 
 XBVK    ES   0A   055 17.30                              52    0.4010 68.7  10 
 AVTK    IP   0A   055  6.20                              52   -0.0410 72.5 301 
 CBZA    IP   0A   055  6.26                              52    0.0210 72.5 261 
 CBZA    ES   0A   055 18.45                              52    0.2910 72.5 261 
 AVTK     IAML A   055  6.20         4.2                               72.5 301 
 DNOA    IP   0A   055 11.37                              41    0.0110  103  49 
 DNOA    ES   0A   055 27.40                              41    0.4910  103  49 
 DQYH    IP   0A   055 11.97                              41   -0.1010  108 324 
 DQYH    ES   0A   055 28.45                              41    0.3210  108 324 
 RAWC     IAML A   055 13.39         1.9                                117 106 
 RAWC    IP   0A   055 13.39                              41   -0.1610  117 106 
 RAWC    ES   0A   055 30.94                              41    0.2710  117 106 
 FOUH    IP   0A   055 13.33                              41   -0.5010  119  10 
 FOUH    ES   0A   055 30.83                              41   -0.3210  119  10 
 APSL     IAML A   055 13.91         1.8                                121  67 
 APSL    IP   0A   055 13.91                              35   -0.3010  121  67 
 APSL    ES   0A   055 31.84                              35    0.0510  121  67 
 RPKV    IP   0A   055 21.68                              33   -0.41 8  181 337 
 RPKV    ES   0A   055 44.70                              33   -0.56 8  181 337 
 QYDI    IP   0A   055 22.21                              33   -0.84 8  188 354 
 QYDI    ES   0A   055 45.62                              33   -1.28 8  188 354 
 HLUH    IP   0A   055 22.88                              33   -0.78 8  193 331 
                                                                                
 2001  2 3 0055 59.7 L  33.691  52.568 18.9  New 10 0.3 3.2LNew                1
 GAP=206        0.84       2.8     1.5  2.6  0.6277E+00  0.1463E+00  0.2217E+00E
 Action:ARG 24-03-13 14:54 OP:OBSP STATUS:               ID:20010203005600     I
 STAT SP IPHASW D HRMM SECON CODA AMPLIT PERI AZIMU VELO AIN AR TRES W  DIS CAZ7
 RHPW    IP   0A   056 13.25                              94   -0.0510 57.7  28 
 RHPW    ES   0A   056 23.19                              94    0.2010 57.7  28 
 LUEX    IP   0A   056 13.63                              64    0.0710 59.1 290 
 LUEX    ES   0A   056 23.85                              64    0.4110 59.1 290 
 AVTK    IP   0A   056 16.27                              58   -0.0210 75.2 302 
 AVTK    ES   0A   056 28.47                              58    0.3810 75.2 302 
 MGUS     IAML A   056 21.92       651.9                                111  84 
 MGUS    IP   0A   056 21.92                              57   -0.1510  111  84 
 MGUS    ES   0A   056 38.35                              57    0.3610  111  84 
 DQYH    IP   0A   056 21.90                              57   -0.1610  111 325 
 DQYH    ES   0A   056 38.32                              57    0.3610  111 325 
 APSL    IP   0A   056 23.41                              43   -0.0910  121  65 
 APSL     IAML A   056 23.41       571.4                                121  65 
 APSL    ES   0A   056 40.97                              43    0.5410  121  65 
 FOUH    IP   0A   056 23.10                              43   -0.4410  122   9 
 FOUH    ES   0A   056 40.43                              43   -0.0710  122   9 
 VOCA    IP   0A   056 25.44                              43   -0.4110  139  38 
 VOCA    ES   0A   056 44.53                              43    0.0910  139  38 
 RPKV    IP   0A   056 31.55                              43   -0.25 8  184 337 
 RPKV    ES   0A   056 54.41                              43   -0.20 8  184 337 
 HLUH    IP   0A   056 32.78                              43   -0.58 8  196 331 
 HLUH     IAML A   056 32.78       246.4                                196 331 
 HLUH    ES   0A   056 56.65                              43   -0.64 8  196 331 
                                                                                
