 2001  2 2 2359 59.1 L  33.829  52.577 17.6  New 10 0.2 4.1LNew                1
 GAP=216        0.54       1.4     1.6  1.6  0.1114E+01  0.7503E+00  0.9314E+00E
 Action:ARG 24-03-13 14:54 OP:OBSP STATUS:               ID:20010203000000     I
 STAT SP IPHASW D HRMM SECON CODA AMPLIT PERI AZIMU VELO AIN AR TRES W  DIS CAZ7
 RHPW    IP   0A  24 0 10.20                              92    0.0210 44.2  37 
 RHPW    ES   0A  24 0 17.85                              92   -0.1710 44.2  37 
 XBVK    IP   0A  24 0 12.61                              91    0.1210 56.3  11 
 XBVK    ES   0A  24 0 22.07                              91    0.0910 56.3  11 
 DNOA    IP   0A  24 0 18.95                              57    0.0210 94.1  54 
 DNOA    ES   0A  24 0 33.17                              57    0.1810 94.1  54 
 FOUH    IP   0A  24 0 20.94                              57    0.0410  106  10 
 FOUH    ES   0A  24 0 36.65                              57    0.3010  106  10 
 MGUS     IAML A  24 0 21.32      5378.1                                110  92 
 MGUS    IP   0A  24 0 21.32                              57   -0.1410  110  92 
 MGUS    ES   0A  24 0 37.32                              57    0.0010  110  92 
 RAWC    IP   0A  24 0 22.82                              43   -0.0210  119 112 
 RAWC     IAML A  24 0 22.82      4652.2                                119 112 
 RAWC    ES   0A  24 0 39.93                              43    0.2610  119 112 
 VOCA    IP   0A  24 0 23.54                              43   -0.3210  127  42 
 VOCA     IAML A  24 0 23.54      4287.1                                127  42 
 VOCA    ES   0A  24 0 41.20                              43   -0.2210  127  42 
 RPKV    IP   0A  24 0 29.90                              43    0.26 9  171 335 
 RPKV     IAML A  24 0 29.90      2434.7                                171 335 
 RPKV    ES   0A  24 0 51.61                              43    0.31 9  171 335 
 QYDI    IP   0A  24 0 30.17                              43   -0.22 8  176 352 
 QYDI    ES   0A  24 0 52.17                              43   -0.42 8  176 352 
 HLUH     IAML A  24 0 31.28      2113.4                                183 328 
 HLUH    IP   0A  24 0 31.28                              43   -0.05 8  183 328 
 HLUH    ES   0A  24 0 54.04                              43   -0.15 8  183 328 
                                                                                
 2001  2 3 0001  9.5 L  33.503  52.682 17.8  New 11 0.5 2.2LNew                1
 GAP=184        1.17       4.5     2.3  6.8  0.1439E+01  0.3166E+00 -0.1579E+02E
 Action:ARG 24-03-13 14:54 OP:OBSP STATUS:               ID:20010203000110     I
 STAT SP IPHASW D HRMM SECON CODA AMPLIT PERI AZIMU VELO AIN AR TRES W  DIS CAZ7
 LUEX    IP   0A   0 1 26.88                              58    0.2310 77.8 302 
 LUEX    ES   0A   0 1 39.54                              58    0.7010 77.8 302 
 CBZA     IAML A   0 1 27.48       108.4                               84.3 278 
 CBZA    IP   0A   0 1 27.48                              57   -0.2110 84.3 278 
 CBZA    ES   0A   0 1 40.60                              57   -0.0210 84.3 278 
 XBVK    IP   0A   0 1 28.88                              57    0.0310 91.5   0 
 XBVK     IAML A   0 1 28.88        90.0                               91.5   0 
 AVTK    IP   0A   0 1 29.59                              57    0.0110 96.0 309 
 AVTK    ES   0A   0 1 44.28                              57    0.4310 96.0 309 
 RAWC    IP   0A   0 1 30.33                              57   -0.0510  101  95 
 RAWC    ES   0A   0 1 45.58                              57    0.3610  101  95 
 DNOA    IP   0A   0 1 32.27                              57   -0.0410  113  36 
 DNOA    ES   0A   0 1 48.96                              57    0.4410  113  36 
 DQYH    IP   0A   0 1 35.16                              43   -0.0210  134 326 
 DQYH    ES   0A   0 1 53.89                              43    0.4610  134 326 
 FOUH    IP   0A   0 1 35.91                              43   -0.1910  141   4 
 FOUH    ES   0A   0 1 55.15                              43    0.1610  141   4 
 VOCA    IP   0A   0 1 36.94                              43   -0.40 9  151  30 
 VOCA     IAML A   0 1 36.94        40.9                                151  30 
 RPKV    IP   0A   0 1 44.43                              43   -0.42 7  208 337 
 RPKV     IAML A   0 1 44.43        22.6                                208 337 
 RPKV    ES   0A   0 2  8.88                              43   -1.08 7  208 337 
 HLUH    IP   0A   0 1 45.66                              43   -0.76 7  219 331 
 HLUH     IAML A   0 1 45.66        20.2                                219 331 
 HLUH    ES   0A   0 2 11.06                              43   -1.58 7  219 331 
                                                                                
 2001  2 3 0002 19.5 L  33.874  52.880 24.8  New 10 0.3 4.3LNew                1
 GAP=133        0.88       2.3     1.6  5.8 -0.6812E+00  0.4168E+01 -0.6105E+01E
 Action:ARG 24-03-13 14:54 OP:OBSP STATUS:               ID:20010203000220     I
 STAT SP IPHASW D HRMM SECON CODA AMPLIT PERI AZIMU VELO AIN AR TRES W  DIS CAZ7
 DNOA    IP   0A   0 2 34.89                              72    0.1310 69.5  44 
 DNOA     IAML A   0 2 34.89     15103.7                               69.5  44 
 DNOA    ES   0A   0 2 46.05                              72    0.4910 69.5  44 
 MGUS    IP   0A   0 2 36.74                              72   -0.0710 82.3  97 
 MGUS    ES   0A   0 2 49.29                              72    0.2210 82.3  97 
 LUEX    IP   0A   0 2 37.16                              72    0.0310 84.2 270 
 LUEX    ES   0A   0 2 50.03                              72    0.4210 84.2 270 
 APSL     IAML A   0 2 37.48     11012.6                               86.8  70 
 APSL    IP   0A   0 2 37.48                              72   -0.0510 86.8  70 
 APSL    ES   0A   0 2 50.59                              72    0.2810 86.8  70 
 RAWC    IP   0A   0 2 38.69                              72   -0.3410 96.0 121 
 RAWC    ES   0A   0 2 52.71                              72   -0.1510 96.0 121 
 CBZA     IAML A   0 2 40.43      8038.6                                106 254 
 VOCA     IAML A   0 2 40.33      8075.8                                106  32 
 VOCA    IP   0A   0 2 40.33                              55   -0.2410  106  32 
 CBZA    IP   0A   0 2 40.43                              55   -0.1310  106 254 
 CBZA    ES   0A   0 2 55.75                              55    0.2610  106 254 
 VOCA    ES   0A   0 2 55.58                              55    0.0910  106  32 
 DQYH    IP   0A   0 2 42.01                              51    0.0110  116 307 
 DQYH     IAML A   0 2 42.01      6871.0                                116 307 
 DQYH    ES   0A   0 2 58.51                              51    0.5510  116 307 
 QYDI    IP   0A   0 2 49.51                              51   -0.50 8  177 343 
 QYDI    ES   0A   0 3 11.17                              51   -0.47 8  177 343 
 HLUH     IAML A   0 2 51.91      2744.3                                196 321 
 HLUH    IP   0A   0 2 51.91                              51   -0.53 8  196 321 
 HLUH    ES   0A   0 3 15.00                              51   -0.79 8  196 321 
                                                                                
 2001  2 3 0003 29.6 L  34.006  52.535 13.8  New 12 0.4 1.1LNew                1
 GAP=135        0.98       2.6     1.6  3.4  0.8005E+00 -0.1046E+01 -0.3033E+01E
 Action:ARG 24-03-13 14:54 OP:OBSP STATUS:               ID:20010203000330     I
 STAT SP IPHASW D HRMM SECON CODA AMPLIT PERI AZIMU VELO AIN AR TRES W  DIS CAZ7
 RHPW    IP   0A   0 3 39.15                              77    0.3410 34.3  63 
 LUEX     IAML A   0 3 43.00        13.0                               54.3 255 
 LUEX    IP   0A   0 3 43.00                              65    0.2010 54.3 255 
 AVTK     IAML A   0 3 44.05        11.0                               60.9 275 
 AVTK    IP   0A   0 3 44.05                              65   -0.0110 60.9 275 
 AVTK    ES   0A   0 3 54.59                              65    0.2810 60.9 275 
 DQYH     IAML A   0 3 48.19         7.1                               82.7 312 
 DQYH    IP   0A   0 3 48.19                              50    0.1610 82.7 312 
 DQYH    ES   0A   0 4  1.83                              50    0.7210 82.7 312 
 DNOA    IP   0A   0 3 48.94                              49    0.1010 87.6  66 
 DNOA    ES   0A   0 4  3.14                              49    0.6510 87.6  66 
 FOUH    IP   0A   0 3 49.04                              49    0.1510 88.0  15 
 APSL    IP   0A   0 3 52.83                              49   -0.3010  114  82 
 APSL    ES   0A   0 4  9.95                              49    0.1310  114  82 
 VOCA    IP   0A   0 3 53.01                              49   -0.3510  116  49 
 VOCA    ES   0A   0 4 10.27                              49    0.0510  116  49 
 RAWC    IP   0A   0 3 55.12                              38   -0.3710  131 119 
 RAWC     IAML A   0 3 55.12         3.5                                131 119 
 RAWC    ES   0A   0 4 13.96                              38    0.1110  131 119 
 RPKV    IP   0A   0 3 57.87                              38   -0.29 9  151 333 
 RPKV    ES   0A   0 4 18.51                              38    0.08 9  151 333 
 QYDI    IP   0A   0 3 58.27                              38   -0.57 9  156 353 
 QYDI    ES   0A   0 4 19.33                              38   -0.25 9  156 353 
 HLUH    IP   0A   0 3 59.24                              38   -0.72 9  165 326 
 HLUH     IAML A   0 3 59.24         2.3                                165 326 
 HLUH    ES   0A   0 4 20.97                              38   -0.53 9  165 326 
                                                                                
 2001  2 3 0004 39.7 L  33.641  52.539 16.6  New 12 0.4 1.8LNew                1
 GAP=166        0.95       2.3     1.5  3.5 -0.1394E+00 -0.1872E+01  0.7120E+00E
 Action:ARG 24-03-13 14:54 OP:OBSP STATUS:               ID:20010203000440     I
 STAT SP IPHASW D HRMM SECON CODA AMPLIT PERI AZIMU VELO AIN AR TRES W  DIS CAZ7
 LUEX    IP   0A   0 4 53.67                              78    0.0910 58.8 296 
 LUEX     IAML A   0 4 53.67        57.2                               58.8 296 
 LUEX    ES   0A   0 5  3.91                              78    0.4910 58.8 296 
 RHPW    IP   0A   0 4 54.59                              78    0.0410 63.8  28 
 RHPW     IAML A   0 4 54.59        51.4                               63.8  28 
 RHPW    ES   0A   0 5  5.52                              78    0.4510 63.8  28 
 CBZA    IP   0A   0 4 55.70                              60   -0.0410 70.2 267 
 CBZA     IAML A   0 4 55.70        44.0                               70.2 267 
 CBZA    ES   0A   0 5  7.48                              60    0.3610 70.2 267 
 AVTK    IP   0A   0 4 56.59                              58   -0.1510 76.2 307 
 AVTK     IAML A   0 4 56.59        39.8                               76.2 307 
 AVTK    ES   0A   0 5  9.04                              58    0.2210 76.2 307 
 XBVK    IP   0A   0 4 56.78                              56   -0.1710 77.5  10 
 XBVK    ES   0A   0 5  9.37                              56    0.1910 77.5  10 
 DNOA    IP   0A   0 5  1.94                              55   -0.2910  110  46 
 DNOA     IAML A   0 5  1.94        22.6                                110  46 
 DNOA    ES   0A   0 5 18.39                              55    0.1810  110  46 
 MGUS     IAML A   0 5  2.54        21.1                                114  82 
 MGUS    IP   0A   0 5  2.54                              55   -0.3810  114  82 
 MGUS    ES   0A   0 5 19.45                              55    0.0610  114  82 
 RAWC    IP   0A   0 5  3.16                              45   -0.0510  116 102 
 RAWC    ES   0A   0 5 20.52                              45    0.6410  116 102 
 APSL    IP   0A   0 5  4.27                              42   -0.2510  126  63 
 APSL    ES   0A   0 5 22.47                              42    0.3410  126  63 
 VOCA    IP   0A   0 5  6.50                              42   -0.5310  145  37 
 VOCA     IAML A   0 5  6.50        14.3                                145  37 
 VOCA    ES   0A   0 5 26.38                              42   -0.0310  145  37 
 RPKV     IAML A   0 5 12.34         8.9                                188 339 
 RPKV    IP   0A   0 5 12.34                              42   -0.39 8  188 339 
 HLUH     IAML A   0 5 13.45         7.9                                200 332 
 HLUH    IP   0A   0 5 13.45                              42   -0.77 8  200 332 
 HLUH    ES   0A   0 5 37.82                              42   -0.90 8  200 332 
                                                                                
 2001  2 3 0005 49.7 L  33.897  52.676 19.8  New 13 0.4 2.3LNew                1
 GAP=132        0.98       1.9     1.6  2.4 -0.2548E+00  0.4566E+00  0.1367E+01E
 Action:ARG 24-03-13 14:54 OP:OBSP STATUS:               ID:20010203000550     I
 STAT SP IPHASW D HRMM SECON CODA AMPLIT PERI AZIMU VELO AIN AR TRES W  DIS CAZ7
 RHPW    IP   0A   0 5 58.73                             105    0.0510 32.9  32 
 RHPW    ES   0A   0 6  5.27                             105    0.2410 32.9  32 
 XBVK     IAML A   0 6  1.31       244.0                               47.8   1 
 XBVK    IP   0A   0 6  1.31                              97   -0.1910 47.8   1 
 XBVK    ES   0A   0 6  9.80                              97   -0.0610 47.8   1 
 LUEX    IP   0A   0 6  4.62                              62   -0.0410 65.4 268 
 LUEX    ES   0A   0 6 15.58                              62    0.3310 65.4 268 
 AVTK    IP   0A   0 6  6.37                              57    0.0210 75.7 283 
 AVTK    ES   0A   0 6 18.64                              57    0.5010 75.7 283 
 DNOA    IP   0A   0 6  7.48                              57    0.0710 82.3  55 
 DNOA    ES   0A   0 6 20.60                              57    0.6310 82.3  55 
 CBZA    IP   0A   0 6  8.34                              57   -0.1010 88.7 249 
 CBZA     IAML A   0 6  8.34       104.5                               88.7 249 
 FOUH    IP   0A   0 6  9.80                              57   -0.0810 97.6   5 
 FOUH    ES   0A   0 6 24.64                              57    0.4510 97.6   5 
 DQYH    IP   0A   0 6 10.31                              57   -0.0210  100 313 
 DQYH    ES   0A   0 6 25.53                              57    0.5710  100 313 
 MGUS    IP   0A   0 6 10.46                              57   -0.0210  101  97 
 RAWC    IP   0A   0 6 12.20                              46   -0.2510  114 117 
 RAWC    ES   0A   0 6 28.84                              46    0.2710  114 117 
 VOCA    IP   0A   0 6 12.20                              46   -0.4310  115  41 
 VOCA     IAML A   0 6 12.20        68.6                                115  41 
 VOCA    ES   0A   0 6 28.85                              46   -0.0310  115  41 
 QYDI     IAML A   0 6 19.32        35.1                                170 349 
 QYDI    IP   0A   0 6 19.32                              43   -0.60 9  170 349 
 QYDI    ES   0A   0 6 40.76                              43   -0.59 9  170 349 
 HLUH     IAML A   0 6 20.81        31.0                                182 324 
 HLUH    IP   0A   0 6 20.81                              43   -0.67 8  182 324 
 HLUH    ES   0A   0 6 43.20                              43   -0.82 8  182 324 
                                                                                
 2001  2 3 0006 59.7 L  33.827  52.547 15.6  New 12 0.4 2.7LNew                1
 GAP=164        0.98       2.3     1.7  3.7  0.8189E+00 -0.2274E+01 -0.1667E+01E
 Action:ARG 24-03-13 14:54 OP:OBSP STATUS:               ID:20010203000700     I
 STAT SP IPHASW D HRMM SECON CODA AMPLIT PERI AZIMU VELO AIN AR TRES W  DIS CAZ7
 RHPW    IP   0A   0 7 11.31                              73    0.1210 46.1  39 
 RHPW    ES   0A   0 7 19.79                              73    0.4610 46.1  39 
 LUEX     IAML A   0 7 12.79       549.8                               53.8 276 
 LUEX    IP   0A   0 7 12.79                              73    0.1310 53.8 276 
 LUEX    ES   0A   0 7 22.38                              73    0.5310 53.8 276 
 AVTK     IAML A   0 7 15.01       411.5                               66.6 292 
 AVTK    IP   0A   0 7 15.01                              73   -0.1310 66.6 292 
 AVTK    ES   0A   0 7 26.27                              73    0.1910 66.6 292 
 DQYH    IP   0A   0 7 20.25                              53   -0.1110 97.8 321 
 DQYH     IAML A   0 7 20.25       234.2                               97.8 321 
 DQYH    ES   0A   0 7 35.43                              53    0.4310 97.8 321 
 FOUH    IP   0A   0 7 21.73                              53   -0.1010  107  11 
 FOUH     IAML A   0 7 21.73       202.2                                107  11 
 FOUH    ES   0A   0 7 38.02                              53    0.4910  107  11 
 MGUS    IP   0A   0 7 22.52                              53   -0.2010  113  92 
 MGUS    ES   0A   0 7 39.41                              53    0.3610  113  92 
 APSL     IAML A   0 7 23.37       169.7                                118  72 
 APSL    IP   0A   0 7 23.37                              44   -0.1510  118  72 
 RAWC    IP   0A   0 7 23.88                              41   -0.1710  121 111 
 RAWC    ES   0A   0 7 41.78                              41    0.4510  121 111 
 VOCA    IP   0A   0 7 24.56                              41   -0.4510  129  42 
 VOCA    ES   0A   0 7 42.98                              41    0.0110  129  42 
 RPKV     IAML A   0 7 30.03        92.3                                170 336 
 RPKV    IP   0A   0 7 30.03                              41   -0.37 9  170 336 
 RPKV    ES   0A   0 7 52.05                              41   -0.13 9  170 336 
 QYDI    IP   0A   0 7 30.63                              41   -0.63 8  176 353 
 QYDI    ES   0A   0 7 52.95                              41   -0.70 8  176 353 
 HLUH    IP   0A   0 7 31.29                              41   -0.76 8  182 329 
                                                                                
