 2001  2 3 0032 39.1 L  33.468  52.568 15.9  New 11 0.3 1.1LNew                1
 GAP=210        0.72       3.3     1.4  3.7  0.5541E+00 -0.1426E+01 -0.6740E+01E
 Action:ARG 24-03-13 14:54 OP:OBSP STATUS:               ID:20010203003240     I
 STAT SP IPHASW D HRMM SECON CODA AMPLIT PERI AZIMU VELO AIN AR TRES W  DIS CAZ7
 LUEX    IP   0A   032 55.51                              57    0.0810 71.5 309 
 LUEX    ES   0A   033  7.14                              57    0.1310 71.5 309 
 CBZA     IAML A   032 56.00         9.7                               74.5 282 
 CBZA    IP   0A   032 56.00                              56    0.0510 74.5 282 
 CBZA    ES   0A   033  8.01                              56    0.1210 74.5 282 
 RHPW    IP   0A   032 57.03                              54    0.1410 80.3  20 
 RHPW     IAML A   032 57.03         8.7                               80.3  20 
 RHPW    ES   0A   033  9.80                              54    0.2910 80.3  20 
 AVTK    IP   0A   032 58.67                              53    0.0810 90.8 315 
 AVTK     IAML A   032 58.67         7.4                               90.8 315 
 AVTK    ES   0A   033 12.68                              53    0.2610 90.8 315 
 XBVK    IP   0A   032 59.30                              53   -0.1310 96.0   7 
 MGUS     IAML A   033  2.66         4.7                                116  72 
 MGUS    IP   0A   033  2.66                              53   -0.0210  116  72 
 MGUS    ES   0A   033 19.66                              53    0.2510  116  72 
 DNOA    IP   0A   033  3.43                              41   -0.1310  123  39 
 DNOA     IAML A   033  3.43         4.5                                123  39 
 DNOA    ES   0A   033 21.00                              41    0.0910  123  39 
 APSL    IP   0A   033  4.95                              41   -0.0610  134  56 
 APSL    ES   0A   033 23.65                              41    0.2610  134  56 
 FOUH     IAML A   033  6.52         3.4                                146   8 
 FOUH    IP   0A   033  6.52                              41   -0.1410  146   8 
 FOUH    ES   0A   033 26.36                              41    0.1510  146   8 
 VOCA    IP   0A   033  8.03                              41   -0.38 9  159  32 
 VOCA    ES   0A   033 28.86                              41   -0.35 9  159  32 
 RPKV    IP   0A   033 14.34                              41   -0.38 7  207 340 
 RPKV    ES   0A   033 38.87                              41   -1.13 7  207 340 
                                                                                
 2001  2 3 0033 49.2 L  33.664  52.275  5.3  New 11 0.3 2.2LNew                1
 GAP=162        0.89       2.2     1.7  2.4  0.1047E+01 -0.2275E+01 -0.1398E+01E
 Action:ARG 24-03-13 14:54 OP:OBSP STATUS:               ID:20010203003350     I
 STAT SP IPHASW D HRMM SECON CODA AMPLIT PERI AZIMU VELO AIN AR TRES W  DIS CAZ7
 LUEX    IP   0A   033 59.15                              61    0.0710 36.7 309 
 LUEX    ES   0A   034  6.01                              61   -0.0810 36.7 309 
 CBZA    IP   0A   034  1.55                              61    0.1710 46.1 262 
 CBZA    ES   0A   034 10.20                              61    0.1810 46.1 262 
 AVTK    IP   0A   034  3.98                              61    0.0710 56.4 319 
 AVTK     IAML A   034  3.98       190.7                               56.4 319 
 XBVK    IP   0A   034  9.55                              44    0.3710 83.0  27 
 DQYH    IP   0A   034 12.26                              35    0.1610  101 338 
 DQYH     IAML A   034 12.26        81.5                                101 338 
 DQYH    ES   0A   034 28.95                              35    0.6010  101 338 
 DNOA    IP   0A   034 16.37                              30   -0.0210  127  55 
 DNOA    ES   0A   034 36.14                              30    0.4610  127  55 
 FOUH    IP   0A   034 16.68                              28   -0.2310  131  20 
 FOUH     IAML A   034 16.68        52.2                                131  20 
 FOUH    ES   0A   034 36.68                              28    0.1110  131  20 
 MGUS    IP   0A   034 17.48                              28   -0.3510  138  84 
 MGUS    ES   0A   034 38.08                              28   -0.0710  138  84 
 RAWC    IP   0A   034 17.98                              28   -0.1710  141 100 
 RAWC     IAML A   034 17.98        45.7                                141 100 
 RAWC    ES   0A   034 38.95                              28    0.2610  141 100 
 RPKV    IP   0A   034 22.73                              28   -0.37 8  178 346 
 RPKV    ES   0A   034 46.71                              28   -0.45 8  178 346 
 HLUH     IAML A   034 23.67        28.0                                187 338 
 HLUH    IP   0A   034 23.67                              28   -0.57 8  187 338 
 HLUH    ES   0A   034 48.20                              28   -0.91 8  187 338 
                                                                                
 2001  2 3 0034 59.5 L  33.382  52.751 19.3  New 11 0.6 1.8LNew                1
 GAP=199        1.37       6.1     3.3  8.4  0.5534E+01 -0.5952E+01 -0.3307E+02E
 Action:ARG 24-03-13 14:54 OP:OBSP STATUS:               ID:20010203003500     I
 STAT SP IPHASW D HRMM SECON CODA AMPLIT PERI AZIMU VELO AIN AR TRES W  DIS CAZ7
 CBZA    IP   0A   035 19.23                              57    0.2410 93.4 286 
 CBZA    ES   0A   035 33.65                              57    0.8110 93.4 286 
 RAWC    IP   0A   035 18.95                              57   -0.2010 94.4  87 
 RAWC     IAML A   035 18.95        33.9                               94.4  87 
 RAWC    ES   0A   035 33.17                              57    0.0510 94.4  87 
 MGUS     IAML A   035 20.57        28.4                                104  64 
 MGUS    IP   0A   035 20.57                              57   -0.1210  104  64 
 XBVK    IP   0A   035 21.02                              57    0.1510  105 357 
 XBVK    ES   0A   035 36.79                              57    0.7310  105 357 
 DNOA    IP   0A   035 23.27                              43    0.0810  121  30 
 DNOA    ES   0A   035 40.72                              43    0.6910  121  30 
 APSL    IP   0A   035 23.82                              43   -0.0810  126  48 
 APSL    ES   0A   035 41.66                              43    0.4310  126  48 
 FOUH    IP   0A   035 27.41                              43   -0.20 9  154   1 
 FOUH    ES   0A   035 47.80                              43    0.21 9  154   1 
 VOCA    IP   0A   035 28.09                              43   -0.21 9  160  25 
 VOCA    ES   0A   035 48.69                              43   -0.08 9  160  25 
 RPKV     IAML A   035 36.26         7.1                                222 337 
 RPKV    IP   0A   035 36.26                              43   -0.33 7  222 337 
 RPKV    ES   0A   036  1.90                              43   -1.03 7  222 337 
 QYDI    IP   0A   035 36.64                              43   -0.65 7  228 350 
 QYDI     IAML A   035 36.64         6.7                                228 350 
 QYDI    ES   0A   036  2.39                              43   -1.74 7  228 350 
 HLUH    IP   0A   035 37.52                              43   -0.64 6  234 331 
 HLUH    ES   0A   036  4.04                              43   -1.57 6  234 331 
                                                                                
 2001  2 3 0036  9.5 L  33.980  52.745 21.3  New 12 0.3 2.3LNew                1
 GAP=123        0.78       1.5     1.2  1.7  0.7885E-01  0.1262E+00  0.1136E+01E
 Action:ARG 24-03-13 14:54 OP:OBSP STATUS:               ID:20010203003610     I
 STAT SP IPHASW D HRMM SECON CODA AMPLIT PERI AZIMU VELO AIN AR TRES W  DIS CAZ7
 RHPW    IP   0A   036 16.75                             124    0.1710 21.6  31 
 RHPW     IAML A   036 16.75       721.4                               21.6  31 
 RHPW    ES   0A   036 21.81                             124    0.1910 21.6  31 
 XBVK    IP   0A   036 19.50                             105   -0.1310 38.9 352 
 XBVK    ES   0A   036 26.63                             105   -0.2010 38.9 352 
 DNOA    IP   0A   036 25.30                              58   -0.0310 71.8  58 
 DNOA    ES   0A   036 36.78                              58    0.2110 71.8  58 
 AVTK    IP   0A   036 26.79                              57    0.0610 80.5 276 
 AVTK    ES   0A   036 39.38                              57    0.4210 80.5 276 
 FOUH     IAML A   036 27.82       110.6                               88.0   2 
 FOUH    IP   0A   036 27.82                              57   -0.1110 88.0   2 
 FOUH    ES   0A   036 41.18                              57    0.1610 88.0   2 
 APSL    IP   0A   036 29.12                              57   -0.0410 95.6  79 
 APSL    ES   0A   036 43.45                              57    0.3310 95.6  79 
 MGUS    IP   0A   036 29.22                              57   -0.1010 96.6 103 
 MGUS    ES   0A   036 43.64                              57    0.2510 96.6 103 
 CBZA    IP   0A   036 29.39                              57   -0.1910 98.2 245 
 CBZA    ES   0A   036 43.94                              57    0.1110 98.2 245 
 DQYH    IP   0A   036 29.86                              57    0.0710 99.5 306 
 DQYH    ES   0A   036 44.75                              57    0.5610 99.5 306 
 VOCA    IP   0A   036 30.21                              57   -0.2810  104  41 
 VOCA    ES   0A   036 45.36                              57   -0.0410  104  41 
 RAWC    IP   0A   036 31.54                              46   -0.3410  113 123 
 RAWC    ES   0A   036 47.70                              46   -0.0810  113 123 
 HLUH    IP   0A   036 39.99                              43   -0.58 8  179 321 
 HLUH     IAML A   036 39.99        33.7                                179 321 
 HLUH    ES   0A   037  1.78                              43   -0.85 8  179 321 
                                                                                
 2001  2 3 0037 19.5 L  34.124  52.412 10.0  New 13 0.3 1.3LNew                1
 GAP=130        0.89       1.6     1.2  1.5 -0.3935E+00  0.4826E+00 -0.1127E+00E
 Action:ARG 24-03-13 14:54 OP:OBSP STATUS:               ID:20010203003720     I
 STAT SP IPHASW D HRMM SECON CODA AMPLIT PERI AZIMU VELO AIN AR TRES W  DIS CAZ7
 XBVK    IP   0A   037 28.82                             100    0.0610 34.1  48 
 XBVK     IAML A   037 28.82        41.3                               34.1  48 
 XBVK    ES   0A   037 35.44                             100    0.1310 34.1  48 
 RHPW     IAML A   037 30.73        31.0                               41.9  86 
 RHPW    IP   0A   037 30.73                              97    0.0910 41.9  86 
 RHPW    ES   0A   037 38.77                              97    0.2410 41.9  86 
 LUEX     IAML A   037 32.37        25.5                               49.4 236 
 LUEX    IP   0A   037 32.37                              56    0.1110 49.4 236 
 LUEX    ES   0A   037 41.65                              56    0.3610 49.4 236 
 AVTK    IP   0A   037 32.34                              56   -0.0210 49.9 261 
 AVTK    ES   0A   037 41.59                              56    0.1210 49.9 261 
 DQYH    IP   0A   037 35.46                              52    0.0910 65.4 311 
 DQYH     IAML A   037 35.46        17.9                               65.4 311 
 DQYH    ES   0A   037 47.05                              52    0.4410 65.4 311 
 FOUH    IP   0A   037 38.10                              44    0.0510 79.4  25 
 FOUH    ES   0A   037 51.68                              44    0.4810 79.4  25 
 DNOA     IAML A   037 40.56        10.2                               94.2  76 
 DNOA    IP   0A   037 40.56                              41    0.1010 94.2  76 
 DNOA    ES   0A   037 55.98                              41    0.6510 94.2  76 
 VOCA     IAML A   037 43.69         7.3                                117  58 
 VOCA    IP   0A   037 43.69                              41   -0.4710  117  58 
 VOCA    ES   0A   038  1.46                              41   -0.1910  117  58 
 APSL     IAML A   037 44.93         6.5                                125  89 
 APSL    IP   0A   037 44.93                              33   -0.3810  125  89 
 APSL    ES   0A   038  3.63                              33    0.0210  125  89 
 MGUS     IAML A   037 45.70         6.0                                130 106 
 MGUS    IP   0A   037 45.70                              33   -0.3810  130 106 
 MGUS    ES   0A   038  4.98                              33    0.0610  130 106 
 RPKV    IP   0A   037 46.30                              33   -0.3110  134 335 
 RPKV    ES   0A   038  6.02                              33    0.1810  134 335 
 QYDI    IP   0A   037 47.07                              33   -0.5710  142 357 
 QYDI    ES   0A   038  7.33                              33   -0.2610  142 357 
 HLUH    IP   0A   037 47.66                              33   -0.6810  148 326 
                                                                                
 2001  2 3 0038 29.6 L  33.802  52.960 29.4  New 10 0.3 1.5LNew                1
 GAP=140        0.79       1.7     1.9  3.3 -0.1814E+00  0.3908E+01 -0.1212E+00E
 Action:ARG 24-03-13 14:54 OP:OBSP STATUS:               ID:20010203003830     I
 STAT SP IPHASW D HRMM SECON CODA AMPLIT PERI AZIMU VELO AIN AR TRES W  DIS CAZ7
 XBVK    IP   0A   038 43.72                              96   -0.0010 63.4 337 
 XBVK     IAML A   038 43.72        29.2                               63.4 337 
 XBVK    ES   0A   038 54.01                              96    0.2310 63.4 337 
 DNOA    IP   0A   038 44.92                              94   -0.0110 71.0  35 
 DNOA    ES   0A   038 56.10                              94    0.2410 71.0  35 
 APSL     IAML A   038 46.75        20.3                               83.2  63 
 APSL    IP   0A   038 46.75                              93   -0.1510 83.2  63 
 APSL    ES   0A   038 59.31                              93    0.0910 83.2  63 
 RAWC    IP   0A   038 47.12                              93   -0.1710 85.6 119 
 RAWC    ES   0A   038 59.95                              93    0.0710 85.6 119 
 LUEX     IAML A   038 48.14        17.3                               92.0 275 
 LUEX    IP   0A   038 48.14                              60   -0.1310 92.0 275 
 LUEX    ES   0A   039  1.75                              60    0.1910 92.0 275 
 AVTK    IP   0A   038 49.71                              55   -0.1810  104 286 
 AVTK    ES   0A   039  4.49                              55    0.1510  104 286 
 VOCA    IP   0A   038 50.51                              55   -0.1010  109  27 
 FOUH    IP   0A   038 50.34                              55   -0.2510  109 351 
 FOUH    ES   0A   039  5.60                              55    0.0810  109 351 
 VOCA    ES   0A   039  5.89                              55    0.3310  109  27 
 CBZA    IP   0A   038 50.88                              55    0.0110  111 259 
 CBZA    ES   0A   039  6.53                              55    0.5210  111 259 
 HLUH    IP   0A   039  2.94                              55   -0.50 7  207 320 
 HLUH     IAML A   039  2.94         4.3                                207 320 
 HLUH    ES   0A   039 26.31                              55   -1.19 7  207 320 
                                                                                
 2001  2 3 0039 39.4 L  33.485  52.469 12.7  New 11 0.5 1.2LNew                1
 GAP=189        1.18       4.0     2.4  4.5  0.2250E+01 -0.3811E+01 -0.8595E+01E
 Action:ARG 24-03-13 14:54 OP:OBSP STATUS:               ID:20010203003940     I
 STAT SP IPHASW D HRMM SECON CODA AMPLIT PERI AZIMU VELO AIN AR TRES W  DIS CAZ7
 CBZA    IP   0A   039 54.95                              52    0.1910 65.2 282 
 CBZA     IAML A   039 54.95        13.1                               65.2 282 
 CBZA    ES   0A   040  6.16                              52    0.4810 65.2 282 
 RHPW    IP   0A   039 58.08                              42    0.2110 82.1  26 
 RHPW    ES   0A   040 11.64                              42    0.6310 82.1  26 
 AVTK    IP   0A   039 58.16                              42    0.1210 83.2 319 
 AVTK    ES   0A   040 11.77                              42    0.4710 83.2 319 
 XBVK    IP   0A   040  0.13                              41    0.0710 95.7  12 
 XBVK    ES   0A   040 15.22                              41    0.4810 95.7  12 
 RAWC    IP   0A   040  3.92                              35   -0.1510  121  93 
 RAWC    ES   0A   040 21.86                              35    0.2610  121  93 
 DNOA    IP   0A   040  4.78                              33   -0.1610  127  43 
 DNOA    ES   0A   040 23.36                              33    0.2710  127  43 
 APSL    IP   0A   040  6.44                              33   -0.2210  140  58 
 APSL     IAML A   040  6.44         4.0                                140  58 
 APSL    ES   0A   040 26.26                              33    0.2210  140  58 
 VOCA    IP   0A   040  9.28                              33   -0.37 9  163  35 
 VOCA    ES   0A   040 30.99                              33   -0.16 9  163  35 
 RPKV     IAML A   040 14.64         2.0                                202 342 
 RPKV    IP   0A   040 14.64                              33   -0.23 8  202 342 
 RPKV    ES   0A   040 39.49                              33   -0.59 8  202 342 
 HLUH    IP   0A   040 15.65                              33   -0.53 7  212 336 
 HLUH     IAML A   040 15.65         1.8                                212 336 
 HLUH    ES   0A   040 41.16                              33   -1.15 7  212 336 
 QYDI    IP   0A   040 15.63                              33   -0.66 7  213 356 
 QYDI    ES   0A   040 40.94                              33   -1.57 7  213 356 
                                                                                
