 2001  2 3 0008  9.4 L  33.518  52.698 20.1  New 13 0.5 2.0LNew                1
 GAP=205        1.14       4.2     2.4  6.2  0.2973E+01 -0.8090E+00 -0.1296E+02E
 Action:ARG 24-03-13 14:54 OP:OBSP STATUS:               ID:20010203000810     I
 STAT SP IPHASW D HRMM SECON CODA AMPLIT PERI AZIMU VELO AIN AR TRES W  DIS CAZ7
 RHPW    IP   0A   0 8 25.54                              58    0.2710 71.5  12 
 RHPW     IAML A   0 8 25.54        70.7                               71.5  12 
 RHPW    ES   0A   0 8 37.20                              58    0.6310 71.5  12 
 LUEX     IAML A   0 8 26.59        61.4                               78.3 300 
 LUEX    IP   0A   0 8 26.59                              57    0.2210 78.3 300 
 LUEX    ES   0A   0 8 39.03                              57    0.5910 78.3 300 
 XBVK     IAML A   0 8 28.09        50.5                               89.8 359 
 XBVK    IP   0A   0 8 28.09                              57   -0.1310 89.8 359 
 AVTK     IAML A   0 8 29.20        45.2                               96.2 308 
 AVTK    IP   0A   0 8 29.20                              57   -0.0510 96.2 308 
 AVTK    ES   0A   0 8 43.61                              57    0.2510 96.2 308 
 RAWC    IP   0A   0 8 29.95                              57    0.1510 99.6  96 
 RAWC    ES   0A   0 8 44.92                              57    0.6110 99.6  96 
 MGUS    IP   0A   0 8 30.12                              57   -0.2210  103  73 
 MGUS     IAML A   0 8 30.12        41.3                                103  73 
 DNOA    IP   0A   0 8 31.44                              57   -0.1510  111  36 
 DNOA    ES   0A   0 8 47.52                              57    0.1510  111  36 
 APSL     IAML A   0 8 32.62        32.2                                120  55 
 APSL    IP   0A   0 8 32.62                              43   -0.3110  120  55 
 DQYH     IAML A   0 8 34.65        26.8                                134 325 
 DQYH    IP   0A   0 8 34.65                              43   -0.0310  134 325 
 DQYH    ES   0A   0 8 53.02                              43    0.3710  134 325 
 FOUH    IP   0A   0 8 35.10                              43   -0.3310  139   3 
 FOUH    ES   0A   0 8 53.90                              43   -0.0310  139   3 
 VOCA    IP   0A   0 8 36.21                              43   -0.4010  148  29 
 VOCA    ES   0A   0 8 55.72                              43   -0.2410  148  29 
 RPKV    IP   0A   0 8 43.84                              43   -0.45 7  207 336 
 HLUH    IP   0A   0 8 45.10                              43   -0.79 7  219 330 
 HLUH    ES   0A   0 9 10.08                              43   -1.74 7  219 330 
                                                                                
 2001  2 3 0009 19.7 L  33.606  52.652 21.2  New 13 0.4 2.3LNew                1
 GAP=170        1.02       3.1     2.0  5.3 -0.1428E+01  0.9515E+00 -0.7222E+01E
 Action:ARG 24-03-13 14:54 OP:OBSP STATUS:               ID:20010203000920     I
 STAT SP IPHASW D HRMM SECON CODA AMPLIT PERI AZIMU VELO AIN AR TRES W  DIS CAZ7
 RHPW    IP   0A   0 9 34.20                              62    0.1410 63.2  18 
 RHPW    ES   0A   0 9 44.86                              62    0.5710 63.2  18 
 LUEX     IAML A   0 9 35.29       160.4                               69.9 295 
 LUEX    IP   0A   0 9 35.29                              58    0.1210 69.9 295 
 LUEX    ES   0A   0 9 46.75                              58    0.5510 69.9 295 
 XBVK    IP   0A   0 9 36.64                              57   -0.1810 80.1   2 
 XBVK     IAML A   0 9 36.64       134.5                               80.1   2 
 XBVK    ES   0A   0 9 49.12                              57    0.1010 80.1   2 
 CBZA    IP   0A   0 9 36.95                              57    0.0410 80.7 270 
 CBZA     IAML A   0 9 36.95       129.0                               80.7 270 
 CBZA    ES   0A   0 9 49.66                              57    0.4910 80.7 270 
 RAWC     IAML A   0 9 41.02        86.5                                105 101 
 RAWC    IP   0A   0 9 41.02                              57    0.1510  105 101 
 MGUS    IP   0A   0 9 40.59                              57   -0.2010  105  79 
 DNOA    IP   0A   0 9 40.84                              57   -0.1110  106  41 
 DNOA    ES   0A   0 9 56.47                              57    0.4010  106  41 
 APSL     IAML A   0 9 42.65        72.4                                119  60 
 APSL    IP   0A   0 9 42.65                              43   -0.1710  119  60 
 APSL    ES   0A   0 9 59.64                              43    0.3610  119  60 
 DQYH    IP   0A   0 9 43.35                              43   -0.0710  123 324 
 DQYH     IAML A   0 9 43.35        68.2                                123 324 
 FOUH    IP   0A   0 9 43.95                              43   -0.3510  130   5 
 VOCA     IAML A   0 9 45.56        53.7                                142  33 
 VOCA    IP   0A   0 9 45.56                              43   -0.3610  142  33 
 VOCA    ES   0A   010  4.72                              43    0.1410  142  33 
 RPKV    IP   0A   0 9 52.66                              43   -0.34 8  196 336 
 RPKV    ES   0A   010 15.99                              43   -0.69 8  196 336 
 HLUH    IP   0A   0 9 53.95                              43   -0.66 7  208 330 
 HLUH    ES   0A   010 18.21                              43   -1.22 7  208 330 
                                                                                
 2001  2 3 0010 29.5 L  34.116  52.531 14.1  New 12 0.3 2.2LNew                1
 GAP=108        0.79       1.5     1.3  2.6 -0.4048E+00 -0.2343E+00 -0.6088E+00E
 Action:ARG 24-03-13 14:54 OP:OBSP STATUS:               ID:20010203001030     I
 STAT SP IPHASW D HRMM SECON CODA AMPLIT PERI AZIMU VELO AIN AR TRES W  DIS CAZ7
 XBVK    IP   0A   010 37.59                              77    0.3310 27.7  32 
 LUEX    IP   0A   010 43.66                              65    0.2610 58.4 243 
 AVTK     IAML A   010 43.85       147.3                               60.7 263 
 AVTK    IP   0A   010 43.85                              65    0.0110 60.7 263 
 AVTK    ES   0A   010 54.24                              65    0.1910 60.7 263 
 FOUH     IAML A   010 46.98       105.6                               76.3  17 
 FOUH    IP   0A   010 46.98                              51    0.1910 76.3  17 
 FOUH    ES   0A   010 59.71                              51    0.6110 76.3  17 
 DNOA     IAML A   010 48.12        92.6                               83.8  74 
 DNOA    IP   0A   010 48.12                              50    0.1110 83.8  74 
 CBZA    IP   0A   010 48.77                              49   -0.1110 89.2 231 
 CBZA     IAML A   010 48.77        85.1                               89.2 231 
 CBZA    ES   0A   011  2.85                              49    0.1710 89.2 231 
 VOCA     IAML A   010 51.65        62.3                                109  54 
 VOCA    IP   0A   010 51.65                              49   -0.3510  109  54 
 VOCA    ES   0A   011  7.89                              49   -0.1110  109  54 
 APSL    IP   0A   010 52.61                              49   -0.2010  114  88 
 APSL    ES   0A   011  9.56                              49    0.1610  114  88 
 RAWC     IAML A   010 55.90        42.4                                138 124 
 RAWC    IP   0A   010 55.90                              38   -0.2510  138 124 
 RAWC    ES   0A   011 15.30                              38    0.1910  138 124 
 RPKV    IP   0A   010 56.37                              38   -0.1410  140 331 
 RPKV    ES   0A   011 16.04                              38    0.3210  140 331 
 QYDI    IP   0A   010 56.57                              38   -0.4610  144 352 
 QYDI    ES   0A   011 16.42                              38   -0.1910  144 352 
 HLUH    IP   0A   010 57.86                              38   -0.55 9  155 323 
 HLUH    ES   0A   011 18.61                              38   -0.36 9  155 323 
                                                                                
 2001  2 3 0011 39.5 L  33.940  52.929 26.4  New 11 0.3 3.7LNew                1
 GAP=125        0.71       1.5     1.2  2.4  0.4614E+00  0.7278E+00  0.1240E+01E
 Action:ARG 24-03-13 14:54 OP:OBSP STATUS:               ID:20010203001140     I
 STAT SP IPHASW D HRMM SECON CODA AMPLIT PERI AZIMU VELO AIN AR TRES W  DIS CAZ7
 RHPW    IP   0A   011 47.48                             121    0.1110 23.8 346 
 RHPW    ES   0A   011 53.10                             121    0.1510 23.8 346 
 XBVK     IAML A   011 51.08      6290.0                               48.3 333 
 XBVK    IP   0A   011 51.08                              92   -0.1510 48.3 333 
 XBVK    ES   0A   011 59.39                              92   -0.1710 48.3 333 
 DNOA    IP   0A   011 53.38                              80    0.0710 61.2  46 
 DNOA    ES   0A   012  3.42                              80    0.3110 61.2  46 
 MGUS     IAML A   011 56.17      3185.6                               79.0 102 
 MGUS    IP   0A   011 56.17                              80   -0.0210 79.0 102 
 MGUS    ES   0A   012  8.30                              80    0.2710 79.0 102 
 APSL    IP   0A   011 56.36                              80   -0.0110 80.2  73 
 LUEX    IP   0A   011 57.75                              80   -0.0510 89.1 266 
 LUEX    ES   0A   012 11.07                              80    0.2810 89.1 266 
 RAWC    IP   0A   011 58.70                              80   -0.2710 96.3 126 
 RAWC     IAML A   011 58.70      2363.0                               96.3 126 
 RAWC    ES   0A   012 12.73                              80   -0.0610 96.3 126 
 AVTK    IP   0A   011 58.97                              80   -0.2510 97.8 277 
 AVTK    ES   0A   012 13.20                              80   -0.0110 97.8 277 
 CBZA    IP   0A   012  1.07                              54   -0.1910  112 251 
 CBZA    ES   0A   012 16.85                              54    0.1510  112 251 
 DQYH    IP   0A   012  1.79                              54    0.0510  116 303 
 DQYH    ES   0A   012 18.14                              54    0.6210  116 303 
 QYDI    IP   0A   012  8.52                              54   -0.56 9  172 341 
 QYDI     IAML A   012  8.52       898.4                                172 341 
 QYDI    ES   0A   012 29.52                              54   -0.55 9  172 341 
                                                                                
 2001  2 3 0012 49.9 L  33.405  52.527 16.9  New 11 0.5 1.6LNew                1
 GAP=200        1.20       5.2     2.8  6.9  0.5553E+01 -0.8973E+01 -0.1930E+02E
 Action:ARG 24-03-13 14:54 OP:OBSP STATUS:               ID:20010203001250     I
 STAT SP IPHASW D HRMM SECON CODA AMPLIT PERI AZIMU VELO AIN AR TRES W  DIS CAZ7
 CBZA    IP   0A   013  6.36                              58    0.0710 72.7 288 
 CBZA    ES   0A   013 18.63                              58    0.6910 72.7 288 
 LUEX    IP   0A   013  6.65                              58    0.2510 73.4 315 
 RHPW     IAML A   013  8.93        25.5                               88.2  21 
 RHPW    IP   0A   013  8.93                              55    0.1310 88.2  21 
 RHPW    ES   0A   013 23.13                              55    0.8910 88.2  21 
 AVTK    IP   0A   013  9.86                              55    0.2010 93.5 320 
 AVTK     IAML A   013  9.86        23.1                               93.5 320 
 RAWC    IP   0A   013 12.91                              55   -0.2310  115  89 
 RAWC     IAML A   013 12.91        17.1                                115  89 
 RAWC    ES   0A   013 30.10                              55    0.4510  115  89 
 MGUS    IP   0A   013 13.74                              42   -0.3710  122  70 
 MGUS    ES   0A   013 31.55                              42    0.2410  122  70 
 DNOA     IAML A   013 14.90        13.8                                130  38 
 DNOA    IP   0A   013 14.90                              42   -0.2910  130  38 
 DNOA    ES   0A   013 33.56                              42    0.3910  130  38 
 VOCA    IP   0A   013 19.48                              42   -0.58 9  167  32 
 VOCA    ES   0A   013 41.27                              42   -0.22 9  167  32 
 RPKV    IP   0A   013 25.76                              42   -0.27 7  213 342 
 RPKV     IAML A   013 25.76         5.6                                213 342 
 RPKV    ES   0A   013 51.36                              42   -0.34 7  213 342 
 HLUH    IP   0A   013 26.82                              42   -0.54 7  223 336 
 HLUH    ES   0A   013 53.13                              42   -0.85 7  223 336 
 QYDI    IP   0A   013 26.67                              42   -0.67 7  223 355 
 QYDI    ES   0A   013 52.71                              42   -1.23 7  223 355 
 HLUH     IAML A   013 26.82         5.0                                223 336 
                                                                                
 2001  2 3 0013 60.0 L  33.760  52.578 18.5  New 13 0.4 0.3LNew                1
 GAP=169        1.06       2.7     1.6  2.8 -0.7632E+00 -0.7319E+00 -0.2074E+00E
 Action:ARG 24-03-13 14:54 OP:OBSP STATUS:               ID:20010203001400     I
 STAT SP IPHASW D HRMM SECON CODA AMPLIT PERI AZIMU VELO AIN AR TRES W  DIS CAZ7
 RHPW    IP   0A   014 12.17                              94   -0.0710 50.5  32 
 RHPW     IAML A   014 12.17         2.7                               50.5  32 
 RHPW    ES   0A   014 21.30                              94    0.3510 50.5  32 
 LUEX    IP   0A   014 13.56                              93   -0.0610 57.7 283 
 LUEX    ES   0A   014 23.73                              93    0.4210 57.7 283 
 XBVK    IP   0A   014 14.52                              64   -0.2210 63.8   9 
 XBVK     IAML A   014 14.52         1.9                               63.8   9 
 AVTK    IP   0A   014 16.00                              60   -0.1610 72.2 297 
 AVTK    ES   0A   014 28.01                              60    0.3710 72.2 297 
 CBZA    IP   0A   014 16.63                              58   -0.0710 75.6 257 
 CBZA     IAML A   014 16.63         1.5                               75.6 257 
 CBZA    ES   0A   014 29.11                              58    0.5310 75.6 257 
 DNOA    IP   0A   014 20.45                              57    0.0110 98.7  50 
 DNOA    ES   0A   014 35.78                              57    0.8210 98.7  50 
 DQYH     IAML A   014 21.32         0.9                                105 322 
 DQYH    IP   0A   014 21.32                              57   -0.1910  105 322 
 DQYH    ES   0A   014 37.32                              57    0.5210  105 322 
 MGUS    IP   0A   014 21.85                              57   -0.3610  110  88 
 MGUS    ES   0A   014 38.24                              57    0.2410  110  88 
 APSL    IP   0A   014 23.10                              43   -0.2710  117  68 
 APSL     IAML A   014 23.10         0.8                                117  68 
 APSL    ES   0A   014 40.42                              43    0.4410  117  68 
 VOCA    IP   0A   014 24.90                              43   -0.4610  132  39 
 VOCA    ES   0A   014 43.57                              43    0.2010  132  39 
 RPKV     IAML A   014 30.97         0.4                                178 336 
 RPKV    IP   0A   014 30.97                              43   -0.32 8  178 336 
 RPKV    ES   0A   014 53.44                              43   -0.08 8  178 336 
 QYDI    IP   0A   014 31.41                              43   -0.71 8  184 353 
 QYDI    ES   0A   014 54.25                              43   -0.70 8  184 353 
 HLUH    IP   0A   014 32.24                              43   -0.68 8  190 329 
 HLUH    ES   0A   014 55.74                              43   -0.57 8  190 329 
                                                                                
 2001  2 3 0015  9.3 L  33.759  52.630 21.3  New 12 0.3 2.6LNew                1
 GAP=211        0.83       3.0     2.3  4.3  0.4034E+01 -0.1598E+01 -0.5211E+01E
 Action:ARG 24-03-13 14:54 OP:OBSP STATUS:               ID:20010203001510     I
 STAT SP IPHASW D HRMM SECON CODA AMPLIT PERI AZIMU VELO AIN AR TRES W  DIS CAZ7
 RHPW    IP   0A   015 21.10                              66   -0.0610 48.3  27 
 RHPW     IAML A   015 21.10       495.1                               48.3  27 
 XBVK    IP   0A   015 23.66                              60   -0.0910 63.4   5 
 XBVK     IAML A   015 23.66       334.8                               63.4   5 
 XBVK    ES   0A   015 33.91                              60   -0.0910 63.4   5 
 DNOA    IP   0A   015 29.01                              57    0.1010 95.1  49 
 DNOA    ES   0A   015 43.26                              57    0.4510 95.1  49 
 MGUS     IAML A   015 30.37       155.7                                105  88 
 MGUS    IP   0A   015 30.37                              57   -0.1110  105  88 
 MGUS    ES   0A   015 45.64                              57    0.1510  105  88 
 DQYH    IP   0A   015 31.38                              57    0.3110  109 320 
 DQYH     IAML A   015 31.38       144.8                                109 320 
 DQYH    ES   0A   015 47.41                              57    0.9010  109 320 
 RAWC     IAML A   015 31.60       139.2                                112 109 
 RAWC    IP   0A   015 31.60                              46    0.0710  112 109 
 APSL    IP   0A   015 31.62                              46   -0.1010  113  68 
 APSL    ES   0A   015 47.83                              46    0.2110  113  68 
 FOUH    IP   0A   015 31.48                              46   -0.2910  113   7 
 FOUH    ES   0A   015 47.59                              46   -0.1110  113   7 
 VOCA    IP   0A   015 33.62                              43   -0.3010  130  38 
 VOCA     IAML A   015 33.62       111.7                                130  38 
 RPKV     IAML A   015 40.57        61.0                                180 335 
 RPKV    IP   0A   015 40.57                              43    0.05 8  180 335 
 RPKV    ES   0A   016  2.69                              43    0.02 8  180 335 
 QYDI     IAML A   015 40.80        58.3                                185 351 
 QYDI    IP   0A   015 40.80                              43   -0.38 8  185 351 
 QYDI    ES   0A   016  3.22                              43   -0.58 8  185 351 
 HLUH    IP   0A   015 41.98                              43   -0.24 8  193 328 
 HLUH    ES   0A   016  5.12                              43   -0.46 8  193 328 
                                                                                
