 2001  2 3 0057  9.5 L  33.676  52.678 19.7  New 12 0.3 1.7LNew                1
 GAP=183        0.86       2.6     1.5  4.2  0.4773E+00 -0.3724E+00 -0.4470E+01E
 Action:ARG 24-03-13 14:54 OP:OBSP STATUS:               ID:20010203005710     I
 STAT SP IPHASW D HRMM SECON CODA AMPLIT PERI AZIMU VELO AIN AR TRES W  DIS CAZ7
 RHPW    IP   0A   057 22.81                              64    0.1410 55.1  18 
 RHPW    ES   0A   057 32.42                              64    0.4110 55.1  18 
 LUEX    IP   0A   057 25.20                              60    0.1310 69.2 289 
 LUEX    ES   0A   057 36.60                              60    0.4810 69.2 289 
 XBVK    IP   0A   057 25.35                              58   -0.2310 72.3   1 
 XBVK    ES   0A   057 36.87                              58   -0.1210 72.3   1 
 AVTK    IP   0A   057 27.57                              57   -0.0410 84.8 299 
 AVTK     IAML A   057 27.57        28.7                               84.8 299 
 AVTK    ES   0A   057 40.74                              57    0.2810 84.8 299 
 DNOA    IP   0A   057 29.74                              57   -0.0410 98.4  43 
 DNOA    ES   0A   057 44.54                              57    0.3610 98.4  43 
 MGUS     IAML A   057 30.19        21.8                                101  83 
 MGUS    IP   0A   057 30.19                              57   -0.0510  101  83 
 MGUS    ES   0A   057 45.34                              57    0.3910  101  83 
 RAWC    IP   0A   057 30.90                              57    0.1010  105 105 
 APSL    IP   0A   057 31.86                              46   -0.2410  113  62 
 APSL    ES   0A   057 48.26                              46    0.1210  113  62 
 DQYH     IAML A   057 32.72        17.1                                118 321 
 DQYH    IP   0A   057 32.72                              43   -0.1510  118 321 
 DQYH    ES   0A   057 49.76                              43    0.3010  118 321 
 VOCA    IP   0A   057 34.48                              43   -0.4910  134  34 
 VOCA    ES   0A   057 52.83                              43   -0.2210  134  34 
 RPKV    IP   0A   057 41.87                              43   -0.41 8  190 335 
 RPKV    ES   0A   058  4.80                              43   -0.74 8  190 335 
 HLUH    IP   0A   057 43.24                              43   -0.73 7  203 328 
 HLUH     IAML A   057 43.24         6.5                                203 328 
                                                                                
 2001  2 3 0058 19.4 L  33.605  52.618 21.5  New 10 0.4 1.5LNew                1
 GAP=254        1.00       7.7     2.8  6.9 -0.1137E+02  0.7415E+01 -0.3861E+02E
 Action:ARG 24-03-13 14:54 OP:OBSP STATUS:               ID:20010203005820     I
 STAT SP IPHASW D HRMM SECON CODA AMPLIT PERI AZIMU VELO AIN AR TRES W  DIS CAZ7
 RHPW    IP   0A   058 33.95                              60   -0.0110 64.5  21 
 RHPW    ES   0A   058 44.41                              60    0.0910 64.5  21 
 LUEX    IP   0A   058 34.58                              60    0.1810 67.1 297 
 LUEX    ES   0A   058 45.52                              60    0.4510 67.1 297 
 XBVK    IP   0A   058 36.31                              57   -0.2610 80.5   5 
 AVTK    IP   0A   058 37.25                              57    0.0510 84.4 306 
 AVTK    ES   0A   058 50.18                              57    0.3110 84.4 306 
 DNOA     IAML A   058 41.09        13.4                                108  42 
 DNOA    IP   0A   058 41.09                              57    0.0910  108  42 
 DNOA    ES   0A   058 56.91                              57    0.5510  108  42 
 DQYH    IP   0A   058 42.79                              43   -0.0810  122 326 
 DQYH     IAML A   058 42.79        11.2                                122 326 
 DQYH    ES   0A   058 59.89                              43    0.3310  122 326 
 FOUH    IP   0A   058 43.76                              43   -0.2910  130   6 
 FOUH    ES   0A   059  1.58                              43    0.0110  130   6 
 VOCA    IP   0A   058 45.74                              43   -0.1110  144  34 
 VOCA    ES   0A   059  5.05                              43    0.3910  144  34 
 QYDI    IP   0A   058 52.82                              43   -0.58 8  201 352 
 QYDI     IAML A   058 52.82         4.5                                201 352 
 QYDI    ES   0A   059 16.55                              43   -1.02 8  201 352 
 HLUH    IP   0A   058 53.62                              43   -0.48 7  207 331 
 HLUH    ES   0A   059 17.78                              43   -0.98 7  207 331 
                                                                                
 2001  2 3 0059 29.5 L  33.945  52.408  9.8  New 12 0.4 3.3LNew                1
 GAP=123        0.96       2.0     1.5  2.3  0.6499E-01 -0.1875E+01 -0.1075E+01E
 Action:ARG 24-03-13 14:54 OP:OBSP STATUS:               ID:20010203005930     I
 STAT SP IPHASW D HRMM SECON CODA AMPLIT PERI AZIMU VELO AIN AR TRES W  DIS CAZ7
 LUEX    IP   0A   059 40.52                              97    0.0610 41.3 259 
 LUEX    ES   0A   059 48.40                              97    0.1510 41.3 259 
 XBVK    IP   0A   059 42.40                              56    0.0710 49.7  31 
 AVTK     IAML A   059 42.52      2407.2                               50.3 284 
 AVTK    IP   0A   059 42.52                              56    0.0810 50.3 284 
 AVTK    ES   0A   059 51.92                              56    0.3010 50.3 284 
 CBZA    IP   0A   059 45.93                              52   -0.1010 68.8 237 
 CBZA    ES   0A   059 57.88                              52    0.1210 68.8 237 
 DQYH    IP   0A   059 48.13                              44    0.0410 79.5 322 
 DQYH     IAML A   059 48.13      1262.8                               79.5 322 
 DQYH    ES   0A   1 0  1.72                              44    0.4410 79.5 322 
 FOUH    IP   0A   059 51.20                              41    0.1210 97.9  20 
 DNOA    IP   0A   059 51.85                              41    0.2510  101  65 
 DNOA    ES   0A   1 0  8.24                              41    0.9510  101  65 
 MGUS    IP   0A   059 55.20                              33   -0.4010  127  98 
 APSL     IAML A   059 55.34       604.8                                127  80 
 APSL    IP   0A   059 55.34                              33   -0.3110  127  80 
 APSL    ES   0A   1 0 14.35                              33    0.1410  127  80 
 MGUS    ES   0A   1 0 14.09                              33   -0.0410  127  98 
 RAWC    IP   0A   059 56.85                              33   -0.3110  138 114 
 RAWC    ES   0A   1 0 16.97                              33    0.1810  138 114 
 QYDI    IP   0A   059 59.71                              33   -0.55 9  162 357 
 QYDI    ES   0A   1 0 21.60                              33   -0.51 9  162 357 
 HLUH    IP   0A   059 59.90                              33   -0.66 9  164 330 
 HLUH     IAML A   059 59.90       389.4                                164 330 
 HLUH    ES   0A   1 0 22.14                              33   -0.47 9  164 330 
                                                                                
 2001  2 3 0100 39.8 L  33.840  52.802 27.0  New 11 0.3 2.2LNew                1
 GAP=156        0.87       2.2     1.7  3.6  0.2352E+00 -0.7814E+00 -0.4418E+00E
 Action:ARG 24-03-13 14:54 OP:OBSP STATUS:               ID:20010203010040     I
 STAT SP IPHASW D HRMM SECON CODA AMPLIT PERI AZIMU VELO AIN AR TRES W  DIS CAZ7
 RHPW    IP   0A   1 0 49.15                             106   -0.2210 34.7  10 
 XBVK    IP   0A   1 0 52.44                              80   -0.2210 55.2 349 
 XBVK    ES   0A   1 1  1.78                              80    0.0210 55.2 349 
 LUEX    IP   0A   1 0 56.19                              80   -0.0110 77.2 273 
 LUEX    ES   0A   1 1  8.33                              80    0.5110 77.2 273 
 DNOA    IP   0A   1 0 56.31                              80    0.0810 77.4  46 
 DNOA    ES   0A   1 1  8.55                              80    0.6710 77.4  46 
 AVTK    IP   0A   1 0 57.93                              80   -0.1010 88.5 286 
 AVTK     IAML A   1 0 57.93        89.7                               88.5 286 
 AVTK    ES   0A   1 1 11.39                              80    0.4410 88.5 286 
 APSL     IAML A   1 0 58.89        81.4                               94.9  69 
 APSL    IP   0A   1 0 58.89                              80   -0.1610 94.9  69 
 RAWC    IP   0A   1 0 59.63                              58   -0.3010  100 117 
 RAWC    ES   0A   1 1 14.36                              58    0.1710  100 117 
 VOCA     IAML A   1 1  1.43        61.6                                113  34 
 VOCA    IP   0A   1 1  1.43                              54   -0.1910  113  34 
 VOCA    ES   0A   1 1 17.51                              54    0.4210  113  34 
 QYDI    ES   0A   1 1 31.76                              54   -0.22 8  179 346 
 RPKV    IP   0A   1 1 10.25                              54   -0.11 8  179 329 
 QYDI    IP   0A   1 1  9.90                              54   -0.43 8  179 346 
 RPKV     IAML A   1 1 10.25        27.6                                179 329 
 RPKV    ES   0A   1 1 32.21                              54    0.18 8  179 329 
 HLUH    IP   0A   1 1 11.77                              54   -0.56 8  194 323 
 HLUH    ES   0A   1 1 34.80                              54   -0.59 8  194 323 
                                                                                
 2001  2 3 0101 49.1 L  33.711  52.536 10.8  New 11 0.4 2.6LNew                1
 GAP=156        0.94       2.4     1.5  3.5  0.8009E+00 -0.1485E+01 -0.3369E+01E
 Action:ARG 24-03-13 14:54 OP:OBSP STATUS:               ID:20010203010150     I
 STAT SP IPHASW D HRMM SECON CODA AMPLIT PERI AZIMU VELO AIN AR TRES W  DIS CAZ7
 LUEX    IP   0A   1 2  3.24                              52    0.3610 55.5 289 
 LUEX     IAML A   1 2  3.24       455.3                               55.5 289 
 LUEX    ES   0A   1 2 13.17                              52    0.4810 55.5 289 
 CBZA    IP   0A   1 2  5.77                              52   -0.0310 70.7 261 
 CBZA    ES   0A   1 2 17.60                              52   -0.0810 70.7 261 
 DNOA    IP   0A   1 2 11.87                              41    0.2310  105  49 
 DNOA    ES   0A   1 2 28.28                              41    0.6110  105  49 
 DQYH    IP   0A   1 2 12.17                              41    0.1610  108 325 
 DQYH    ES   0A   1 2 28.79                              41    0.4910  108 325 
 MGUS    IP   0A   1 2 12.88                              41   -0.1610  114  86 
 MGUS     IAML A   1 2 12.88       150.1                                114  86 
 MGUS    ES   0A   1 2 30.05                              41   -0.0110  114  86 
 RAWC    IP   0A   1 2 13.66                              41   -0.1010  118 105 
 RAWC    ES   0A   1 2 31.40                              41    0.1110  118 105 
 FOUH    IP   0A   1 2 13.80                              41   -0.2010  120  11 
 FOUH    ES   0A   1 2 31.65                              41   -0.0710  120  11 
 APSL     IAML A   1 2 14.39       132.2                                123  67 
 APSL    IP   0A   1 2 14.39                              35   -0.1010  123  67 
 APSL    ES   0A   1 2 32.67                              35    0.1210  123  67 
 RPKV    IP   0A   1 2 21.92                              33   -0.21 8  181 338 
 RPKV    ES   0A   1 2 45.19                              33   -0.43 8  181 338 
 QYDI     IAML A   1 2 22.60        62.9                                189 354 
 QYDI    IP   0A   1 2 22.60                              33   -0.56 8  189 354 
 HLUH    IP   0A   1 2 23.07                              33   -0.60 8  193 331 
 HLUH     IAML A   1 2 23.07        60.9                                193 331 
 HLUH    ES   0A   1 2 47.20                              33   -1.05 8  193 331 
                                                                                
 2001  2 3 0102 59.6 L  33.870  52.310  6.9  New 13 0.4 2.0LNew                1
 GAP=130        1.00       2.3     1.9  2.8  0.2361E+00 -0.3222E+01 -0.2410E+01E
 Action:ARG 24-03-13 14:54 OP:OBSP STATUS:               ID:20010203010300     I
 STAT SP IPHASW D HRMM SECON CODA AMPLIT PERI AZIMU VELO AIN AR TRES W  DIS CAZ7
 LUEX    IP   0A   1 3  8.38                              93    0.2610 31.5 271 
 LUEX    ES   0A   1 3 14.66                              93    0.5010 31.5 271 
 CBZA    IP   0A   1 3 14.39                              53    0.1610 56.7 239 
 RHPW     IAML A   1 3 14.97        92.0                               59.9  59 
 RHPW    IP   0A   1 3 14.97                              52    0.1210 59.9  59 
 RHPW    ES   0A   1 3 26.20                              52    0.5410 59.9  59 
 XBVK    IP   0A   1 3 15.08                              52   -0.1210 61.7  34 
 XBVK    ES   0A   1 3 26.39                              52    0.1210 61.7  34 
 FOUH    IP   0A   1 3 23.40                              41   -0.1110  109  23 
 FOUH    ES   0A   1 3 40.94                              41    0.4710  109  23 
 DNOA    IP   0A   1 3 24.03                              41   -0.1110  113  63 
 DNOA    ES   0A   1 3 42.06                              41    0.5110  113  63 
 MGUS     IAML A   1 3 26.92        27.0                                135  94 
 MGUS    IP   0A   1 3 26.92                              33   -0.4610  135  94 
 APSL     IAML A   1 3 27.38        26.1                                138  77 
 APSL    IP   0A   1 3 27.38                              33   -0.3610  138  77 
 APSL    ES   0A   1 3 47.92                              33    0.2010  138  77 
 VOCA    IP   0A   1 3 27.73                              33   -0.5210  141  50 
 VOCA     IAML A   1 3 27.73        24.7                                141  50 
 RAWC    IP   0A   1 3 28.31                              33   -0.2410  144 110 
 RAWC    ES   0A   1 3 49.50                              33    0.4010  144 110 
 RPKV    IP   0A   1 3 30.13                              33   -0.22 9  157 342 
 RPKV    ES   0A   1 3 52.57                              33    0.40 9  157 342 
 HLUH     IAML A   1 3 31.21        18.1                                167 334 
 HLUH    IP   0A   1 3 31.21                              33   -0.47 9  167 334 
 HLUH    ES   0A   1 3 54.18                              33   -0.27 9  167 334 
 QYDI     IAML A   1 3 31.39        17.6                                170   0 
 QYDI    IP   0A   1 3 31.39                              33   -0.65 9  170   0 
 QYDI    ES   0A   1 3 54.44                              33   -0.63 9  170   0 
                                                                                
 2001  2 3 0104  9.8 L  33.826  52.651 20.9  New 11 0.4 2.3LNew                1
 GAP=141        0.94       2.0     1.5  2.9 -0.3729E+00  0.6055E+00  0.1322E+01E
 Action:ARG 24-03-13 14:54 OP:OBSP STATUS:               ID:20010203010410     I
 STAT SP IPHASW D HRMM SECON CODA AMPLIT PERI AZIMU VELO AIN AR TRES W  DIS CAZ7
 RHPW    IP   0A   1 4 20.30                             103   -0.0110 40.8  29 
 RHPW     IAML A   1 4 20.30       291.2                               40.8  29 
 RHPW    ES   0A   1 4 28.02                             103    0.2710 40.8  29 
 XBVK    IP   0A   1 4 22.78                              64   -0.2210 55.8   4 
 XBVK     IAML A   1 4 22.78       192.5                               55.8   4 
 XBVK    ES   0A   1 4 32.36                              64    0.0110 55.8   4 
 LUEX    IP   0A   1 4 24.17                              62   -0.1210 63.3 275 
 LUEX     IAML A   1 4 24.17       163.0                               63.3 275 
 LUEX    ES   0A   1 4 34.79                              62    0.2410 63.3 275 
 AVTK     IAML A   1 4 26.24       126.6                               75.6 289 
 AVTK    IP   0A   1 4 26.24                              57   -0.0810 75.6 289 
 AVTK    ES   0A   1 4 38.42                              57    0.4010 75.6 289 
 CBZA    IP   0A   1 4 27.56                              57   -0.1010 83.9 254 
 CBZA    ES   0A   1 4 40.73                              57    0.4110 83.9 254 
 DNOA     IAML A   1 4 28.50       100.7                               88.9  51 
 DNOA    IP   0A   1 4 28.50                              57    0.0510 88.9  51 
 DNOA    ES   0A   1 4 42.37                              57    0.6910 88.9  51 
 DQYH    IP   0A   1 4 30.77                              57   -0.1610  104 317 
 DQYH    ES   0A   1 4 46.34                              57    0.4310  104 317 
 APSL    IP   0A   1 4 31.40                              57   -0.2210  109  71 
 APSL    ES   0A   1 4 47.46                              57    0.3710  109  71 
 RAWC    IP   0A   1 4 31.82                              46   -0.4110  113 113 
 RAWC    ES   0A   1 4 48.19                              46    0.0610  113 113 
 RPKV     IAML A   1 4 39.90        32.8                                174 333 
 RPKV    IP   0A   1 4 39.90                              43   -0.42 9  174 333 
 RPKV    ES   0A   1 5  1.56                              43   -0.41 9  174 333 
 QYDI    IP   0A   1 4 40.14                              43   -0.68 8  178 350 
 QYDI    ES   0A   1 5  2.07                              43   -0.75 8  178 350 
                                                                                
 2001  2 3 0105 19.1 L  33.964  52.603 12.9  New 11 0.3 0.9LNew                1
 GAP=124        0.80       1.5     1.4  2.6 -0.3530E+00 -0.1380E+00 -0.2943E-01E
 Action:ARG 24-03-13 14:54 OP:OBSP STATUS:               ID:20010203010520     I
 STAT SP IPHASW D HRMM SECON CODA AMPLIT PERI AZIMU VELO AIN AR TRES W  DIS CAZ7
 XBVK    IP   0A   1 5 30.07                              58    0.2910 41.2  11 
 XBVK    ES   0A   1 5 37.63                              58    0.2810 41.2  11 
 AVTK    IP   0A   1 5 35.07                              52    0.1410 67.6 278 
 AVTK    ES   0A   1 5 46.38                              52    0.2210 67.6 278 
 DNOA    IP   0A   1 5 38.05                              42    0.1610 84.1  61 
 DNOA    ES   0A   1 5 51.59                              42    0.3710 84.1  61 
 CBZA    IP   0A   1 5 38.13                              41    0.0210 85.5 243 
 CBZA    ES   0A   1 5 51.72                              41    0.1110 85.5 243 
 DQYH     IAML A   1 5 38.95         4.2                               90.4 312 
 DQYH    IP   0A   1 5 38.95                              41    0.0410 90.4 312 
 DQYH    ES   0A   1 5 53.17                              41    0.2010 90.4 312 
 FOUH    IP   0A   1 5 39.08                              41    0.0510 91.2  10 
 FOUH    ES   0A   1 5 53.38                              41    0.2010 91.2  10 
 APSL     IAML A   1 5 41.86         3.0                                109  79 
 APSL    IP   0A   1 5 41.86                              41   -0.0210  109  79 
 VOCA     IAML A   1 5 42.38         2.8                                114  46 
 VOCA    IP   0A   1 5 42.38                              41   -0.3710  114  46 
 VOCA    ES   0A   1 5 59.17                              41   -0.3710  114  46 
 RAWC    IP   0A   1 5 44.02                              33   -0.0910  123 119 
 RAWC    ES   0A   1 6  2.03                              33    0.1610  123 119 
 RPKV    IP   0A   1 5 48.34                              33   -0.39 9  158 332 
 RPKV     IAML A   1 5 48.34         1.7                                158 332 
 RPKV    ES   0A   1 6  9.22                              33   -0.55 9  158 332 
 HLUH    IP   0A   1 5 49.75                              33   -0.82 9  172 325 
                                                                                
