 2001  2 3 0024 29.4 L  33.303  52.539 12.4  New 11 0.6 3.2LNew                1
 GAP=213        1.23       7.0     3.1  5.3  0.1152E+02 -0.5544E+01 -0.2180E+02E
 Action:ARG 24-03-13 14:54 OP:OBSP STATUS:               ID:20010203002430     I
 STAT SP IPHASW D HRMM SECON CODA AMPLIT PERI AZIMU VELO AIN AR TRES W  DIS CAZ7
 CBZA    IP   0A   024 47.19                              43   -0.1010 78.0 296 
 CBZA     IAML A   024 47.19      1200.5                               78.0 296 
 CBZA    ES   0A   025  0.08                              43    0.1110 78.0 296 
 LUEX    IP   0A   024 48.21                              42    0.1710 82.5 320 
 LUEX    ES   0A   025  1.86                              42    0.6210 82.5 320 
 RHPW    IP   0A   024 51.03                              41    0.4210 98.4  18 
 AVTK    IP   0A   024 51.44                              41    0.0910  103 324 
 AVTK     IAML A   024 51.44       771.6                                103 324 
 AVTK    ES   0A   025  7.52                              41    0.6110  103 324 
 XBVK     IAML A   024 53.27       639.9                                114   7 
 XBVK    IP   0A   024 53.27                              41    0.0710  114   7 
 RAWC     IAML A   024 53.14       655.6                                115  83 
 RAWC    IP   0A   024 53.14                              41   -0.1110  115  83 
 RAWC    ES   0A   025 10.50                              41    0.3410  115  83 
 APSL    IP   0A   024 57.55                              33   -0.0910  147  50 
 APSL    ES   0A   025 18.15                              33    0.4910  147  50 
 FOUH    IP   0A   024 59.81                              33   -0.17 9  164   8 
 FOUH    ES   0A   025 21.68                              33    0.01 9  164   8 
 VOCA     IAML A   025  1.09       306.2                                176  30 
 VOCA    IP   0A   025  1.09                              33   -0.46 8  176  30 
 VOCA    ES   0A   025 23.94                              33   -0.41 8  176  30 
 RPKV    IP   0A   025  7.31                              33   -0.47 7  224 342 
 RPKV    ES   0A   025 33.87                              33   -1.13 7  224 342 
 HLUH    IP   0A   025  8.24                              33   -0.83 6  233 336 
 HLUH     IAML A   025  8.24       177.7                                233 336 
 HLUH    ES   0A   025 35.30                              33   -1.90 6  233 336 
                                                                                
 2001  2 3 0025 39.5 L  34.045  52.935 25.9  New 11 0.2 1.0LNew                1
 GAP=114        0.66       1.4     1.2  2.8  0.3151E+00  0.6907E+00  0.1599E+01E
 Action:ARG 24-03-13 14:54 OP:OBSP STATUS:               ID:20010203002540     I
 STAT SP IPHASW D HRMM SECON CODA AMPLIT PERI AZIMU VELO AIN AR TRES W  DIS CAZ7
 XBVK    IP   0A   025 49.58                             100   -0.0310 38.7 324 
 XBVK    ES   0A   025 56.77                             100   -0.0510 38.7 324 
 DNOA    IP   0A   025 52.03                              80    0.0310 53.3  54 
 DNOA    ES   0A   026  1.05                              80    0.1510 53.3  54 
 APSL    IP   0A   025 55.83                              75   -0.0210 77.1  82 
 APSL    ES   0A   026  7.70                              75    0.2110 77.1  82 
 MGUS    IP   0A   025 56.68                              75    0.0810 81.8 110 
 FOUH    IP   0A   025 56.60                              75   -0.0510 82.1 350 
 FOUH     IAML A   025 56.60         6.5                               82.1 350 
 FOUH    ES   0A   026  9.06                              75    0.2010 82.1 350 
 LUEX     IAML A   025 58.12         5.5                               91.2 258 
 LUEX    IP   0A   025 58.12                              75   -0.0010 91.2 258 
 LUEX    ES   0A   026 11.71                              75    0.3410 91.2 258 
 RAWC    IP   0A   025 59.78                              57   -0.2410  103 132 
 RAWC    ES   0A   026 14.61                              57   -0.0010  103 132 
 DQYH     IAML A   026  1.06         4.1                                111 298 
 DQYH    IP   0A   026  1.06                              52    0.0310  111 298 
 DQYH    ES   0A   026 16.85                              52    0.5010  111 298 
 CBZA    IP   0A   026  1.67                              52   -0.2210  117 246 
 CBZA    ES   0A   026 17.90                              52    0.0910  117 246 
 RPKV    IP   0A   026  8.23                              52   -0.32 9  168 321 
 RPKV     IAML A   026  8.23         2.0                                168 321 
 RPKV    ES   0A   026 28.77                              52   -0.43 9  168 321 
 HLUH    IP   0A   026 10.19                              52   -0.65 8  185 316 
                                                                                
 2001  2 3 0026 49.9 L  33.753  52.543 18.4  New 13 0.4 0.8LNew                1
 GAP=150        1.03       2.3     2.0  3.2 -0.7096E+00  0.4609E+00 -0.2816E+00E
 Action:ARG 24-03-13 14:54 OP:OBSP STATUS:               ID:20010203002650     I
 STAT SP IPHASW D HRMM SECON CODA AMPLIT PERI AZIMU VELO AIN AR TRES W  DIS CAZ7
 RHPW    IP   0A   027  2.62                              93    0.0110 53.0  34 
 RHPW     IAML A   027  2.62         7.3                               53.0  34 
 RHPW    ES   0A   027 12.09                              93    0.4410 53.0  34 
 XBVK     IAML A   027  4.83         5.5                               65.2  12 
 XBVK    IP   0A   027  4.83                              62   -0.0510 65.2  12 
 XBVK    ES   0A   027 15.95                              62    0.4110 65.2  12 
 CBZA    IP   0A   027  6.26                              60    0.1910 72.3 257 
 CBZA     IAML A   027  6.26         4.7                               72.3 257 
 CBZA    ES   0A   027 18.46                              60    0.8910 72.3 257 
 DNOA    IP   0A   027 10.76                              57   -0.0710  102  51 
 DNOA    ES   0A   027 26.34                              57    0.6310  102  51 
 DQYH    IP   0A   027 11.24                              57    0.0210  104 324 
 MGUS    IP   0A   027 12.27                              57   -0.3710  113  88 
 MGUS    ES   0A   027 28.96                              57    0.1610  113  88 
 FOUH    IP   0A   027 12.58                              46   -0.4010  115  11 
 FOUH    ES   0A   027 29.51                              46    0.1310  115  11 
 RAWC    IP   0A   027 13.27                              43   -0.2310  119 107 
 APSL     IAML A   027 13.46         2.2                                121  69 
 APSL    IP   0A   027 13.46                              43   -0.2610  121  69 
 APSL    ES   0A   027 31.06                              43    0.4210  121  69 
 VOCA     IAML A   027 15.14         1.8                                135  40 
 VOCA    IP   0A   027 15.14                              43   -0.4810  135  40 
 VOCA    ES   0A   027 34.00                              43    0.0910  135  40 
 RPKV    IP   0A   027 20.94                              43   -0.20 8  177 337 
 RPKV    ES   0A   027 43.43                              43    0.09 8  177 337 
 QYDI     IAML A   027 21.47         1.0                                184 354 
 QYDI    IP   0A   027 21.47                              43   -0.63 8  184 354 
 QYDI    ES   0A   027 44.34                              43   -0.64 8  184 354 
 HLUH    IP   0A   027 22.15                              43   -0.57 8  189 330 
 HLUH    ES   0A   027 45.63                              43   -0.41 8  189 330 
                                                                                
 2001  2 3 0027 59.4 L  33.811  52.250  3.6  New 12 0.4 1.4LNew                1
 GAP=136        1.02       1.8     1.7  2.4  0.6315E-01 -0.2802E+01 -0.5804E+00E
 Action:ARG 24-03-13 14:54 OP:OBSP STATUS:               ID:20010203002800     I
 STAT SP IPHASW D HRMM SECON CODA AMPLIT PERI AZIMU VELO AIN AR TRES W  DIS CAZ7
 LUEX    IP   0A   028  7.02                              98    0.0910 26.9 285 
 LUEX    ES   0A   028 12.29                              98   -0.0210 26.9 285 
 AVTK    IP   0A   028 11.15                              61    0.0410 43.4 308 
 AVTK    ES   0A   028 19.52                              61    0.0710 43.4 308 
 CBZA    IP   0A   028 12.57                              61    0.1710 48.7 243 
 CBZA    ES   0A   028 21.99                              61    0.3310 48.7 243 
 RHPW     IAML A   028 17.16        20.7                               68.0  56 
 RHPW    IP   0A   028 17.16                              44    0.3710 68.0  56 
 RHPW    ES   0A   028 30.04                              44    0.8810 68.0  56 
 XBVK    IP   0A   028 17.27                              44    0.0610 70.2  35 
 XBVK     IAML A   028 17.27        19.9                               70.2  35 
 XBVK    ES   0A   028 30.22                              44    0.3310 70.2  35 
 DQYH    IP   0A   028 20.00                              44   -0.0110 84.8 336 
 DQYH     IAML A   028 20.00        15.2                               84.8 336 
 DQYH    ES   0A   028 35.00                              44    0.3310 84.8 336 
 FOUH    IP   0A   028 25.00                              35   -0.3010  117  24 
 FOUH    ES   0A   028 43.75                              35    0.0410  117  24 
 DNOA     IAML A   028 25.65         8.7                                121  62 
 DNOA    IP   0A   028 25.65                              35   -0.2310  121  62 
 DNOA    ES   0A   028 44.90                              35    0.1910  121  62 
 MGUS     IAML A   028 28.17         6.7                                140  91 
 MGUS    IP   0A   028 28.17                              28   -0.4310  140  91 
 MGUS    ES   0A   028 49.31                              28   -0.0510  140  91 
 RAWC    IP   0A   028 29.25                              28   -0.2510  147 107 
 RAWC    ES   0A   028 51.16                              28    0.2610  147 107 
 VOCA    IP   0A   028 29.39                              28   -0.50 9  150  50 
 VOCA    ES   0A   028 51.43                              28   -0.13 9  150  50 
 QYDI    IP   0A   028 32.69                              28   -0.76 8  177   2 
 QYDI     IAML A   028 32.69         4.5                                177   2 
 QYDI    ES   0A   028 56.54                              28   -1.12 8  177   2 
                                                                                
 2001  2 3 0029  9.6 L  34.132  52.866 25.3  New 10 0.4 1.5LNew                1
 GAP=107        1.01       2.3     2.0  2.2  0.2063E+01  0.2795E-01 -0.2165E+00E
 Action:ARG 24-03-13 14:54 OP:OBSP STATUS:               ID:20010203002910     I
 STAT SP IPHASW D HRMM SECON CODA AMPLIT PERI AZIMU VELO AIN AR TRES W  DIS CAZ7
 RHPW    IP   0A   029 15.28                             175   -0.1010 1.83 357 
 RHPW    ES   0A   029 19.24                             175   -0.2210 1.83 357 
 FOUH     IAML A   029 25.27        21.2                               71.6 353 
 FOUH    IP   0A   029 25.27                              75    0.1010 71.6 353 
 FOUH    ES   0A   029 36.72                              75    0.5310 71.6 353 
 APSL    IP   0A   029 26.79                              75   -0.1510 82.6  89 
 APSL    ES   0A   029 39.39                              75    0.1610 82.6  89 
 MGUS     IAML A   029 28.33        15.6                               91.3 115 
 MGUS    IP   0A   029 28.33                              75   -0.0110 91.3 115 
 MGUS    ES   0A   029 42.08                              75    0.4610 91.3 115 
 AVTK    IP   0A   029 28.37                              75   -0.0210 91.6 265 
 AVTK    ES   0A   029 42.14                              75    0.4410 91.6 265 
 DQYH     IAML A   029 29.97        13.0                                101 295 
 DQYH    IP   0A   029 29.97                              75    0.1410  101 295 
 DQYH    ES   0A   029 44.96                              75    0.7910  101 295 
 RAWC    IP   0A   029 31.53                              52   -0.2410  114 133 
 RAWC    ES   0A   029 47.67                              52    0.1910  114 133 
 CBZA    IP   0A   029 31.41                              52   -0.5410  116 240 
 QYDI    IP   0A   029 35.94                              52   -0.49 9  150 341 
 QYDI    ES   0A   029 55.15                              52   -0.30 9  150 341 
 HLUH    IP   0A   029 39.09                              52   -0.50 9  174 315 
 HLUH    ES   0A   030  0.22                              52   -0.63 9  174 315 
                                                                                
 2001  2 3 0030 19.7 L  33.708  52.721 20.8  New 11 0.4 0.7LNew                1
 GAP=155        1.08       2.4     1.8  5.0  0.3115E-01  0.8134E+00 -0.2704E+01E
 Action:ARG 24-03-13 14:54 OP:OBSP STATUS:               ID:20010203003020     I
 STAT SP IPHASW D HRMM SECON CODA AMPLIT PERI AZIMU VELO AIN AR TRES W  DIS CAZ7
 RHPW    IP   0A   030 32.19                              66    0.2110 50.6  15 
 RHPW    ES   0A   030 41.32                              66    0.6310 50.6  15 
 XBVK    IP   0A   030 34.93                              60   -0.1610 68.8 358 
 XBVK    ES   0A   030 46.13                              60    0.1210 68.8 358 
 LUEX    IP   0A   030 35.66                              58    0.0410 72.0 285 
 LUEX    ES   0A   030 47.40                              58    0.4910 72.0 285 
 CBZA    IP   0A   030 38.11                              57   -0.0310 87.7 263 
 CBZA    ES   0A   030 51.69                              57    0.4510 87.7 263 
 DNOA    IP   0A   030 38.96                              57   -0.0510 93.0  43 
 DNOA     IAML A   030 38.96         2.6                               93.0  43 
 DNOA    ES   0A   030 53.18                              57    0.4610 93.0  43 
 MGUS     IAML A   030 39.41         2.4                               96.8  85 
 MGUS    IP   0A   030 39.41                              57   -0.2110 96.8  85 
 MGUS    ES   0A   030 53.96                              57    0.2010 96.8  85 
 RAWC    IP   0A   030 40.24                              57   -0.1910  102 108 
 RAWC     IAML A   030 40.24         2.3                                102 108 
 RAWC    ES   0A   030 55.42                              57    0.2810  102 108 
 DQYH    IP   0A   030 42.74                              43   -0.1510  118 319 
 DQYH     IAML A   030 42.74         1.7                                118 319 
 DQYH    ES   0A   030 59.80                              43    0.4410  118 319 
 VOCA    IP   0A   030 43.79                              43   -0.5510  129  33 
 VOCA    ES   0A   031  1.63                              43   -0.2010  129  33 
 RPKV    IP   0A   030 51.69                              43   -0.44 8  188 333 
 RPKV    ES   0A   031 14.59                              43   -0.56 8  188 333 
 HLUH     IAML A   030 53.10         0.7                                202 327 
 HLUH    IP   0A   030 53.10                              43   -0.80 8  202 327 
 HLUH    ES   0A   031 16.97                              43   -1.20 8  202 327 
                                                                                
 2001  2 3 0031 29.8 L  33.700  52.525 17.8  New 13 0.4 1.7LNew                1
 GAP=177        0.93       2.9     1.8  3.3  0.9530E+00 -0.2687E+01 -0.3194E+01E
 Action:ARG 24-03-13 14:54 OP:OBSP STATUS:               ID:20010203003130     I
 STAT SP IPHASW D HRMM SECON CODA AMPLIT PERI AZIMU VELO AIN AR TRES W  DIS CAZ7
 LUEX    IP   0A   031 42.91                              92    0.0410 55.0 291 
 LUEX     IAML A   031 42.91        51.2                               55.0 291 
 LUEX    ES   0A   031 52.60                              92    0.4210 55.0 291 
 RHPW    IP   0A   031 43.59                              92   -0.0210 58.8  32 
 CBZA     IAML A   031 45.73        35.9                               69.5 262 
 CBZA    IP   0A   031 45.73                              60    0.1710 69.5 262 
 AVTK     IAML A   031 45.68        35.6                               71.3 303 
 XBVK     IAML A   031 45.73        35.7                               71.3  12 
 XBVK    IP   0A   031 45.73                              60   -0.1110 71.3  12 
 AVTK    ES   0A   031 57.44                              60    0.1710 71.3 303 
 XBVK    ES   0A   031 57.52                              60    0.2610 71.3  12 
 AVTK    IP   0A   031 45.68                              60   -0.1710 71.3 303 
 DNOA    IP   0A   031 51.51                              57   -0.0810  107  49 
 DNOA    ES   0A   032  7.64                              57    0.5610  107  49 
 DQYH    IP   0A   031 51.64                              57   -0.1310  108 326 
 DQYH    ES   0A   032  7.88                              57    0.4810  108 326 
 MGUS     IAML A   031 52.81        16.5                                115  85 
 MGUS    IP   0A   031 52.81                              46   -0.1010  115  85 
 MGUS    ES   0A   032  9.92                              46    0.5810  115  85 
 FOUH    IP   0A   031 53.32                              43   -0.4310  121  11 
 APSL    IP   0A   031 54.13                              43   -0.0510  125  66 
 VOCA    IP   0A   031 55.88                              43   -0.4410  141  39 
 VOCA    ES   0A   032 15.30                              43    0.1210  141  39 
 RPKV    IP   0A   032  1.39                              43   -0.34 8  182 338 
 RPKV    ES   0A   032 24.31                              43   -0.11 8  182 338 
 QYDI     IAML A   032  2.11         7.0                                190 354 
 QYDI    IP   0A   032  2.11                              43   -0.69 8  190 354 
 QYDI    ES   0A   032 25.41                              43   -0.85 8  190 354 
                                                                                
