 2001  2 3 0016 19.5 L  33.578  52.482 14.8  New 13 0.3 5.0LNew                1
 GAP=175        0.85       2.8     1.9  3.7  0.1125E+01 -0.3151E+01 -0.5565E+01E
 Action:ARG 24-03-13 14:54 OP:OBSP STATUS:               ID:20010203001620     I
 STAT SP IPHASW D HRMM SECON CODA AMPLIT PERI AZIMU VELO AIN AR TRES W  DIS CAZ7
 LUEX    IP   0A   016 33.32                              68    0.1010 57.8 305 
 LUEX     IAML A   016 33.32      10.7e4                               57.8 305 
 CBZA     IAML A   016 34.66     88290.7                               65.0 273 
 CBZA    IP   0A   016 34.66                              68    0.0610 65.0 273 
 CBZA    ES   0A   016 45.65                              68    0.2910 65.0 273 
 RHPW    IP   0A   016 36.23                              68    0.2010 72.4  29 
 RHPW     IAML A   016 36.23     75420.9                               72.4  29 
 XBVK    IP   0A   016 38.18                              51    0.0110 85.3  13 
 XBVK     IAML A   016 38.18     59923.5                               85.3  13 
 XBVK    ES   0A   016 51.81                              51    0.3510 85.3  13 
 DQYH    IP   0A   016 43.22                              51   -0.1210  117 331 
 DQYH    ES   0A   017  0.64                              51    0.3310  117 331 
 DNOA    IP   0A   016 43.37                              42   -0.1810  119  46 
 DNOA    ES   0A   017  0.90                              42    0.2510  119  46 
 RAWC    IP   0A   016 43.96                              42    0.2010  120  98 
 MGUS    IP   0A   016 43.60                              42   -0.2310  121  79 
 MGUS    ES   0A   017  1.30                              42    0.1710  121  79 
 APSL    IP   0A   016 45.58                              40    0.0210  134  62 
 FOUH    IP   0A   016 45.53                              40   -0.2010  135  12 
 FOUH    ES   0A   017  4.67                              40    0.2810  135  12 
 VOCA    IP   0A   016 47.89                              40   -0.28 9  154  37 
 VOCA    ES   0A   017  8.79                              40    0.22 9  154  37 
 RPKV    IP   0A   016 53.04                              40   -0.31 8  193 341 
 RPKV    ES   0A   017 17.05                              40   -0.37 8  193 341 
 QYDI     IAML A   016 54.03     13561.4                                203 356 
 QYDI    IP   0A   016 54.03                              40   -0.63 7  203 356 
 QYDI    ES   0A   017 18.40                              40   -1.26 7  203 356 
                                                                                
 2001  2 3 0017 29.3 L  33.616  52.815 19.1  New 10 0.3 0.8LNew                1
 GAP=192        0.84       4.1     1.5  5.5 -0.2513E+01  0.2495E+01 -0.1559E+02E
 Action:ARG 24-03-13 14:54 OP:OBSP STATUS:               ID:20010203001730     I
 STAT SP IPHASW D HRMM SECON CODA AMPLIT PERI AZIMU VELO AIN AR TRES W  DIS CAZ7
 LUEX    IP   0A   017 47.37                              57    0.1510 83.4 290 
 LUEX    ES   0A   018  0.40                              57    0.4510 83.4 290 
 MGUS     IAML A   017 48.20         3.2                               89.8  78 
 MGUS    IP   0A   017 48.20                              57   -0.0410 89.8  78 
 MGUS    ES   0A   018  1.84                              57    0.1410 89.8  78 
 DNOA    IP   0A   017 49.39                              57    0.2110 95.6  35 
 DNOA    ES   0A   018  3.93                              57    0.6210 95.6  35 
 CBZA    IP   0A   017 49.08                              57   -0.1210 95.8 270 
 CBZA    ES   0A   018  3.39                              57    0.0410 95.8 270 
 AVTK     IAML A   017 49.69         2.8                               99.2 299 
 AVTK    IP   0A   017 49.69                              57   -0.0710 99.2 299 
 AVTK    ES   0A   018  4.46                              57    0.1710 99.2 299 
 APSL    IP   0A   017 50.58                              57   -0.1710  105  56 
 APSL     IAML A   017 50.58         2.5                                105  56 
 APSL    ES   0A   018  6.01                              57    0.0310  105  56 
 FOUH    IP   0A   017 53.67                              43   -0.3710  128 358 
 FOUH    ES   0A   018 11.43                              43   -0.1810  128 358 
 DQYH     IAML A   017 54.48         1.7                                132 319 
 DQYH    IP   0A   017 54.48                              43   -0.0010  132 319 
 DQYH    ES   0A   018 12.62                              43    0.2510  132 319 
 VOCA    IP   0A   017 54.47                              43   -0.2610  134  28 
 VOCA    ES   0A   018 12.79                              43   -0.0110  134  28 
 RPKV    IP   0A   018  3.35                              43   -0.32 8  202 332 
 RPKV    ES   0A   018 26.96                              43   -1.13 8  202 332 
                                                                                
 2001  2 3 0018 39.4 L  33.681  52.771 18.6  New 11 0.3 3.7LNew                1
 GAP=158        0.80       2.1     1.2  4.1  0.1765E+00  0.2522E+00 -0.3284E+01E
 Action:ARG 24-03-13 14:54 OP:OBSP STATUS:               ID:20010203001840     I
 STAT SP IPHASW D HRMM SECON CODA AMPLIT PERI AZIMU VELO AIN AR TRES W  DIS CAZ7
 XBVK    IP   0A   018 55.66                              60    0.1510 72.2 354 
 XBVK    ES   0A   019  7.41                              60    0.4210 72.2 354 
 LUEX    IP   0A   018 56.43                              58    0.0710 77.3 286 
 LUEX    ES   0A   019  8.75                              58    0.3210 77.3 286 
 CBZA    IP   0A   018 58.64                              57   -0.0810 92.0 265 
 CBZA    ES   0A   019 12.62                              57    0.1410 92.0 265 
 AVTK    IP   0A   018 58.67                              57   -0.0910 92.2 297 
 AVTK    ES   0A   019 12.68                              57    0.1410 92.2 297 
 DNOA    IP   0A   018 58.87                              57    0.1010 92.3  39 
 DNOA    ES   0A   019 13.02                              57    0.4710 92.3  39 
 MGUS    IP   0A   018 58.71                              57   -0.0910 92.5  83 
 MGUS     IAML A   018 58.71      2871.2                               92.5  83 
 MGUS    ES   0A   019 12.74                              57    0.1310 92.5  83 
 RAWC    IP   0A   018 59.37                              57   -0.0710 96.5 107 
 RAWC     IAML A   018 59.37      2718.1                               96.5 107 
 RAWC    ES   0A   019 13.89                              57    0.1810 96.5 107 
 APSL    IP   0A   019  0.60                              57   -0.2110  105  60 
 APSL    ES   0A   019 16.05                              57    0.0010  105  60 
 FOUH     IAML A   019  2.71      1849.3                                121   0 
 FOUH    IP   0A   019  2.71                              43   -0.5110  121   0 
 FOUH    ES   0A   019 19.75                              43   -0.4210  121   0 
 DQYH    IP   0A   019  3.45                              43   -0.1110  124 318 
 DQYH    ES   0A   019 21.03                              43    0.2810  124 318 
 RPKV    IP   0A   019 12.33                              43   -0.40 8  193 332 
 RPKV     IAML A   019 12.33       809.1                                193 332 
 RPKV    ES   0A   019 35.51                              43   -0.91 8  193 332 
                                                                                
 2001  2 3 0019 49.4 L  33.727  52.489 12.0  New 13 0.5 3.6LNew                1
 GAP=172        1.21       3.2     1.9  4.0 -0.1191E+01 -0.1919E+01 -0.2786E+01E
 Action:ARG 24-03-13 14:54 OP:OBSP STATUS:               ID:20010203001950     I
 STAT SP IPHASW D HRMM SECON CODA AMPLIT PERI AZIMU VELO AIN AR TRES W  DIS CAZ7
 LUEX    IP   0A   020  2.34                              53    0.2210 50.8 289 
 LUEX     IAML A   020  2.34      5502.4                               50.8 289 
 LUEX    ES   0A   020 11.59                              53    0.4510 50.8 289 
 RHPW    IP   0A   020  4.00                              52    0.4410 58.3  37 
 RHPW     IAML A   020  4.00      4520.2                               58.3  37 
 RHPW    ES   0A   020 14.50                              52    0.9010 58.3  37 
 CBZA    IP   0A   020  5.29                              52    0.1110 66.7 259 
 CBZA    ES   0A   020 16.76                              52    0.3710 66.7 259 
 AVTK    IP   0A   020  5.20                              52   -0.0210 66.9 303 
 AVTK    ES   0A   020 16.60                              52    0.1510 66.9 303 
 XBVK    IP   0A   020  5.94                              52    0.2810 69.2  15 
 XBVK     IAML A   020  5.94      3581.4                               69.2  15 
 DNOA    IP   0A   020 12.17                              41    0.0610  107  52 
 DNOA     IAML A   020 12.17      1832.9                                107  52 
 DNOA    ES   0A   020 28.80                              41    0.5710  107  52 
 MGUS    IP   0A   020 13.55                              41   -0.2710  118  87 
 MGUS    ES   0A   020 31.21                              41    0.0510  118  87 
 FOUH    IP   0A   020 13.59                              41   -0.3810  119  13 
 FOUH     IAML A   020 13.59      1570.5                                119  13 
 FOUH    ES   0A   020 31.29                              41   -0.1310  119  13 
 APSL    IP   0A   020 14.85                              33   -0.1710  126  68 
 APSL    ES   0A   020 33.49                              33    0.2910  126  68 
 VOCA    IP   0A   020 16.40                              33   -0.4910  141  41 
 VOCA    ES   0A   020 36.19                              33   -0.2110  141  41 
 RPKV    IP   0A   020 21.25                              33   -0.54 8  178 339 
 QYDI    IP   0A   020 22.19                              33   -0.77 8  187 355 
 QYDI     IAML A   020 22.19       709.3                                187 355 
 QYDI    ES   0A   020 45.59                              33   -1.19 8  187 355 
 HLUH    IP   0A   020 22.38                              33   -0.89 8  189 332 
                                                                                
 2001  2 3 0020 59.8 L  33.799  52.782 22.8  New 12 0.3 1.1LNew                1
 GAP=167        0.87       2.1     1.4  4.0 -0.6900E+00  0.7450E+00 -0.1404E+01E
 Action:ARG 24-03-13 14:54 OP:OBSP STATUS:               ID:20010203002100     I
 STAT SP IPHASW D HRMM SECON CODA AMPLIT PERI AZIMU VELO AIN AR TRES W  DIS CAZ7
 RHPW    IP   0A   021 10.08                              79    0.0310 39.4  11 
 RHPW     IAML A   021 10.08        22.4                               39.4  11 
 RHPW    ES   0A   021 17.63                              79    0.3210 39.4  11 
 XBVK    IP   0A   021 13.28                              75   -0.1810 59.2 352 
 XBVK    ES   0A   021 23.23                              75    0.1010 59.2 352 
 LUEX     IAML A   021 16.04         9.3                               75.7 277 
 LUEX    IP   0A   021 16.04                              66   -0.1110 75.7 277 
 LUEX    ES   0A   021 28.06                              66    0.3310 75.7 277 
 DNOA    IP   0A   021 17.15                              66    0.0110 81.8  45 
 DNOA     IAML A   021 17.15         8.3                               81.8  45 
 DNOA    ES   0A   021 30.02                              66    0.5910 81.8  45 
 AVTK    IP   0A   021 17.97                              66   -0.1710 88.1 289 
 AVTK    ES   0A   021 31.44                              66    0.3010 88.1 289 
 MGUS    IP   0A   021 18.39                              66   -0.1910 90.8  91 
 MGUS    ES   0A   021 32.18                              66    0.2810 90.8  91 
 CBZA    IP   0A   021 19.10                              66   -0.1510 94.9 257 
 CBZA    ES   0A   021 33.42                              66    0.3810 94.9 257 
 APSL    IP   0A   021 19.57                              66   -0.2210 98.3  67 
 APSL    ES   0A   021 34.25                              66    0.2910 98.3  67 
 DQYH     IAML A   021 22.14         4.9                                115 313 
 DQYH    IP   0A   021 22.14                              49   -0.1610  115 313 
 DQYH    ES   0A   021 38.75                              49    0.4910  115 313 
 VOCA    IP   0A   021 22.18                              49   -0.4910  118  34 
 VOCA    ES   0A   021 38.82                              49   -0.0710  118  34 
 RPKV    IP   0A   021 30.79                              49   -0.37 8  182 330 
 RPKV    ES   0A   021 53.13                              49   -0.29 8  182 330 
 QYDI    IP   0A   021 30.59                              49   -0.67 8  183 347 
 QYDI    ES   0A   021 52.93                              49   -0.66 8  183 347 
                                                                                
 2001  2 3 0022  9.9 L  33.787  52.568 17.0  New 11 0.4 0.5LNew                1
 GAP=145        1.12       2.3     1.9  4.1  0.1650E+00  0.9056E+00  0.1910E+01E
 Action:ARG 24-03-13 14:54 OP:OBSP STATUS:               ID:20010203002210     I
 STAT SP IPHASW D HRMM SECON CODA AMPLIT PERI AZIMU VELO AIN AR TRES W  DIS CAZ7
 RHPW    IP   0A   022 21.81                              78   -0.0210 48.6  34 
 RHPW     IAML A   022 21.81         4.4                               48.6  34 
 RHPW    ES   0A   022 30.67                              78    0.4110 48.6  34 
 XBVK    IP   0A   022 24.11                              78   -0.1210 61.1  11 
 XBVK    ES   0A   022 34.69                              78    0.3210 61.1  11 
 AVTK    IP   0A   022 25.76                              60   -0.1610 70.2 295 
 AVTK     IAML A   022 25.76         2.7                               70.2 295 
 AVTK    ES   0A   022 37.59                              60    0.3310 70.2 295 
 CBZA    IP   0A   022 26.84                              58    0.0510 75.4 255 
 CBZA    ES   0A   022 39.48                              58    0.7310 75.4 255 
 DNOA    IP   0A   022 30.32                              55   -0.0610 97.6  52 
 DNOA    ES   0A   022 45.56                              55    0.6710 97.6  52 
 DQYH    IP   0A   022 31.06                              55   -0.1210  103 321 
 DQYH    ES   0A   022 46.86                              55    0.6110  103 321 
 MGUS    IP   0A   022 32.08                              55   -0.4010  111  90 
 MGUS     IAML A   022 32.08         1.3                                111  90 
 MGUS    ES   0A   022 48.63                              55    0.1610  111  90 
 RAWC     IAML A   022 33.28         1.2                                118 110 
 RAWC    IP   0A   022 33.28                              45   -0.3510  118 110 
 RAWC    ES   0A   022 50.74                              45    0.3010  118 110 
 RPKV     IAML A   022 40.70         0.6                                174 336 
 RPKV    IP   0A   022 40.70                              42   -0.37 9  174 336 
 RPKV    ES   0A   023  2.97                              42   -0.19 9  174 336 
 QYDI    IP   0A   022 41.16                              42   -0.74 8  181 353 
 QYDI    ES   0A   023  3.84                              42   -0.75 8  181 353 
 HLUH    IP   0A   022 42.00                              42   -0.71 8  187 329 
 HLUH    ES   0A   023  5.31                              42   -0.66 8  187 329 
                                                                                
 2001  2 3 0023 19.5 L  34.029  52.859 25.1  New 13 0.3 3.3LNew                1
 GAP=117        0.74       1.4     1.2  2.3  0.3758E+00  0.4787E+00  0.8216E+00E
 Action:ARG 24-03-13 14:54 OP:OBSP STATUS:               ID:20010203002320     I
 STAT SP IPHASW D HRMM SECON CODA AMPLIT PERI AZIMU VELO AIN AR TRES W  DIS CAZ7
 RHPW    IP   0A   023 25.98                             142    0.0310 13.2   2 
 XBVK     IAML A   023 29.20      3618.0                               36.7 335 
 XBVK    IP   0A   023 29.20                              96   -0.1310 36.7 335 
 XBVK    ES   0A   023 36.10                              96   -0.1910 36.7 335 
 FOUH     IAML A   023 36.89      1212.6                               82.9 355 
 FOUH    IP   0A   023 36.89                              75    0.0110 82.9 355 
 FOUH    ES   0A   023 49.56                              75    0.3510 82.9 355 
 LUEX    IP   0A   023 37.09                              75    0.0210 84.1 258 
 LUEX    ES   0A   023 49.90                              75    0.3810 84.1 258 
 APSL    IP   0A   023 37.09                              75   -0.0110 84.3  81 
 APSL    ES   0A   023 49.91                              75    0.3410 84.3  81 
 MGUS    IP   0A   023 37.63                              75   -0.0310 87.8 108 
 MGUS    ES   0A   023 50.85                              75    0.3110 87.8 108 
 AVTK    IP   0A   023 38.01                              75   -0.1210 90.7 272 
 AVTK    ES   0A   023 51.51                              75    0.1810 90.7 272 
 VOCA    IP   0A   023 38.36                              75   -0.1410 92.9  39 
 VOCA     IAML A   023 38.36      1033.5                               92.9  39 
 DQYH    IP   0A   023 40.55                              57    0.0910  105 301 
 DQYH    ES   0A   023 55.97                              57    0.6510  105 301 
 RAWC     IAML A   023 40.45       827.9                                107 128 
 RAWC    IP   0A   023 40.45                              57   -0.2810  107 128 
 RAWC    ES   0A   023 55.78                              57   -0.0110  107 128 
 CBZA     IAML A   023 40.70       779.4                                110 245 
 CBZA    IP   0A   023 40.70                              52   -0.4010  110 245 
 CBZA    ES   0A   023 56.22                              52   -0.2010  110 245 
 QYDI    IP   0A   023 47.23                              52   -0.51 9  160 342 
 QYDI    ES   0A   024  7.34                              52   -0.42 9  160 342 
 RPKV    IP   0A   023 48.22                              52   -0.10 9  165 324 
 RPKV     IAML A   023 48.22       394.4                                165 324 
 RPKV    ES   0A   024  8.75                              52   -0.01 9  165 324 
                                                                                
