 2001  2 3 0040 49.9 L  33.856  52.620 18.8  New 11 0.3 0.7LNew                1
 GAP=137        0.80       1.7     1.5  2.3 -0.3342E+00  0.5028E+00  0.1399E+01E
 Action:ARG 24-03-13 14:54 OP:OBSP STATUS:               ID:20010203004050     I
 STAT SP IPHASW D HRMM SECON CODA AMPLIT PERI AZIMU VELO AIN AR TRES W  DIS CAZ7
 RHPW    IP   0A   041  0.06                              97    0.0110 39.5  35 
 RHPW    ES   0A   041  7.60                              97    0.3410 39.5  35 
 XBVK     IAML A   041  2.45         5.1                               52.7   7 
 XBVK    IP   0A   041  2.45                              94   -0.1210 52.7   7 
 XBVK    ES   0A   041 11.79                              94    0.2110 52.7   7 
 LUEX    IP   0A   041  3.78                              64   -0.2210 60.2 272 
 LUEX     IAML A   041  3.78         4.3                               60.2 272 
 LUEX    ES   0A   041 14.12                              64    0.0910 60.2 272 
 CBZA     IAML A   041  7.54         2.7                               82.2 251 
 CBZA    IP   0A   041  7.54                              57   -0.1210 82.2 251 
 CBZA    ES   0A   041 20.70                              57    0.4210 82.2 251 
 DNOA    IP   0A   041  8.84                              57    0.0710 89.1  54 
 DQYH    IP   0A   041 10.38                              57   -0.1210 99.8 316 
 DQYH    ES   0A   041 25.67                              57    0.5410 99.8 316 
 APSL    IP   0A   041 12.08                              57   -0.0910  110  73 
 RAWC    IP   0A   041 12.88                              46   -0.2310  117 114 
 RAWC    ES   0A   041 30.04                              46    0.4410  117 114 
 VOCA    IP   0A   041 13.44                              43   -0.3810  122  41 
 VOCA     IAML A   041 13.44         1.5                                122  41 
 VOCA    ES   0A   041 31.02                              43    0.2110  122  41 
 RPKV    IP   0A   041 19.82                              43   -0.28 9  170 333 
 RPKV    ES   0A   041 41.48                              43   -0.07 9  170 333 
 QYDI    IP   0A   041 20.09                              43   -0.58 9  174 351 
 QYDI    ES   0A   041 42.04                              43   -0.49 9  174 351 
                                                                                
 2001  2 3 0041 59.7 L  33.772  52.639 18.3  New 11 0.4 0.7LNew                1
 GAP=189        0.94       2.8     1.7  4.8 -0.1818E+01  0.4854E+00 -0.5032E+01E
 Action:ARG 24-03-13 14:54 OP:OBSP STATUS:               ID:20010203004200     I
 STAT SP IPHASW D HRMM SECON CODA AMPLIT PERI AZIMU VELO AIN AR TRES W  DIS CAZ7
 XBVK     IAML A   042 14.08         4.4                               61.8   4 
 XBVK    IP   0A   042 14.08                              64   -0.0410 61.8   4 
 XBVK    ES   0A   042 24.65                              64    0.2910 61.8   4 
 LUEX    IP   0A   042 14.28                              64   -0.0410 63.0 281 
 LUEX    ES   0A   042 24.99                              64    0.2710 63.0 281 
 AVTK    IP   0A   042 16.54                              58   -0.0910 76.8 294 
 AVTK    ES   0A   042 28.95                              58    0.2910 76.8 294 
 CBZA    IP   0A   042 17.28                              57   -0.0910 81.4 257 
 CBZA    ES   0A   042 30.24                              57    0.3210 81.4 257 
 DNOA    IP   0A   042 19.47                              57    0.1410 93.5  49 
 DNOA    ES   0A   042 34.07                              57    0.8010 93.5  49 
 DQYH     IAML A   042 21.52         2.0                                108 319 
 DQYH    IP   0A   042 21.52                              57   -0.1310  108 319 
 DQYH    ES   0A   042 37.67                              57    0.4210  108 319 
 APSL    IP   0A   042 22.03                              57   -0.2210  112  68 
 APSL    ES   0A   042 38.55                              57    0.2910  112  68 
 FOUH    IP   0A   042 21.88                              57   -0.3810  112   7 
 FOUH     IAML A   042 21.88         1.9                                112   7 
 FOUH    ES   0A   042 38.30                              57    0.0210  112   7 
 VOCA    IP   0A   042 24.08                              43   -0.4010  128  38 
 VOCA    ES   0A   042 42.14                              43    0.0510  128  38 
 RPKV     IAML A   042 30.84         0.8                                179 334 
 RPKV    IP   0A   042 30.84                              43   -0.33 8  179 334 
 RPKV    ES   0A   042 53.15                              43   -0.38 8  179 334 
 QYDI     IAML A   042 31.12         0.8                                183 351 
 QYDI    IP   0A   042 31.12                              43   -0.67 8  183 351 
 QYDI    ES   0A   042 53.77                              43   -0.81 8  183 351 
                                                                                
 2001  2 3 0043  9.5 L  33.668  52.477 12.6  New 13 0.5 2.3LNew                1
 GAP=162        1.21       2.9     1.8  3.7  0.5784E+00 -0.1352E+01 -0.2611E+01E
 Action:ARG 24-03-13 14:54 OP:OBSP STATUS:               ID:20010203004310     I
 STAT SP IPHASW D HRMM SECON CODA AMPLIT PERI AZIMU VELO AIN AR TRES W  DIS CAZ7
 LUEX    IP   0A   043 22.65                              52    0.1710 52.3 296 
 LUEX     IAML A   043 22.65       258.2                               52.3 296 
 LUEX    ES   0A   043 32.14                              52    0.4810 52.3 296 
 RHPW    IP   0A   043 25.12                              52    0.3510 64.2  34 
 RHPW     IAML A   043 25.12       189.2                               64.2  34 
 RHPW    ES   0A   043 36.46                              52    0.8910 64.2  34 
 CBZA    IP   0A   043 24.94                              52    0.0810 64.7 264 
 CBZA    ES   0A   043 36.15                              52    0.4110 64.7 264 
 AVTK     IAML A   043 25.75       172.7                               69.8 308 
 AVTK    IP   0A   043 25.75                              52   -0.0910 69.8 308 
 AVTK    ES   0A   043 37.56                              52    0.1610 69.8 308 
 XBVK    IP   0A   043 27.10                              52    0.1110 75.8  15 
 DQYH    IP   0A   043 32.30                              41   -0.0410  109 329 
 DQYH     IAML A   043 32.30        88.4                                109 329 
 DQYH    ES   0A   043 49.02                              41    0.5010  109 329 
 DNOA    IP   0A   043 32.83                              41   -0.1310  112  49 
 DNOA     IAML A   043 32.83        81.7                                112  49 
 DNOA    ES   0A   043 49.95                              41    0.3710  112  49 
 MGUS     IAML A   043 33.78        73.0                                120  83 
 MGUS    IP   0A   043 33.78                              41   -0.3610  120  83 
 MGUS    ES   0A   043 51.62                              41    0.0210  120  83 
 RAWC    IP   0A   043 34.45                              35   -0.0910  123 102 
 RAWC     IAML A   043 34.45        70.0                                123 102 
 RAWC    ES   0A   043 52.78                              35    0.5010  123 102 
 VOCA    IP   0A   043 37.19                              33   -0.4810  146  40 
 VOCA    ES   0A   043 57.58                              33   -0.0610  146  40 
 RPKV    IP   0A   043 42.11                              33   -0.47 8  184 340 
 RPKV     IAML A   043 42.11        35.4                                184 340 
 RPKV    ES   0A   044  5.66                              33   -0.37 8  184 340 
 QYDI    IP   0A   043 43.09                              33   -0.75 8  193 356 
 QYDI    ES   0A   044  7.07                              33   -1.11 8  193 356 
 HLUH    IP   0A   043 43.20                              33   -0.81 8  194 333 
 HLUH    ES   0A   044  7.40                              33   -1.08 8  194 333 
                                                                                
 2001  2 3 0044 19.6 L  33.922  52.680 18.5  New 11 0.4 2.6LNew                1
 GAP=129        0.94       2.1     1.5  4.7  0.3271E+00 -0.7609E+00 -0.2884E+01E
 Action:ARG 24-03-13 14:54 OP:OBSP STATUS:               ID:20010203004420     I
 STAT SP IPHASW D HRMM SECON CODA AMPLIT PERI AZIMU VELO AIN AR TRES W  DIS CAZ7
 LUEX    IP   0A   044 34.70                              62    0.0010 66.0 266 
 LUEX    ES   0A   044 45.72                              62    0.2810 66.0 266 
 AVTK    IP   0A   044 36.37                              58    0.1010 75.4 281 
 CBZA     IAML A   044 38.45       241.5                               90.1 248 
 CBZA    IP   0A   044 38.45                              57   -0.1810 90.1 248 
 CBZA    ES   0A   044 52.28                              57    0.1110 90.1 248 
 DQYH    IP   0A   044 40.23                              57    0.1910 98.8 311 
 DQYH     IAML A   044 40.23       201.9                               98.8 311 
 DQYH    ES   0A   044 55.40                              57    0.8210 98.8 311 
 MGUS    IP   0A   044 40.37                              57   -0.0710  101  98 
 MGUS    ES   0A   044 55.64                              57    0.3810  101  98 
 APSL    IP   0A   044 40.73                              57    0.0410  103  76 
 APSL    ES   0A   044 56.29                              57    0.6010  103  76 
 VOCA     IAML A   044 42.02       162.3                                113  42 
 VOCA    IP   0A   044 42.02                              57   -0.2410  113  42 
 VOCA    ES   0A   044 58.54                              57    0.1610  113  42 
 RAWC    IP   0A   044 42.14                              46   -0.4410  115 119 
 RAWC    ES   0A   044 58.74                              46   -0.1810  115 119 
 RPKV     IAML A   044 49.21        84.8                                166 331 
 RPKV    IP   0A   044 49.21                              43   -0.11 9  166 331 
 RPKV    ES   0A   045 10.43                              43   -0.01 9  166 331 
 QYDI    IP   0A   044 49.15                              43   -0.42 9  168 349 
 QYDI     IAML A   044 49.15        82.7                                168 349 
 QYDI    ES   0A   045 10.48                              43   -0.40 9  168 349 
 HLUH    IP   0A   044 50.69                              43   -0.53 8  180 324 
 HLUH    ES   0A   045 13.00                              43   -0.69 8  180 324 
                                                                                
 2001  2 3 0045 29.9 L  33.641  52.826 30.7  New 11 0.4 2.0LNew                1
 GAP=183        0.95       2.6     2.1  3.5  0.9182E+00 -0.2507E+01  0.1797E+01E
 Action:ARG 24-03-13 14:54 OP:OBSP STATUS:               ID:20010203004530     I
 STAT SP IPHASW D HRMM SECON CODA AMPLIT PERI AZIMU VELO AIN AR TRES W  DIS CAZ7
 RHPW    IP   0A   045 42.88                             100   -0.1410 56.4   4 
 RHPW    ES   0A   045 52.55                             100    0.2510 56.4   4 
 XBVK     IAML A   045 46.09        64.3                               77.3 351 
 XBVK    IP   0A   045 46.09                              96   -0.2710 77.3 351 
 XBVK    ES   0A   045 58.15                              96    0.1410 77.3 351 
 LUEX    IP   0A   045 47.28                              95   -0.0810 83.5 288 
 LUEX    ES   0A   046  0.24                              95    0.5110 83.5 288 
 MGUS    IP   0A   045 47.66                              60   -0.3610 88.2  79 
 MGUS    ES   0A   046  0.91                              60    0.0610 88.2  79 
 RAWC    IP   0A   045 48.19                              60   -0.1310 90.3 105 
 RAWC    ES   0A   046  1.83                              60    0.4610 90.3 105 
 DNOA     IAML A   045 48.41        49.7                               92.7  35 
 DNOA    IP   0A   045 48.41                              60   -0.2410 92.7  35 
 DNOA    ES   0A   046  2.22                              60    0.2910 92.7  35 
 AVTK    IP   0A   045 49.40                              60   -0.1010 98.8 298 
 AVTK    ES   0A   046  3.96                              60    0.5810 98.8 298 
 VOCA    IP   0A   045 53.53                              55   -0.1910  131  28 
 VOCA     IAML A   045 53.53        28.6                                131  28 
 VOCA    ES   0A   046 11.17                              55    0.5710  131  28 
 RPKV    IP   0A   046  2.69                              55   -0.10 8  200 332 
 RPKV     IAML A   046  2.69        13.1                                200 332 
 QYDI     IAML A   046  2.59        13.0                                201 347 
 QYDI    IP   0A   046  2.59                              55   -0.39 8  201 347 
 QYDI    ES   0A   046 25.80                              55   -0.64 8  201 347 
 HLUH     IAML A   046  4.11        11.4                                213 326 
 HLUH    IP   0A   046  4.11                              55   -0.51 7  213 326 
 HLUH    ES   0A   046 28.34                              55   -0.90 7  213 326 
                                                                                
 2001  2 3 0046 39.5 L  33.672  52.438 12.0  New 12 0.5 2.3LNew                1
 GAP=195        1.22       3.1     2.3  3.7  0.2760E+01 -0.2591E+01 -0.2139E+01E
 Action:ARG 24-03-13 14:54 OP:OBSP STATUS:               ID:20010203004640     I
 STAT SP IPHASW D HRMM SECON CODA AMPLIT PERI AZIMU VELO AIN AR TRES W  DIS CAZ7
 LUEX    IP   0A   046 52.10                              53    0.3010 48.9 297 
 LUEX    ES   0A   047  1.18                              53    0.6310 48.9 297 
 RHPW     IAML A   046 55.26       165.3                               65.9  37 
 RHPW    IP   0A   046 55.26                              52    0.1810 65.9  37 
 RHPW    ES   0A   047  6.71                              52    0.5310 65.9  37 
 AVTK     IAML A   046 55.30       158.0                               66.7 309 
 AVTK    IP   0A   046 55.30                              52    0.0710 66.7 309 
 AVTK    ES   0A   047  6.77                              52    0.3410 66.7 309 
 XBVK    IP   0A   046 57.09                              52   -0.0010 76.3  18 
 XBVK     IAML A   046 57.09       134.1                               76.3  18 
 XBVK    ES   0A   047  9.91                              52    0.3010 76.3  18 
 DQYH     IAML A   047  2.00        79.5                                106 331 
 DQYH    IP   0A   047  2.00                              41    0.0110  106 331 
 DQYH    ES   0A   047 18.50                              41    0.5110  106 331 
 MGUS    IP   0A   047  4.34                              33   -0.3210  123  84 
 MGUS    ES   0A   047 22.59                              33    0.0410  123  84 
 RAWC    IP   0A   047  5.06                              33    0.0210  126 102 
 RAWC    ES   0A   047 23.85                              33    0.6510  126 102 
 APSL    IP   0A   047  5.81                              33   -0.1410  133  67 
 APSL     IAML A   047  5.81        54.4                                133  67 
 APSL    ES   0A   047 25.16                              33    0.4010  133  67 
 VOCA    IP   0A   047  7.45                              33   -0.5010  148  41 
 VOCA    ES   0A   047 28.03                              33   -0.1510  148  41 
 RPKV    IP   0A   047 11.92                              33   -0.46 8  182 341 
 RPKV    ES   0A   047 35.35                              33   -0.41 8  182 341 
 HLUH    IP   0A   047 12.99                              33   -0.77 8  192 334 
 HLUH    ES   0A   047 37.02                              33   -1.10 8  192 334 
 QYDI    IP   0A   047 13.01                              33   -0.76 8  192 357 
 QYDI    ES   0A   047 36.98                              33   -1.14 8  192 357 
                                                                                
 2001  2 3 0047 49.2 L  33.993  52.445  9.6  New 10 0.3 1.3LNew                1
 GAP=118        0.82       1.5     1.4  2.8 -0.2476E+00 -0.1439E+01 -0.9731E+00E
 Action:ARG 24-03-13 14:54 OP:OBSP STATUS:               ID:20010203004750     I
 STAT SP IPHASW D HRMM SECON CODA AMPLIT PERI AZIMU VELO AIN AR TRES W  DIS CAZ7
 LUEX    IP   0A   048  1.52                              96    0.2110 45.9 253 
 LUEX     IAML A   048  1.52        26.2                               45.9 253 
 LUEX    ES   0A   048 10.16                              96    0.2810 45.9 253 
 AVTK    IP   0A   048  2.78                              53    0.1110 52.7 277 
 AVTK    ES   0A   048 12.37                              53    0.1510 52.7 277 
 CBZA    IP   0A   048  6.73                              52   -0.1710 74.6 235 
 CBZA     IAML A   048  6.73        13.4                               74.6 235 
 CBZA    ES   0A   048 19.28                              52   -0.1610 74.6 235 
 DQYH    IP   0A   048  7.60                              52    0.1010 77.8 317 
 DQYH     IAML A   048  7.60        12.5                               77.8 317 
 DQYH    ES   0A   048 20.80                              52    0.3310 77.8 317 
 FOUH    IP   0A   048 10.04                              41    0.1910 91.8  19 
 FOUH    ES   0A   048 25.07                              41    0.5810 91.8  19 
 APSL    IP   0A   048 14.68                              41   -0.1610  123  82 
 APSL    ES   0A   048 33.19                              41    0.1710  123  82 
 VOCA    IP   0A   048 14.67                              35   -0.2210  123  51 
 VOCA    ES   0A   048 33.17                              35    0.0710  123  51 
 RAWC    IP   0A   048 16.69                              33   -0.1210  138 117 
 RAWC    ES   0A   048 36.70                              33    0.3010  138 117 
 QYDI    IP   0A   048 18.89                              33   -0.47 9  157 356 
 QYDI    ES   0A   048 40.36                              33   -0.40 9  157 356 
 HLUH    IP   0A   048 19.35                              33   -0.61 9  161 328 
 HLUH     IAML A   048 19.35         3.9                                161 328 
 HLUH    ES   0A   048 41.23                              33   -0.55 9  161 328 
                                                                                
