 2012  811 16 0 50.2 L  38.412  46.797 16.2      24 0.1 4.0L                   1
 GAP=44                    0.6     0.2  0.5                                    E
 Action:ARG 24-03-13 16:03 OP:OBSP STATUS:               ID:20120811160050     I
 STAT SP IPHASW D HRMM SECON CODA AMPLIT PERI AZIMU VELO AIN AR TRES W  DIS CAZ7
 HRS     IP   0A  16 0 55.27                                           25.3 114 
 HRS     ES   0A  16 0 59.07                                           25.3 114 
 TAHR    ES   0A  16 0 59.05                                           25.3  69 
 FTB     ES   0A  16 1  7.83                                           55.4 217 
 TABZ    ES   0A  16 1  8.05                                           55.9 225 
 TBZ     IP   0A  16 1  0.86                                           58.5 250 
 TBZ     ES   0A  16 1  8.85                                           58.5 250 
 BST     IP   0A  16 1  4.01                                           79.6 172 
 BST     ES   0A  16 1 14.37                                           79.6 172 
 ORD     IP   0A  16 1  5.89                                           89.2 310 
 ORD     ES   0A  16 1 17.66                                           89.2 310 
 MRD     IP   0A  16 1  7.60                                           99.7 289 
 MRD     ES   0A  16 1 20.64                                           99.7 289 
 SRB     IP   0A  16 1  7.41                                            101 129 
 SRB     ES   0A  16 1 20.32                                            101 129 
 SHB     IP   0A  16 1  7.95                                            102 262 
 GRMI    IP   0A  16 1  8.26                                            106  65 
 AZR     ES   0A  16 1 22.53                                            107 220 
 LRK     IP   0A  16 1 13.11                                            138  78 
 NAX     IP   0A  16 1 13.76                                            140 307 
 SBZ     IP   0A  16 1 15.64                                            152 316 
 GLBA    IP   0A  16 1 17.63                                            167  56 
 GLBA    ES   0A  16 1 38.20                                            167  56 
 ASTR    IP   0A  16 1 18.86                                            176  84 
 BRDA    IP   0A  16 1 23.69                                            208   9 
 MAKU    IP   0A  16 1 24.21                                            210 300 
 SAAT    IP   0A  16 1 24.50                                            214  40 
 SAAT    ES   0A  16 1 50.01                                            214  40 
 ZRD     IP   0A  16 1 25.29                                            221  20 
 ZRD     ES   0A  16 1 51.38                                            221  20 
 GANJ    IP   0A  16 1 29.04                                            251 351 
 ZNJK    IP   0A  16 1 29.70                                            256 138 
 GNI     ES   0A  16 2  0.32                                            261 318 
 ASTR     IAML A  16 1 18.86      1830.8                                        
 BST      IAML A  16 1  4.01      6755.9                                        
 TBZ      IAML A  16 1  0.86     10428.8                                        
 SRB      IAML A  16 1  7.41      4697.7                                        
 GLBA     IAML A  16 1 17.63      2008.9                                        
 LRK      IAML A  16 1 13.11      2821.5                                        
 SBZ      IAML A  16 1 15.64      2385.0                                        
                                                                                

 2012  811 1615  4.5 L  38.432  46.672 17.1      24 0.1 2.7L                   1
 GAP=41                    0.6     0.2  0.6                                    E
 Action:ARG 24-03-13 16:03 OP:OBSP STATUS:               ID:20120811161504     I
 STAT SP IPHASW D HRMM SECON CODA AMPLIT PERI AZIMU VELO AIN AR TRES W  DIS CAZ7
 TVRZ    ES   0A  1615 10.00                                           9.14 355 
 TAHR    IP   0A  1615 10.66                                           33.6  76 
 HRS     IP   0A  1615 10.69                                           34.0 109 
 HRS     ES   0A  1615 15.71                                           34.0 109 
 TBZ     IP   0A  1615 13.28                                           50.5 245 
 TBZ     ES   0A  1615 20.24                                           50.5 245 
 TABZ    IP   0A  1615 13.50                                           50.8 217 
 ORD     IP   0A  1615 18.07                                           81.8 313 
 BST     IP   0A  1615 18.46                                           82.3 166 
 BST     ES   0A  1615 29.31                                           82.3 166 
 MRD     IP   0A  1615 19.62                                           90.9 291 
 SHB     IP   0A  1615 20.12                                           93.8 260 
 SHB     ES   0A  1615 32.22                                           93.8 260 
 AZR     ES   0A  1615 35.09                                            102 216 
 SRB     IP   0A  1615 22.71                                            109 127 
 NAX     IP   0A  1615 25.92                                            132 309 
 HSH     IP   0A  1615 26.57                                            134 157 
 HSH     ES   0A  1615 43.51                                            134 157 
 SBZ     IP   0A  1615 27.97                                            145 318 
 LRK     IP   0A  1615 28.46                                            147  79 
 GLBA    IP   0A  1615 32.88                                            174  58 
 LKRN    IP   0A  1615 34.42                                            186  79 
 LKRN    ES   0A  1615 57.24                                            186  79 
 MAKU    ES   0A  1616  0.91                                            201 301 
 BRDA    IP   0A  1615 37.35                                            209  11 
 BRDA    ES   0A  1616  2.16                                            209  11 
 SAAT    IP   0A  1615 39.05                                            220  42 
 ZRD     IP   0A  1615 39.27                                            222  22 
 ZRD     ES   0A  1616  5.51                                            222  22 
 GANJ    ES   0A  1616 10.65                                            248 353 
 ZNJK    IP   0A  1615 44.51                                            263 136 
 ZNJK    ES   0A  1616 14.57                                            263 136 
 VANB    ES   0A  1616 19.03                                            287 274 
 TABZ     IAML A  1615 13.50       631.8                                        
 SHB      IAML A  1615 20.12       265.4                                        
 SRB      IAML A  1615 22.71       209.8                                        
 ZNJK     IAML A  1615 44.51        40.2                                        
 LKRN     IAML A  1615 34.42        82.9                                        
 BST      IAML A  1615 18.46       322.6                                        
 NAX      IAML A  1615 25.92       152.9                                        
 BRDA     IAML A  1615 37.35        65.9                                        
 GLBA     IAML A  1615 32.88        93.4                                        
                                                                                

 2012  811 1621 52.7 L  38.415  46.649 20.0      17 0.1 4.1L                   1
 GAP=41                    0.6     0.3  0.6                                    E
 Action:ARG 24-03-13 16:03 OP:OBSP STATUS:               ID:20120811162152     I
 STAT SP IPHASW D HRMM SECON CODA AMPLIT PERI AZIMU VELO AIN AR TRES W  DIS CAZ7
 HRS     IP   0A  1621 59.91                                           34.9 107 
 HRS     ES   0A  1622  5.24                                           34.9 107 
 TAHR    ES   0A  1622  5.27                                           35.2  75 
 TBZ     IP   0A  1622  1.67                                           48.9 246 
 TBZ     ES   0A  1622  8.32                                           48.9 246 
 TABZ    ES   0A  1622  8.39                                           49.1 216 
 BST     IP   0A  1622  6.95                                           81.5 165 
 ORD     ES   0A  1622 17.13                                           81.6 314 
 MRD     IP   0A  1622  8.08                                           90.1 292 
 SHB     IP   0A  1622  8.40                                           92.3 261 
 SHB     ES   0A  1622 20.11                                           92.3 261 
 SRB     IP   0A  1622 11.40                                            109 126 
 SRB     ES   0A  1622 25.36                                            109 126 
 GRMI    IP   0A  1622 12.44                                            116  67 
 GRMI    ES   0A  1622 27.17                                            116  67 
 SBZ     ES   0A  1622 34.34                                            145 319 
 LKRN    ES   0A  1622 46.14                                            187  79 
 MAKU    IP   0A  1622 24.91                                            201 301 
 MAKU    ES   0A  1622 48.83                                            201 301 
 ZRD     ES   0A  1622 54.08                                            225  22 
 GNI     IP   0A  1622 31.47                                            254 319 
 GNI     ES   0A  1623  0.18                                            254 319 
 ZNJK    IP   0A  1622 32.92                                            263 136 
 VANB    ES   0A  1623  6.73                                            286 275 
 MRD      IAML A  1622  8.08      7078.8                                        
 ZNJK     IAML A  1622 32.92      1010.2                                        
 HRS      IAML A  1621 59.91     25768.5                                        
                                                                                

 2012  811 1634 32.4 L  38.448  46.656 16.2      25 0.1 3.3L                   1
 GAP=39                    0.6     0.2  0.6                                    E
 Action:ARG 24-03-13 16:03 OP:OBSP STATUS:               ID:20120811163432     I
 STAT SP IPHASW D HRMM SECON CODA AMPLIT PERI AZIMU VELO AIN AR TRES W  DIS CAZ7
 TVRZ    ES   0A  1634 37.74                                           7.67   1 
 HRS     IP   0A  1634 39.33                                           35.4 111 
 HRS     ES   0A  1634 44.52                                           35.4 111 
 TBZ     IP   0A  1634 41.51                                           50.3 243 
 TBZ     ES   0A  1634 48.34                                           50.3 243 
 TABZ    IP   0A  1634 41.87                                           51.4 215 
 ORD     ES   0A  1634 56.42                                           80.2 313 
 BST     IP   0A  1634 47.21                                           83.9 166 
 BST     ES   0A  1634 58.31                                           83.9 166 
 MRD     IP   0A  1634 47.74                                           89.6 290 
 SHB     IP   0A  1634 48.43                                           93.1 259 
 AZR     IP   0A  1634 50.27                                            103 215 
 SRB     IP   0A  1634 51.45                                            110 127 
 GRMI    IP   0A  1634 52.15                                            114  68 
 NAX     ES   0A  1635 10.31                                            130 309 
 HSH     IP   0A  1634 55.40                                            136 157 
 SBZ     IP   0A  1634 56.11                                            144 318 
 SBZ     ES   0A  1635 13.89                                            144 318 
 LRK     ES   0A  1635 15.76                                            147  80 
 GLBA    ES   0A  1635 22.96                                            174  58 
 ASTR    IP   0A  1635  2.95                                            186  85 
 LKRN    IP   0A  1635  3.14                                            186  79 
 MAKU    IP   0A  1635  4.70                                            200 301 
 MAKU    ES   0A  1635 28.87                                            200 301 
 BRDA    IP   0A  1635  5.64                                            207  12 
 BRDA    ES   0A  1635 30.40                                            207  12 
 SAAT    IP   0A  1635  7.41                                            219  43 
 ZRD     IP   0A  1635  7.58                                            222  22 
 GANJ    IP   0A  1635 10.52                                            247 353 
 GANJ    ES   0A  1635 38.83                                            247 353 
 ZNJK    IP   0A  1635 13.32                                            265 137 
 ZNJK    ES   0A  1635 43.67                                            265 137 
 VANB    ES   0A  1635 47.43                                            286 274 
 BST      IAML A  1634 47.21      1248.1                                        
 SAAT     IAML A  1635  7.41       237.6                                        
 HSH      IAML A  1634 55.40       580.7                                        
 HRS      IAML A  1634 39.33      4020.9                                        
 BRDA     IAML A  1635  5.64       265.6                                        
 ZNJK     IAML A  1635 13.32       158.0                                        
 MAKU     IAML A  1635  4.70       286.3                                        
 LKRN     IAML A  1635  3.14       327.8                                        
 ZRD      IAML A  1635  7.58       230.3                                        
                                                                                

 2012  811 1737 58.3 L  38.400  46.869 22.9      24 0.1 2.1L                   1
 GAP=45                    0.6     0.2  0.6                                    E
 Action:ARG 24-03-13 16:03 OP:OBSP STATUS:               ID:20120811173758     I
 STAT SP IPHASW D HRMM SECON CODA AMPLIT PERI AZIMU VELO AIN AR TRES W  DIS CAZ7
 HRS     IP   0A  1738  3.36                                           17.6 124 
 HRS     ES   0A  1738  7.16                                           17.6 124 
 TAHR    IP   0A  1738  3.38                                           17.8  59 
 TAHR    ES   0A  1738  7.18                                           17.8  59 
 FTB     IP   0A  1738  8.96                                           60.6 224 
 TBZ     IP   0A  1738  9.93                                           66.4 253 
 TBZ     ES   0A  1738 18.65                                           66.4 253 
 BST     IP   0A  1738 11.81                                           78.6 179 
 BST     ES   0A  1738 21.94                                           78.6 179 
 SRB     IP   0A  1738 14.61                                           94.7 132 
 ORD     IP   0A  1738 14.81                                           96.1 307 
 MRD     IP   0A  1738 16.49                                            107 288 
 MRD     ES   0A  1738 30.13                                            107 288 
 SHB     IP   0A  1738 16.79                                            110 263 
 SHB     ES   0A  1738 30.66                                            110 263 
 AZR     IP   0A  1738 16.93                                            112 224 
 HSH     IP   0A  1738 19.45                                            127 164 
 LRK     IP   0A  1738 20.00                                            130  77 
 NAX     IP   0A  1738 22.62                                            147 305 
 NAX     ES   0A  1738 40.87                                            147 305 
 SBZ     ES   0A  1738 44.11                                            158 314 
 GLBA    IP   0A  1738 24.79                                            161  54 
 ASTR    ES   0A  1738 46.27                                            168  83 
 LKRN    IP   0A  1738 25.97                                            169  77 
 LKRN    ES   0A  1738 46.72                                            169  77 
 BRDA    IP   0A  1738 31.03                                            207   7 
 SAAT    IP   0A  1738 31.57                                            209  39 
 MAKU    ES   0A  1738 57.84                                            217 299 
 ZRD     IP   0A  1738 32.56                                            219  18 
 ZNJK    ES   0A  1739  5.14                                            250 139 
 GNI     ES   0A  1739  8.60                                            267 317 
 VANB    IP   0A  1738 43.04                                            305 274 
 VANB    ES   0A  1739 16.14                                            305 274 
 SRB      IAML A  1738 14.61        65.7                                        
 TAHR     IAML A  1738  3.38       586.6                                        
 AZR      IAML A  1738 16.93        50.0                                        
 NAX      IAML A  1738 22.62        32.0                                        
 GLBA     IAML A  1738 24.79        27.3                                        
 LKRN     IAML A  1738 25.97        24.9                                        
 VANB     IAML A  1738 43.04         7.2                                        
 TBZ      IAML A  1738  9.93       110.1                                        
                                                                                

