 2012  811 1342 11.5 L  38.405  46.678 14.7      21 0.1 4.0L                   1
 GAP=43                    0.6     0.2  0.6                                    E
 Action:ARG 24-03-13 16:03 OP:OBSP STATUS:               ID:20120811134211     I
 STAT SP IPHASW D HRMM SECON CODA AMPLIT PERI AZIMU VELO AIN AR TRES W  DIS CAZ7
 TVRZ    ES   0A  1342 17.12                                           10.8 354 
 HRS     IP   0A  1342 17.85                                           33.3 107 
 HRS     ES   0A  1342 22.69                                           33.3 107 
 TAHR    ES   0A  1342 22.70                                           33.8  74 
 TABZ    ES   0A  1342 27.03                                           49.6 218 
 FTB     ES   0A  1342 27.14                                           50.0 210 
 TBZ     IP   0A  1342 20.42                                           50.1 247 
 BST     IP   0A  1342 25.44                                           80.6 166 
 BST     ES   0A  1342 35.97                                           80.6 166 
 ORD     IP   0A  1342 26.11                                           83.1 314 
 ORD     ES   0A  1342 37.15                                           83.1 314 
 MRD     IP   0A  1342 27.39                                           91.8 292 
 MRD     ES   0A  1342 39.38                                           91.8 292 
 SHB     IP   0A  1342 27.55                                           93.8 261 
 SRB     IP   0A  1342 30.19                                            107 126 
 NAX     IP   0A  1342 34.10                                            133 309 
 NAX     ES   0A  1342 51.13                                            133 309 
 SBZ     IP   0A  1342 36.20                                            147 318 
 LRK     IP   0A  1342 35.98                                            147  79 
 LRK     ES   0A  1342 54.42                                            147  79 
 GLBA    IP   0A  1342 40.49                                            175  57 
 GLBA    ES   0A  1343  2.30                                            175  57 
 ASTR    IP   0A  1342 41.72                                            185  84 
 LKRN    IP   0A  1342 41.95                                            186  78 
 LKRN    ES   0A  1343  4.86                                            186  78 
 BRDA    IP   0A  1342 45.40                                            210  11 
 SAAT    IP   0A  1342 46.92                                            221  42 
 SAAT    ES   0A  1343 13.35                                            221  42 
 GANJ    IP   0A  1342 50.31                                            250 353 
 GNI     IP   0A  1342 51.18                                            254 319 
 GNI     ES   0A  1343 20.71                                            254 319 
 SBZ      IAML A  1342 36.20      2544.4                                        
 GLBA     IAML A  1342 40.49      1850.0                                        
 SHB      IAML A  1342 27.55      5293.9                                        
 BRDA     IAML A  1342 45.40      1295.7                                        
 GANJ     IAML A  1342 50.31       897.8                                        
 LKRN     IAML A  1342 41.95      1652.2                                        
 HRS      IAML A  1342 17.85     21768.6                                        
 LRK      IAML A  1342 35.98      2539.4                                        
 MRD      IAML A  1342 27.39      5469.7                                        
                                                                                

 2012  811 1414 53.5 L  38.501  46.703 27.5      22 0.1 2.8L                   1
 GAP=37                    0.8     0.4  0.9                                    E
 Action:ARG 24-03-13 16:03 OP:OBSP STATUS:               ID:20120811141453     I
 STAT SP IPHASW D HRMM SECON CODA AMPLIT PERI AZIMU VELO AIN AR TRES W  DIS CAZ7
 TVRZ    IP   0A  1414 58.31                                           2.96 304 
 TVRZ    ES   0A  1415  1.84                                           2.96 304 
 TAHR    ES   0A  1415  5.50                                           31.0  89 
 HRS     IP   0A  1415  1.19                                           35.7 122 
 HRS     ES   0A  1415  6.88                                           35.7 122 
 TBZ     IP   0A  1415  4.01                                           55.5 239 
 TBZ     ES   0A  1415 11.81                                           55.5 239 
 TABZ    ES   0A  1415 12.50                                           57.9 214 
 FTB     IP   0A  1415  4.53                                           58.7 206 
 FTB     ES   0A  1415 12.72                                           58.7 206 
 BST     IP   0A  1415  9.09                                           89.2 168 
 BST     ES   0A  1415 20.71                                           89.2 168 
 MRD     IP   0A  1415  9.26                                           90.2 286 
 SHB     IP   0A  1415 10.13                                           96.9 256 
 SHB     ES   0A  1415 22.53                                           96.9 256 
 AZR     IP   0A  1415 12.19                                            109 214 
 GRMI    IP   0A  1415 11.90                                            110  70 
 GRMI    ES   0A  1415 25.62                                            110  70 
 SRB     IP   0A  1415 12.47                                            112 130 
 HSH     IP   0A  1415 16.98                                            140 159 
 HSH     ES   0A  1415 34.51                                            140 159 
 SBZ     IP   0A  1415 16.90                                            141 315 
 SBZ     ES   0A  1415 34.38                                            141 315 
 ASTR    IP   0A  1415 22.71                                            183  86 
 BRDA    IP   0A  1415 24.84                                            201  11 
 SAAT    ES   0A  1415 50.84                                            213  43 
 ZRD     IP   0A  1415 26.73                                            216  22 
 ZRD     ES   0A  1415 51.34                                            216  22 
 GANJ    IP   0A  1415 29.84                                            241 352 
 GNI     IP   0A  1415 31.14                                            250 318 
 ZNJK    IP   0A  1415 33.53                                            267 138 
 ZNJK    ES   0A  1416  3.10                                            267 138 
 VANB    IP   0A  1415 36.07                                            288 273 
 SBZ      IAML A  1415 16.90       171.9                                        
 TVRZ     IAML A  1414 58.31     22995.2                                        
 VANB     IAML A  1415 36.07        41.0                                        
 ZRD      IAML A  1415 26.73        77.4                                        
 TBZ      IAML A  1415  4.01       706.6                                        
 SRB      IAML A  1415 12.47       251.8                                        
 ASTR     IAML A  1415 22.71       107.8                                        
 HSH      IAML A  1415 16.98       173.5                                        
                                                                                

 2012  811 1425 15.1 L  38.430  46.680 12.5      19 0.1 4.3L                   1
 GAP=41                    0.6     0.2  0.6                                    E
 Action:ARG 24-03-13 16:03 OP:OBSP STATUS:               ID:20120811142515     I
 STAT SP IPHASW D HRMM SECON CODA AMPLIT PERI AZIMU VELO AIN AR TRES W  DIS CAZ7
 TVRZ    ES   0A  1425 19.97                                           7.08 351 
 TAHR    ES   0A  1425 25.84                                           32.9  80 
 HRS     IP   0A  1425 21.45                                           34.5 113 
 HRS     ES   0A  1425 26.14                                           34.5 113 
 TBZ     IP   0A  1425 24.21                                           51.7 243 
 TBZ     ES   0A  1425 30.97                                           51.7 243 
 TABZ    ES   0A  1425 31.20                                           52.7 216 
 FTB     ES   0A  1425 31.39                                           53.4 208 
 ORD     ES   0A  1425 39.84                                           80.6 312 
 BST     IP   0A  1425 29.47                                           84.2 167 
 BST     ES   0A  1425 40.17                                           84.2 167 
 MRD     IP   0A  1425 30.80                                           90.5 289 
 MRD     ES   0A  1425 42.51                                           90.5 289 
 SHB     IP   0A  1425 31.31                                           94.5 259 
 SHB     ES   0A  1425 43.40                                           94.5 259 
 AZR     ES   0A  1425 46.12                                            104 216 
 SRB     IP   0A  1425 33.79                                            110 128 
 GRMI    IP   0A  1425 34.61                                            113  68 
 NAX     ES   0A  1425 54.31                                            131 308 
 HSH     ES   0A  1425 55.10                                            136 157 
 MAKU    IP   0A  1425 48.16                                            200 300 
 BRDA    ES   0A  1426 14.18                                            206  11 
 GNI     IP   0A  1425 54.77                                            253 319 
 ZNJK    IP   0A  1425 56.05                                            264 137 
 GRMI     IAML A  1425 34.61      7853.7                                        
 MRD      IAML A  1425 30.80     11144.6                                        
 BST      IAML A  1425 29.47     12400.8                                        
 HRS      IAML A  1425 21.45     41505.8                                        
 ZNJK     IAML A  1425 56.05      1584.3                                        
 SHB      IAML A  1425 31.31     10445.9                                        
 TBZ      IAML A  1425 24.21     24554.1                                        
                                                                                

 2012  811 1455 57.4 L  38.429  46.741  6.5      23 0.1 3.1L                   1
 GAP=42                    0.6     0.2  0.7                                    E
 Action:ARG 24-03-13 16:03 OP:OBSP STATUS:               ID:20120811145557     I
 STAT SP IPHASW D HRMM SECON CODA AMPLIT PERI AZIMU VELO AIN AR TRES W  DIS CAZ7
 HRS     IP   0A  1456  2.37                                           29.5 118 
 HRS     ES   0A  1456  6.24                                           29.5 118 
 TABZ    IP   0A  1456  6.69                                           56.4 220 
 FTB     IP   0A  1456  6.71                                           56.5 213 
 FTB     ES   0A  1456 13.85                                           56.5 213 
 TBZ     IP   0A  1456  6.83                                           57.0 246 
 TBZ     ES   0A  1456 14.06                                           57.0 246 
 BST     IP   0A  1456 11.09                                           83.4 171 
 BST     ES   0A  1456 21.51                                           83.4 171 
 ORD     IP   0A  1456 11.70                                           84.7 309 
 MRD     IP   0A  1456 13.45                                           95.8 288 
 SHB     IP   0A  1456 14.02                                            100 260 
 SHB     ES   0A  1456 26.63                                            100 260 
 SRB     IP   0A  1456 14.85                                            105 130 
 SRB     ES   0A  1456 28.09                                            105 130 
 GRMI    IP   0A  1456 15.53                                            108  67 
 GRMI    ES   0A  1456 29.28                                            108  67 
 AZR     IP   0A  1456 15.20                                            108 218 
 HSH     ES   0A  1456 36.37                                            134 159 
 LRK     IP   0A  1456 20.91                                            140  80 
 SBZ     IP   0A  1456 22.18                                            148 316 
 GLBA    ES   0A  1456 46.77                                            168  57 
 ASTR    ES   0A  1456 49.56                                            179  85 
 LKRN    IP   0A  1456 27.28                                            179  79 
 LKRN    ES   0A  1456 49.85                                            179  79 
 BRDA    IP   0A  1456 31.20                                            205  10 
 MAKU    IP   0A  1456 31.26                                            205 300 
 MAKU    ES   0A  1456 56.77                                            205 300 
 GANJ    IP   0A  1456 36.55                                            247 351 
 GNI     ES   0A  1457  7.89                                            256 318 
 ZNJK    IP   0A  1456 38.18                                            261 138 
 VANB    IP   0A  1456 42.10                                            293 274 
 VANB    ES   0A  1457 15.39                                            293 274 
 BST      IAML A  1456 11.09       794.0                                        
 HRS      IAML A  1456  2.37      3188.3                                        
 FTB      IAML A  1456  6.71      1377.0                                        
 BRDA     IAML A  1456 31.20       171.3                                        
 SHB      IAML A  1456 14.02       603.0                                        
 TABZ     IAML A  1456  6.69      1378.8                                        
 GRMI     IAML A  1456 15.53       535.1                                        
                                                                                

 2012  811 1521 14.5 L  38.445  46.777 17.5      22 0.1 4.7L                   1
 GAP=42                    0.6     0.2  0.5                                    E
 Action:ARG 24-03-13 16:03 OP:OBSP STATUS:               ID:20120811152114     I
 STAT SP IPHASW D HRMM SECON CODA AMPLIT PERI AZIMU VELO AIN AR TRES W  DIS CAZ7
 HRS     IP   0A  1521 20.12                                           25.1 119 
 TBZ     IP   0A  1521 25.16                                           60.3 249 
 TBZ     ES   0A  1521 33.16                                           60.3 249 
 BST     ES   0A  1521 39.78                                           81.4 174 
 ORD     IP   0A  1521 29.59                                           88.9 308 
 ORD     ES   0A  1521 40.91                                           88.9 308 
 MRD     IP   0A  1521 31.44                                            100 288 
 MRD     ES   0A  1521 44.14                                            100 288 
 SRB     IP   0A  1521 32.15                                            101 131 
 SHB     IP   0A  1521 32.03                                            104 261 
 GRMI    IP   0A  1521 32.56                                            104  66 
 GRMI    ES   0A  1521 46.11                                            104  66 
 AZR     ES   0A  1521 47.14                                            109 220 
 LRK     IP   0A  1521 37.56                                            137  79 
 SBZ     IP   0A  1521 39.28                                            152 315 
 SBZ     ES   0A  1521 57.87                                            152 315 
 GLBA    IP   0A  1521 41.83                                            165  56 
 GLBA    ES   0A  1522  2.32                                            165  56 
 ASTR    IP   0A  1521 43.35                                            175  84 
 LKRN    IP   0A  1521 43.53                                            176  79 
 BRDA    IP   0A  1521 47.39                                            206   9 
 BRDA    ES   0A  1522 11.88                                            206   9 
 MAKU    IP   0A  1521 47.92                                            210 299 
 MAKU    ES   0A  1522 12.78                                            210 299 
 SAAT    IP   0A  1521 48.44                                            212  41 
 SAAT    ES   0A  1522 13.68                                            212  41 
 ZRD     IP   0A  1521 49.05                                            219  20 
 ZRD     ES   0A  1522 14.76                                            219  20 
 GANJ    IP   0A  1521 52.75                                            248 350 
 ZNJK    IP   0A  1521 54.28                                            257 138 
 ZNJK    ES   0A  1522 23.79                                            257 138 
 GNI     IP   0A  1521 54.09                                            260 317 
 VANB    IP   0A  1521 58.72                                            297 274 
 VANB    ES   0A  1522 31.47                                            297 274 
 ORD      IAML A  1521 29.59     28748.4                                        
 ASTR     IAML A  1521 43.35      9314.8                                        
 LRK      IAML A  1521 37.56     14420.9                                        
 SHB      IAML A  1521 32.03     22621.9                                        
 GLBA     IAML A  1521 41.83     10307.5                                        
 MRD      IAML A  1521 31.44     23962.1                                        
 ZRD      IAML A  1521 49.05      5980.0                                        
 GNI      IAML A  1521 54.09      4127.7                                        
 LKRN     IAML A  1521 43.53      9221.3                                        
                                                                                

