 2012  811 2121 13.9 L  38.454  46.796 19.1      23 0.1 2.7L                   1
 GAP=41                    0.6     0.2  0.5                                    E
 Action:ARG 24-03-13 16:03 OP:OBSP STATUS:               ID:20120811212113     I
 STAT SP IPHASW D HRMM SECON CODA AMPLIT PERI AZIMU VELO AIN AR TRES W  DIS CAZ7
 TVRZ    ES   0A  2121 21.12                                           13.9 301 
 HRS     IP   0A  2121 19.66                                           24.8 122 
 HRS     ES   0A  2121 23.91                                           24.8 122 
 TABZ    IP   0A  2121 24.77                                           59.6 224 
 TBZ     IP   0A  2121 24.97                                           61.6 248 
 TBZ     ES   0A  2121 33.20                                           61.6 248 
 BST     IP   0A  2121 28.43                                           82.3 174 
 ORD     ES   0A  2121 40.33                                           89.0 307 
 MRD     IP   0A  2121 30.93                                            100 287 
 MRD     ES   0A  2121 43.63                                            100 287 
 SRB     IP   0A  2121 31.47                                            101 131 
 SRB     ES   0A  2121 44.58                                            101 131 
 GRMI    IP   0A  2121 31.52                                            103  66 
 GRMI    ES   0A  2121 44.65                                            103  66 
 SHB     IP   0A  2121 31.73                                            105 260 
 SHB     ES   0A  2121 45.02                                            105 260 
 AZR     IP   0A  2121 32.81                                            111 220 
 HSH     IP   0A  2121 36.20                                            132 162 
 LRK     ES   0A  2121 53.50                                            135  79 
 NAX     IP   0A  2121 36.88                                            140 306 
 ASTR    IP   0A  2121 42.43                                            174  84 
 ASTR    ES   0A  2122  3.75                                            174  84 
 LKRN    IP   0A  2121 42.54                                            174  79 
 BRDA    ES   0A  2122 10.70                                            205   8 
 MAKU    IP   0A  2121 47.29                                            210 299 
 SAAT    IP   0A  2121 47.53                                            211  41 
 SAAT    ES   0A  2122 12.47                                            211  41 
 ZRD     IP   0A  2121 48.16                                            218  20 
 GANJ    IP   0A  2121 51.92                                            247 350 
 ZNJK    IP   0A  2121 53.62                                            257 139 
 VANB    IP   0A  2121 58.23                                            298 274 
 VANB    ES   0A  2122 30.98                                            298 274 
 SRB      IAML A  2121 31.47       234.4                                        
 ZRD      IAML A  2121 48.16        60.5                                        
 MRD      IAML A  2121 30.93       237.4                                        
 LKRN     IAML A  2121 42.54        93.3                                        
 NAX      IAML A  2121 36.88       138.9                                        
 GANJ     IAML A  2121 51.92        45.8                                        
 BST      IAML A  2121 28.43       322.1                                        
 TBZ      IAML A  2121 24.97       487.0                                        
 SAAT     IAML A  2121 47.53        64.7                                        
 MAKU     IAML A  2121 47.29        65.1                                        
 AZR      IAML A  2121 32.81       203.9                                        
 ZNJK     IAML A  2121 53.62        42.4                                        
                                                                                

 2012  811 2133 50.7 L  38.454  46.864 19.9      23 0.1 3.1L                   1
 GAP=48                    0.6     0.2  0.4                                    E
 Action:ARG 24-03-13 16:03 OP:OBSP STATUS:               ID:20120811213350     I
 STAT SP IPHASW D HRMM SECON CODA AMPLIT PERI AZIMU VELO AIN AR TRES W  DIS CAZ7
 TVRZ    IP   0A  2133 55.40                                           17.3 294 
 TVRZ    ES   0A  2133 58.92                                           17.3 294 
 TAHR    IP   0A  2133 55.25                                           18.6  72 
 HRS     IP   0A  2133 55.81                                           21.6 128 
 HRS     ES   0A  2133 59.64                                           21.6 128 
 FTB     ES   0A  2134 10.42                                           61.5 220 
 TABZ    IP   0A  2134  2.11                                           62.3 227 
 TABZ    ES   0A  2134 10.66                                           62.3 227 
 TBZ     IP   0A  2134  2.57                                           65.1 249 
 TBZ     ES   0A  2134 11.48                                           65.1 249 
 BST     IP   0A  2134  5.13                                           82.1 177 
 BST     ES   0A  2134 15.95                                           82.1 177 
 ORD     IP   0A  2134  6.44                                           92.1 306 
 SRB     IP   0A  2134  7.44                                           98.8 133 
 SRB     ES   0A  2134 20.00                                           98.8 133 
 GRMI    IP   0A  2134  7.34                                            100  65 
 MRD     IP   0A  2134  8.51                                            104 287 
 MRD     ES   0A  2134 21.87                                            104 287 
 SHB     IP   0A  2134  9.34                                            108 261 
 SHB     ES   0A  2134 23.31                                            108 261 
 AZR     IP   0A  2134 10.03                                            113 222 
 HSH     IP   0A  2134 12.65                                            131 163 
 LRK     IP   0A  2134 12.36                                            132  79 
 LRK     ES   0A  2134 28.60                                            132  79 
 GLBA    ES   0A  2134 36.16                                            161  55 
 ASTR    IP   0A  2134 18.20                                            170  84 
 LKRN    ES   0A  2134 39.03                                            171  79 
 BRDA    IP   0A  2134 23.08                                            204   7 
 MAKU    ES   0A  2134 49.73                                            213 299 
 ZRD     IP   0A  2134 24.53                                            216  19 
 ZNJK    IP   0A  2134 29.67                                            254 139 
 VANB    IP   0A  2134 35.63                                            302 274 
 VANB    ES   0A  2135  8.89                                            302 274 
 SRB      IAML A  2134  7.44       614.9                                        
 HSH      IAML A  2134 12.65       390.0                                        
 TVRZ     IAML A  2133 55.40      6067.6                                        
 TBZ      IAML A  2134  2.57      1130.9                                        
 ZRD      IAML A  2134 24.53       153.9                                        
 VANB     IAML A  2134 35.63        73.3                                        
 HRS      IAML A  2133 55.81      4642.3                                        
                                                                                

 2012  811 22 4 32.3 L  38.417  46.708 14.6      22 0.1 3.7L                   1
 GAP=43                    0.6     0.2  0.6                                    E
 Action:ARG 24-03-13 16:03 OP:OBSP STATUS:               ID:20120811220432     I
 STAT SP IPHASW D HRMM SECON CODA AMPLIT PERI AZIMU VELO AIN AR TRES W  DIS CAZ7
 TVRZ    IP   0A  22 4 35.42                                           10.3 346 
 TVRZ    ES   0A  22 4 37.83                                           10.3 346 
 HRS     IP   0A  22 4 38.30                                           32.1 109 
 HRS     ES   0A  22 4 42.87                                           32.1 109 
 TAHR    ES   0A  22 4 42.80                                           32.1  74 
 TABZ    ES   0A  22 4 48.68                                           51.2 219 
 FTB     IP   0A  22 4 41.61                                           51.4 211 
 TBZ     IP   0A  22 4 41.70                                           51.8 247 
 BST     IP   0A  22 4 46.29                                           81.0 167 
 BST     ES   0A  22 4 56.86                                           81.0 167 
 ORD     IP   0A  22 4 46.98                                           83.7 313 
 MRD     IP   0A  22 4 48.48                                           92.9 291 
 SHB     IP   0A  22 4 48.74                                           95.3 261 
 SHB     ES   0A  22 5  1.14                                           95.3 261 
 AZR     IP   0A  22 4 50.11                                            102 217 
 AZR     ES   0A  22 5  3.54                                            102 217 
 SRB     IP   0A  22 4 50.53                                            107 127 
 GRMI    IP   0A  22 4 51.46                                            113  66 
 HSH     IP   0A  22 4 54.66                                            132 157 
 HSH     ES   0A  22 5 11.50                                            132 157 
 SBZ     IP   0A  22 4 56.98                                            147 318 
 SBZ     ES   0A  22 5 15.57                                            147 318 
 GLBA    IP   0A  22 5  0.74                                            173  57 
 MAKU    IP   0A  22 5  5.53                                            203 301 
 MAKU    ES   0A  22 5 30.39                                            203 301 
 SAAT    IP   0A  22 5  7.42                                            219  42 
 GANJ    ES   0A  22 5 39.71                                            250 352 
 GNI     IP   0A  22 5 11.96                                            256 319 
 GNI     ES   0A  22 5 41.48                                            256 319 
 ZNJK    IP   0A  22 5 12.74                                            261 137 
 ZNJK    ES   0A  22 5 42.83                                            261 137 
 VANB    IP   0A  22 5 15.96                                            289 275 
 VANB    ES   0A  22 5 48.40                                            289 275 
 TVRZ     IAML A  22 4 35.42     44304.4                                        
 GNI      IAML A  22 5 11.96       428.3                                        
 VANB     IAML A  22 5 15.96       324.1                                        
 FTB      IAML A  22 4 41.61      6212.2                                        
 ZNJK     IAML A  22 5 12.74       408.9                                        
 AZR      IAML A  22 4 50.11      2298.1                                        
 SBZ      IAML A  22 4 56.98      1269.2                                        
 SHB      IAML A  22 4 48.74      2586.7                                        
 SRB      IAML A  22 4 50.53      2158.1                                        
 MAKU     IAML A  22 5  5.53       695.1                                        
 BST      IAML A  22 4 46.29      3298.8                                        
 HSH      IAML A  22 4 54.66      1518.0                                        
                                                                                

 2012  811 2212 46.8 L  38.417  46.759 18.2      23 0.1 3.3L                   1
 GAP=44                    0.6     0.2  0.6                                    E
 Action:ARG 24-03-13 16:03 OP:OBSP STATUS:               ID:20120811221246     I
 STAT SP IPHASW D HRMM SECON CODA AMPLIT PERI AZIMU VELO AIN AR TRES W  DIS CAZ7
 TVRZ    IP   0A  2212 50.79                                           12.7 322 
 HRS     IP   0A  2212 52.48                                           27.2 112 
 HRS     ES   0A  2212 56.82                                           27.2 112 
 TAHR    ES   0A  2212 56.77                                           27.2  71 
 FTB     IP   0A  2212 56.76                                           54.3 215 
 FTB     ES   0A  2213  4.31                                           54.3 215 
 TABZ    IP   0A  2212 56.84                                           54.6 223 
 TBZ     IP   0A  2212 57.06                                           56.6 249 
 TBZ     ES   0A  2213  4.83                                           56.6 249 
 BST     IP   0A  2213  0.72                                           80.0 171 
 MRD     IP   0A  2213  3.60                                           97.8 290 
 MRD     ES   0A  2213 16.28                                           97.8 290 
 SHB     IP   0A  2213  3.89                                            100 262 
 SHB     ES   0A  2213 16.78                                            100 262 
 SRB     IP   0A  2213  4.47                                            102 129 
 AZR     IP   0A  2213  4.94                                            106 219 
 GRMI    IP   0A  2213  5.23                                            108  65 
 HSH     IP   0A  2213  8.70                                            130 159 
 HSH     ES   0A  2213 25.19                                            130 159 
 LRK     IP   0A  2213 10.02                                            140  79 
 GLBA    ES   0A  2213 35.62                                            169  56 
 LKRN    IP   0A  2213 15.99                                            179  78 
 LKRN    ES   0A  2213 37.95                                            179  78 
 MAKU    IP   0A  2213 20.18                                            208 300 
 MAKU    ES   0A  2213 45.09                                            208 300 
 BRDA    IP   0A  2213 19.99                                            208   9 
 BRDA    ES   0A  2213 44.75                                            208   9 
 SAAT    IP   0A  2213 21.19                                            216  41 
 ZRD     ES   0A  2213 47.83                                            222  20 
 GANJ    ES   0A  2213 53.76                                            250 351 
 ZNJK    IP   0A  2213 26.43                                            258 138 
 ZNJK    ES   0A  2213 55.91                                            258 138 
 VANB    IP   0A  2213 30.64                                            294 274 
 ZNJK     IAML A  2213 26.43       167.9                                        
 GRMI     IAML A  2213  5.23       842.8                                        
 FTB      IAML A  2212 56.76      2302.8                                        
 MAKU     IAML A  2213 20.18       264.7                                        
 AZR      IAML A  2213  4.94       872.1                                        
 TVRZ     IAML A  2212 50.79     13830.4                                        
 SAAT     IAML A  2213 21.19       245.6                                        
 HSH      IAML A  2213  8.70       620.0                                        
 VANB     IAML A  2213 30.64       123.6                                        
                                                                                

 2012  811 2340 52.7 L  38.475  46.802 15.8      24 0.1 2.2L                   1
 GAP=43                    0.7     0.2  0.6                                    E
 Action:ARG 24-03-13 16:03 OP:OBSP STATUS:               ID:20120811234052     I
 STAT SP IPHASW D HRMM SECON CODA AMPLIT PERI AZIMU VELO AIN AR TRES W  DIS CAZ7
 TAHR    IP   0A  2340 57.32                                           23.5  85 
 TAHR    ES   0A  2341  0.79                                           23.5  85 
 HRS     IP   0A  2340 58.22                                           28.4 126 
 HRS     ES   0A  2341  2.37                                           28.4 126 
 FTB     IP   0A  2341  3.69                                           61.0 214 
 TBZ     IP   0A  2341  3.82                                           61.3 244 
 TBZ     ES   0A  2341 12.15                                           61.3 244 
 ORD     IP   0A  2341  7.74                                           85.4 306 
 BST     ES   0A  2341 18.81                                           86.2 173 
 MRD     IP   0A  2341  9.83                                           98.0 286 
 MRD     ES   0A  2341 22.69                                           98.0 286 
 GRMI    IP   0A  2341 10.30                                            103  68 
 GRMI    ES   0A  2341 23.50                                            103  68 
 SHB     IP   0A  2341 10.71                                            103 258 
 SHB     ES   0A  2341 24.21                                            103 258 
 SRB     IP   0A  2341 10.58                                            105 132 
 AZR     IP   0A  2341 12.02                                            112 218 
 NAX     IP   0A  2341 15.69                                            136 305 
 LRK     IP   0A  2341 15.35                                            137  81 
 SBZ     IP   0A  2341 17.43                                            148 314 
 ASTR    IP   0A  2341 21.18                                            175  86 
 LKRN    IP   0A  2341 21.32                                            176  80 
 BRDA    ES   0A  2341 49.58                                            201   9 
 MAKU    ES   0A  2341 51.37                                            207 298 
 SAAT    ES   0A  2341 51.40                                            209  42 
 ZRD     IP   0A  2341 26.99                                            215  20 
 ZRD     ES   0A  2341 52.50                                            215  20 
 GANJ    IP   0A  2341 30.69                                            244 350 
 GANJ    ES   0A  2341 58.91                                            244 350 
 GNI     IP   0A  2341 32.33                                            256 317 
 GNI     ES   0A  2342  1.75                                            256 317 
 ZNJK    IP   0A  2341 32.85                                            261 139 
 VANB    ES   0A  2342 10.29                                            296 273 
 SBZ      IAML A  2341 17.43        39.8                                        
 MRD      IAML A  2341  9.83        78.4                                        
 ORD      IAML A  2341  7.74        96.6                                        
 ZRD      IAML A  2341 26.99        19.7                                        
 HRS      IAML A  2340 58.22       420.1                                        
 AZR      IAML A  2341 12.02        63.0                                        
 ZNJK     IAML A  2341 32.85        13.0                                        
 SHB      IAML A  2341 10.71        71.6                                        
                                                                                

