 2012  811 1912  4.6 L  38.432  46.793 21.0      22 0.1 2.9L                   1
 GAP=43                    0.6     0.2  0.6                                    E
 Action:ARG 24-03-13 16:03 OP:OBSP STATUS:               ID:20120811191204     I
 STAT SP IPHASW D HRMM SECON CODA AMPLIT PERI AZIMU VELO AIN AR TRES W  DIS CAZ7
 TVRZ    IP   0A  1912  9.00                                           13.7 300 
 TVRZ    ES   0A  1912 12.31                                           13.7 300 
 HRS     IP   0A  1912 10.34                                           25.0 123 
 HRS     ES   0A  1912 14.65                                           25.0 123 
 FTB     IP   0A  1912 15.00                                           59.3 217 
 TABZ    IP   0A  1912 15.06                                           59.8 224 
 TABZ    ES   0A  1912 22.90                                           59.8 224 
 TBZ     IP   0A  1912 15.39                                           61.7 248 
 TBZ     ES   0A  1912 23.48                                           61.7 248 
 BST     IP   0A  1912 18.58                                           82.7 174 
 BST     ES   0A  1912 29.07                                           82.7 174 
 ORD     ES   0A  1912 31.31                                           88.8 307 
 MRD     IP   0A  1912 21.62                                            100 287 
 MRD     ES   0A  1912 34.39                                            100 287 
 SRB     IP   0A  1912 21.91                                            101 132 
 SRB     ES   0A  1912 34.88                                            101 132 
 GRMI    IP   0A  1912 22.18                                            103  66 
 GRMI    ES   0A  1912 35.37                                            103  66 
 SHB     IP   0A  1912 22.19                                            105 260 
 SHB     ES   0A  1912 35.38                                            105 260 
 AZR     IP   0A  1912 23.00                                            111 220 
 AZR     ES   0A  1912 36.80                                            111 220 
 LRK     IP   0A  1912 27.13                                            135  80 
 NAX     IP   0A  1912 27.68                                            139 305 
 SBZ     IP   0A  1912 29.55                                            151 314 
 ASTR    ES   0A  1912 54.19                                            173  85 
 LKRN    IP   0A  1912 33.10                                            174  79 
 BRDA    IP   0A  1912 37.27                                            204   8 
 SAAT    IP   0A  1912 38.21                                            210  41 
 SAAT    ES   0A  1913  3.21                                            210  41 
 GANJ    IP   0A  1912 42.70                                            247 350 
 ZNJK    ES   0A  1913 12.92                                            257 139 
 GNI     IP   0A  1912 44.13                                            260 317 
 FTB      IAML A  1912 15.00       811.9                                        
 MRD      IAML A  1912 21.62       376.9                                        
 NAX      IAML A  1912 27.68       220.7                                        
 SRB      IAML A  1912 21.91       370.2                                        
 SBZ      IAML A  1912 29.55       191.3                                        
 TABZ     IAML A  1912 15.06       803.2                                        
 GANJ     IAML A  1912 42.70        72.8                                        
                                                                                

 2012  811 1929 29.2 L  38.441  46.795 26.5      23 0.1 2.6L                   1
 GAP=42                    0.6     0.3  0.6                                    E
 Action:ARG 24-03-13 16:03 OP:OBSP STATUS:               ID:20120811192929     I
 STAT SP IPHASW D HRMM SECON CODA AMPLIT PERI AZIMU VELO AIN AR TRES W  DIS CAZ7
 TVRZ    IP   0A  1929 34.44                                           11.5 302 
 TVRZ    ES   0A  1929 38.30                                           11.5 302 
 TAHR    IP   0A  1929 35.23                                           24.1  79 
 HRS     IP   0A  1929 35.58                                           27.1 122 
 HRS     ES   0A  1929 40.29                                           27.1 122 
 FTB     IP   0A  1929 39.99                                           58.7 215 
 TABZ    IP   0A  1929 40.06                                           58.9 222 
 TABZ    ES   0A  1929 48.14                                           58.9 222 
 TBZ     IP   0A  1929 40.38                                           60.0 246 
 BST     IP   0A  1929 43.54                                           83.7 173 
 BST     ES   0A  1929 54.23                                           83.7 173 
 ORD     IP   0A  1929 44.45                                           86.7 308 
 ORD     ES   0A  1929 55.82                                           86.7 308 
 MRD     IP   0A  1929 46.22                                           98.5 287 
 SHB     IP   0A  1929 46.95                                            103 260 
 SHB     ES   0A  1930  0.19                                            103 260 
 SRB     ES   0A  1929 59.41                                            103 131 
 GRMI    IP   0A  1929 46.84                                            104  67 
 GRMI    ES   0A  1929 59.99                                            104  67 
 AZR     ES   0A  1930  1.71                                            110 219 
 HSH     IP   0A  1929 51.19                                            134 161 
 NAX     IP   0A  1929 52.22                                            137 306 
 NAX     ES   0A  1930  9.42                                            137 306 
 SBZ     IP   0A  1929 54.07                                            149 315 
 GLBA    ES   0A  1930 16.25                                            165  57 
 ASTR    IP   0A  1929 57.48                                            176  85 
 LKRN    IP   0A  1929 57.62                                            176  79 
 LKRN    ES   0A  1930 18.76                                            176  79 
 BRDA    ES   0A  1930 25.24                                            204   9 
 ZRD     IP   0A  1930  3.01                                            217  20 
 GANJ    IP   0A  1930  6.75                                            247 350 
 ZNJK    IP   0A  1930  7.93                                            259 138 
 ZNJK    ES   0A  1930 36.55                                            259 138 
 HSH      IAML A  1929 51.19       118.9                                        
 LKRN     IAML A  1929 57.62        72.7                                        
 TVRZ     IAML A  1929 34.44      3087.0                                        
 MRD      IAML A  1929 46.22       195.5                                        
 ASTR     IAML A  1929 57.48        73.2                                        
 SBZ      IAML A  1929 54.07        98.2                                        
 FTB      IAML A  1929 39.99       412.7                                        
 ORD      IAML A  1929 44.45       237.1                                        
                                                                                

 2012  811 1930 45.8 L  38.444  46.927 23.3      21 0.1 2.7L                   1
 GAP=51                    0.6     0.2  0.6                                    E
 Action:ARG 24-03-13 16:03 OP:OBSP STATUS:               ID:20120811193045     I
 STAT SP IPHASW D HRMM SECON CODA AMPLIT PERI AZIMU VELO AIN AR TRES W  DIS CAZ7
 TAHR    ES   0A  1930 53.11                                           11.6  56 
 HRS     IP   0A  1930 50.06                                           15.4 145 
 HRS     ES   0A  1930 53.78                                           15.4 145 
 TVRZ    IP   0A  1930 50.78                                           25.2 288 
 TVRZ    ES   0A  1930 55.04                                           25.2 288 
 FTB     IP   0A  1930 56.96                                           66.5 226 
 FTB     ES   0A  1931  5.85                                           66.5 226 
 TABZ    IP   0A  1930 57.16                                           68.1 232 
 TBZ     IP   0A  1930 57.75                                           72.6 252 
 TBZ     ES   0A  1931  7.24                                           72.6 252 
 BST     IP   0A  1930 59.28                                           81.4 183 
 BST     ES   0A  1931  9.91                                           81.4 183 
 GRMI    IP   0A  1931  1.15                                           93.0  63 
 ORD     IP   0A  1931  1.61                                           99.2 304 
 MRD     IP   0A  1931  3.75                                            112 286 
 MRD     ES   0A  1931 17.74                                            112 286 
 SHB     IP   0A  1931  4.49                                            116 262 
 SHB     ES   0A  1931 19.02                                            116 262 
 AZR     IP   0A  1931  4.95                                            117 225 
 AZR     ES   0A  1931 19.83                                            117 225 
 LRK     IP   0A  1931  5.93                                            123  78 
 NAX     ES   0A  1931 27.71                                            150 303 
 GLBA    IP   0A  1931 10.59                                            154  54 
 GLBA    ES   0A  1931 29.70                                            154  54 
 LKRN    IP   0A  1931 11.89                                            163  78 
 SAAT    IP   0A  1931 17.43                                            204  38 
 ZRD     IP   0A  1931 18.53                                            215  17 
 ZRD     ES   0A  1931 43.38                                            215  17 
 ZNJK    IP   0A  1931 23.27                                            248 141 
 ZNJK    ES   0A  1931 51.58                                            248 141 
 GNI     IP   0A  1931 25.27                                            269 315 
 VANB    IP   0A  1931 30.45                                            310 274 
 GNI      IAML A  1931 25.27        38.3                                        
 BST      IAML A  1930 59.28       327.9                                        
 TVRZ     IAML A  1930 50.78      1541.1                                        
 HRS      IAML A  1930 50.06      2762.2                                        
 SHB      IAML A  1931  4.49       188.0                                        
 ZRD      IAML A  1931 18.53        62.3                                        
 SAAT     IAML A  1931 17.43        69.2                                        
 FTB      IAML A  1930 56.96       437.4                                        
 LKRN     IAML A  1931 11.89       106.0                                        
                                                                                

 2012  811 1940 17.1 L  38.445  46.801 21.0      23 0.1 2.6L                   1
 GAP=42                    0.6     0.2  0.5                                    E
 Action:ARG 24-03-13 16:03 OP:OBSP STATUS:               ID:20120811194017     I
 STAT SP IPHASW D HRMM SECON CODA AMPLIT PERI AZIMU VELO AIN AR TRES W  DIS CAZ7
 TVRZ    ES   0A  1940 24.82                                           13.7 295 
 TAHR    IP   0A  1940 22.32                                           21.5  78 
 TAHR    ES   0A  1940 26.24                                           21.5  78 
 HRS     IP   0A  1940 22.94                                           25.2 126 
 HRS     ES   0A  1940 27.32                                           25.2 126 
 TABZ    IP   0A  1940 27.79                                           61.0 224 
 TABZ    ES   0A  1940 35.80                                           61.0 224 
 TBZ     IP   0A  1940 28.10                                           62.6 247 
 TBZ     ES   0A  1940 36.34                                           62.6 247 
 BST     IP   0A  1940 31.38                                           83.7 175 
 BST     ES   0A  1940 42.09                                           83.7 175 
 ORD     IP   0A  1940 32.41                                           88.6 306 
 MRD     IP   0A  1940 34.20                                            100 287 
 MRD     ES   0A  1940 47.02                                            100 287 
 SRB     IP   0A  1940 34.60                                            102 132 
 SRB     ES   0A  1940 47.72                                            102 132 
 SHB     IP   0A  1940 34.86                                            105 260 
 SHB     ES   0A  1940 48.17                                            105 260 
 AZR     IP   0A  1940 35.73                                            112 220 
 HSH     IP   0A  1940 39.16                                            133 162 
 LRK     IP   0A  1940 39.49                                            135  80 
 NAX     ES   0A  1940 57.59                                            139 305 
 GLBA    IP   0A  1940 43.88                                            163  56 
 ASTR    IP   0A  1940 45.29                                            173  85 
 LKRN    IP   0A  1940 45.46                                            174  79 
 BRDA    IP   0A  1940 49.58                                            203   8 
 MAKU    ES   0A  1941 15.21                                            210 299 
 ZRD     IP   0A  1940 51.22                                            216  20 
 ZRD     ES   0A  1941 16.60                                            216  20 
 GANJ    ES   0A  1941 23.19                                            247 350 
 GNI     IP   0A  1940 56.62                                            259 317 
 VANB    IP   0A  1941  1.22                                            299 274 
 VANB    ES   0A  1941 33.87                                            299 274 
 ASTR     IAML A  1940 45.29        75.4                                        
 LKRN     IAML A  1940 45.46        74.8                                        
 VANB     IAML A  1941  1.22        23.8                                        
 SRB      IAML A  1940 34.60       184.5                                        
 GNI      IAML A  1940 56.62        33.0                                        
 AZR      IAML A  1940 35.73       158.7                                        
 TAHR     IAML A  1940 22.32      1482.7                                        
 HRS      IAML A  1940 22.94      1223.5                                        
 SHB      IAML A  1940 34.86       174.8                                        
 LRK      IAML A  1940 39.49       117.3                                        
                                                                                

 2012  811 2010 30.6 L  38.424  46.772 15.0      22 0.1 3.4L                   1
 GAP=43                    0.6     0.2  0.5                                    E
 Action:ARG 24-03-13 16:03 OP:OBSP STATUS:               ID:20120811201030     I
 STAT SP IPHASW D HRMM SECON CODA AMPLIT PERI AZIMU VELO AIN AR TRES W  DIS CAZ7
 HRS     IP   0A  2010 35.35                                           27.0 114 
 HRS     ES   0A  2010 39.43                                           27.0 114 
 TABZ    IP   0A  2010 40.05                                           55.5 223 
 TABZ    ES   0A  2010 47.67                                           55.5 223 
 TBZ     IP   0A  2010 40.27                                           57.4 249 
 BST     ES   0A  2010 54.63                                           80.7 172 
 ORD     IP   0A  2010 45.34                                           87.5 310 
 ORD     ES   0A  2010 56.92                                           87.5 310 
 MRD     IP   0A  2010 47.04                                           98.0 289 
 SHB     IP   0A  2010 47.36                                            101 261 
 SHB     ES   0A  2011  0.46                                            101 261 
 SRB     IP   0A  2010 47.82                                            103 129 
 GRMI    IP   0A  2010 48.25                                            107  66 
 HSH     IP   0A  2010 52.23                                            131 160 
 NAX     IP   0A  2010 53.33                                            138 307 
 NAX     ES   0A  2011 10.90                                            138 307 
 SBZ     IP   0A  2010 55.21                                            151 316 
 SBZ     ES   0A  2011 14.19                                            151 316 
 GLBA    ES   0A  2011 18.33                                            168  56 
 ASTR    IP   0A  2010 58.99                                            177  84 
 LKRN    IP   0A  2010 59.18                                            178  78 
 LKRN    ES   0A  2011 21.14                                            178  78 
 MAKU    IP   0A  2011  3.82                                            208 300 
 SAAT    IP   0A  2011  4.50                                            215  41 
 SAAT    ES   0A  2011 30.26                                            215  41 
 ZRD     ES   0A  2011 31.31                                            221  20 
 GANJ    ES   0A  2011 37.33                                            250 351 
 ZNJK    IP   0A  2011 10.01                                            258 138 
 GNI     IP   0A  2011 10.04                                            259 318 
 GNI     ES   0A  2011 39.83                                            259 318 
 VANB    ES   0A  2011 47.32                                            295 274 
 ASTR     IAML A  2010 58.99       453.1                                        
 HSH      IAML A  2010 52.23       775.0                                        
 MRD      IAML A  2010 47.04      1242.6                                        
 MAKU     IAML A  2011  3.82       333.1                                        
 ORD      IAML A  2010 45.34      1475.2                                        
 NAX      IAML A  2010 53.33       710.8                                        
 GRMI     IAML A  2010 48.25      1073.3                                        
 SBZ      IAML A  2010 55.21       610.8                                        
 TABZ     IAML A  2010 40.05      2811.7                                        
                                                                                

