 2012  811 1745 44.2 L  38.410  46.788  9.4      22 0.1 2.5L                   1
 GAP=44                    0.6     0.2  0.7                                    E
 Action:ARG 24-03-13 16:03 OP:OBSP STATUS:               ID:20120811174544     I
 STAT SP IPHASW D HRMM SECON CODA AMPLIT PERI AZIMU VELO AIN AR TRES W  DIS CAZ7
 HRS     IP   0A  1745 48.97                                           23.4 116 
 HRS     ES   0A  1745 52.48                                           23.4 116 
 TABZ    IP   0A  1745 54.09                                           57.4 226 
 TBZ     IP   0A  1745 54.64                                           60.4 251 
 TBZ     ES   0A  1746  2.40                                           60.4 251 
 BST     IP   0A  1745 57.83                                           79.4 174 
 BST     ES   0A  1746  7.98                                           79.4 174 
 ORD     ES   0A  1746 11.04                                           90.8 309 
 SRB     IP   0A  1746  1.48                                           99.8 130 
 MRD     IP   0A  1746  1.45                                            101 289 
 MRD     ES   0A  1746 14.31                                            101 289 
 SHB     IP   0A  1746  1.90                                            104 262 
 SHB     ES   0A  1746 15.10                                            104 262 
 GRMI    ES   0A  1746 15.81                                            104  64 
 AZR     IP   0A  1746  2.52                                            108 221 
 HSH     IP   0A  1746  6.24                                            129 161 
 HSH     ES   0A  1746 22.69                                            129 161 
 LRK     IP   0A  1746  7.45                                            136  78 
 LRK     ES   0A  1746 24.81                                            136  78 
 NAX     IP   0A  1746  7.99                                            141 307 
 NAX     ES   0A  1746 25.75                                            141 307 
 GLBA    IP   0A  1746 12.35                                            166  55 
 GLBA    ES   0A  1746 33.38                                            166  55 
 ASTR    IP   0A  1746 13.42                                            174  83 
 LKRN    IP   0A  1746 13.66                                            175  78 
 BRDA    IP   0A  1746 18.31                                            208   8 
 BRDA    ES   0A  1746 43.74                                            208   8 
 SAAT    IP   0A  1746 19.36                                            213  40 
 GANJ    ES   0A  1746 53.21                                            251 350 
 ZNJK    IP   0A  1746 24.56                                            254 138 
 ZNJK    ES   0A  1746 54.46                                            254 138 
 GNI     IP   0A  1746 25.32                                            262 317 
 VANB    IP   0A  1746 29.51                                            298 274 
 BRDA     IAML A  1746 18.31        42.0                                        
 AZR      IAML A  1746  2.52       133.0                                        
 VANB     IAML A  1746 29.51        19.0                                        
 LKRN     IAML A  1746 13.66        58.5                                        
 NAX      IAML A  1746  7.99        85.8                                        
 TABZ     IAML A  1745 54.09       338.1                                        
 SRB      IAML A  1746  1.48       152.3                                        
 TBZ      IAML A  1745 54.64       315.1                                        
                                                                                

 2012  811 1749 25.5 L  38.424  46.828 17.9      23 0.1 2.6L                   1
 GAP=44                    0.6     0.2  0.5                                    E
 Action:ARG 24-03-13 16:03 OP:OBSP STATUS:               ID:20120811174925     I
 STAT SP IPHASW D HRMM SECON CODA AMPLIT PERI AZIMU VELO AIN AR TRES W  DIS CAZ7
 TAHR    IP   0A  1749 30.33                                           21.5  68 
 HRS     IP   0A  1749 30.53                                           22.3 120 
 HRS     ES   0A  1749 34.37                                           22.3 120 
 TABZ    IP   0A  1749 36.27                                           59.2 227 
 TABZ    ES   0A  1749 44.42                                           59.2 227 
 TBZ     IP   0A  1749 36.63                                           62.3 250 
 TBZ     ES   0A  1749 45.05                                           62.3 250 
 BST     IP   0A  1749 39.40                                           80.1 175 
 BST     ES   0A  1749 49.90                                           80.1 175 
 ORD     IP   0A  1749 41.48                                           91.6 308 
 SRB     IP   0A  1749 42.56                                           99.1 131 
 SRB     ES   0A  1749 55.44                                           99.1 131 
 MRD     IP   0A  1749 43.13                                            102 288 
 MRD     ES   0A  1749 56.42                                            102 288 
 SHB     IP   0A  1749 43.45                                            106 262 
 HSH     ES   0A  1750  3.60                                            129 162 
 LRK     IP   0A  1749 47.78                                            134  78 
 LRK     ES   0A  1750  4.56                                            134  78 
 NAX     IP   0A  1749 49.31                                            142 306 
 SBZ     ES   0A  1750 10.45                                            154 314 
 GLBA    IP   0A  1749 52.22                                            164  55 
 ASTR    IP   0A  1749 53.56                                            172  84 
 LKRN    IP   0A  1749 53.75                                            173  78 
 LKRN    ES   0A  1750 15.01                                            173  78 
 BRDA    IP   0A  1749 58.42                                            207   8 
 SAAT    ES   0A  1750 24.51                                            211  40 
 MAKU    IP   0A  1749 59.53                                            212 299 
 MAKU    ES   0A  1750 24.92                                            212 299 
 ZRD     IP   0A  1750  0.05                                            219  19 
 ZNJK    IP   0A  1750  4.77                                            254 139 
 GNI     IP   0A  1750  5.69                                            263 317 
 VANB    ES   0A  1750 43.22                                            300 274 
 BRDA     IAML A  1749 58.42        53.4                                        
 BST      IAML A  1749 39.40       266.4                                        
 MRD      IAML A  1749 43.13       182.5                                        
 GLBA     IAML A  1749 52.22        83.2                                        
 TABZ     IAML A  1749 36.27       407.8                                        
 LKRN     IAML A  1749 53.75        75.1                                        
 ZNJK     IAML A  1750  4.77        34.5                                        
                                                                                

 2012  811 1758 33.8 L  38.380  46.795  9.2      24 0.1 4.1L                   1
 GAP=47                    0.6     0.2  0.6                                    E
 Action:ARG 24-03-13 16:03 OP:OBSP STATUS:               ID:20120811175833     I
 STAT SP IPHASW D HRMM SECON CODA AMPLIT PERI AZIMU VELO AIN AR TRES W  DIS CAZ7
 TVRZ    ES   0A  1758 39.52                                           18.9 319 
 HRS     IP   0A  1758 37.34                                           21.5 106 
 HRS     ES   0A  1758 40.53                                           21.5 106 
 TAHR    IP   0A  1758 38.07                                           24.9  58 
 TAHR    ES   0A  1758 41.79                                           24.9  58 
 TABZ    IP   0A  1758 42.79                                           54.9 230 
 TBZ     IP   0A  1758 43.39                                           59.6 255 
 BST     IP   0A  1758 46.08                                           75.1 174 
 BST     ES   0A  1758 55.82                                           75.1 174 
 ORD     ES   0A  1759  0.60                                           93.8 311 
 SRB     IP   0A  1758 49.74                                           96.8 128 
 SRB     ES   0A  1759  2.23                                           96.8 128 
 MRD     IP   0A  1758 50.50                                            103 291 
 MRD     ES   0A  1759  3.55                                            103 291 
 SHB     IP   0A  1758 50.70                                            104 264 
 AZR     IP   0A  1758 51.23                                            105 223 
 GRMI    IP   0A  1758 51.43                                            106  62 
 HSH     IP   0A  1758 54.50                                            125 161 
 LRK     ES   0A  1759 13.90                                            137  76 
 NAX     ES   0A  1759 15.26                                            144 308 
 SBZ     IP   0A  1758 59.30                                            157 316 
 SBZ     ES   0A  1759 18.94                                            157 316 
 GLBA    IP   0A  1759  1.48                                            168  54 
 GLBA    ES   0A  1759 22.76                                            168  54 
 ASTR    IP   0A  1759  2.31                                            174  82 
 BRDA    IP   0A  1759  7.55                                            212   8 
 MAKU    IP   0A  1759  8.02                                            214 301 
 SAAT    IP   0A  1759  8.45                                            216  39 
 SAAT    ES   0A  1759 34.75                                            216  39 
 ZRD     IP   0A  1759  9.21                                            224  19 
 GANJ    ES   0A  1759 42.63                                            254 350 
 GNI     IP   0A  1759 14.37                                            266 318 
 GNI     ES   0A  1759 45.02                                            266 318 
 ZRD      IAML A  1759  9.21      1427.7                                        
 TABZ     IAML A  1758 42.79     14308.2                                        
 MAKU     IAML A  1759  8.02      1576.0                                        
 SAAT     IAML A  1759  8.45      1543.5                                        
 GNI      IAML A  1759 14.37       989.5                                        
                                                                                

 2012  811 1813  3.1 L  38.382  46.644  5.4      23 0.1 3.0L                   1
 GAP=44                    0.8     0.3  0.8                                    E
 Action:ARG 24-03-13 16:03 OP:OBSP STATUS:               ID:20120811181303     I
 STAT SP IPHASW D HRMM SECON CODA AMPLIT PERI AZIMU VELO AIN AR TRES W  DIS CAZ7
 TVRZ    IP   0A  1813  5.81                                           12.4   3 
 HRS     IP   0A  1813  9.59                                           34.4 103 
 FTB     IP   0A  1813 11.26                                           47.8 209 
 FTB     ES   0A  1813 17.30                                           47.8 209 
 TBZ     IP   0A  1813 11.31                                           48.0 248 
 TBZ     ES   0A  1813 17.40                                           48.0 248 
 BST     IP   0A  1813 16.58                                           79.5 165 
 ORD     IP   0A  1813 17.38                                           83.1 315 
 ORD     ES   0A  1813 28.02                                           83.1 315 
 MRD     IP   0A  1813 18.54                                           90.8 293 
 SHB     IP   0A  1813 18.61                                           91.9 262 
 SRB     IP   0A  1813 21.62                                            108 125 
 SRB     ES   0A  1813 35.43                                            108 125 
 GRMI    IP   0A  1813 23.23                                            117  66 
 GRMI    ES   0A  1813 38.25                                            117  66 
 NAX     IP   0A  1813 25.64                                            133 310 
 NAX     ES   0A  1813 42.48                                            133 310 
 SBZ     IP   0A  1813 28.00                                            147 319 
 LRK     ES   0A  1813 47.52                                            149  78 
 ASTR    IP   0A  1813 34.71                                            187  83 
 LKRN    ES   0A  1813 58.72                                            188  78 
 MAKU    IP   0A  1813 36.83                                            202 302 
 MAKU    ES   0A  1814  2.04                                            202 302 
 BRDA    IP   0A  1813 38.48                                            212  12 
 SAAT    ES   0A  1814  7.57                                            222  42 
 ZRD     IP   0A  1813 40.47                                            227  22 
 ZRD     ES   0A  1814  8.20                                            227  22 
 GANJ    ES   0A  1814 13.38                                            252 353 
 GNI     ES   0A  1814 14.16                                            256 320 
 ZNJK    IP   0A  1813 44.70                                            262 136 
 ZNJK    ES   0A  1814 15.53                                            262 136 
 VANB    IP   0A  1813 47.39                                            286 275 
 ORD      IAML A  1813 17.38       634.6                                        
 GRMI     IAML A  1813 23.23       374.0                                        
 BRDA     IAML A  1813 38.48       127.3                                        
 TVRZ     IAML A  1813  5.81      7157.4                                        
 BST      IAML A  1813 16.58       677.0                                        
 MAKU     IAML A  1813 36.83       140.7                                        
 MRD      IAML A  1813 18.54       555.5                                        
 HRS      IAML A  1813  9.59      2082.8                                        
                                                                                

 2012  811 1821 44.5 L  38.444  46.709 19.8      23 0.1 2.6L                   1
 GAP=41                    0.6     0.3  0.7                                    E
 Action:ARG 24-03-13 16:03 OP:OBSP STATUS:               ID:20120811182144     I
 STAT SP IPHASW D HRMM SECON CODA AMPLIT PERI AZIMU VELO AIN AR TRES W  DIS CAZ7
 TVRZ    ES   0A  1821 51.22                                           8.40 342 
 TAHR    IP   0A  1821 50.80                                           31.6  78 
 HRS     IP   0A  1821 51.10                                           32.7 112 
 HRS     ES   0A  1821 56.05                                           32.7 112 
 TBZ     IP   0A  1821 54.25                                           52.6 245 
 TBZ     ES   0A  1822  1.56                                           52.6 245 
 TABZ    ES   0A  1822  1.73                                           52.8 218 
 FTB     IP   0A  1821 54.41                                           53.2 210 
 ORD     ES   0A  1822  9.62                                           82.4 312 
 BST     IP   0A  1821 59.06                                           83.0 168 
 BST     ES   0A  1822  9.99                                           83.0 168 
 MRD     IP   0A  1822  0.50                                           92.2 290 
 MRD     ES   0A  1822 12.50                                           92.2 290 
 SHB     IP   0A  1822  0.86                                           95.7 260 
 SRB     IP   0A  1822  2.77                                            108 128 
 SRB     ES   0A  1822 16.47                                            108 128 
 GRMI    IP   0A  1822  3.15                                            112  67 
 NAX     IP   0A  1822  6.67                                            133 308 
 NAX     ES   0A  1822 23.30                                            133 308 
 LRK     ES   0A  1822 26.09                                            145  80 
 SBZ     IP   0A  1822  8.59                                            146 317 
 GLBA    IP   0A  1822 12.34                                            172  58 
 LKRN    IP   0A  1822 14.22                                            184  79 
 MAKU    IP   0A  1822 17.03                                            202 301 
 MAKU    ES   0A  1822 41.23                                            202 301 
 BRDA    IP   0A  1822 17.20                                            207  11 
 SAAT    IP   0A  1822 18.56                                            217  42 
 SAAT    ES   0A  1822 43.90                                            217  42 
 GANJ    IP   0A  1822 22.20                                            247 352 
 GNI     IP   0A  1822 23.31                                            254 319 
 GNI     ES   0A  1822 52.10                                            254 319 
 ZNJK    IP   0A  1822 24.49                                            263 137 
 ZNJK    ES   0A  1822 54.15                                            263 137 
 SAAT     IAML A  1822 18.56        48.1                                        
 GANJ     IAML A  1822 22.20        36.6                                        
 MAKU     IAML A  1822 17.03        55.7                                        
 SRB      IAML A  1822  2.77       168.5                                        
 ZNJK     IAML A  1822 24.49        32.1                                        
 BRDA     IAML A  1822 17.20        53.1                                        
 TBZ      IAML A  1821 54.25       478.5                                        
 SHB      IAML A  1822  0.86       204.2                                        
 MRD      IAML A  1822  0.50       216.1                                        
 BST      IAML A  1821 59.06       253.1                                        
 GLBA     IAML A  1822 12.34        75.9                                        
 NAX      IAML A  1822  6.67       120.4                                        
 GRMI     IAML A  1822  3.15       158.9                                        
                                                                                

