 2012  811 2029 18.5 L  38.391  46.848  4.4      25 0.1 2.6L                   1
 GAP=46                    0.7     0.3  0.7                                    E
 Action:ARG 24-03-13 16:03 OP:OBSP STATUS:               ID:20120811202918     I
 STAT SP IPHASW D HRMM SECON CODA AMPLIT PERI AZIMU VELO AIN AR TRES W  DIS CAZ7
 HRS     IP   0A  2029 22.11                                           17.1 114 
 HRS     ES   0A  2029 24.75                                           17.1 114 
 TAHR    IP   0A  2029 22.52                                           20.3  53 
 FTB     IP   0A  2029 28.63                                           57.7 225 
 TABZ    IP   0A  2029 28.83                                           59.3 232 
 TABZ    ES   0A  2029 36.51                                           59.3 232 
 TBZ     IP   0A  2029 29.59                                           64.6 255 
 BST     IP   0A  2029 31.66                                           75.6 178 
 SRB     IP   0A  2029 34.77                                           93.5 131 
 SRB     ES   0A  2029 46.90                                           93.5 131 
 ORD     IP   0A  2029 34.74                                           97.2 308 
 MRD     IP   0A  2029 36.61                                            107 290 
 MRD     ES   0A  2029 50.12                                            107 290 
 SHB     IP   0A  2029 36.95                                            109 264 
 AZR     ES   0A  2029 51.18                                            109 224 
 HSH     IP   0A  2029 39.90                                            123 163 
 HSH     ES   0A  2029 55.88                                            123 163 
 LRK     IP   0A  2029 41.15                                            132  76 
 LRK     ES   0A  2029 58.06                                            132  76 
 NAX     ES   0A  2030  1.57                                            148 306 
 SBZ     IP   0A  2029 45.16                                            160 315 
 GLBA    IP   0A  2029 46.14                                            163  53 
 LKRN    ES   0A  2030  9.32                                            171  77 
 BRDA    ES   0A  2030 19.24                                            210   7 
 SAAT    IP   0A  2029 53.89                                            212  38 
 SAAT    ES   0A  2030 20.32                                            212  38 
 MAKU    IP   0A  2029 54.43                                            218 300 
 MAKU    ES   0A  2030 21.22                                            218 300 
 ZRD     ES   0A  2030 22.14                                            222  18 
 ZNJK    IP   0A  2029 58.85                                            248 139 
 GANJ    ES   0A  2030 29.23                                            254 349 
 GNI     IP   0A  2030  0.69                                            268 317 
 VANB    IP   0A  2030  5.17                                            304 275 
 ORD      IAML A  2029 34.74       199.6                                        
 MRD      IAML A  2029 36.61       169.6                                        
 GNI      IAML A  2030  0.69        30.6                                        
 SAAT     IAML A  2029 53.89        50.6                                        
 TAHR     IAML A  2029 22.52      1582.5                                        
 LRK      IAML A  2029 41.15       121.9                                        
 HRS      IAML A  2029 22.11      1948.4                                        
 TBZ      IAML A  2029 29.59       362.0                                        
 GLBA     IAML A  2029 46.14        83.7                                        
 VANB     IAML A  2030  5.17        22.8                                        
                                                                                

 2012  811 2037 27.3 L  38.463  46.799 20.5      23 0.1 2.3L                   1
 GAP=41                    0.6     0.2  0.6                                    E
 Action:ARG 24-03-13 16:03 OP:OBSP STATUS:               ID:20120811203727     I
 STAT SP IPHASW D HRMM SECON CODA AMPLIT PERI AZIMU VELO AIN AR TRES W  DIS CAZ7
 TVRZ    IP   0A  2037 31.63                                           11.0 294 
 TVRZ    ES   0A  2037 34.81                                           11.0 294 
 TAHR    ES   0A  2037 36.42                                           23.7  82 
 HRS     IP   0A  2037 33.23                                           27.9 125 
 HRS     ES   0A  2037 37.60                                           27.9 125 
 FTB     IP   0A  2037 38.26                                           60.1 214 
 TABZ    IP   0A  2037 38.30                                           60.2 221 
 TABZ    ES   0A  2037 46.48                                           60.2 221 
 TBZ     IP   0A  2037 38.49                                           60.8 245 
 TBZ     ES   0A  2037 46.80                                           60.8 245 
 ORD     IP   0A  2037 42.34                                           85.9 307 
 MRD     IP   0A  2037 44.26                                           98.2 286 
 SHB     IP   0A  2037 45.08                                            103 259 
 SHB     ES   0A  2037 58.34                                            103 259 
 GRMI    IP   0A  2037 44.78                                            104  68 
 GRMI    ES   0A  2037 57.82                                            104  68 
 SRB     IP   0A  2037 44.85                                            104 132 
 AZR     ES   0A  2038  0.39                                            111 219 
 LRK     IP   0A  2037 49.80                                            137  81 
 SBZ     IP   0A  2037 51.96                                            148 314 
 SBZ     ES   0A  2038 10.39                                            148 314 
 GLBA    ES   0A  2038 14.01                                            164  57 
 ASTR    IP   0A  2037 55.61                                            175  85 
 BRDA    IP   0A  2037 59.69                                            202   9 
 BRDA    ES   0A  2038 23.72                                            202   9 
 MAKU    IP   0A  2038  0.53                                            207 299 
 SAAT    IP   0A  2038  0.60                                            210  41 
 SAAT    ES   0A  2038 25.30                                            210  41 
 ZRD     ES   0A  2038 26.49                                            216  20 
 GNI     IP   0A  2038  6.62                                            257 317 
 GNI     ES   0A  2038 35.72                                            257 317 
 ZNJK    IP   0A  2038  6.83                                            260 139 
 VANB    IP   0A  2038 11.40                                            296 273 
 SHB      IAML A  2037 45.08        90.5                                        
 LRK      IAML A  2037 49.80        57.2                                        
 ZNJK     IAML A  2038  6.83        16.4                                        
 HRS      IAML A  2037 33.23       541.1                                        
 ASTR     IAML A  2037 55.61        36.8                                        
 MAKU     IAML A  2038  0.53        26.7                                        
 FTB      IAML A  2037 38.26       200.4                                        
 BRDA     IAML A  2037 59.69        27.9                                        
 TBZ      IAML A  2037 38.49       197.1                                        
 MRD      IAML A  2037 44.26        98.4                                        
 GNI      IAML A  2038  6.62        16.9                                        
 ORD      IAML A  2037 42.34       120.5                                        
                                                                                

 2012  811 2045 46.7 L  38.420  46.690 14.7      20 0.1 2.9L                   1
 GAP=42                    0.6     0.2  0.6                                    E
 Action:ARG 24-03-13 16:03 OP:OBSP STATUS:               ID:20120811204546     I
 STAT SP IPHASW D HRMM SECON CODA AMPLIT PERI AZIMU VELO AIN AR TRES W  DIS CAZ7
 TAHR    IP   0A  2045 52.88                                           33.0  75 
 HRS     IP   0A  2045 52.98                                           33.1 109 
 HRS     ES   0A  2045 57.76                                           33.1 109 
 TABZ    IP   0A  2045 56.00                                           50.8 218 
 TABZ    ES   0A  2046  3.06                                           50.8 218 
 TBZ     IP   0A  2045 55.93                                           51.0 246 
 TBZ     ES   0A  2046  2.93                                           51.0 246 
 FTB     IP   0A  2045 56.03                                           51.2 209 
 FTB     ES   0A  2046  3.11                                           51.2 209 
 BST     IP   0A  2046  0.88                                           81.5 167 
 BST     ES   0A  2046 11.59                                           81.5 167 
 ORD     IP   0A  2046  1.28                                           82.7 313 
 ORD     ES   0A  2046 12.29                                           82.7 313 
 MRD     IP   0A  2046  2.69                                           91.8 291 
 MRD     ES   0A  2046 14.76                                           91.8 291 
 SHB     IP   0A  2046  2.92                                           94.4 261 
 SHB     ES   0A  2046 15.16                                           94.4 261 
 SRB     IP   0A  2046  5.36                                            108 127 
 SRB     ES   0A  2046 19.42                                            108 127 
 GRMI    IP   0A  2046  6.10                                            113  67 
 HSH     IP   0A  2046  9.25                                            133 157 
 SBZ     ES   0A  2046 29.84                                            146 318 
 LKRN    IP   0A  2046 17.00                                            185  79 
 LKRN    ES   0A  2046 39.80                                            185  79 
 MAKU    IP   0A  2046 19.81                                            202 301 
 MAKU    ES   0A  2046 44.58                                            202 301 
 BRDA    IP   0A  2046 20.35                                            209  11 
 BRDA    ES   0A  2046 45.49                                            209  11 
 SAAT    IP   0A  2046 21.95                                            219  42 
 SAAT    ES   0A  2046 48.24                                            219  42 
 ZRD     IP   0A  2046 22.26                                            224  22 
 GNI     IP   0A  2046 26.28                                            254 319 
 VANB    IP   0A  2046 30.18                                            288 274 
 FTB      IAML A  2045 56.03       989.7                                        
 BST      IAML A  2046  0.88       517.9                                        
 ORD      IAML A  2046  1.28       506.9                                        
 VANB     IAML A  2046 30.18        51.8                                        
 BRDA     IAML A  2046 20.35       104.1                                        
 HSH      IAML A  2046  9.25       238.5                                        
 SAAT     IAML A  2046 21.95        94.3                                        
 TAHR     IAML A  2045 52.88      1746.7                                        
 GRMI     IAML A  2046  6.10       310.0                                        
 TABZ     IAML A  2045 56.00      1000.1                                        
                                                                                

 2012  811 2113 21.2 L  38.442  46.665 12.4      25 0.1 2.4L                   1
 GAP=40                    0.6     0.2  0.6                                    E
 Action:ARG 24-03-13 16:03 OP:OBSP STATUS:               ID:20120811211321     I
 STAT SP IPHASW D HRMM SECON CODA AMPLIT PERI AZIMU VELO AIN AR TRES W  DIS CAZ7
 TVRZ    IP   0A  2113 23.87                                           8.34 357 
 TVRZ    ES   0A  2113 25.88                                           8.34 357 
 TAHR    ES   0A  2113 32.39                                           33.8  78 
 HRS     IP   0A  2113 27.71                                           34.6 110 
 HRS     ES   0A  2113 32.59                                           34.6 110 
 TBZ     IP   0A  2113 30.22                                           50.5 244 
 TABZ    IP   0A  2113 30.54                                           51.2 216 
 ORD     IP   0A  2113 34.95                                           81.0 313 
 ORD     ES   0A  2113 45.27                                           81.0 313 
 BST     IP   0A  2113 35.75                                           83.1 166 
 MRD     IP   0A  2113 36.57                                           90.3 290 
 SHB     IP   0A  2113 37.19                                           93.5 260 
 AZR     ES   0A  2113 52.46                                            103 216 
 SRB     IP   0A  2113 40.14                                            109 127 
 SRB     ES   0A  2113 54.34                                            109 127 
 GRMI    ES   0A  2113 55.54                                            114  68 
 NAX     IP   0A  2113 43.29                                            131 309 
 NAX     ES   0A  2113 59.85                                            131 309 
 HSH     IP   0A  2113 44.31                                            135 157 
 HSH     ES   0A  2114  1.65                                            135 157 
 SBZ     IP   0A  2113 45.35                                            144 318 
 LRK     ES   0A  2114  4.65                                            147  80 
 ASTR    ES   0A  2114 14.75                                            185  84 
 LKRN    IP   0A  2113 52.00                                            186  79 
 MAKU    IP   0A  2113 53.96                                            201 301 
 MAKU    ES   0A  2114 18.52                                            201 301 
 BRDA    IP   0A  2113 54.88                                            208  11 
 SAAT    IP   0A  2113 56.64                                            219  43 
 SAAT    ES   0A  2114 23.01                                            219  43 
 GANJ    ES   0A  2114 28.47                                            247 353 
 GNI     IP   0A  2114  0.64                                            253 319 
 ZNJK    IP   0A  2114  2.34                                            264 137 
 VANB    IP   0A  2114  4.75                                            287 274 
 MRD      IAML A  2113 36.57       140.8                                        
 NAX      IAML A  2113 43.29        77.4                                        
 MAKU     IAML A  2113 53.96        35.8                                        
 GNI      IAML A  2114  0.64        22.0                                        
 BST      IAML A  2113 35.75       159.3                                        
 SRB      IAML A  2113 40.14       104.0                                        
                                                                                

 2012  811 2118 35.4 L  38.436  46.733 20.1      23 0.1 2.6L                   1
 GAP=42                    0.7     0.3  0.8                                    E
 Action:ARG 24-03-13 16:03 OP:OBSP STATUS:               ID:20120811211835     I
 STAT SP IPHASW D HRMM SECON CODA AMPLIT PERI AZIMU VELO AIN AR TRES W  DIS CAZ7
 HRS     IP   0A  2118 41.35                                           31.9 116 
 HRS     ES   0A  2118 46.04                                           31.9 116 
 TBZ     IP   0A  2118 45.15                                           54.7 244 
 TBZ     ES   0A  2118 52.70                                           54.7 244 
 TABZ    IP   0A  2118 45.02                                           54.9 218 
 ORD     IP   0A  2118 49.62                                           82.6 310 
 BST     IP   0A  2118 49.34                                           84.1 169 
 BST     ES   0A  2119  0.02                                           84.1 169 
 MRD     IP   0A  2118 51.26                                           93.2 288 
 MRD     ES   0A  2119  3.37                                           93.2 288 
 SHB     IP   0A  2118 51.90                                           97.6 259 
 SHB     ES   0A  2119  4.49                                           97.6 259 
 AZR     ES   0A  2119  6.43                                            106 217 
 SRB     IP   0A  2118 52.90                                            108 129 
 SRB     ES   0A  2119  6.25                                            108 129 
 GRMI    IP   0A  2118 53.47                                            110  68 
 NAX     ES   0A  2119 14.17                                            133 307 
 HSH     IP   0A  2118 57.20                                            135 158 
 LRK     IP   0A  2118 58.49                                            143  80 
 SBZ     IP   0A  2118 59.38                                            146 316 
 GLBA    IP   0A  2119  2.72                                            170  58 
 LKRN    IP   0A  2119  4.45                                            182  80 
 MAKU    IP   0A  2119  7.78                                            203 300 
 MAKU    ES   0A  2119 32.08                                            203 300 
 BRDA    IP   0A  2119  7.90                                            205  11 
 BRDA    ES   0A  2119 32.29                                            205  11 
 SAAT    ES   0A  2119 34.31                                            215  42 
 ZRD     IP   0A  2119  9.62                                            220  21 
 ZRD     ES   0A  2119 35.29                                            220  21 
 GANJ    ES   0A  2119 41.25                                            246 352 
 GNI     IP   0A  2119 14.11                                            254 318 
 GNI     ES   0A  2119 43.05                                            254 318 
 ZNJK    IP   0A  2119 14.69                                            263 137 
 MAKU     IAML A  2119  7.78        55.4                                        
 LRK      IAML A  2118 58.49       105.9                                        
 MRD      IAML A  2118 51.26       212.6                                        
 SRB      IAML A  2118 52.90       169.3                                        
 ZRD      IAML A  2119  9.62        47.1                                        
 SHB      IAML A  2118 51.90       198.4                                        
 BST      IAML A  2118 49.34       248.2                                        
 GRMI     IAML A  2118 53.47       163.6                                        
 TBZ      IAML A  2118 45.15       454.7                                        
                                                                                

