 2012  811 2358 13.4 L  38.461  46.714 11.1      22 0.1 3.4L                   1
 GAP=40                    0.6     0.2  0.6                                    E
 Action:ARG 24-03-13 16:03 OP:OBSP STATUS:               ID:20120811235813     I
 STAT SP IPHASW D HRMM SECON CODA AMPLIT PERI AZIMU VELO AIN AR TRES W  DIS CAZ7
 TVRZ    ES   0A  2358 17.60                                           5.25 327 
 TAHR    ES   0A  2358 22.98                                           30.8  84 
 HRS     IP   0A  2358 19.49                                           34.0 118 
 HRS     ES   0A  2358 24.06                                           34.0 118 
 TBZ     IP   0A  2358 23.23                                           54.4 242 
 TBZ     ES   0A  2358 30.60                                           54.4 242 
 TABZ    IP   0A  2358 23.35                                           55.8 215 
 BST     ES   0A  2358 39.19                                           86.4 168 
 MRD     IP   0A  2358 29.26                                           91.3 287 
 SHB     IP   0A  2358 30.10                                           96.7 258 
 SRB     IP   0A  2358 31.97                                            110 129 
 SRB     ES   0A  2358 45.89                                            110 129 
 GRMI    IP   0A  2358 32.13                                            110  69 
 NAX     ES   0A  2358 52.68                                            131 307 
 HSH     ES   0A  2358 54.02                                            138 158 
 SBZ     IP   0A  2358 37.84                                            143 316 
 LRK     ES   0A  2358 55.73                                            144  81 
 GLBA    IP   0A  2358 41.73                                            170  59 
 LKRN    IP   0A  2358 43.55                                            183  80 
 MAKU    IP   0A  2358 46.67                                            201 300 
 MAKU    ES   0A  2359 11.57                                            201 300 
 SAAT    IP   0A  2358 48.44                                            215  43 
 SAAT    ES   0A  2359 14.53                                            215  43 
 GANJ    ES   0A  2359 20.42                                            244 352 
 GNI     ES   0A  2359 22.46                                            252 318 
 ZNJK    IP   0A  2358 54.66                                            265 138 
 VANB    ES   0A  2359 30.23                                            289 273 
 SRB      IAML A  2358 31.97      1032.5                                        
 TBZ      IAML A  2358 23.23      2885.5                                        
 TABZ     IAML A  2358 23.35      2792.0                                        
 HRS      IAML A  2358 19.49      5313.6                                        
 SHB      IAML A  2358 30.10      1269.6                                        
                                                                                

 2012  812  010 52.6 L  38.394  46.706  6.2      22 0.1 2.5L                   1
 GAP=45                    0.7     0.2  0.7                                    E
 Action:ARG 24-03-13 16:03 OP:OBSP STATUS:               ID:20120812001052     I
 STAT SP IPHASW D HRMM SECON CODA AMPLIT PERI AZIMU VELO AIN AR TRES W  DIS CAZ7
 TVRZ    ES   0A   010 57.17                                           11.7 347 
 HRS     IP   0A   010 58.19                                           31.6 106 
 HRS     ES   0A   011  2.31                                           31.6 106 
 TAHR    IP   0A   010 58.49                                           32.6  72 
 TAHR    ES   0A   011  2.83                                           32.6  72 
 TABZ    IP   0A   011  1.54                                           50.1 220 
 FTB     IP   0A   011  1.50                                           50.2 211 
 TBZ     IP   0A   011  1.82                                           51.2 249 
 TBZ     ES   0A   011  8.66                                           51.2 249 
 BST     ES   0A   011 16.17                                           79.6 167 
 ORD     IP   0A   011  7.27                                           84.7 313 
 MRD     IP   0A   011  8.69                                           93.4 292 
 SHB     IP   0A   011  8.95                                           95.1 262 
 SRB     IP   0A   011 10.38                                            106 126 
 SRB     ES   0A   011 23.64                                            106 126 
 HSH     IP   0A   011 14.65                                            131 157 
 HSH     ES   0A   011 31.11                                            131 157 
 LRK     IP   0A   011 17.13                                            145  78 
 ASTR    IP   0A   011 23.23                                            183  83 
 ASTR    ES   0A   011 46.13                                            183  83 
 LKRN    IP   0A   011 23.46                                            184  78 
 MAKU    IP   0A   011 26.75                                            204 301 
 MAKU    ES   0A   011 52.27                                            204 301 
 BRDA    ES   0A   011 53.61                                            211  11 
 SAAT    IP   0A   011 28.95                                            220  42 
 SAAT    ES   0A   011 55.92                                            220  42 
 GANJ    IP   0A   011 32.58                                            251 352 
 GANJ    ES   0A   012  2.23                                            251 352 
 GNI     IP   0A   011 33.48                                            257 319 
 ZNJK    ES   0A   012  4.20                                            260 136 
 VANB    IP   0A   011 37.32                                            289 275 
 VANB    ES   0A   012 10.41                                            289 275 
 HSH      IAML A   011 14.65        97.4                                        
 ORD      IAML A   011  7.27       195.1                                        
 LKRN     IAML A   011 23.46        53.0                                        
 LRK      IAML A   011 17.13        81.6                                        
 SRB      IAML A   011 10.38       137.9                                        
 TBZ      IAML A   011  1.82       394.1                                        
 MRD      IAML A   011  8.69       168.4                                        
 TAHR     IAML A   010 58.49       707.0                                        
 MAKU     IAML A   011 26.75        43.5                                        
 ASTR     IAML A   011 23.23        53.6                                        
 SAAT     IAML A   011 28.95        37.3                                        
                                                                                

 2012  812  015 22.7 L  38.435  46.769 18.0      23 0.1 3.1L                   1
 GAP=42                    0.6     0.2  0.6                                    E
 Action:ARG 24-03-13 16:03 OP:OBSP STATUS:               ID:20120812001522     I
 STAT SP IPHASW D HRMM SECON CODA AMPLIT PERI AZIMU VELO AIN AR TRES W  DIS CAZ7
 TVRZ    IP   0A   015 26.68                                           10.5 308 
 TAHR    ES   0A   015 32.18                                           25.7  78 
 HRS     IP   0A   015 28.48                                           28.3 119 
 FTB     IP   0A   015 32.98                                           57.5 214 
 TABZ    ES   0A   015 40.67                                           57.5 221 
 TBZ     IP   0A   015 33.23                                           58.4 246 
 TBZ     ES   0A   015 41.05                                           58.4 246 
 BST     ES   0A   015 47.79                                           83.4 172 
 ORD     IP   0A   015 37.82                                           85.8 308 
 MRD     IP   0A   015 39.52                                           97.1 288 
 MRD     ES   0A   015 52.05                                           97.1 288 
 SHB     IP   0A   015 40.19                                            101 260 
 SHB     ES   0A   015 53.23                                            101 260 
 SRB     IP   0A   015 40.34                                            104 130 
 SRB     ES   0A   015 53.50                                            104 130 
 GRMI    IP   0A   015 40.86                                            106  67 
 AZR     IP   0A   015 41.20                                            109 218 
 NAX     IP   0A   015 45.65                                            136 306 
 LRK     IP   0A   015 45.84                                            139  80 
 SBZ     ES   0A   016  6.13                                            149 315 
 GLBA    IP   0A   015 50.18                                            167  57 
 GLBA    ES   0A   016 10.72                                            167  57 
 MAKU    IP   0A   015 56.14                                            206 299 
 MAKU    ES   0A   016 20.95                                            206 299 
 SAAT    IP   0A   015 56.82                                            213  41 
 SAAT    ES   0A   016 22.12                                            213  41 
 ZRD     ES   0A   016 23.29                                            218  21 
 GANJ    ES   0A   016 29.39                                            247 351 
 ZNJK    IP   0A   016  2.44                                            260 138 
 ZNJK    ES   0A   016 31.86                                            260 138 
 VANB    IP   0A   016  6.88                                            294 274 
 MRD      IAML A   015 39.52       631.6                                        
 TVRZ     IAML A   015 26.68     10870.7                                        
 TBZ      IAML A   015 33.23      1314.3                                        
 SHB      IAML A   015 40.19       589.3                                        
 HRS      IAML A   015 28.48      3354.9                                        
 SRB      IAML A   015 40.34       560.9                                        
 GRMI     IAML A   015 40.86       546.7                                        
 LRK      IAML A   015 45.84       351.7                                        
 AZR      IAML A   015 41.20       526.0                                        
                                                                                

 2012  812  034 16.3 L  38.434  46.769 19.5      19 0.1 3.8L                   1
 GAP=42                    0.6     0.2  0.5                                    E
 Action:ARG 24-03-13 16:03 OP:OBSP STATUS:               ID:20120812003416     I
 STAT SP IPHASW D HRMM SECON CODA AMPLIT PERI AZIMU VELO AIN AR TRES W  DIS CAZ7
 TVRZ    ES   0A   034 23.70                                           12.2 316 
 TAHR    ES   0A   034 26.08                                           26.2  73 
 HRS     IP   0A   034 22.15                                           27.1 115 
 HRS     ES   0A   034 26.53                                           27.1 115 
 FTB     ES   0A   034 34.27                                           55.6 215 
 TABZ    IP   0A   034 26.62                                           55.9 223 
 TBZ     IP   0A   034 26.82                                           57.6 248 
 TBZ     ES   0A   034 34.70                                           57.6 248 
 BST     ES   0A   034 41.12                                           81.1 172 
 ORD     ES   0A   034 42.95                                           87.3 310 
 MRD     IP   0A   034 33.19                                           98.0 289 
 SHB     IP   0A   034 33.52                                            101 261 
 SHB     ES   0A   034 46.44                                            101 261 
 SRB     IP   0A   034 33.91                                            103 129 
 SRB     ES   0A   034 47.13                                            103 129 
 GRMI    IP   0A   034 34.26                                            107  66 
 GRMI    ES   0A   034 47.72                                            107  66 
 AZR     ES   0A   034 48.34                                            107 219 
 HSH     IP   0A   034 38.39                                            131 160 
 ASTR    ES   0A   035  6.65                                            177  84 
 MAKU    IP   0A   034 49.60                                            208 300 
 MAKU    ES   0A   035 14.37                                            208 300 
 SAAT    IP   0A   034 50.13                                            214  41 
 ZRD     ES   0A   035 16.45                                            220  20 
 ZNJK    IP   0A   034 55.85                                            258 138 
 TBZ      IAML A   034 26.82      6713.7                                        
 TABZ     IAML A   034 26.62      6998.1                                        
 ZNJK     IAML A   034 55.85       528.7                                        
 MAKU     IAML A   034 49.60       837.9                                        
                                                                                

 2012  812  041 26.3 L  38.489  46.741 19.9      23 0.2 2.7L                   1
 GAP=38                    1.0     0.4  1.2                                    E
 Action:ARG 24-03-13 16:03 OP:OBSP STATUS:               ID:20120812004126     I
 STAT SP IPHASW D HRMM SECON CODA AMPLIT PERI AZIMU VELO AIN AR TRES W  DIS CAZ7
 TAHR    ES   0A   041 36.42                                           26.7  86 
 HRS     IP   0A   041 32.90                                           31.2 123 
 TBZ     IP   0A   041 36.98                                           58.6 243 
 TBZ     ES   0A   041 44.98                                           58.6 243 
 FTB     IP   0A   041 37.23                                           59.5 211 
 FTB     ES   0A   041 45.43                                           59.5 211 
 ORD     IP   0A   041 40.36                                           82.6 307 
 ORD     ES   0A   041 50.90                                           82.6 307 
 BST     IP   0A   041 41.32                                           86.9 171 
 BST     ES   0A   041 52.58                                           86.9 171 
 MRD     IP   0A   041 42.37                                           94.8 286 
 SHB     IP   0A   041 43.40                                            100 258 
 SHB     ES   0A   041 56.23                                            100 258 
 GRMI    IP   0A   041 44.49                                            106  69 
 SRB     IP   0A   041 44.70                                            108 131 
 AZR     IP   0A   041 45.17                                            110 217 
 AZR     ES   0A   041 59.32                                            110 217 
 HSH     ES   0A   042  6.38                                            137 160 
 LRK     IP   0A   041 49.51                                            140  81 
 SBZ     IP   0A   041 50.03                                            145 315 
 GLBA    ES   0A   042 14.29                                            166  58 
 ASTR    IP   0A   041 55.32                                            178  86 
 BRDA    IP   0A   041 58.41                                            202  10 
 MAKU    IP   0A   041 58.89                                            204 299 
 SAAT    IP   0A   041 59.94                                            211  42 
 SAAT    ES   0A   042 24.96                                            211  42 
 GANJ    IP   0A   042  3.58                                            243 351 
 GANJ    ES   0A   042 31.26                                            243 351 
 GNI     IP   0A   042  5.02                                            254 317 
 GNI     ES   0A   042 33.75                                            254 317 
 ZNJK    IP   0A   042  6.48                                            263 138 
 ZNJK    ES   0A   042 36.27                                            263 138 
 VANB    ES   0A   042 41.90                                            293 273 
 SBZ      IAML A   041 50.03       129.8                                        
 LRK      IAML A   041 49.51       138.5                                        
 TBZ      IAML A   041 36.98       521.5                                        
 HRS      IAML A   041 32.90      1181.2                                        
 GNI      IAML A   042  5.02        43.7                                        
 AZR      IAML A   041 45.17       204.1                                        
 MRD      IAML A   041 42.37       260.9                                        
 BST      IAML A   041 41.32       297.4                                        
 ASTR     IAML A   041 55.32        89.6                                        
                                                                                

