 2012  811 1223 15.2 L  38.419  46.799  2.9      23 0.1 6.5L                   1
 GAP=44                    0.7     0.3  0.8                                    E
 Action:ARG 24-03-13 16:03 OP:OBSP STATUS:               ID:20120811122315     I
 STAT SP IPHASW D HRMM SECON CODA AMPLIT PERI AZIMU VELO AIN AR TRES W  DIS CAZ7
 TVRZ    IP   0A  1223 18.32                                           15.7 308 
 TVRZ    ES   0A  1223 20.52                                           15.7 308 
 HRS     IP   0A  1223 19.89                                           23.1 118 
 FTB     ES   0A  1223 33.28                                           57.3 219 
 TBZ     IP   0A  1223 26.02                                           61.1 250 
 TBZ     ES   0A  1223 33.99                                           61.1 250 
 BST     IP   0A  1223 29.01                                           79.7 174 
 BST     ES   0A  1223 39.22                                           79.7 174 
 ORD     IP   0A  1223 30.65                                           91.0 308 
 ORD     ES   0A  1223 42.08                                           91.0 308 
 SRB     IP   0A  1223 32.53                                           99.7 130 
 SRB     ES   0A  1223 45.38                                           99.7 130 
 MRD     IP   0A  1223 32.59                                            102 289 
 GRMI    IP   0A  1223 33.29                                            104  64 
 GRMI    ES   0A  1223 46.71                                            104  64 
 SHB     IP   0A  1223 33.17                                            105 262 
 SHB     ES   0A  1223 46.49                                            105 262 
 HSH     IP   0A  1223 37.41                                            129 161 
 HSH     ES   0A  1223 53.91                                            129 161 
 LRK     IP   0A  1223 38.43                                            135  78 
 NAX     IP   0A  1223 39.06                                            141 306 
 NAX     ES   0A  1223 56.81                                            141 306 
 GLBA    IP   0A  1223 43.43                                            165  55 
 ASTR    ES   0A  1224  6.51                                            173  84 
 BRDA    IP   0A  1223 49.73                                            207   8 
 MAKU    ES   0A  1224 16.93                                            212 300 
 SAAT    IP   0A  1223 50.92                                            212  40 
 ZRD     IP   0A  1223 51.70                                            220  19 
 GANJ    IP   0A  1223 55.49                                            251 350 
 ZNJK    IP   0A  1223 56.32                                            254 138 
 GNI     ES   0A  1224 28.03                                            262 317 
 VANB    IP   0A  1224  1.36                                            299 274 
 VANB    ES   0A  1224 35.44                                            299 274 
 NAX      IAML A  1223 39.06      85.7e4                                        
 BRDA     IAML A  1223 49.73      42.2e4                                        
 HSH      IAML A  1223 37.41      99.8e4                                        
 HRS      IAML A  1223 19.89      10.8e6                                        
 SAAT     IAML A  1223 50.92      40.2e4                                        
 SRB      IAML A  1223 32.53      15.3e5                                        
 ZNJK     IAML A  1223 56.32      27.3e4                                        
 SHB      IAML A  1223 33.17      14.0e5                                        
 ORD      IAML A  1223 30.65      17.5e5                                        
 GRMI     IAML A  1223 33.29      14.2e5                                        
                                                                                

 2012  811 1228 46.8 L  38.434  46.785 22.0      25 0.1 3.5L                   1
 GAP=43                    0.6     0.2  0.6                                    E
 Action:ARG 24-03-13 16:03 OP:OBSP STATUS:               ID:20120811122846     I
 STAT SP IPHASW D HRMM SECON CODA AMPLIT PERI AZIMU VELO AIN AR TRES W  DIS CAZ7
 TVRZ    ES   0A  1228 53.99                                           11.2 306 
 TAHR    ES   0A  1228 55.90                                           25.0  78 
 HRS     IP   0A  1228 51.97                                           27.5 120 
 HRS     ES   0A  1228 56.37                                           27.5 120 
 FTB     IP   0A  1228 56.48                                           57.8 214 
 FTB     ES   0A  1229  4.26                                           57.8 214 
 TABZ    IP   0A  1228 56.55                                           58.0 222 
 TBZ     IP   0A  1228 56.92                                           59.1 247 
 BST     IP   0A  1229  0.21                                           83.2 172 
 BST     ES   0A  1229 10.80                                           83.2 172 
 ORD     IP   0A  1229  1.18                                           86.4 308 
 MRD     IP   0A  1229  2.98                                           97.9 288 
 SHB     IP   0A  1229  3.65                                            102 260 
 SRB     IP   0A  1229  3.32                                            104 131 
 GRMI    IP   0A  1229  3.84                                            105  67 
 GRMI    ES   0A  1229 17.15                                            105  67 
 AZR     IP   0A  1229  4.43                                            109 219 
 AZR     ES   0A  1229 18.18                                            109 219 
 NAX     ES   0A  1229 26.18                                            137 306 
 LRK     IP   0A  1229  8.81                                            138  80 
 SBZ     IP   0A  1229 10.85                                            149 315 
 GLBA    IP   0A  1229 13.16                                            166  57 
 GLBA    ES   0A  1229 33.46                                            166  57 
 ASTR    IP   0A  1229 14.62                                            176  85 
 LKRN    ES   0A  1229 36.27                                            177  79 
 BRDA    IP   0A  1229 18.67                                            205   9 
 BRDA    ES   0A  1229 42.89                                            205   9 
 MAKU    IP   0A  1229 19.17                                            207 299 
 SAAT    ES   0A  1229 44.49                                            212  41 
 GNI     IP   0A  1229 25.37                                            258 317 
 GNI     ES   0A  1229 54.49                                            258 317 
 ZNJK    ES   0A  1229 54.17                                            259 138 
 VANB    IP   0A  1229 29.98                                            295 274 
 GRMI     IAML A  1229  3.84      1387.2                                        
 LRK      IAML A  1229  8.81       891.8                                        
 MAKU     IAML A  1229 19.17       422.1                                        
 SBZ      IAML A  1229 10.85       781.5                                        
 BRDA     IAML A  1229 18.67       432.3                                        
 FTB      IAML A  1228 56.48      3349.0                                        
 HRS      IAML A  1228 51.97      8704.6                                        
 GLBA     IAML A  1229 13.16       644.9                                        
 ASTR     IAML A  1229 14.62       576.8                                        
 ORD      IAML A  1229  1.18      1892.1                                        
 GNI      IAML A  1229 25.37       266.0                                        
                                                                                

 2012  811 1249 15.5 L  38.382  46.693 13.6      22 0.1 4.6L                   1
 GAP=45                    0.6     0.2  0.7                                    E
 Action:ARG 24-03-13 16:03 OP:OBSP STATUS:               ID:20120811124915     I
 STAT SP IPHASW D HRMM SECON CODA AMPLIT PERI AZIMU VELO AIN AR TRES W  DIS CAZ7
 TVRZ    ES   0A  1249 21.49                                           12.5 351 
 HRS     IP   0A  1249 21.44                                           32.1 104 
 HRS     ES   0A  1249 25.89                                           32.1 104 
 TAHR    ES   0A  1249 26.52                                           33.5  71 
 TABZ    ES   0A  1249 30.66                                           48.9 220 
 FTB     ES   0A  1249 30.68                                           49.1 211 
 TBZ     IP   0A  1249 24.45                                           50.3 249 
 BST     IP   0A  1249 29.02                                           78.9 167 
 ORD     ES   0A  1249 41.56                                           84.8 314 
 MRD     IP   0A  1249 31.66                                           93.1 292 
 SHB     IP   0A  1249 31.74                                           94.3 262 
 SHB     ES   0A  1249 43.92                                           94.3 262 
 SRB     IP   0A  1249 33.51                                            106 126 
 SRB     ES   0A  1249 47.02                                            106 126 
 HSH     ES   0A  1249 53.94                                            131 157 
 LRK     IP   0A  1249 39.99                                            146  78 
 GLBA    IP   0A  1249 44.54                                            175  56 
 GLBA    ES   0A  1250  6.32                                            175  56 
 ASTR    IP   0A  1249 45.73                                            184  83 
 MAKU    ES   0A  1250 13.91                                            204 302 
 BRDA    IP   0A  1249 49.86                                            212  11 
 SAAT    IP   0A  1249 51.13                                            221  42 
 ZRD     ES   0A  1250 18.57                                            226  21 
 GNI     IP   0A  1249 55.57                                            257 319 
 ZNJK    ES   0A  1250 25.61                                            260 136 
 VANB    ES   0A  1250 31.71                                            288 275 
 MRD      IAML A  1249 31.66     21312.7                                        
 BRDA     IAML A  1249 49.86      5090.9                                        
 GLBA     IAML A  1249 44.54      7350.0                                        
 SRB      IAML A  1249 33.51     17354.5                                        
 TBZ      IAML A  1249 24.45     50892.1                                        
                                                                                

 2012  811 1314  5.4 L  38.376  46.670  3.9      23 0.1 4.4L                   1
 GAP=45                    0.9     0.4  1.2                                    E
 Action:ARG 24-03-13 16:03 OP:OBSP STATUS:               ID:20120811131405     I
 STAT SP IPHASW D HRMM SECON CODA AMPLIT PERI AZIMU VELO AIN AR TRES W  DIS CAZ7
 HRS     IP   0A  1314 11.35                                           33.2 103 
 TAHR    ES   0A  1314 16.54                                           34.9  70 
 TABZ    ES   0A  1314 19.66                                           47.7 219 
 TBZ     IP   0A  1314 13.84                                           48.8 249 
 TBZ     ES   0A  1314 20.09                                           48.8 249 
 BST     IP   0A  1314 18.69                                           78.6 165 
 BST     ES   0A  1314 28.58                                           78.6 165 
 MRD     IP   0A  1314 21.18                                           92.1 293 
 MRD     ES   0A  1314 32.94                                           92.1 293 
 SHB     IP   0A  1314 21.18                                           93.0 263 
 SRB     IP   0A  1314 23.43                                            107 125 
 SRB     ES   0A  1314 36.88                                            107 125 
 GRMI    IP   0A  1314 25.24                                            116  65 
 HSH     ES   0A  1314 43.80                                            131 156 
 NAX     IP   0A  1314 28.26                                            134 310 
 LRK     IP   0A  1314 30.48                                            148  78 
 SBZ     IP   0A  1314 30.59                                            148 319 
 GLBA    IP   0A  1314 35.30                                            177  57 
 ASTR    IP   0A  1314 36.67                                            185  83 
 ASTR    ES   0A  1315  0.05                                            185  83 
 MAKU    IP   0A  1314 39.47                                            203 302 
 MAKU    ES   0A  1315  4.95                                            203 302 
 BRDA    ES   0A  1315  7.34                                            212  11 
 SAAT    IP   0A  1314 42.45                                            222  42 
 SAAT    ES   0A  1315  9.97                                            222  42 
 ZRD     IP   0A  1314 42.89                                            227  22 
 GANJ    IP   0A  1314 45.92                                            252 353 
 GANJ    ES   0A  1315 15.97                                            252 353 
 GNI     IP   0A  1314 46.54                                            257 320 
 ZNJK    IP   0A  1314 46.92                                            260 136 
 ZNJK    ES   0A  1315 17.70                                            260 136 
 VANB    ES   0A  1315 23.19                                            287 275 
 ASTR     IAML A  1314 36.67      4162.6                                        
 BST      IAML A  1314 18.69     17264.0                                        
 LRK      IAML A  1314 30.48      6309.2                                        
 ZNJK     IAML A  1314 46.92      2062.0                                        
 GLBA     IAML A  1314 35.30      4568.9                                        
 SBZ      IAML A  1314 30.59      6296.7                                        
 GNI      IAML A  1314 46.54      2129.6                                        
 MAKU     IAML A  1314 39.47      3489.7                                        
                                                                                

 2012  811 1323 14.8 L  38.494  46.731  9.4      24 0.1 3.7L                   1
 GAP=38                    0.6     0.3  0.7                                    E
 Action:ARG 24-03-13 16:03 OP:OBSP STATUS:               ID:20120811132314     I
 STAT SP IPHASW D HRMM SECON CODA AMPLIT PERI AZIMU VELO AIN AR TRES W  DIS CAZ7
 TVRZ    ES   0A  1323 18.58                                           4.70 301 
 TAHR    IP   0A  1323 19.97                                           29.4  88 
 TAHR    ES   0A  1323 23.77                                           29.4  88 
 HRS     IP   0A  1323 20.96                                           34.0 122 
 TBZ     ES   0A  1323 32.58                                           56.5 241 
 FTB     IP   0A  1323 25.46                                           58.8 208 
 FTB     ES   0A  1323 33.37                                           58.8 208 
 ORD     ES   0A  1323 38.99                                           79.9 308 
 BST     IP   0A  1323 30.22                                           88.1 169 
 MRD     IP   0A  1323 30.81                                           91.9 286 
 MRD     ES   0A  1323 42.74                                           91.9 286 
 SHB     IP   0A  1323 31.84                                           98.3 257 
 GRMI    IP   0A  1323 33.15                                            109  70 
 SRB     IP   0A  1323 33.58                                            110 130 
 NAX     IP   0A  1323 37.09                                            130 306 
 HSH     IP   0A  1323 38.60                                            139 159 
 HSH     ES   0A  1323 56.38                                            139 159 
 SBZ     IP   0A  1323 39.03                                            143 315 
 GLBA    IP   0A  1323 42.82                                            168  59 
 GLBA    ES   0A  1324  3.75                                            168  59 
 ASTR    IP   0A  1323 44.76                                            181  86 
 ASTR    ES   0A  1324  7.16                                            181  86 
 LKRN    IP   0A  1323 44.87                                            181  81 
 MAKU    IP   0A  1323 48.23                                            201 299 
 MAKU    ES   0A  1324 13.20                                            201 299 
 BRDA    IP   0A  1323 47.82                                            201  11 
 SAAT    ES   0A  1324 15.23                                            212  43 
 ZRD     ES   0A  1324 15.87                                            216  22 
 GNI     IP   0A  1323 54.48                                            251 318 
 ZNJK    IP   0A  1323 56.37                                            266 138 
 ZNJK    ES   0A  1324 27.16                                            266 138 
 VANB    IP   0A  1323 59.39                                            290 273 
 VANB    ES   0A  1324 32.36                                            290 273 
 NAX      IAML A  1323 37.09      1558.6                                        
 VANB     IAML A  1323 59.39       321.5                                        
 HSH      IAML A  1323 38.60      1400.0                                        
 SHB      IAML A  1323 31.84      2469.3                                        
 LKRN     IAML A  1323 44.87       867.1                                        
 SBZ      IAML A  1323 39.03      1338.5                                        
 ASTR     IAML A  1323 44.76       870.2                                        
 BRDA     IAML A  1323 47.82       707.3                                        
                                                                                

