# 2012 08 16 06 33 56.700000 38.478 46.785   4.4  2.0 0.0 0.0 0.0       200
TVRZ  1.980 1.00 P
TVRZ  3.470 1.00 S
TAHR  4.380 1.00 P
TAHR  7.670 1.00 S
HRS   5.390 1.00 P
HRS   9.440 1.00 S
FTB  10.490 1.00 P
TABZ 18.310 1.00 S
TBZ  10.420 1.00 P
TBZ  18.240 1.00 S
ORD  14.200 1.00 P
BST  25.980 1.00 S
MRD  16.390 1.00 P
GRMI 31.050 1.00 S
SRB  31.680 1.00 S
AZR  18.990 1.00 P
AZR  33.230 1.00 S
NAX  22.640 1.00 P
NAX  39.610 1.00 S
LRK  23.250 1.00 P
ASTR 29.540 1.00 P
LKRN 29.680 1.00 P
LKRN 51.940 1.00 S
BRDA 33.300 1.00 P
MAKU 34.170 1.00 P
MAKU 59.800 1.00 S
SAAT 34.800 1.00 P
SAAT 60.890 1.00 S
ZRD  35.390 1.00 P
GNI  40.500 1.00 P
GNI  70.610 1.00 S
ZNJK 41.810 1.00 P
VANB 45.460 1.00 P
# 2012 08 16 08 56 53.800000 38.442 46.708   4.1  1.8 0.0 0.0 0.0       201
TVRZ  3.170 1.00 S
TAHR  5.250 1.00 P
TAHR  9.190 1.00 S
HRS   5.480 1.00 P
TBZ   9.520 1.00 P
TBZ  16.660 1.00 S
FTB   9.370 1.00 P
BST  14.060 1.00 P
BST  24.610 1.00 S
MRD  16.090 1.00 P
SHB  16.720 1.00 P
AZR  17.870 1.00 P
SRB  17.940 1.00 P
SRB  31.400 1.00 S
GRMI 18.680 1.00 P
GRMI 32.700 1.00 S
NAX  22.720 1.00 P
HSH  22.540 1.00 P
LRK  24.090 1.00 P
SBZ  24.830 1.00 P
SBZ  43.450 1.00 S
GLBA 50.130 1.00 S
ASTR 30.360 1.00 P
MAKU 59.770 1.00 S
BRDA 34.450 1.00 P
BRDA 60.280 1.00 S
SAAT 62.740 1.00 S
GANJ 39.780 1.00 P
GANJ 69.360 1.00 S
GNI  40.840 1.00 P
ZNJK 72.290 1.00 S
VANB 45.170 1.00 P
VANB 78.680 1.00 S
# 2012 08 16 09 27 46.900000 38.426 46.720  19.6  3.1 0.0 0.0 0.0       202
TAHR  6.370 1.00 P
HRS   6.540 1.00 P
HRS  11.450 1.00 S
TABZ 17.200 1.00 S
FTB  17.350 1.00 S
TBZ   9.710 1.00 P
TBZ  17.000 1.00 S
BST  14.270 1.00 P
BST  24.970 1.00 S
MRD  15.890 1.00 P
SHB  16.360 1.00 P
SHB  28.630 1.00 S
AZR  17.850 1.00 P
SRB  18.130 1.00 P
SRB  31.740 1.00 S
HSH  38.960 1.00 S
NAX  22.050 1.00 P
SBZ  24.010 1.00 P
SBZ  42.030 1.00 S
ASTR 29.630 1.00 P
LKRN 29.810 1.00 P
LKRN 52.150 1.00 S
MAKU 32.450 1.00 P
MAKU 56.600 1.00 S
BRDA 32.830 1.00 P
SAAT 34.230 1.00 P
SAAT 59.690 1.00 S
ZRD  34.640 1.00 P
GANJ 37.890 1.00 P
GANJ 66.020 1.00 S
GNI  38.790 1.00 P
ZNJK 39.960 1.00 P
ZNJK 69.590 1.00 S
# 2012 08 16 11 28 36.800000 38.434 46.711  11.1  1.9 0.0 0.0 0.0       203
TAHR  5.380 1.00 P
TAHR  9.410 1.00 S
HRS   5.730 1.00 P
TABZ 17.060 1.00 S
TBZ   9.750 1.00 P
TBZ  17.070 1.00 S
BST  14.500 1.00 P
BST  25.370 1.00 S
ORD  14.290 1.00 P
ORD  25.010 1.00 S
MRD  16.170 1.00 P
MRD  28.300 1.00 S
SHB  16.830 1.00 P
SHB  29.450 1.00 S
AZR  18.260 1.00 P
NAX  22.690 1.00 P
NAX  39.700 1.00 S
HSH  22.950 1.00 P
HSH  40.160 1.00 S
LRK  24.090 1.00 P
SBZ  24.720 1.00 P
GLBA 28.220 1.00 P
GLBA 49.390 1.00 S
LKRN 30.070 1.00 P
BRDA 33.590 1.00 P
BRDA 58.690 1.00 S
SAAT 60.890 1.00 S
ZRD  35.400 1.00 P
ZRD  61.740 1.00 S
GANJ 38.750 1.00 P
GNI  39.870 1.00 P
ZNJK 40.870 1.00 P
VANB 77.340 1.00 S
# 2012 08 16 13 20 15.200000 38.418 46.699   4.2  1.3 0.0 0.0 0.0       204
TVRZ  3.520 1.00 S
TAHR  5.540 1.00 P
HRS   5.760 1.00 P
HRS  10.090 1.00 S
FTB   9.210 1.00 P
TBZ   9.270 1.00 P
BST  14.060 1.00 P
ORD  14.440 1.00 P
MRD  16.030 1.00 P
SHB  16.350 1.00 P
AZR  17.710 1.00 P
AZR  31.000 1.00 S
GRMI 18.920 1.00 P
HSH  22.730 1.00 P
NAX  22.820 1.00 P
NAX  39.940 1.00 S
LRK  24.320 1.00 P
LRK  42.560 1.00 S
SBZ  24.950 1.00 P
GLBA 28.860 1.00 P
GLBA 50.500 1.00 S
ASTR 53.470 1.00 S
LKRN 30.750 1.00 P
LKRN 53.810 1.00 S
BRDA 34.530 1.00 P
BRDA 60.420 1.00 S
SAAT 63.070 1.00 S
ZRD  63.970 1.00 S
GNI  40.890 1.00 P
GNI  71.280 1.00 S
ZNJK 41.730 1.00 P
ZNJK 72.730 1.00 S
VANB 78.360 1.00 S
# 2012 08 16 13 56 30.200000 38.411 46.712  13.6  2.0 0.0 0.0 0.0       205
TVRZ  3.310 1.00 P
TVRZ  5.790 1.00 S
HRS   5.680 1.00 P
FTB  16.430 1.00 S
TBZ   9.690 1.00 P
BST  13.850 1.00 P
BST  24.240 1.00 S
ORD  14.910 1.00 P
MRD  16.500 1.00 P
MRD  28.880 1.00 S
SHB  16.830 1.00 P
SHB  29.450 1.00 S
AZR  17.910 1.00 P
AZR  31.350 1.00 S
SRB  17.960 1.00 P
GRMI 18.980 1.00 P
GRMI 33.210 1.00 S
HSH  22.120 1.00 P
HSH  38.710 1.00 S
NAX  22.980 1.00 P
LRK  23.890 1.00 P
GLBA 49.540 1.00 S
ASTR 51.880 1.00 S
LKRN 52.250 1.00 S
MAKU 33.560 1.00 P
SAAT 34.990 1.00 P
ZRD  62.030 1.00 S
GANJ 38.970 1.00 P
GANJ 67.930 1.00 S
GNI  39.980 1.00 P
GNI  69.670 1.00 S
ZNJK 40.200 1.00 P
VANB 44.030 1.00 P
# 2012 08 16 15 15 35.000000 38.451 46.738  18.3  3.8 0.0 0.0 0.0       206
TAHR 10.190 1.00 S
HRS   6.430 1.00 P
HRS  11.250 1.00 S
TBZ  10.060 1.00 P
TBZ  17.600 1.00 S
BST  14.480 1.00 P
BST  25.340 1.00 S
MRD  16.230 1.00 P
SHB  16.850 1.00 P
SHB  29.490 1.00 S
SRB  18.280 1.00 P
SRB  31.980 1.00 S
GRMI 18.410 1.00 P
GRMI 32.210 1.00 S
AZR  18.080 1.00 P
LRK  40.970 1.00 S
GLBA 27.680 1.00 P
GLBA 48.440 1.00 S
LKRN 51.410 1.00 S
MAKU 32.820 1.00 P
SAAT 59.520 1.00 S
GNI  39.170 1.00 P
GNI  68.230 1.00 S
ZNJK 40.050 1.00 P
ZNJK 69.760 1.00 S
VANB 75.680 1.00 S
# 2012 08 16 15 31 10.400000 38.372 46.689   4.3  1.5 0.0 0.0 0.0       207
TVRZ  4.670 1.00 S
HRS   5.600 1.00 P
HRS   9.800 1.00 S
TAHR  5.960 1.00 P
FTB   8.470 1.00 P
FTB  14.820 1.00 S
TABZ 14.830 1.00 S
TBZ   8.750 1.00 P
BST  13.270 1.00 P
BST  23.230 1.00 S
ORD  14.940 1.00 P
MRD  16.270 1.00 P
MRD  28.470 1.00 S
SHB  16.000 1.00 P
SRB  17.890 1.00 P
GRMI 19.370 1.00 P
NAX  23.280 1.00 P
NAX  40.740 1.00 S
LRK  24.660 1.00 P
LRK  43.160 1.00 S
GLBA 29.410 1.00 P
GLBA 51.470 1.00 S
LKRN 31.090 1.00 P
MAKU 60.370 1.00 S
BRDA 61.630 1.00 S
SAAT 36.690 1.00 P
ZRD  37.240 1.00 P
ZNJK 41.310 1.00 P
ZNJK 72.010 1.00 S
GNI  41.270 1.00 P
GNI  71.940 1.00 S
VANB 44.890 1.00 P
VANB 78.200 1.00 S
# 2012 08 16 17 11 47.600000 38.458 46.741  19.9  1.7 0.0 0.0 0.0       208
TVRZ  3.970 1.00 P
TAHR 10.270 1.00 S
HRS   6.550 1.00 P
HRS  11.470 1.00 S
TBZ  10.190 1.00 P
TABZ 10.170 1.00 P
TABZ 17.790 1.00 S
ORD  14.580 1.00 P
BST  14.620 1.00 P
BST  25.580 1.00 S
MRD  16.220 1.00 P
SHB  16.880 1.00 P
SHB  29.530 1.00 S
SRB  18.290 1.00 P
SRB  32.000 1.00 S
AZR  18.140 1.00 P
AZR  31.750 1.00 S
NAX  22.390 1.00 P
NAX  39.170 1.00 S
HSH  22.540 1.00 P
SBZ  24.320 1.00 P
ASTR 29.110 1.00 P
ASTR 50.930 1.00 S
LKRN 29.260 1.00 P
BRDA 32.500 1.00 P
SAAT 59.030 1.00 S
ZRD  34.290 1.00 P
ZRD  59.800 1.00 S
GANJ 37.690 1.00 P
GNI  67.920 1.00 S
ZNJK 39.990 1.00 P
ZNJK 69.630 1.00 S
VANB 75.460 1.00 S
# 2012 08 16 17 14 13.200000 38.436 46.731  19.5  4.6 0.0 0.0 0.0       209
TAHR 10.930 1.00 S
HRS   6.560 1.00 P
HRS  11.470 1.00 S
FTB  17.760 1.00 S
TBZ  10.000 1.00 P
TBZ  17.510 1.00 S
BST  14.510 1.00 P
BST  25.390 1.00 S
ORD  24.920 1.00 S
MRD  15.960 1.00 P
MRD  27.920 1.00 S
SHB  16.660 1.00 P
SRB  18.210 1.00 P
SRB  31.870 1.00 S
AZR  18.090 1.00 P
AZR  31.660 1.00 S
GRMI 18.620 1.00 P
HSH  39.270 1.00 S
NAX  38.580 1.00 S
LRK  23.750 1.00 P
SBZ  23.990 1.00 P
GLBA 27.780 1.00 P
ASTR 29.590 1.00 P
MAKU 32.480 1.00 P
MAKU 56.640 1.00 S
BRDA 32.590 1.00 P
SAAT 34.000 1.00 P
SAAT 59.290 1.00 S
ZRD  34.390 1.00 P
GANJ 37.730 1.00 P
GNI  38.770 1.00 P
ZNJK 40.000 1.00 P
ZNJK 69.660 1.00 S
VANB 43.290 1.00 P
# 2012 08 16 17 19 40.800000 38.432 46.703  18.2  2.9 0.0 0.0 0.0       210
TVRZ  6.340 1.00 S
TAHR  6.080 1.00 P
TAHR 10.630 1.00 S
HRS   6.390 1.00 P
HRS  11.180 1.00 S
TABZ 17.410 1.00 S
TBZ   9.940 1.00 P
TBZ  17.400 1.00 S
FTB   9.990 1.00 P
ORD  25.250 1.00 S
BST  14.650 1.00 P
MRD  16.170 1.00 P
MRD  28.300 1.00 S
SHB  16.720 1.00 P
SHB  29.250 1.00 S
AZR  18.050 1.00 P
SRB  18.240 1.00 P
SRB  31.920 1.00 S
GRMI 18.630 1.00 P
HSH  39.510 1.00 S
LRK  23.730 1.00 P
GLBA 27.820 1.00 P
ASTR 29.560 1.00 P
LKRN 29.690 1.00 P
MAKU 32.750 1.00 P
MAKU 57.120 1.00 S
BRDA 32.880 1.00 P
SAAT 34.180 1.00 P
SAAT 59.600 1.00 S
GANJ 66.030 1.00 S
GNI  39.000 1.00 P
GNI  67.950 1.00 S
ZNJK 40.100 1.00 P
# 2012 08 16 17 34 59.600000 38.440 46.730  15.5  2.6 0.0 0.0 0.0       211
TVRZ  3.410 1.00 P
TVRZ  5.970 1.00 S
TAHR 10.480 1.00 S
HRS   6.160 1.00 P
HRS  10.770 1.00 S
FTB   9.680 1.00 P
TBZ   9.700 1.00 P
BST  14.250 1.00 P
BST  24.930 1.00 S
MRD  16.290 1.00 P
MRD  28.510 1.00 S
SHB  16.790 1.00 P
SHB  29.380 1.00 S
SRB  18.220 1.00 P
SRB  31.880 1.00 S
AZR  17.970 1.00 P
GRMI 18.990 1.00 P
GRMI 33.230 1.00 S
HSH  22.320 1.00 P
HSH  39.050 1.00 S
NAX  22.530 1.00 P
ASTR 52.220 1.00 S
LKRN 29.990 1.00 P
LKRN 52.470 1.00 S
MAKU 57.730 1.00 S
BRDA 33.350 1.00 P
SAAT 34.690 1.00 P
ZRD  35.130 1.00 P
GNI  39.470 1.00 P
GNI  68.760 1.00 S
ZNJK 40.180 1.00 P
ZNJK 70.000 1.00 S
VANB 43.730 1.00 P
# 2012 08 16 20 27 17.500000 38.441 46.916   7.8  2.3 0.0 0.0 0.0       212
TAHR  4.640 1.00 S
HRS   3.160 1.00 P
HRS   5.540 1.00 S
TVRZ  7.840 1.00 S
TABZ 11.440 1.00 P
TABZ 20.020 1.00 S
TBZ  12.270 1.00 P
TBZ  21.470 1.00 S
BST  13.660 1.00 P
BST  23.900 1.00 S
GRMI 15.880 1.00 P
SRB  15.630 1.00 P
SRB  27.350 1.00 S
ORD  16.670 1.00 P
MRD  18.890 1.00 P
MRD  33.050 1.00 S
SHB  19.600 1.00 P
SHB  34.300 1.00 S
AZR  19.770 1.00 P
AZR  34.590 1.00 S
GLBA 26.080 1.00 P
GLBA 45.640 1.00 S
SBZ  26.900 1.00 P
ASTR 27.310 1.00 P
LKRN 27.510 1.00 P
LKRN 48.140 1.00 S
BRDA 59.110 1.00 S
SAAT 33.890 1.00 P
ZRD  35.330 1.00 P
MAKU 62.940 1.00 S
GANJ 39.800 1.00 P
ZNJK 39.560 1.00 P
GNI  41.980 1.00 P
# 2012 08 16 21 50 59.500000 38.446 46.745  14.0  1.4 0.0 0.0 0.0       213
TVRZ  3.250 1.00 P
HRS   5.790 1.00 P
HRS  10.130 1.00 S
TABZ  9.890 1.00 P
FTB   9.910 1.00 P
FTB  17.350 1.00 S
TBZ   9.990 1.00 P
TBZ  17.490 1.00 S
BST  14.300 1.00 P
MRD  16.530 1.00 P
MRD  28.930 1.00 S
SHB  17.140 1.00 P
SRB  18.090 1.00 P
SRB  31.650 1.00 S
GRMI 18.580 1.00 P
HSH  22.480 1.00 P
HSH  39.340 1.00 S
NAX  22.840 1.00 P
NAX  39.970 1.00 S
LRK  23.560 1.00 P
SBZ  24.800 1.00 P
SBZ  43.400 1.00 S
GLBA 27.900 1.00 P
ASTR 29.370 1.00 P
ASTR 51.400 1.00 S
LKRN 51.680 1.00 S
MAKU 58.380 1.00 S
SAAT 60.380 1.00 S
ZRD  35.160 1.00 P
GNI  39.780 1.00 P
GNI  69.310 1.00 S
ZNJK 40.350 1.00 P
VANB 76.810 1.00 S
# 2012 08 16 23 15 00.300000 38.391 46.641   4.2  0.8 0.0 0.0 0.0       214
TVRZ  2.710 1.00 P
TVRZ  4.740 1.00 S
HRS   6.150 1.00 P
TAHR 11.340 1.00 S
TABZ  8.050 1.00 P
TBZ   8.320 1.00 P
TBZ  14.560 1.00 S
FTB   8.110 1.00 P
FTB  14.190 1.00 S
BST  13.360 1.00 P
BST  23.380 1.00 S
ORD  14.280 1.00 P
MRD  15.500 1.00 P
SHB  15.620 1.00 P
SHB  27.330 1.00 S
SRB  18.190 1.00 P
GRMI 19.910 1.00 P
GRMI 34.850 1.00 S
HSH  22.040 1.00 P
SBZ  43.550 1.00 S
LRK  25.180 1.00 P
LRK  44.070 1.00 S
ASTR 31.370 1.00 P
LKRN 31.600 1.00 P
MAKU 33.830 1.00 P
MAKU 59.200 1.00 S
BRDA 62.000 1.00 S
ZRD  37.430 1.00 P
GANJ 40.390 1.00 P
GANJ 70.430 1.00 S
GNI  40.890 1.00 P
ZNJK 72.260 1.00 S
VANB 77.470 1.00 S
# 2012 08 16 23 59 14.400000 38.416 46.641   4.1  1.2 0.0 0.0 0.0       215
HRS   6.300 1.00 P
TAHR  6.290 1.00 P
TAHR 11.010 1.00 S
TBZ   8.530 1.00 P
TABZ  8.610 1.00 P
TABZ 15.060 1.00 S
FTB   8.720 1.00 P
ORD  13.810 1.00 P
ORD  24.170 1.00 S
BST  13.940 1.00 P
MRD  15.280 1.00 P
MRD  26.740 1.00 S
SHB  15.580 1.00 P
SRB  18.590 1.00 P
SRB  32.540 1.00 S
GRMI 19.670 1.00 P
GRMI 34.430 1.00 S
HSH  39.540 1.00 S
SBZ  42.650 1.00 S
LRK  25.050 1.00 P
LRK  43.840 1.00 S
MAKU 33.510 1.00 P
MAKU 58.650 1.00 S
BRDA 60.730 1.00 S
SAAT 36.570 1.00 P
SAAT 63.850 1.00 S
ZRD  36.900 1.00 P
GANJ 39.810 1.00 P
GANJ 69.420 1.00 S
GNI  40.490 1.00 P
ZNJK 41.930 1.00 P
ZNJK 73.090 1.00 S
VANB 44.380 1.00 P
# 2012 08 17 00 31 16.900000 38.511 46.855   4.1  1.7 0.0 0.0 0.0       216
TVRZ  4.800 1.00 S
HRS   5.000 1.00 P
HRS   8.750 1.00 S
FTB  11.420 1.00 P
TBZ  11.590 1.00 P
ORD  14.790 1.00 P
ORD  25.880 1.00 S
BST  15.170 1.00 P
BST  26.540 1.00 S
GRMI 16.590 1.00 P
GRMI 29.020 1.00 S
MRD  17.190 1.00 P
SRB  17.710 1.00 P
SRB  30.990 1.00 S
SHB  18.540 1.00 P
AZR  19.980 1.00 P
AZR  34.960 1.00 S
LRK  22.130 1.00 P
HSH  23.330 1.00 P
HSH  40.830 1.00 S
SBZ  24.970 1.00 P
SBZ  43.700 1.00 S
GLBA 26.470 1.00 P
ASTR 28.460 1.00 P
ASTR 49.810 1.00 S
LKRN 28.550 1.00 P
BRDA 32.840 1.00 P
BRDA 57.470 1.00 S
ZRD  34.780 1.00 P
ZRD  60.860 1.00 S
GANJ 39.030 1.00 P
ZNJK 72.370 1.00 S
VANB 80.450 1.00 S
# 2012 08 17 02 13 52.900000 38.402 46.788  20.2  1.6 0.0 0.0 0.0       217
TVRZ  4.590 1.00 P
TVRZ  8.040 1.00 S
HRS   5.680 1.00 P
HRS   9.930 1.00 S
FTB   9.720 1.00 P
FTB  17.010 1.00 S
TBZ  10.350 1.00 P
BST  13.510 1.00 P
ORD  26.760 1.00 S
SRB  17.060 1.00 P
SRB  29.850 1.00 S
MRD  16.870 1.00 P
SHB  17.170 1.00 P
GRMI 18.140 1.00 P
AZR  17.740 1.00 P
AZR  31.040 1.00 S
HSH  21.350 1.00 P
HSH  37.360 1.00 S
LRK  40.180 1.00 S
SBZ  43.830 1.00 S
GLBA 27.530 1.00 P
GLBA 48.170 1.00 S
ASTR 28.700 1.00 P
ASTR 50.220 1.00 S
LKRN 28.930 1.00 P
BRDA 33.220 1.00 P
MAKU 33.310 1.00 P
SAAT 34.090 1.00 P
ZRD  34.860 1.00 P
GANJ 67.250 1.00 S
GNI  69.190 1.00 S
VANB 43.780 1.00 P
VANB 76.180 1.00 S
# 2012 08 17 03 19 23.900000 38.427 46.786  20.0  1.9 0.0 0.0 0.0       218
TVRZ  4.260 1.00 P
TVRZ  7.450 1.00 S
TAHR  9.900 1.00 S
HRS   5.910 1.00 P
HRS  10.350 1.00 S
FTB  10.340 1.00 P
FTB  18.090 1.00 S
TABZ 10.350 1.00 P
TABZ 18.110 1.00 S
TBZ  10.500 1.00 P
BST  14.360 1.00 P
ORD  14.890 1.00 P
ORD  26.060 1.00 S
MRD  16.690 1.00 P
SRB  17.510 1.00 P
SHB  17.190 1.00 P
SHB  30.090 1.00 S
GRMI 17.980 1.00 P
GRMI 31.460 1.00 S
HSH  22.130 1.00 P
SBZ  24.580 1.00 P
SBZ  43.020 1.00 S
GLBA 27.250 1.00 P
ASTR 50.290 1.00 S
LKRN 50.620 1.00 S
BRDA 32.630 1.00 P
BRDA 56.900 1.00 S
MAKU 57.570 1.00 S
ZRD  34.310 1.00 P
GANJ 66.090 1.00 S
ZNJK 39.460 1.00 P
GNI  39.220 1.00 P
VANB 43.770 1.00 P
# 2012 08 17 03 34 20.100000 38.457 46.691  17.8  2.9 0.0 0.0 0.0       219
HRS   6.660 1.00 P
HRS  11.660 1.00 S
TBZ   9.960 1.00 P
FTB  10.130 1.00 P
FTB  17.720 1.00 S
ORD  14.180 1.00 P
BST  14.750 1.00 P
BST  25.820 1.00 S
MRD  15.750 1.00 P
SHB  16.510 1.00 P
SHB  28.900 1.00 S
AZR  18.190 1.00 P
SRB  18.430 1.00 P
SRB  32.260 1.00 S
GRMI 33.080 1.00 S
NAX  21.990 1.00 P
NAX  38.490 1.00 S
HSH  39.690 1.00 S
LRK  23.930 1.00 P
LRK  41.880 1.00 S
GLBA 28.150 1.00 P
ASTR 29.750 1.00 P
ASTR 52.050 1.00 S
MAKU 56.760 1.00 S
BRDA 32.890 1.00 P
BRDA 57.370 1.00 S
SAAT 60.050 1.00 S
ZRD  34.780 1.00 P
ZRD  60.650 1.00 S
GANJ 37.810 1.00 P
GNI  38.870 1.00 P
ZNJK 40.380 1.00 P
VANB 43.180 1.00 P
# 2012 08 17 04 48 15.400000 38.420 46.690  13.0  3.8 0.0 0.0 0.0       220
TVRZ  5.150 1.00 S
HRS   6.220 1.00 P
HRS  10.880 1.00 S
TBZ   9.350 1.00 P
BST  14.280 1.00 P
BST  25.000 1.00 S
ORD  14.610 1.00 P
ORD  25.570 1.00 S
MRD  16.100 1.00 P
MRD  28.180 1.00 S
SHB  16.350 1.00 P
SHB  28.620 1.00 S
AZR  17.930 1.00 P
SRB  18.690 1.00 P
SRB  32.710 1.00 S
GRMI 19.280 1.00 P
GRMI 33.750 1.00 S
NAX  22.780 1.00 P
HSH  39.860 1.00 S
LRK  24.370 1.00 P
LRK  42.640 1.00 S
SBZ  24.760 1.00 P
GLBA 28.610 1.00 P
ASTR 30.150 1.00 P
LKRN 30.340 1.00 P
MAKU 33.350 1.00 P
MAKU 58.240 1.00 S
BRDA 33.760 1.00 P
BRDA 58.930 1.00 S
ZRD  35.640 1.00 P
GANJ 38.710 1.00 P
GNI  39.770 1.00 P
ZNJK 40.790 1.00 P
ZNJK 71.070 1.00 S
VANB 76.230 1.00 S
# 2012 08 17 04 52 29.300000 38.421 46.770  20.0  3.0 0.0 0.0 0.0       221
TVRZ  4.410 1.00 P
TVRZ  7.710 1.00 S
HRS   5.800 1.00 P
HRS  10.150 1.00 S
FTB  10.260 1.00 P
TABZ 18.090 1.00 S
TBZ  10.620 1.00 P
TBZ  18.590 1.00 S
BST  14.100 1.00 P
BST  24.680 1.00 S
ORD  15.270 1.00 P
MRD  16.970 1.00 P
SHB  17.330 1.00 P
SHB  30.340 1.00 S
SRB  17.460 1.00 P
SRB  30.560 1.00 S
GRMI 17.850 1.00 P
AZR  18.280 1.00 P
AZR  31.990 1.00 S
SBZ  43.680 1.00 S
GLBA 27.150 1.00 P
GLBA 47.500 1.00 S
ASTR 28.600 1.00 P
LKRN 28.790 1.00 P
LKRN 50.380 1.00 S
MAKU 33.300 1.00 P
MAKU 58.070 1.00 S
ZRD  34.430 1.00 P
ZNJK 39.390 1.00 P
ZNJK 68.600 1.00 S
GNI  39.510 1.00 P
VANB 43.950 1.00 P
VANB 76.490 1.00 S
# 2012 08 17 05 28 37.700000 38.391 46.843   8.2  2.1 0.0 0.0 0.0       222
HRS   3.480 1.00 P
TAHR  4.010 1.00 P
FTB   9.880 1.00 P
TABZ 10.140 1.00 P
TABZ 17.750 1.00 S
TBZ  11.100 1.00 P
TBZ  19.430 1.00 S
BST  12.850 1.00 P
BST  22.480 1.00 S
ORD  16.370 1.00 P
SRB  15.840 1.00 P
GRMI 30.240 1.00 S
MRD  18.170 1.00 P
SHB  18.490 1.00 P
SHB  32.360 1.00 S
AZR  18.460 1.00 P
AZR  32.300 1.00 S
NAX  24.780 1.00 P
ASTR 28.470 1.00 P
ASTR 49.820 1.00 S
LKRN 28.740 1.00 P
LKRN 50.300 1.00 S
BRDA 60.630 1.00 S
SAAT 61.300 1.00 S
MAKU 35.680 1.00 P
MAKU 62.260 1.00 S
ZRD  36.250 1.00 P
ZRD  63.210 1.00 S
ZNJK 39.550 1.00 P
GNI  41.900 1.00 P
GNI  73.010 1.00 S
VANB 46.250 1.00 P
VANB 80.520 1.00 S
# 2012 08 17 05 35 06.500000 38.404 46.777  13.7  1.6 0.0 0.0 0.0       223
TVRZ  3.880 1.00 P
TVRZ  6.790 1.00 S
HRS   4.880 1.00 P
HRS   8.530 1.00 S
TAHR  5.040 1.00 P
TAHR  8.820 1.00 S
FTB   9.840 1.00 P
FTB  17.220 1.00 S
TABZ  9.990 1.00 P
TABZ 17.490 1.00 S
TBZ  10.560 1.00 P
BST  13.560 1.00 P
BST  23.730 1.00 S
MRD  17.440 1.00 P
MRD  30.510 1.00 S
SRB  17.120 1.00 P
SRB  29.970 1.00 S
SHB  17.770 1.00 P
SHB  31.100 1.00 S
AZR  18.400 1.00 P
GRMI 18.250 1.00 P
LRK  40.420 1.00 S
GLBA 27.740 1.00 P
GLBA 48.540 1.00 S
ASTR 28.830 1.00 P
LKRN 29.070 1.00 P
BRDA 33.960 1.00 P
BRDA 59.280 1.00 S
SAAT 34.730 1.00 P
ZNJK 39.590 1.00 P
GNI  40.560 1.00 P
GNI  70.670 1.00 S
VANB 77.900 1.00 S
# 2012 08 17 08 09 51.000000 38.417 46.886   9.3  3.5 0.0 0.0 0.0       224
TAHR  6.330 1.00 S
HRS   3.760 1.00 P
HRS   6.570 1.00 S
TVRZ  4.330 1.00 P
FTB  19.160 1.00 S
TBZ  11.710 1.00 P
BST  13.500 1.00 P
BST  23.620 1.00 S
SRB  16.340 1.00 P
SRB  28.600 1.00 S
GRMI 16.880 1.00 P
MRD  18.510 1.00 P
SHB  18.920 1.00 P
SHB  33.110 1.00 S
AZR  19.540 1.00 P
AZR  34.200 1.00 S
SBZ  47.200 1.00 S
GLBA 47.460 1.00 S
LKRN 49.440 1.00 S
BRDA 59.120 1.00 S
SAAT 34.500 1.00 P
MAKU 35.700 1.00 P
ZNJK 39.840 1.00 P
GANJ 69.130 1.00 S
GNI  72.770 1.00 S
VANB 80.650 1.00 S
# 2012 08 17 08 19 47.900000 38.439 46.813  18.9  1.7 0.0 0.0 0.0       225
TVRZ  4.250 1.00 P
TAHR  5.090 1.00 P
TAHR  8.900 1.00 S
HRS   5.580 1.00 P
HRS   9.760 1.00 S
FTB  18.980 1.00 S
TABZ 10.900 1.00 P
TBZ  11.140 1.00 P
BST  14.360 1.00 P
ORD  26.520 1.00 S
SRB  17.270 1.00 P
SRB  30.230 1.00 S
MRD  17.060 1.00 P
MRD  29.850 1.00 S
GRMI 30.200 1.00 S
SHB  17.860 1.00 P
SHB  31.250 1.00 S
AZR  18.890 1.00 P
HSH  22.110 1.00 P
LRK  22.290 1.00 P
SBZ  24.810 1.00 P
SBZ  43.410 1.00 S
GLBA 46.490 1.00 S
ASTR 28.140 1.00 P
LKRN 49.450 1.00 S
BRDA 32.400 1.00 P
SAAT 33.320 1.00 P
SAAT 58.100 1.00 S
MAKU 58.160 1.00 S
GANJ 65.930 1.00 S
ZNJK 39.410 1.00 P
GNI  39.460 1.00 P
VANB 44.320 1.00 P
# 2012 08 17 09 17 59.900000 38.418 46.643  20.0  3.8 0.0 0.0 0.0       226
HRS   6.970 1.00 P
HRS  12.210 1.00 S
TBZ   9.040 1.00 P
TBZ  15.820 1.00 S
FTB  16.170 1.00 S
ORD  13.980 1.00 P
ORD  24.470 1.00 S
BST  14.160 1.00 P
BST  24.790 1.00 S
MRD  15.380 1.00 P
MRD  26.910 1.00 S
SHB  15.690 1.00 P
SHB  27.450 1.00 S
AZR  17.140 1.00 P
SRB  18.450 1.00 P
SRB  32.290 1.00 S
GRMI 19.410 1.00 P
NAX  21.750 1.00 P
NAX  38.060 1.00 S
HSH  38.860 1.00 S
SBZ  23.800 1.00 P
LRK  24.410 1.00 P
GLBA 28.610 1.00 P
ASTR 30.160 1.00 P
ASTR 52.730 1.00 S
LKRN 30.340 1.00 P
MAKU 32.130 1.00 P
MAKU 56.040 1.00 S
BRDA 33.080 1.00 P
SAAT 34.640 1.00 P
SAAT 60.400 1.00 S
ZRD  34.960 1.00 P
ZRD  60.950 1.00 S
GANJ 37.940 1.00 P
ZNJK 40.100 1.00 P
# 2012 08 17 10 36 48.400000 38.436 46.681  19.7  1.6 0.0 0.0 0.0       227
TAHR 11.450 1.00 S
HRS   6.890 1.00 P
HRS  12.050 1.00 S
TBZ   9.500 1.00 P
TABZ 17.040 1.00 S
FTB   9.850 1.00 P
ORD  13.810 1.00 P
BST  14.620 1.00 P
MRD  15.390 1.00 P
SHB  16.100 1.00 P
SHB  28.180 1.00 S
AZR  31.070 1.00 S
SRB  18.540 1.00 P
SRB  32.450 1.00 S
GRMI 18.880 1.00 P
GRMI 33.040 1.00 S
NAX  21.600 1.00 P
HSH  22.650 1.00 P
SBZ  23.610 1.00 P
LRK  24.010 1.00 P
ASTR 29.870 1.00 P
LKRN 29.970 1.00 P
LKRN 52.430 1.00 S
BRDA 32.660 1.00 P
BRDA 56.940 1.00 S
SAAT 34.240 1.00 P
ZRD  60.240 1.00 S
GANJ 65.490 1.00 S
GNI  38.510 1.00 P
GNI  67.100 1.00 S
ZNJK 70.050 1.00 S
VANB 42.860 1.00 P
VANB 74.610 1.00 S
