# 2012 08 13 18 40 05.700000 38.422 46.674  20.5  3.4 0.0 0.0 0.0       116
TVRZ  4.010 1.00 P
TVRZ  7.020 1.00 S
HRS   6.980 1.00 P
HRS  12.210 1.00 S
TBZ   9.350 1.00 P
TBZ  16.360 1.00 S
FTB   9.650 1.00 P
ORD  24.290 1.00 S
BST  14.340 1.00 P
BST  25.090 1.00 S
MRD  15.380 1.00 P
MRD  26.920 1.00 S
SHB  15.930 1.00 P
SHB  27.870 1.00 S
AZR  17.540 1.00 P
SRB  18.530 1.00 P
SRB  32.430 1.00 S
GRMI 19.420 1.00 P
GRMI 33.990 1.00 S
NAX  21.640 1.00 P
SBZ  41.470 1.00 S
LRK  42.580 1.00 S
GLBA 28.690 1.00 P
LKRN 30.260 1.00 P
MAKU 32.170 1.00 P
MAKU 56.150 1.00 S
SAAT 34.630 1.00 P
SAAT 60.380 1.00 S
ZRD  34.850 1.00 P
GANJ 65.900 1.00 S
GNI  38.640 1.00 P
ZNJK 40.090 1.00 P
VANB 42.640 1.00 P
# 2012 08 13 19 43 22.000000 38.428 46.647  19.5  3.3 0.0 0.0 0.0       117
TVRZ  6.740 1.00 S
TAHR 12.650 1.00 S
HRS   7.390 1.00 P
HRS  12.920 1.00 S
TBZ   8.800 1.00 P
TBZ  15.400 1.00 S
FTB   9.420 1.00 P
ORD  23.580 1.00 S
BST  14.770 1.00 P
BST  25.860 1.00 S
MRD  14.930 1.00 P
SHB  15.380 1.00 P
AZR  17.230 1.00 P
AZR  30.150 1.00 S
SRB  18.990 1.00 P
SRB  33.230 1.00 S
GRMI 19.710 1.00 P
GRMI 34.500 1.00 S
NAX  21.240 1.00 P
NAX  37.170 1.00 S
HSH  22.840 1.00 P
LRK  24.810 1.00 P
ASTR 30.580 1.00 P
LKRN 30.730 1.00 P
MAKU 31.740 1.00 P
MAKU 55.400 1.00 S
BRDA 32.980 1.00 P
BRDA 57.500 1.00 S
ZRD  60.890 1.00 S
GANJ 37.740 1.00 P
GNI  38.230 1.00 P
ZNJK 40.540 1.00 P
VANB 73.630 1.00 S
# 2012 08 13 19 55 52.700000 38.361 46.726  28.6  1.8 0.0 0.0 0.0       118
TVRZ  5.750 1.00 P
TVRZ 10.060 1.00 S
HRS  12.030 1.00 S
FTB   9.220 1.00 P
FTB  16.130 1.00 S
TABZ  9.280 1.00 P
TBZ   9.700 1.00 P
TBZ  16.970 1.00 S
BST  13.130 1.00 P
BST  22.970 1.00 S
SHB  16.290 1.00 P
SHB  28.520 1.00 S
MRD  16.420 1.00 P
AZR  16.760 1.00 P
AZR  29.340 1.00 S
SRB  17.390 1.00 P
SRB  30.430 1.00 S
GRMI 19.200 1.00 P
GRMI 33.610 1.00 S
HSH  36.890 1.00 S
NAX  22.830 1.00 P
NAX  39.960 1.00 S
LRK  41.840 1.00 S
SBZ  24.910 1.00 P
GLBA 28.300 1.00 P
ASTR 50.710 1.00 S
LKRN 29.310 1.00 P
MAKU 32.250 1.00 P
BRDA 32.950 1.00 P
SAAT 34.120 1.00 P
ZRD  34.720 1.00 P
GANJ 38.110 1.00 P
GNI  67.620 1.00 S
# 2012 08 13 20 12 42.800000 38.417 46.884  11.3  2.8 0.0 0.0 0.0       119
HRS   3.960 1.00 P
TVRZ  4.350 1.00 P
TVRZ  7.610 1.00 S
FTB  11.050 1.00 P
TABZ 11.240 1.00 P
TABZ 19.670 1.00 S
TBZ  11.760 1.00 P
TBZ  20.590 1.00 S
BST  13.570 1.00 P
BST  23.740 1.00 S
SRB  16.480 1.00 P
SRB  28.840 1.00 S
ORD  16.330 1.00 P
ORD  28.580 1.00 S
GRMI 17.010 1.00 P
GRMI 29.770 1.00 S
MRD  18.400 1.00 P
SHB  18.960 1.00 P
SHB  33.170 1.00 S
AZR  19.640 1.00 P
HSH  38.140 1.00 S
LRK  22.030 1.00 P
NAX  24.760 1.00 P
NAX  43.330 1.00 S
SBZ  26.650 1.00 P
GLBA 27.020 1.00 P
GLBA 47.280 1.00 S
LKRN 49.170 1.00 S
SAAT 34.280 1.00 P
MAKU 35.410 1.00 P
ZRD  61.410 1.00 S
ZNJK 69.020 1.00 S
GANJ 39.400 1.00 P
# 2012 08 13 20 22 37.600000 38.384 46.980   4.1  1.5 0.0 0.0 0.0       120
HRS   2.030 1.00 P
TAHR  2.400 1.00 P
TAHR  4.200 1.00 S
FTB  11.590 1.00 P
FTB  20.290 1.00 S
TABZ 11.970 1.00 P
TBZ  13.100 1.00 P
BST  13.240 1.00 P
BST  23.170 1.00 S
SRB  14.710 1.00 P
SRB  25.750 1.00 S
GRMI 26.930 1.00 S
ORD  31.160 1.00 S
MRD  20.010 1.00 P
MRD  35.020 1.00 S
AZR  20.150 1.00 P
SHB  20.520 1.00 P
SHB  35.900 1.00 S
LRK  20.370 1.00 P
LRK  35.640 1.00 S
GLBA 25.740 1.00 P
NAX  45.930 1.00 S
ASTR 26.550 1.00 P
LKRN 26.800 1.00 P
LKRN 46.900 1.00 S
SBZ  49.050 1.00 S
SAAT 34.030 1.00 P
ZRD  35.880 1.00 P
MAKU 37.290 1.00 P
ZNJK 39.270 1.00 P
GANJ 70.990 1.00 S
GNI  43.140 1.00 P
GNI  75.180 1.00 S
# 2012 08 13 20 29 51.900000 38.552 46.768   4.1  1.8 0.0 0.0 0.0       121
TVRZ  2.290 1.00 P
TVRZ  4.000 1.00 S
TAHR  7.820 1.00 S
HRS   6.020 1.00 P
HRS  10.540 1.00 S
TBZ  11.280 1.00 P
TBZ  19.730 1.00 S
FTB  11.580 1.00 P
ORD  13.790 1.00 P
MRD  16.280 1.00 P
MRD  28.500 1.00 S
GRMI 30.180 1.00 S
SHB  18.060 1.00 P
SRB  18.730 1.00 P
SRB  32.770 1.00 S
AZR  20.050 1.00 P
AZR  35.090 1.00 S
NAX  38.900 1.00 S
LRK  23.000 1.00 P
SBZ  24.000 1.00 P
HSH  24.230 1.00 P
GLBA 47.150 1.00 S
LKRN 51.460 1.00 S
BRDA 32.470 1.00 P
BRDA 56.830 1.00 S
MAKU 33.950 1.00 P
SAAT 34.090 1.00 P
SAAT 59.660 1.00 S
ZRD  34.620 1.00 P
GNI  40.160 1.00 P
GNI  70.030 1.00 S
ZNJK 42.290 1.00 P
VANB 45.730 1.00 P
# 2012 08 13 20 44 57.200000 38.367 46.819  10.0  1.6 0.0 0.0 0.0       122
HRS   4.000 1.00 P
HRS   7.000 1.00 S
TAHR  8.310 1.00 S
FTB   9.640 1.00 P
TABZ  9.830 1.00 P
TBZ  10.520 1.00 P
BST  12.760 1.00 P
BST  22.330 1.00 S
SRB  16.460 1.00 P
SRB  28.800 1.00 S
MRD  17.730 1.00 P
SHB  17.840 1.00 P
SHB  31.230 1.00 S
GRMI 17.860 1.00 P
HSH  21.190 1.00 P
LRK  22.970 1.00 P
NAX  42.750 1.00 S
SBZ  26.520 1.00 P
SBZ  46.420 1.00 S
GLBA 28.060 1.00 P
GLBA 49.100 1.00 S
ASTR 50.590 1.00 S
LKRN 29.230 1.00 P
BRDA 60.380 1.00 S
MAKU 35.310 1.00 P
MAKU 61.620 1.00 S
SAAT 35.400 1.00 P
SAAT 61.750 1.00 S
ZRD  36.220 1.00 P
ZRD  63.160 1.00 S
ZNJK 39.710 1.00 P
GANJ 69.810 1.00 S
GNI  41.640 1.00 P
# 2012 08 13 20 57 07.500000 38.385 46.661   4.3  1.5 0.0 0.0 0.0       123
TVRZ  2.260 1.00 P
HRS   6.420 1.00 P
HRS  11.230 1.00 S
TAHR  6.590 1.00 P
TAHR 11.530 1.00 S
FTB  14.690 1.00 S
TBZ   8.270 1.00 P
TBZ  14.470 1.00 S
BST  13.650 1.00 P
BST  23.890 1.00 S
MRD  15.210 1.00 P
MRD  26.620 1.00 S
SHB  15.480 1.00 P
SHB  27.100 1.00 S
AZR  16.790 1.00 P
AZR  29.390 1.00 S
GRMI 19.950 1.00 P
HSH  22.370 1.00 P
HSH  39.150 1.00 S
NAX  38.870 1.00 S
SBZ  24.530 1.00 P
LRK  25.350 1.00 P
LRK  44.360 1.00 S
GLBA 29.880 1.00 P
ASTR 31.600 1.00 P
LKRN 55.590 1.00 S
MAKU 33.490 1.00 P
BRDA 35.020 1.00 P
SAAT 36.800 1.00 P
ZRD  37.100 1.00 P
ZRD  64.720 1.00 S
ZNJK 41.770 1.00 P
VANB 77.220 1.00 S
# 2012 08 13 21 01 40.200000 38.407 46.679   4.3  1.8 0.0 0.0 0.0       124
TVRZ  2.200 1.00 P
TVRZ  3.850 1.00 S
HRS   6.150 1.00 P
HRS  10.760 1.00 S
TAHR  6.170 1.00 P
TAHR 10.790 1.00 S
TABZ 14.850 1.00 S
FTB   8.580 1.00 P
FTB  15.020 1.00 S
TBZ   8.640 1.00 P
TBZ  15.120 1.00 S
BST  13.810 1.00 P
ORD  14.420 1.00 P
ORD  25.240 1.00 S
MRD  15.750 1.00 P
MRD  27.560 1.00 S
SHB  15.900 1.00 P
AZR  17.030 1.00 P
SRB  18.540 1.00 P
GRMI 19.590 1.00 P
NAX  22.740 1.00 P
NAX  39.800 1.00 S
SBZ  43.740 1.00 S
LRK  43.480 1.00 S
GLBA 29.630 1.00 P
GLBA 51.860 1.00 S
LKRN 31.250 1.00 P
BRDA 34.910 1.00 P
BRDA 61.080 1.00 S
SAAT 63.980 1.00 S
ZRD  37.050 1.00 P
GANJ 40.040 1.00 P
GNI  40.910 1.00 P
# 2012 08 13 21 10 31.500000 38.477 46.763  14.8  1.6 0.0 0.0 0.0       125
TAHR  4.980 1.00 P
HRS   6.050 1.00 P
HRS  10.590 1.00 S
TBZ  10.860 1.00 P
TBZ  19.010 1.00 S
TABZ 10.960 1.00 P
BST  15.210 1.00 P
MRD  16.830 1.00 P
MRD  29.440 1.00 S
SHB  17.660 1.00 P
GRMI 17.910 1.00 P
SRB  18.500 1.00 P
SRB  32.380 1.00 S
AZR  19.290 1.00 P
NAX  22.810 1.00 P
NAX  39.910 1.00 S
HSH  40.600 1.00 S
LRK  23.070 1.00 P
SBZ  24.570 1.00 P
SBZ  43.000 1.00 S
GLBA 27.060 1.00 P
GLBA 47.360 1.00 S
ASTR 28.920 1.00 P
LKRN 50.800 1.00 S
BRDA 56.830 1.00 S
MAKU 33.450 1.00 P
ZRD  59.960 1.00 S
GANJ 37.810 1.00 P
GANJ 65.900 1.00 S
GNI  39.460 1.00 P
GNI  68.750 1.00 S
ZNJK 40.600 1.00 P
ZNJK 70.730 1.00 S
# 2012 08 13 21 18 45.800000 38.394 46.771  17.5  1.2 0.0 0.0 0.0       126
TVRZ  4.420 1.00 P
TVRZ  7.740 1.00 S
HRS   5.230 1.00 P
HRS   9.150 1.00 S
FTB   9.720 1.00 P
FTB  17.000 1.00 S
TABZ 17.300 1.00 S
TBZ  10.560 1.00 P
TBZ  18.490 1.00 S
BST  13.420 1.00 P
BST  23.480 1.00 S
ORD  15.810 1.00 P
ORD  27.660 1.00 S
MRD  17.320 1.00 P
SRB  16.870 1.00 P
SHB  17.580 1.00 P
SHB  30.760 1.00 S
AZR  17.920 1.00 P
GRMI 18.270 1.00 P
HSH  21.250 1.00 P
HSH  37.190 1.00 S
LRK  23.030 1.00 P
SBZ  44.750 1.00 S
GLBA 48.520 1.00 S
ASTR 28.760 1.00 P
ASTR 50.320 1.00 S
LKRN 29.000 1.00 P
BRDA 33.700 1.00 P
BRDA 58.760 1.00 S
SAAT 34.450 1.00 P
ZNJK 39.000 1.00 P
GNI  40.220 1.00 P
GNI  70.050 1.00 S
# 2012 08 13 21 25 25.100000 38.458 46.800  19.2  1.8 0.0 0.0 0.0       127
TAHR  5.250 1.00 P
HRS   5.900 1.00 P
HRS  10.320 1.00 S
FTB  10.630 1.00 P
FTB  18.600 1.00 S
TABZ 10.670 1.00 P
TABZ 18.670 1.00 S
TBZ  10.910 1.00 P
BST  14.480 1.00 P
ORD  15.160 1.00 P
MRD  16.910 1.00 P
GRMI 30.810 1.00 S
SRB  17.660 1.00 P
SRB  30.900 1.00 S
SHB  17.620 1.00 P
SHB  30.840 1.00 S
AZR  18.640 1.00 P
LRK  22.580 1.00 P
LRK  39.520 1.00 S
GLBA 47.090 1.00 S
ASTR 28.390 1.00 P
LKRN 28.550 1.00 P
LKRN 49.960 1.00 S
BRDA 32.470 1.00 P
BRDA 56.640 1.00 S
SAAT 33.500 1.00 P
SAAT 58.430 1.00 S
ZRD  34.130 1.00 P
ZRD  59.520 1.00 S
GANJ 37.910 1.00 P
GNI  39.460 1.00 P
GNI  68.740 1.00 S
ZNJK 68.960 1.00 S
# 2012 08 13 21 29 06.200000 38.416 46.837  21.0  1.3 0.0 0.0 0.0       128
TVRZ  8.820 1.00 S
TAHR  5.130 1.00 P
HRS   5.260 1.00 P
HRS   9.210 1.00 S
FTB  18.870 1.00 S
TABZ 10.950 1.00 P
TBZ  11.450 1.00 P
BST  13.740 1.00 P
ORD  16.020 1.00 P
ORD  28.040 1.00 S
SRB  16.380 1.00 P
GRMI 17.050 1.00 P
GRMI 29.840 1.00 S
SHB  18.180 1.00 P
AZR  18.790 1.00 P
AZR  32.880 1.00 S
HSH  21.290 1.00 P
HSH  37.250 1.00 S
LRK  21.940 1.00 P
LRK  38.400 1.00 S
SBZ  25.660 1.00 P
SBZ  44.900 1.00 S
ASTR 48.480 1.00 S
LKRN 27.910 1.00 P
LKRN 48.840 1.00 S
SAAT 33.270 1.00 P
MAKU 33.870 1.00 P
ZRD  59.660 1.00 S
ZNJK 38.700 1.00 P
ZNJK 67.420 1.00 S
GNI  39.980 1.00 P
GNI  69.620 1.00 S
VANB 44.550 1.00 P
# 2012 08 13 21 33 29.800000 38.436 46.680  16.6  1.7 0.0 0.0 0.0       129
HRS   6.720 1.00 P
HRS  11.760 1.00 S
TBZ   9.410 1.00 P
TBZ  16.470 1.00 S
TABZ 16.930 1.00 S
FTB  17.130 1.00 S
ORD  13.930 1.00 P
BST  14.770 1.00 P
BST  25.840 1.00 S
MRD  15.530 1.00 P
SHB  16.230 1.00 P
SHB  28.400 1.00 S
AZR  17.920 1.00 P
SRB  18.720 1.00 P
SRB  32.750 1.00 S
GRMI 19.050 1.00 P
GRMI 33.350 1.00 S
NAX  38.070 1.00 S
SBZ  23.770 1.00 P
SBZ  41.600 1.00 S
LRK  42.320 1.00 S
GLBA 28.230 1.00 P
GLBA 49.400 1.00 S
ASTR 30.040 1.00 P
LKRN 30.150 1.00 P
MAKU 32.400 1.00 P
BRDA 33.010 1.00 P
SAAT 34.590 1.00 P
SAAT 60.330 1.00 S
GANJ 37.920 1.00 P
GNI  67.690 1.00 S
ZNJK 40.570 1.00 P
VANB 43.180 1.00 P
# 2012 08 13 22 37 04.500000 38.390 46.688  20.0  3.3 0.0 0.0 0.0       130
TVRZ  7.540 1.00 S
HRS   6.410 1.00 P
HRS  11.210 1.00 S
TAHR  6.750 1.00 P
FTB  15.480 1.00 S
TBZ   9.130 1.00 P
BST  13.440 1.00 P
MRD  15.990 1.00 P
MRD  27.980 1.00 S
SHB  16.020 1.00 P
AZR  16.810 1.00 P
AZR  29.410 1.00 S
SRB  17.650 1.00 P
GRMI 19.270 1.00 P
GRMI 33.730 1.00 S
HSH  21.480 1.00 P
NAX  39.410 1.00 S
SBZ  24.640 1.00 P
GLBA 50.110 1.00 S
ASTR 52.200 1.00 S
LKRN 30.070 1.00 P
MAKU 32.740 1.00 P
SAAT 60.810 1.00 S
ZRD  35.430 1.00 P
ZRD  61.760 1.00 S
GANJ 67.180 1.00 S
GNI  39.330 1.00 P
GNI  68.500 1.00 S
ZNJK 39.380 1.00 P
VANB 74.900 1.00 S
# 2012 08 13 23 22 37.000000 38.444 46.746  10.0  1.5 0.0 0.0 0.0       131
TVRZ  2.670 1.00 P
TAHR  4.980 1.00 P
HRS   5.280 1.00 P
TABZ 16.810 1.00 S
FTB  16.850 1.00 S
TBZ   9.740 1.00 P
TBZ  17.040 1.00 S
BST  14.000 1.00 P
ORD  14.590 1.00 P
ORD  25.540 1.00 S
MRD  16.330 1.00 P
SHB  16.920 1.00 P
SHB  29.600 1.00 S
GRMI 18.380 1.00 P
AZR  18.120 1.00 P
HSH  39.360 1.00 S
NAX  22.970 1.00 P
NAX  40.200 1.00 S
SBZ  25.080 1.00 P
SBZ  43.880 1.00 S
GLBA 28.280 1.00 P
GLBA 49.490 1.00 S
ASTR 29.730 1.00 P
ASTR 52.020 1.00 S
LKRN 29.890 1.00 P
LKRN 52.310 1.00 S
BRDA 33.840 1.00 P
BRDA 59.140 1.00 S
SAAT 35.170 1.00 P
ZRD  35.710 1.00 P
GNI  70.290 1.00 S
ZNJK 71.080 1.00 S
VANB 44.670 1.00 P
# 2012 08 13 23 43 33.600000 38.398 46.863  12.1  1.5 0.0 0.0 0.0       132
HRS   4.090 1.00 P
TVRZ  4.320 1.00 P
FTB  10.090 1.00 P
FTB  17.660 1.00 S
TABZ 18.060 1.00 S
TBZ  11.160 1.00 P
TBZ  19.530 1.00 S
BST  13.160 1.00 P
SRB  16.390 1.00 P
ORD  16.480 1.00 P
GRMI 17.530 1.00 P
GRMI 30.670 1.00 S
MRD  18.200 1.00 P
MRD  31.850 1.00 S
SHB  18.500 1.00 P
AZR  18.670 1.00 P
HSH  37.450 1.00 S
NAX  43.200 1.00 S
SBZ  46.530 1.00 S
GLBA 27.380 1.00 P
ASTR 28.290 1.00 P
LKRN 28.550 1.00 P
LKRN 49.960 1.00 S
BRDA 59.570 1.00 S
SAAT 34.620 1.00 P
SAAT 60.400 1.00 S
MAKU 35.040 1.00 P
MAKU 61.110 1.00 S
ZNJK 39.300 1.00 P
ZNJK 68.500 1.00 S
GANJ 39.780 1.00 P
GNI  41.310 1.00 P
VANB 79.330 1.00 S
# 2012 08 14 01 32 41.700000 38.454 46.693   9.4  2.2 0.0 0.0 0.0       133
TVRZ  2.150 1.00 P
TAHR  5.550 1.00 P
TAHR  9.720 1.00 S
HRS   5.950 1.00 P
TBZ   9.560 1.00 P
TBZ  16.720 1.00 S
FTB   9.660 1.00 P
ORD  13.950 1.00 P
BST  14.430 1.00 P
MRD  15.630 1.00 P
MRD  27.340 1.00 S
SHB  16.440 1.00 P
AZR  18.140 1.00 P
AZR  31.740 1.00 S
SRB  18.380 1.00 P
GRMI 18.940 1.00 P
GRMI 33.150 1.00 S
HSH  22.950 1.00 P
HSH  40.160 1.00 S
LRK  24.360 1.00 P
GLBA 50.370 1.00 S
ASTR 30.330 1.00 P
MAKU 58.460 1.00 S
BRDA 33.860 1.00 P
BRDA 59.210 1.00 S
SAAT 35.490 1.00 P
SAAT 61.900 1.00 S
ZRD  62.580 1.00 S
GANJ 38.930 1.00 P
GANJ 67.870 1.00 S
ZNJK 72.110 1.00 S
VANB 44.290 1.00 P
VANB 77.130 1.00 S
# 2012 08 14 01 39 59.300000 38.467 46.726  19.3  1.4 0.0 0.0 0.0       134
TVRZ  6.560 1.00 S
TAHR  6.060 1.00 P
TAHR 10.610 1.00 S
HRS   6.730 1.00 P
TBZ  10.040 1.00 P
TABZ 10.160 1.00 P
FTB  10.240 1.00 P
FTB  17.930 1.00 S
ORD  13.950 1.00 P
ORD  24.420 1.00 S
BST  14.870 1.00 P
MRD  15.800 1.00 P
MRD  27.650 1.00 S
SHB  16.630 1.00 P
SHB  29.110 1.00 S
GRMI 18.520 1.00 P
GRMI 32.410 1.00 S
SRB  18.510 1.00 P
NAX  38.130 1.00 S
HSH  22.790 1.00 P
HSH  39.880 1.00 S
LRK  23.600 1.00 P
SBZ  41.400 1.00 S
GLBA 27.690 1.00 P
ASTR 29.420 1.00 P
LKRN 29.560 1.00 P
BRDA 32.380 1.00 P
SAAT 59.100 1.00 S
ZRD  34.210 1.00 P
GNI  38.580 1.00 P
GNI  67.210 1.00 S
ZNJK 70.090 1.00 S
VANB 75.080 1.00 S
# 2012 08 14 01 49 20.100000 38.419 46.692  17.7  3.0 0.0 0.0 0.0       135
TAHR 11.090 1.00 S
HRS   6.500 1.00 P
HRS  11.370 1.00 S
TABZ  9.600 1.00 P
TABZ 16.800 1.00 S
TBZ   9.570 1.00 P
FTB   9.620 1.00 P
FTB  16.840 1.00 S
BST  14.350 1.00 P
BST  25.120 1.00 S
ORD  14.660 1.00 P
MRD  16.080 1.00 P
SHB  16.330 1.00 P
SHB  28.590 1.00 S
AZR  17.740 1.00 P
SRB  18.420 1.00 P
SRB  32.230 1.00 S
GRMI 18.970 1.00 P
GRMI 33.190 1.00 S
HSH  22.430 1.00 P
ASTR 29.800 1.00 P
ASTR 52.140 1.00 S
LKRN 52.440 1.00 S
MAKU 32.850 1.00 P
BRDA 33.230 1.00 P
BRDA 57.950 1.00 S
SAAT 60.380 1.00 S
ZRD  35.060 1.00 P
ZRD  61.130 1.00 S
GANJ 38.190 1.00 P
ZNJK 40.210 1.00 P
VANB 75.320 1.00 S
# 2012 08 14 02 00 50.700000 38.477 46.690   4.3  2.0 0.0 0.0 0.0       136
TVRZ  2.180 1.00 S
TAHR  5.520 1.00 P
HRS   6.460 1.00 P
TBZ   9.620 1.00 P
TABZ 17.490 1.00 S
FTB  10.110 1.00 P
FTB  17.700 1.00 S
ORD  23.950 1.00 S
BST  15.120 1.00 P
BST  26.470 1.00 S
MRD  15.540 1.00 P
MRD  27.200 1.00 S
SHB  16.400 1.00 P
AZR  18.530 1.00 P
AZR  32.440 1.00 S
GRMI 18.670 1.00 P
SRB  19.100 1.00 P
SRB  33.430 1.00 S
NAX  22.100 1.00 P
HSH  23.740 1.00 P
SBZ  24.110 1.00 P
LRK  24.320 1.00 P
LRK  42.560 1.00 S
ASTR 53.640 1.00 S
LKRN 30.740 1.00 P
LKRN 53.790 1.00 S
MAKU 33.580 1.00 P
BRDA 33.550 1.00 P
SAAT 35.480 1.00 P
SAAT 62.070 1.00 S
GANJ 67.890 1.00 S
GNI  70.080 1.00 S
VANB 44.740 1.00 P
# 2012 08 14 02 37 06.900000 38.440 46.805  15.0  2.3 0.0 0.0 0.0       137
TAHR  4.950 1.00 P
HRS   5.170 1.00 P
HRS   9.050 1.00 S
FTB  10.300 1.00 P
FTB  18.020 1.00 S
TABZ 10.370 1.00 P
TBZ  10.720 1.00 P
TBZ  18.750 1.00 S
BST  14.010 1.00 P
ORD  15.520 1.00 P
ORD  27.160 1.00 S
MRD  17.320 1.00 P
MRD  30.300 1.00 S
SRB  30.390 1.00 S
GRMI 31.430 1.00 S
SHB  17.850 1.00 P
SHB  31.230 1.00 S
AZR  18.670 1.00 P
AZR  32.680 1.00 S
HSH  21.970 1.00 P
HSH  38.460 1.00 S
LRK  40.100 1.00 S
NAX  40.940 1.00 S
SBZ  25.280 1.00 P
ASTR 50.260 1.00 S
LKRN 28.890 1.00 P
MAKU 33.890 1.00 P
SAAT 34.210 1.00 P
ZRD  34.890 1.00 P
GANJ 38.660 1.00 P
ZNJK 39.680 1.00 P
ZNJK 69.130 1.00 S
VANB 44.640 1.00 P
# 2012 08 14 03 46 54.400000 38.442 46.805  18.2  2.1 0.0 0.0 0.0       138
TVRZ  4.190 1.00 P
TVRZ  7.330 1.00 S
TAHR  5.190 1.00 P
HRS   5.520 1.00 P
HRS   9.670 1.00 S
FTB  18.210 1.00 S
TABZ 10.470 1.00 P
TABZ 18.320 1.00 S
TBZ  10.810 1.00 P
TBZ  18.920 1.00 S
BST  24.580 1.00 S
ORD  26.870 1.00 S
MRD  17.110 1.00 P
MRD  29.940 1.00 S
SRB  17.190 1.00 P
SRB  30.080 1.00 S
GRMI 17.650 1.00 P
SHB  17.680 1.00 P
SHB  30.930 1.00 S
AZR  18.500 1.00 P
AZR  32.370 1.00 S
HSH  21.830 1.00 P
ASTR 28.390 1.00 P
LKRN 28.560 1.00 P
BRDA 32.850 1.00 P
MAKU 33.480 1.00 P
SAAT 58.900 1.00 S
ZRD  34.480 1.00 P
ZNJK 39.370 1.00 P
ZNJK 68.590 1.00 S
GNI  39.710 1.00 P
VANB 44.250 1.00 P
VANB 77.010 1.00 S
# 2012 08 14 04 08 43.300000 38.462 46.640   4.3  2.3 0.0 0.0 0.0       139
TVRZ  2.530 1.00 S
HRS   6.630 1.00 P
HRS  11.600 1.00 S
TBZ   8.900 1.00 P
TBZ  15.570 1.00 S
TABZ  9.240 1.00 P
FTB   9.410 1.00 P
FTB  16.460 1.00 S
ORD  13.250 1.00 P
MRD  14.940 1.00 P
BST  14.730 1.00 P
SHB  15.760 1.00 P
SHB  27.580 1.00 S
SRB  19.070 1.00 P
NAX  37.840 1.00 S
HSH  23.330 1.00 P
LRK  24.900 1.00 P
LRK  43.580 1.00 S
GLBA 29.180 1.00 P
ASTR 31.180 1.00 P
LKRN 54.800 1.00 S
MAKU 33.080 1.00 P
MAKU 57.900 1.00 S
SAAT 36.100 1.00 P
SAAT 63.090 1.00 S
ZRD  36.320 1.00 P
ZRD  63.480 1.00 S
GANJ 39.240 1.00 P
GANJ 68.430 1.00 S
ZNJK 42.340 1.00 P
ZNJK 73.790 1.00 S
VANB 44.280 1.00 P
VANB 77.130 1.00 S
# 2012 08 14 04 52 17.700000 38.446 46.661  20.0  2.1 0.0 0.0 0.0       140
TVRZ  3.830 1.00 P
TAHR  7.050 1.00 P
HRS   7.350 1.00 P
HRS  12.860 1.00 S
TBZ   9.030 1.00 P
TBZ  15.810 1.00 S
TABZ  9.280 1.00 P
TABZ 16.250 1.00 S
FTB   9.440 1.00 P
FTB  16.530 1.00 S
ORD  13.760 1.00 P
BST  14.500 1.00 P
BST  25.380 1.00 S
MRD  15.150 1.00 P
SHB  15.700 1.00 P
AZR  30.240 1.00 S
SRB  18.840 1.00 P
SRB  32.960 1.00 S
GRMI 34.120 1.00 S
HSH  22.590 1.00 P
SBZ  23.590 1.00 P
SBZ  41.290 1.00 S
LRK  43.030 1.00 S
GLBA 28.650 1.00 P
GLBA 50.150 1.00 S
ASTR 30.390 1.00 P
LKRN 53.350 1.00 S
MAKU 31.910 1.00 P
SAAT 34.640 1.00 P
SAAT 60.400 1.00 S
ZNJK 40.320 1.00 P
ZNJK 70.220 1.00 S
VANB 42.450 1.00 P
# 2012 08 14 05 28 13.200000 38.437 46.804  18.1  3.4 0.0 0.0 0.0       141
TVRZ  4.080 1.00 P
TVRZ  7.140 1.00 S
TAHR  5.260 1.00 P
HRS   5.640 1.00 P
HRS   9.870 1.00 S
TABZ 10.760 1.00 P
TBZ  10.960 1.00 P
TBZ  19.180 1.00 S
BST  14.400 1.00 P
ORD  15.080 1.00 P
MRD  16.960 1.00 P
SRB  17.460 1.00 P
SRB  30.560 1.00 S
GRMI 17.640 1.00 P
GRMI 30.860 1.00 S
SHB  17.720 1.00 P
SHB  31.010 1.00 S
AZR  18.800 1.00 P
LRK  39.690 1.00 S
NAX  40.090 1.00 S
SBZ  24.750 1.00 P
ASTR 28.510 1.00 P
LKRN 50.140 1.00 S
MAKU 33.330 1.00 P
SAAT 58.600 1.00 S
ZRD  59.670 1.00 S
GANJ 66.170 1.00 S
ZNJK 39.610 1.00 P
GNI  39.470 1.00 P
GNI  68.750 1.00 S
VANB 77.030 1.00 S
# 2012 08 14 06 58 45.500000 38.402 46.657  16.5  1.8 0.0 0.0 0.0       142
TVRZ  3.750 1.00 P
HRS   6.960 1.00 P
HRS  12.180 1.00 S
TABZ  8.570 1.00 P
TBZ   8.600 1.00 P
TBZ  15.060 1.00 S
FTB   8.670 1.00 P
FTB  15.170 1.00 S
BST  14.020 1.00 P
BST  24.540 1.00 S
ORD  14.490 1.00 P
ORD  25.360 1.00 S
MRD  15.560 1.00 P
MRD  27.220 1.00 S
SHB  15.670 1.00 P
AZR  29.480 1.00 S
GRMI 34.910 1.00 S
HSH  22.190 1.00 P
SBZ  24.400 1.00 P
SBZ  42.690 1.00 S
LRK  24.880 1.00 P
GLBA 51.140 1.00 S
ASTR 30.640 1.00 P
ASTR 53.600 1.00 S
MAKU 32.570 1.00 P
BRDA 33.870 1.00 P
BRDA 59.070 1.00 S
SAAT 35.440 1.00 P
ZRD  35.760 1.00 P
GNI  39.290 1.00 P
ZNJK 40.350 1.00 P
ZNJK 70.280 1.00 S
VANB 74.480 1.00 S
# 2012 08 14 08 11 48.900000 38.392 46.662  15.5  2.1 0.0 0.0 0.0       143
TVRZ  3.730 1.00 P
TVRZ  6.530 1.00 S
HRS   6.840 1.00 P
HRS  11.980 1.00 S
TAHR  7.090 1.00 P
TABZ  8.400 1.00 P
TABZ 14.700 1.00 S
TBZ   8.540 1.00 P
BST  13.710 1.00 P
ORD  14.630 1.00 P
MRD  15.740 1.00 P
MRD  27.550 1.00 S
SHB  15.780 1.00 P
SHB  27.620 1.00 S
AZR  16.790 1.00 P
AZR  29.390 1.00 S
SRB  32.500 1.00 S
GRMI 20.110 1.00 P
HSH  38.490 1.00 S
NAX  22.380 1.00 P
SBZ  24.570 1.00 P
LRK  43.770 1.00 S
GLBA 29.410 1.00 P
GLBA 51.470 1.00 S
ASTR 30.770 1.00 P
LKRN 30.980 1.00 P
BRDA 34.160 1.00 P
BRDA 59.570 1.00 S
SAAT 35.680 1.00 P
SAAT 62.210 1.00 S
ZRD  62.850 1.00 S
GANJ 68.060 1.00 S
ZNJK 40.270 1.00 P
