# 2012 08 13 00 18 02.600000 38.450 46.897   9.7  3.2 0.0 0.0 0.0        87
HRS   3.720 1.00 P
HRS   6.520 1.00 S
TVRZ  7.170 1.00 S
FTB  11.430 1.00 P
FTB  20.000 1.00 S
TABZ 11.660 1.00 P
TABZ 20.410 1.00 S
TBZ  12.230 1.00 P
TBZ  21.400 1.00 S
BST  13.910 1.00 P
ORD  16.300 1.00 P
GRMI 16.290 1.00 P
GRMI 28.510 1.00 S
SRB  16.160 1.00 P
SRB  28.280 1.00 S
MRD  18.420 1.00 P
MRD  32.240 1.00 S
SHB  19.320 1.00 P
SHB  33.810 1.00 S
AZR  20.020 1.00 P
AZR  35.030 1.00 S
HSH  21.980 1.00 P
HSH  38.470 1.00 S
ASTR 27.630 1.00 P
LKRN 27.820 1.00 P
BRDA 58.510 1.00 S
SAAT 33.950 1.00 P
ZRD  35.120 1.00 P
MAKU 35.540 1.00 P
GANJ 68.630 1.00 S
ZNJK 39.780 1.00 P
ZNJK 69.350 1.00 S
GNI  41.480 1.00 P
# 2012 08 13 00 22 08.400000 38.419 46.694  20.0  3.2 0.0 0.0 0.0        88
TVRZ  4.010 1.00 P
TAHR  6.450 1.00 P
TAHR 11.290 1.00 S
HRS   6.610 1.00 P
HRS  11.570 1.00 S
TABZ  9.640 1.00 P
TBZ   9.650 1.00 P
TBZ  16.890 1.00 S
BST  14.280 1.00 P
BST  24.990 1.00 S
MRD  16.020 1.00 P
SHB  16.290 1.00 P
SHB  28.510 1.00 S
AZR  17.640 1.00 P
AZR  30.860 1.00 S
SRB  18.280 1.00 P
GRMI 18.830 1.00 P
HSH  22.330 1.00 P
HSH  39.080 1.00 S
LRK  41.780 1.00 S
SBZ  42.590 1.00 S
GLBA 28.040 1.00 P
ASTR 29.660 1.00 P
ASTR 51.880 1.00 S
MAKU 32.620 1.00 P
BRDA 32.980 1.00 P
BRDA 57.510 1.00 S
SAAT 34.360 1.00 P
SAAT 59.930 1.00 S
ZRD  60.710 1.00 S
GNI  39.010 1.00 P
ZNJK 39.950 1.00 P
VANB 74.950 1.00 S
# 2012 08 13 01 02 22.500000 38.450 46.801  19.9  1.5 0.0 0.0 0.0        89
TVRZ  4.300 1.00 P
TVRZ  7.530 1.00 S
HRS   5.860 1.00 P
FTB  10.490 1.00 P
FTB  18.370 1.00 S
TBZ  10.840 1.00 P
BST  24.910 1.00 S
MRD  16.920 1.00 P
MRD  29.610 1.00 S
SRB  17.480 1.00 P
SRB  30.600 1.00 S
GRMI 17.600 1.00 P
SHB  17.590 1.00 P
SHB  30.780 1.00 S
AZR  18.490 1.00 P
AZR  32.360 1.00 S
HSH  22.030 1.00 P
LRK  22.570 1.00 P
LRK  39.490 1.00 S
NAX  22.990 1.00 P
NAX  40.230 1.00 S
SBZ  24.860 1.00 P
GLBA 26.920 1.00 P
GLBA 47.110 1.00 S
ASTR 49.650 1.00 S
LKRN 49.930 1.00 S
MAKU 33.200 1.00 P
SAAT 33.550 1.00 P
ZRD  34.250 1.00 P
GANJ 38.030 1.00 P
ZNJK 68.600 1.00 S
GNI  68.690 1.00 S
VANB 43.980 1.00 P
# 2012 08 13 01 29 26.600000 38.480 46.791   4.5  2.4 0.0 0.0 0.0        90
TVRZ  3.630 1.00 S
TAHR  4.320 1.00 P
HRS   5.370 1.00 P
HRS   9.390 1.00 S
FTB  19.010 1.00 S
TABZ 10.800 1.00 P
TBZ  10.640 1.00 P
TBZ  18.610 1.00 S
ORD  14.240 1.00 P
MRD  16.490 1.00 P
MRD  28.860 1.00 S
GRMI 17.670 1.00 P
GRMI 30.920 1.00 S
SHB  17.540 1.00 P
SRB  18.080 1.00 P
SRB  31.640 1.00 S
AZR  19.340 1.00 P
AZR  33.840 1.00 S
LRK  23.190 1.00 P
NAX  22.680 1.00 P
HSH  23.230 1.00 P
HSH  40.640 1.00 S
SBZ  24.560 1.00 P
GLBA 27.510 1.00 P
ASTR 29.480 1.00 P
LKRN 29.620 1.00 P
MAKU 59.880 1.00 S
SAAT 34.720 1.00 P
SAAT 60.750 1.00 S
GANJ 68.060 1.00 S
GNI  40.530 1.00 P
ZNJK 72.800 1.00 S
VANB 79.340 1.00 S
# 2012 08 13 01 38 46.800000 38.452 46.844  16.9  1.5 0.0 0.0 0.0        91
TVRZ  4.420 1.00 P
TVRZ  7.740 1.00 S
TAHR  7.610 1.00 S
HRS   4.900 1.00 P
FTB  11.190 1.00 P
FTB  19.580 1.00 S
TBZ  11.870 1.00 P
TBZ  20.760 1.00 S
BST  14.370 1.00 P
ORD  15.940 1.00 P
GRMI 16.970 1.00 P
SRB  16.820 1.00 P
MRD  17.900 1.00 P
MRD  31.330 1.00 S
SHB  18.690 1.00 P
SHB  32.710 1.00 S
AZR  19.370 1.00 P
LRK  38.260 1.00 S
NAX  23.790 1.00 P
GLBA 46.170 1.00 S
ASTR 27.650 1.00 P
LKRN 27.830 1.00 P
BRDA 57.340 1.00 S
SAAT 33.410 1.00 P
SAAT 58.260 1.00 S
MAKU 34.170 1.00 P
ZRD  34.380 1.00 P
GANJ 38.380 1.00 P
GANJ 66.870 1.00 S
ZNJK 68.240 1.00 S
GNI  40.200 1.00 P
GNI  70.030 1.00 S
VANB 78.430 1.00 S
# 2012 08 13 01 56 10.000000 38.437 46.694  17.5  4.7 0.0 0.0 0.0        92
TVRZ  5.990 1.00 S
TAHR 10.760 1.00 S
HRS   6.530 1.00 P
HRS  11.430 1.00 S
TBZ   9.700 1.00 P
TBZ  16.970 1.00 S
ORD  24.630 1.00 S
MRD  15.740 1.00 P
MRD  27.540 1.00 S
SHB  16.480 1.00 P
SHB  28.830 1.00 S
AZR  18.010 1.00 P
SRB  18.460 1.00 P
SRB  32.310 1.00 S
GRMI 18.750 1.00 P
GRMI 32.820 1.00 S
LRK  41.790 1.00 S
SBZ  41.790 1.00 S
MAKU 32.550 1.00 P
ZRD  60.500 1.00 S
GNI  38.880 1.00 P
ZNJK 40.320 1.00 P
ZNJK 70.220 1.00 S
VANB 43.410 1.00 P
VANB 75.570 1.00 S
# 2012 08 13 03 58 28.900000 38.474 46.876   4.2  2.9 0.0 0.0 0.0        93
TAHR  3.030 1.00 P
TAHR  5.300 1.00 S
TVRZ  3.320 1.00 P
HRS   4.420 1.00 P
HRS   7.730 1.00 S
FTB  11.620 1.00 P
TBZ  11.890 1.00 P
GRMI 16.580 1.00 P
GRMI 29.020 1.00 S
SRB  17.150 1.00 P
SRB  30.010 1.00 S
MRD  17.810 1.00 P
MRD  31.160 1.00 S
SHB  18.900 1.00 P
SHB  33.070 1.00 S
AZR  20.200 1.00 P
AZR  35.340 1.00 S
LRK  21.880 1.00 P
LRK  38.290 1.00 S
HSH  22.740 1.00 P
SBZ  44.820 1.00 S
BRDA 33.180 1.00 P
BRDA 58.070 1.00 S
SAAT 34.180 1.00 P
ZRD  35.100 1.00 P
ZRD  61.390 1.00 S
MAKU 35.400 1.00 P
MAKU 61.940 1.00 S
GANJ 39.390 1.00 P
GNI  41.490 1.00 P
GNI  72.330 1.00 S
VANB 46.610 1.00 P
VANB 81.160 1.00 S
# 2012 08 13 04 15 52.400000 38.397 46.683  19.8  3.7 0.0 0.0 0.0        94
TVRZ  7.370 1.00 S
HRS   6.560 1.00 P
HRS  11.470 1.00 S
TBZ   9.110 1.00 P
TBZ  15.940 1.00 S
BST  23.880 1.00 S
MRD  15.900 1.00 P
MRD  27.830 1.00 S
SHB  15.980 1.00 P
AZR  16.870 1.00 P
AZR  29.520 1.00 S
GRMI 19.350 1.00 P
SBZ  42.940 1.00 S
ASTR 52.350 1.00 S
LKRN 52.720 1.00 S
MAKU 32.620 1.00 P
MAKU 56.890 1.00 S
BRDA 58.410 1.00 S
ZRD  61.660 1.00 S
GNI  68.330 1.00 S
ZNJK 39.590 1.00 P
VANB 74.670 1.00 S
# 2012 08 13 05 22 28.800000 38.394 46.667  19.8  2.6 0.0 0.0 0.0        95
HRS   6.980 1.00 P
HRS  12.220 1.00 S
TABZ  8.650 1.00 P
FTB   8.720 1.00 P
FTB  15.260 1.00 S
TBZ   8.790 1.00 P
BST  13.660 1.00 P
ORD  14.510 1.00 P
ORD  25.400 1.00 S
MRD  15.620 1.00 P
MRD  27.330 1.00 S
SHB  15.680 1.00 P
AZR  16.640 1.00 P
AZR  29.130 1.00 S
SRB  18.360 1.00 P
GRMI 34.300 1.00 S
HSH  21.800 1.00 P
SBZ  42.670 1.00 S
LRK  24.480 1.00 P
LRK  42.840 1.00 S
GLBA 50.620 1.00 S
LKRN 30.430 1.00 P
LKRN 53.230 1.00 S
MAKU 32.410 1.00 P
MAKU 56.530 1.00 S
BRDA 33.610 1.00 P
SAAT 35.100 1.00 P
ZRD  61.900 1.00 S
GANJ 38.560 1.00 P
GANJ 67.160 1.00 S
ZNJK 39.820 1.00 P
VANB 42.640 1.00 P
VANB 74.220 1.00 S
# 2012 08 13 06 58 22.000000 38.452 46.674  17.2  3.2 0.0 0.0 0.0        96
TVRZ  3.360 1.00 P
TVRZ  5.880 1.00 S
TAHR 11.350 1.00 S
HRS   7.010 1.00 P
HRS  12.270 1.00 S
TBZ   9.260 1.00 P
TBZ  16.200 1.00 S
TABZ 16.610 1.00 S
FTB   9.630 1.00 P
ORD  24.590 1.00 S
BST  14.740 1.00 P
MRD  15.500 1.00 P
SHB  16.090 1.00 P
SHB  28.160 1.00 S
AZR  17.670 1.00 P
SRB  18.850 1.00 P
GRMI 19.230 1.00 P
GRMI 33.650 1.00 S
NAX  21.840 1.00 P
HSH  39.930 1.00 S
SBZ  23.890 1.00 P
LRK  24.280 1.00 P
LRK  42.490 1.00 S
GLBA 49.780 1.00 S
ASTR 30.100 1.00 P
MAKU 32.360 1.00 P
BRDA 33.090 1.00 P
SAAT 34.700 1.00 P
ZRD  61.010 1.00 S
GANJ 38.000 1.00 P
GANJ 66.210 1.00 S
ZNJK 40.680 1.00 P
ZNJK 70.860 1.00 S
# 2012 08 13 07 28 30.500000 38.393 46.793  17.0  3.2 0.0 0.0 0.0        97
HRS   5.300 1.00 P
HRS   9.280 1.00 S
TAHR  9.820 1.00 S
TBZ  10.340 1.00 P
TBZ  18.090 1.00 S
BST  13.350 1.00 P
ORD  27.610 1.00 S
SRB  17.020 1.00 P
SRB  29.790 1.00 S
MRD  17.230 1.00 P
MRD  30.150 1.00 S
SHB  17.430 1.00 P
SHB  30.500 1.00 S
GRMI 18.370 1.00 P
AZR  17.790 1.00 P
AZR  31.130 1.00 S
HSH  21.250 1.00 P
NAX  23.560 1.00 P
NAX  41.240 1.00 S
GLBA 27.810 1.00 P
ASTR 28.890 1.00 P
LKRN 29.120 1.00 P
LKRN 50.970 1.00 S
BRDA 58.810 1.00 S
MAKU 33.800 1.00 P
SAAT 34.540 1.00 P
ZRD  35.350 1.00 P
ZRD  61.640 1.00 S
GANJ 39.110 1.00 P
GANJ 68.140 1.00 S
ZNJK 39.120 1.00 P
GNI  70.060 1.00 S
VANB 44.240 1.00 P
# 2012 08 13 07 50 54.300000 38.418 46.661   4.9  2.2 0.0 0.0 0.0        98
TVRZ  1.950 1.00 P
TAHR  6.400 1.00 P
HRS   6.420 1.00 P
TBZ   8.390 1.00 P
TABZ  8.450 1.00 P
FTB   8.590 1.00 P
FTB  15.030 1.00 S
ORD  13.560 1.00 P
BST  14.070 1.00 P
BST  24.610 1.00 S
MRD  15.090 1.00 P
SHB  15.500 1.00 P
SHB  27.130 1.00 S
AZR  16.970 1.00 P
AZR  29.700 1.00 S
SRB  32.840 1.00 S
GRMI 34.650 1.00 S
NAX  21.900 1.00 P
HSH  22.770 1.00 P
SBZ  24.130 1.00 P
SBZ  42.220 1.00 S
ASTR 31.340 1.00 P
MAKU 33.280 1.00 P
MAKU 58.240 1.00 S
BRDA 60.560 1.00 S
SAAT 63.810 1.00 S
ZRD  64.190 1.00 S
GNI  40.310 1.00 P
GNI  70.290 1.00 S
ZNJK 41.960 1.00 P
ZNJK 73.140 1.00 S
VANB 44.200 1.00 P
VANB 77.000 1.00 S
# 2012 08 13 08 16 50.100000 38.438 46.889   4.3  4.0 0.0 0.0 0.0        99
TAHR  4.940 1.00 S
HRS   3.720 1.00 P
HRS   6.500 1.00 S
FTB  19.490 1.00 S
TABZ 19.770 1.00 S
TBZ  11.800 1.00 P
TBZ  20.660 1.00 S
ORD  15.920 1.00 P
SRB  16.450 1.00 P
SRB  28.790 1.00 S
GRMI 16.230 1.00 P
GRMI 28.400 1.00 S
MRD  18.130 1.00 P
MRD  31.730 1.00 S
SHB  19.010 1.00 P
SHB  33.270 1.00 S
AZR  19.730 1.00 P
LRK  21.570 1.00 P
LRK  37.750 1.00 S
HSH  38.750 1.00 S
NAX  24.350 1.00 P
SBZ  26.200 1.00 P
GLBA 26.340 1.00 P
ASTR 27.860 1.00 P
LKRN 28.000 1.00 P
BRDA 33.570 1.00 P
ZRD  35.380 1.00 P
MAKU 35.760 1.00 P
GANJ 39.710 1.00 P
GANJ 69.230 1.00 S
ZNJK 40.570 1.00 P
ZNJK 70.730 1.00 S
GNI  41.790 1.00 P
VANB 81.710 1.00 S
# 2012 08 13 10 28 13.700000 38.443 46.690  10.0  1.9 0.0 0.0 0.0       100
TAHR  5.690 1.00 P
TAHR  9.950 1.00 S
HRS   5.910 1.00 P
HRS  10.330 1.00 S
TBZ   9.050 1.00 P
TBZ  15.840 1.00 S
TABZ  9.120 1.00 P
FTB  16.120 1.00 S
ORD  14.030 1.00 P
MRD  15.630 1.00 P
MRD  27.350 1.00 S
SHB  16.170 1.00 P
SHB  28.310 1.00 S
AZR  17.650 1.00 P
AZR  30.880 1.00 S
NAX  22.390 1.00 P
HSH  22.750 1.00 P
SBZ  24.560 1.00 P
LRK  24.480 1.00 P
ASTR 30.390 1.00 P
ASTR 53.190 1.00 S
LKRN 30.550 1.00 P
LKRN 53.460 1.00 S
MAKU 33.390 1.00 P
MAKU 58.420 1.00 S
SAAT 35.530 1.00 P
SAAT 61.980 1.00 S
ZRD  35.950 1.00 P
ZRD  62.690 1.00 S
GANJ 39.030 1.00 P
GNI  69.720 1.00 S
ZNJK 41.120 1.00 P
VANB 77.020 1.00 S
# 2012 08 13 10 29 31.200000 38.414 46.650   4.1  2.2 0.0 0.0 0.0       101
TVRZ  3.520 1.00 S
HRS   6.590 1.00 P
HRS  11.530 1.00 S
TAHR  6.600 1.00 P
TBZ   8.190 1.00 P
TBZ  14.320 1.00 S
TABZ 14.540 1.00 S
FTB   8.460 1.00 P
BST  14.020 1.00 P
MRD  14.950 1.00 P
SHB  15.250 1.00 P
SHB  26.680 1.00 S
AZR  16.830 1.00 P
SRB  18.870 1.00 P
GRMI 34.990 1.00 S
NAX  21.870 1.00 P
HSH  22.740 1.00 P
HSH  39.790 1.00 S
SBZ  24.120 1.00 P
LRK  25.350 1.00 P
LRK  44.370 1.00 S
GLBA 52.360 1.00 S
ASTR 31.560 1.00 P
ASTR 55.230 1.00 S
LKRN 55.600 1.00 S
MAKU 33.220 1.00 P
BRDA 60.930 1.00 S
SAAT 36.800 1.00 P
ZRD  37.040 1.00 P
GANJ 39.880 1.00 P
GANJ 69.550 1.00 S
ZNJK 42.060 1.00 P
ZNJK 73.320 1.00 S
# 2012 08 13 10 45 44.000000 38.464 46.610  20.0  4.2 0.0 0.0 0.0       102
TAHR 12.910 1.00 S
HRS   8.030 1.00 P
HRS  14.050 1.00 S
TBZ   9.090 1.00 P
FTB  17.240 1.00 S
MRD  14.610 1.00 P
BST  15.240 1.00 P
BST  26.680 1.00 S
SHB  15.350 1.00 P
AZR  17.670 1.00 P
AZR  30.930 1.00 S
SRB  19.730 1.00 P
SRB  34.530 1.00 S
GRMI 19.890 1.00 P
SBZ  40.410 1.00 S
HSH  40.960 1.00 S
LRK  43.740 1.00 S
ASTR 53.690 1.00 S
MAKU 31.470 1.00 P
MAKU 54.910 1.00 S
SAAT 60.620 1.00 S
GNI  38.000 1.00 P
GNI  66.200 1.00 S
ZNJK 41.050 1.00 P
VANB 73.040 1.00 S
# 2012 08 13 11 47 52.300000 38.454 46.864   4.7  1.8 0.0 0.0 0.0       103
TAHR  3.340 1.00 P
TAHR  5.840 1.00 S
TVRZ  3.280 1.00 P
TVRZ  5.750 1.00 S
HRS   4.180 1.00 P
HRS   7.320 1.00 S
FTB  10.660 1.00 P
TABZ 10.800 1.00 P
TABZ 18.900 1.00 S
TBZ  11.300 1.00 P
ORD  15.690 1.00 P
GRMI 29.500 1.00 S
SRB  16.880 1.00 P
SRB  29.540 1.00 S
MRD  17.710 1.00 P
MRD  30.990 1.00 S
SHB  32.380 1.00 S
AZR  19.250 1.00 P
LRK  38.810 1.00 S
HSH  22.240 1.00 P
NAX  24.110 1.00 P
SBZ  26.050 1.00 P
GLBA 26.920 1.00 P
ASTR 49.750 1.00 S
LKRN 28.610 1.00 P
LKRN 50.060 1.00 S
BRDA 33.690 1.00 P
MAKU 61.950 1.00 S
ZRD  35.570 1.00 P
GANJ 69.440 1.00 S
ZNJK 40.770 1.00 P
GNI  72.540 1.00 S
VANB 46.360 1.00 P
# 2012 08 13 12 07 37.300000 38.446 46.591   4.1  2.1 0.0 0.0 0.0       104
TVRZ  2.180 1.00 P
TAHR  7.370 1.00 P
HRS   7.660 1.00 P
HRS  13.400 1.00 S
TBZ   7.650 1.00 P
TBZ  13.380 1.00 S
TABZ  8.300 1.00 P
FTB  15.070 1.00 S
ORD  22.470 1.00 S
MRD  14.080 1.00 P
MRD  24.650 1.00 S
BST  14.650 1.00 P
BST  25.630 1.00 S
SHB  14.630 1.00 P
AZR  16.780 1.00 P
AZR  29.360 1.00 S
SRB  19.830 1.00 P
SRB  34.690 1.00 S
GRMI 36.160 1.00 S
HSH  23.460 1.00 P
LRK  26.190 1.00 P
LRK  45.840 1.00 S
GLBA 30.450 1.00 P
LKRN 32.570 1.00 P
MAKU 32.430 1.00 P
MAKU 56.750 1.00 S
BRDA 34.740 1.00 P
ZRD  37.060 1.00 P
GNI  39.800 1.00 P
GNI  69.400 1.00 S
ZNJK 74.410 1.00 S
VANB 43.510 1.00 P
VANB 75.820 1.00 S
# 2012 08 13 12 45 58.000000 38.439 46.736  20.0  3.9 0.0 0.0 0.0       105
TAHR  6.080 1.00 P
HRS   6.470 1.00 P
HRS  11.320 1.00 S
TABZ 10.180 1.00 P
TABZ 17.810 1.00 S
TBZ  10.120 1.00 P
BST  14.500 1.00 P
BST  25.370 1.00 S
ORD  24.950 1.00 S
MRD  15.990 1.00 P
MRD  27.980 1.00 S
SHB  16.760 1.00 P
SHB  29.330 1.00 S
SRB  18.030 1.00 P
AZR  18.170 1.00 P
AZR  31.790 1.00 S
GRMI 18.220 1.00 P
GRMI 31.880 1.00 S
HSH  22.410 1.00 P
NAX  22.070 1.00 P
NAX  38.620 1.00 S
LRK  40.830 1.00 S
SBZ  24.000 1.00 P
GLBA 27.430 1.00 P
GLBA 48.010 1.00 S
LKRN 29.290 1.00 P
MAKU 32.460 1.00 P
BRDA 56.580 1.00 S
SAAT 33.810 1.00 P
GNI  38.750 1.00 P
GNI  67.500 1.00 S
ZNJK 39.900 1.00 P
ZNJK 69.500 1.00 S
# 2012 08 13 12 53 47.200000 38.433 46.719  12.6  3.2 0.0 0.0 0.0       106
TAHR  5.870 1.00 P
TAHR 10.270 1.00 S
HRS   6.160 1.00 P
HRS  10.770 1.00 S
TABZ 16.850 1.00 S
TBZ   9.510 1.00 P
TBZ  16.640 1.00 S
BST  14.600 1.00 P
BST  25.550 1.00 S
MRD  15.900 1.00 P
SHB  16.540 1.00 P
SHB  28.950 1.00 S
AZR  18.150 1.00 P
SRB  18.600 1.00 P
GRMI 19.100 1.00 P
GRMI 33.430 1.00 S
NAX  22.400 1.00 P
LRK  24.330 1.00 P
LRK  42.580 1.00 S
SBZ  24.350 1.00 P
GLBA 28.420 1.00 P
GLBA 49.740 1.00 S
ASTR 30.150 1.00 P
LKRN 30.300 1.00 P
MAKU 33.080 1.00 P
SAAT 60.920 1.00 S
ZRD  35.320 1.00 P
ZRD  61.590 1.00 S
GANJ 67.220 1.00 S
ZNJK 40.850 1.00 P
ZNJK 71.180 1.00 S
VANB 43.910 1.00 P
VANB 76.450 1.00 S
# 2012 08 13 13 31 40.300000 38.403 46.841  15.4  1.5 0.0 0.0 0.0       107
TVRZ  4.620 1.00 P
HRS   4.420 1.00 P
HRS   7.740 1.00 S
TAHR  4.660 1.00 P
TAHR  8.160 1.00 S
FTB  10.540 1.00 P
FTB  18.440 1.00 S
TBZ  11.500 1.00 P
BST  13.510 1.00 P
SRB  16.420 1.00 P
SRB  28.740 1.00 S
MRD  18.230 1.00 P
MRD  31.900 1.00 S
SHB  18.580 1.00 P
AZR  33.060 1.00 S
HSH  21.270 1.00 P
HSH  37.220 1.00 S
LRK  22.200 1.00 P
LRK  38.850 1.00 S
NAX  24.340 1.00 P
NAX  42.590 1.00 S
SBZ  26.170 1.00 P
ASTR 27.910 1.00 P
ASTR 48.840 1.00 S
LKRN 28.170 1.00 P
LKRN 49.290 1.00 S
BRDA 33.660 1.00 P
SAAT 34.170 1.00 P
ZRD  35.200 1.00 P
ZRD  61.390 1.00 S
ZNJK 38.900 1.00 P
ZNJK 67.790 1.00 S
VANB 78.770 1.00 S
# 2012 08 13 13 57 03.300000 38.439 46.701   4.1  1.8 0.0 0.0 0.0       108
TVRZ  1.580 1.00 P
TAHR  9.370 1.00 S
HRS   5.810 1.00 P
HRS  10.170 1.00 S
TBZ   9.630 1.00 P
TABZ  9.610 1.00 P
FTB  16.920 1.00 S
ORD  13.970 1.00 P
BST  14.500 1.00 P
BST  25.380 1.00 S
MRD  15.880 1.00 P
MRD  27.790 1.00 S
SHB  16.720 1.00 P
SHB  29.250 1.00 S
AZR  18.140 1.00 P
AZR  31.750 1.00 S
SRB  18.360 1.00 P
GRMI 18.630 1.00 P
GRMI 32.600 1.00 S
NAX  22.380 1.00 P
NAX  39.160 1.00 S
HSH  40.300 1.00 S
SBZ  24.430 1.00 P
GLBA 28.510 1.00 P
GLBA 49.890 1.00 S
ASTR 30.470 1.00 P
LKRN 30.570 1.00 P
MAKU 59.270 1.00 S
BRDA 34.050 1.00 P
SAAT 62.370 1.00 S
ZRD  63.190 1.00 S
GNI  40.510 1.00 P
ZNJK 41.830 1.00 P
# 2012 08 13 14 02 42.800000 38.355 46.702  15.3  1.5 0.0 0.0 0.0       109
TVRZ  4.090 1.00 P
TVRZ  7.160 1.00 S
HRS   5.700 1.00 P
HRS   9.970 1.00 S
TAHR  6.440 1.00 P
TAHR 11.260 1.00 S
FTB   8.610 1.00 P
FTB  15.070 1.00 S
TABZ  8.730 1.00 P
TABZ 15.280 1.00 S
TBZ   9.280 1.00 P
BST  12.970 1.00 P
SHB  16.520 1.00 P
SHB  28.910 1.00 S
MRD  16.790 1.00 P
MRD  29.380 1.00 S
AZR  17.060 1.00 P
SRB  17.460 1.00 P
GRMI 19.470 1.00 P
GRMI 34.070 1.00 S
NAX  23.370 1.00 P
LRK  24.200 1.00 P
LRK  42.340 1.00 S
ASTR 52.280 1.00 S
LKRN 30.160 1.00 P
BRDA 34.510 1.00 P
SAAT 62.060 1.00 S
ZRD  36.270 1.00 P
ZNJK 68.850 1.00 S
GANJ 39.480 1.00 P
GANJ 68.790 1.00 S
GNI  70.200 1.00 S
VANB 43.800 1.00 P
# 2012 08 13 15 06 34.400000 38.413 46.676   4.1  2.7 0.0 0.0 0.0       110
TVRZ  2.080 1.00 P
HRS   6.210 1.00 P
HRS  10.870 1.00 S
TAHR  6.220 1.00 P
TBZ   8.910 1.00 P
TBZ  15.600 1.00 S
FTB   9.070 1.00 P
FTB  15.870 1.00 S
BST  13.970 1.00 P
BST  24.440 1.00 S
MRD  15.690 1.00 P
MRD  27.460 1.00 S
SHB  15.920 1.00 P
SHB  27.870 1.00 S
AZR  17.550 1.00 P
AZR  30.710 1.00 S
SRB  32.580 1.00 S
GRMI 34.370 1.00 S
NAX  22.690 1.00 P
NAX  39.710 1.00 S
HSH  22.670 1.00 P
HSH  39.680 1.00 S
SBZ  24.930 1.00 P
LRK  24.900 1.00 P
GLBA 29.660 1.00 P
ASTR 31.080 1.00 P
ASTR 54.400 1.00 S
LKRN 31.310 1.00 P
MAKU 33.940 1.00 P
MAKU 59.400 1.00 S
BRDA 34.780 1.00 P
SAAT 36.650 1.00 P
ZNJK 72.990 1.00 S
# 2012 08 13 15 32 15.700000 38.427 46.786  15.6  2.2 0.0 0.0 0.0       111
TVRZ  3.650 1.00 P
TAHR  5.290 1.00 P
HRS   5.560 1.00 P
HRS   9.740 1.00 S
TABZ 10.300 1.00 P
TBZ  10.450 1.00 P
TBZ  18.290 1.00 S
BST  14.500 1.00 P
ORD  15.100 1.00 P
MRD  16.930 1.00 P
SRB  17.780 1.00 P
SRB  31.110 1.00 S
SHB  17.440 1.00 P
SHB  30.520 1.00 S
AZR  18.580 1.00 P
AZR  32.510 1.00 S
HSH  22.390 1.00 P
HSH  39.180 1.00 S
LRK  23.200 1.00 P
NAX  22.970 1.00 P
NAX  40.190 1.00 S
SBZ  24.830 1.00 P
SBZ  43.450 1.00 S
GLBA 27.500 1.00 P
ASTR 28.980 1.00 P
ASTR 50.720 1.00 S
LKRN 51.050 1.00 S
BRDA 33.130 1.00 P
BRDA 57.800 1.00 S
SAAT 34.170 1.00 P
SAAT 59.600 1.00 S
ZNJK 69.600 1.00 S
VANB 76.990 1.00 S
# 2012 08 13 16 14 40.600000 38.488 46.676  22.0  2.6 0.0 0.0 0.0       112
TAHR  6.690 1.00 P
TAHR 11.710 1.00 S
HRS   7.490 1.00 P
HRS  13.120 1.00 S
TBZ   9.910 1.00 P
TBZ  17.350 1.00 S
FTB  18.630 1.00 S
ORD  13.120 1.00 P
ORD  22.970 1.00 S
MRD  15.000 1.00 P
BST  15.430 1.00 P
BST  27.010 1.00 S
SHB  16.170 1.00 P
SHB  28.300 1.00 S
AZR  18.390 1.00 P
GRMI 18.620 1.00 P
SRB  19.130 1.00 P
NAX  20.930 1.00 P
NAX  36.630 1.00 S
SBZ  22.840 1.00 P
SBZ  39.970 1.00 S
LRK  41.880 1.00 S
ASTR 29.820 1.00 P
ASTR 52.130 1.00 S
LKRN 29.850 1.00 P
MAKU 54.910 1.00 S
BRDA 31.770 1.00 P
ZRD  33.710 1.00 P
GANJ 36.680 1.00 P
GANJ 63.900 1.00 S
GNI  65.670 1.00 S
ZNJK 40.600 1.00 P
VANB 42.490 1.00 P
# 2012 08 13 16 31 48.900000 38.415 46.686   4.1  1.6 0.0 0.0 0.0       113
TVRZ  3.570 1.00 S
HRS   6.040 1.00 P
TAHR  5.860 1.00 P
TAHR 10.260 1.00 S
TABZ  9.090 1.00 P
TBZ   9.080 1.00 P
TBZ  15.890 1.00 S
BST  14.010 1.00 P
BST  24.520 1.00 S
ORD  14.420 1.00 P
ORD  25.230 1.00 S
MRD  15.860 1.00 P
MRD  27.760 1.00 S
SHB  16.120 1.00 P
SRB  18.510 1.00 P
HSH  22.700 1.00 P
LRK  24.660 1.00 P
LRK  43.150 1.00 S
SBZ  24.960 1.00 P
SBZ  43.680 1.00 S
GLBA 29.240 1.00 P
ASTR 30.870 1.00 P
ASTR 54.030 1.00 S
LKRN 31.080 1.00 P
LKRN 54.400 1.00 S
MAKU 34.060 1.00 P
BRDA 60.760 1.00 S
SAAT 36.560 1.00 P
SAAT 63.830 1.00 S
ZRD  64.390 1.00 S
GNI  40.880 1.00 P
VANB 44.760 1.00 P
VANB 77.980 1.00 S
# 2012 08 13 17 08 41.800000 38.436 46.678   4.6  2.8 0.0 0.0 0.0       114
TVRZ  1.550 1.00 P
TAHR  5.820 1.00 P
HRS   6.210 1.00 P
HRS  10.870 1.00 S
TBZ   8.980 1.00 P
TBZ  15.710 1.00 S
FTB   9.380 1.00 P
FTB  16.410 1.00 S
BST  14.440 1.00 P
MRD  15.210 1.00 P
MRD  26.620 1.00 S
SHB  15.970 1.00 P
SHB  27.950 1.00 S
AZR  17.780 1.00 P
SRB  18.700 1.00 P
SRB  32.720 1.00 S
GRMI 19.060 1.00 P
GRMI 33.360 1.00 S
HSH  23.080 1.00 P
SBZ  42.110 1.00 S
LRK  43.050 1.00 S
GLBA 28.930 1.00 P
ASTR 30.920 1.00 P
ASTR 54.100 1.00 S
LKRN 31.020 1.00 P
BRDA 59.670 1.00 S
SAAT 36.000 1.00 P
SAAT 62.890 1.00 S
GANJ 39.320 1.00 P
GANJ 68.560 1.00 S
GNI  40.210 1.00 P
ZNJK 42.040 1.00 P
VANB 77.620 1.00 S
# 2012 08 13 18 31 10.900000 38.416 46.784   4.1  1.9 0.0 0.0 0.0       115
TVRZ  2.890 1.00 P
TAHR  4.270 1.00 P
HRS   4.350 1.00 P
HRS   7.610 1.00 S
FTB   9.830 1.00 P
TABZ  9.950 1.00 P
TABZ 17.420 1.00 S
TBZ  10.420 1.00 P
TBZ  18.230 1.00 S
BST  13.570 1.00 P
BST  23.750 1.00 S
ORD  15.340 1.00 P
ORD  26.840 1.00 S
MRD  17.190 1.00 P
MRD  30.090 1.00 S
SRB  16.950 1.00 P
SRB  29.660 1.00 S
SHB  17.610 1.00 P
SHB  30.820 1.00 S
AZR  18.400 1.00 P
AZR  32.210 1.00 S
GLBA 27.820 1.00 P
GLBA 48.690 1.00 S
ASTR 51.040 1.00 S
BRDA 34.330 1.00 P
BRDA 60.070 1.00 S
ZRD  36.240 1.00 P
GANJ 40.050 1.00 P
GANJ 69.840 1.00 S
ZNJK 40.830 1.00 P
GNI  41.510 1.00 P
VANB 45.920 1.00 P
VANB 79.980 1.00 S
