# 2012 08 12 07 36 35.600000 38.449 46.778  15.2  2.7 0.0 0.0 0.0        59
TVRZ  3.680 1.00 P
TVRZ  6.440 1.00 S
HRS   5.300 1.00 P
HRS   9.280 1.00 S
FTB  10.470 1.00 P
TABZ 10.550 1.00 P
TBZ  10.900 1.00 P
TBZ  19.080 1.00 S
BST  25.180 1.00 S
ORD  26.890 1.00 S
MRD  17.220 1.00 P
MRD  30.130 1.00 S
SHB  17.940 1.00 P
SHB  31.400 1.00 S
SRB  17.530 1.00 P
SRB  30.680 1.00 S
GRMI 17.890 1.00 P
AZR  18.820 1.00 P
AZR  32.940 1.00 S
LRK  22.840 1.00 P
ASTR 28.640 1.00 P
ASTR 50.120 1.00 S
LKRN 28.800 1.00 P
BRDA 57.990 1.00 S
MAKU 33.790 1.00 P
SAAT 34.060 1.00 P
SAAT 59.400 1.00 S
ZRD  60.740 1.00 S
GANJ 38.540 1.00 P
GNI  39.970 1.00 P
ZNJK 39.750 1.00 P
VANB 44.560 1.00 P
# 2012 08 12 08 01 20.000000 38.417 46.819  21.6  2.9 0.0 0.0 0.0        60
TVRZ  4.960 1.00 P
TAHR  9.650 1.00 S
HRS   5.580 1.00 P
HRS   9.770 1.00 S
FTB  10.710 1.00 P
FTB  18.740 1.00 S
TABZ 10.830 1.00 P
TBZ  11.190 1.00 P
TBZ  19.580 1.00 S
BST  13.860 1.00 P
BST  24.260 1.00 S
ORD  15.880 1.00 P
ORD  27.790 1.00 S
MRD  17.540 1.00 P
MRD  30.690 1.00 S
GRMI 17.650 1.00 P
SHB  17.880 1.00 P
SHB  31.290 1.00 S
AZR  18.680 1.00 P
AZR  32.690 1.00 S
HSH  21.620 1.00 P
LRK  22.400 1.00 P
SBZ  25.550 1.00 P
SBZ  44.720 1.00 S
ASTR 28.120 1.00 P
BRDA 32.590 1.00 P
SAAT 33.560 1.00 P
ZRD  34.270 1.00 P
ZRD  59.750 1.00 S
ZNJK 67.720 1.00 S
GNI  69.380 1.00 S
VANB 44.180 1.00 P
# 2012 08 12 08 03 43.800000 38.428 46.752  17.9  2.1 0.0 0.0 0.0        61
TAHR  5.660 1.00 P
HRS   5.930 1.00 P
HRS  10.380 1.00 S
FTB  10.240 1.00 P
FTB  17.920 1.00 S
TBZ  10.340 1.00 P
TBZ  18.090 1.00 S
BST  25.100 1.00 S
ORD  14.730 1.00 P
MRD  16.470 1.00 P
MRD  28.830 1.00 S
SHB  17.090 1.00 P
SHB  29.910 1.00 S
SRB  17.850 1.00 P
AZR  18.350 1.00 P
AZR  32.110 1.00 S
GRMI 18.140 1.00 P
GRMI 31.750 1.00 S
HSH  38.980 1.00 S
NAX  22.570 1.00 P
LRK  23.200 1.00 P
ASTR 29.030 1.00 P
ASTR 50.800 1.00 S
LKRN 51.040 1.00 S
MAKU 57.910 1.00 S
BRDA 32.870 1.00 P
ZRD  34.620 1.00 P
GANJ 38.070 1.00 P
GNI  39.420 1.00 P
GNI  68.680 1.00 S
ZNJK 39.830 1.00 P
ZNJK 69.370 1.00 S
VANB 43.840 1.00 P
# 2012 08 12 10 15 33.400000 38.422 46.750  19.8  3.3 0.0 0.0 0.0        62
TVRZ  7.430 1.00 S
TAHR  5.920 1.00 P
TAHR 10.360 1.00 S
HRS   6.080 1.00 P
HRS  10.640 1.00 S
FTB  10.180 1.00 P
TABZ 10.200 1.00 P
TABZ 17.860 1.00 S
TBZ  10.310 1.00 P
BST  14.130 1.00 P
BST  24.730 1.00 S
ORD  14.680 1.00 P
ORD  25.690 1.00 S
MRD  16.400 1.00 P
MRD  28.690 1.00 S
SHB  16.980 1.00 P
SHB  29.720 1.00 S
SRB  31.070 1.00 S
AZR  18.180 1.00 P
GRMI 18.150 1.00 P
HSH  22.060 1.00 P
HSH  38.600 1.00 S
NAX  22.500 1.00 P
NAX  39.380 1.00 S
SBZ  42.770 1.00 S
ASTR 29.010 1.00 P
ASTR 50.760 1.00 S
LKRN 51.030 1.00 S
MAKU 33.080 1.00 P
SAAT 34.080 1.00 P
GANJ 38.010 1.00 P
ZNJK 39.600 1.00 P
VANB 43.600 1.00 P
# 2012 08 12 10 29 27.900000 38.404 46.650  10.0  2.0 0.0 0.0 0.0        63
TVRZ  2.840 1.00 P
TVRZ  4.970 1.00 S
HRS   6.620 1.00 P
HRS  11.580 1.00 S
TAHR  6.700 1.00 P
TBZ   8.150 1.00 P
TABZ  8.150 1.00 P
FTB   8.270 1.00 P
FTB  14.480 1.00 S
BST  13.800 1.00 P
BST  24.150 1.00 S
ORD  24.060 1.00 S
MRD  15.050 1.00 P
SHB  15.270 1.00 P
AZR  16.660 1.00 P
GRMI 20.090 1.00 P
GRMI 35.150 1.00 S
NAX  22.040 1.00 P
SBZ  24.330 1.00 P
LRK  44.470 1.00 S
GLBA 29.840 1.00 P
GLBA 52.210 1.00 S
LKRN 31.450 1.00 P
LKRN 55.030 1.00 S
BRDA 60.610 1.00 S
SAAT 63.330 1.00 S
ZRD  36.640 1.00 P
GANJ 39.550 1.00 P
GANJ 68.940 1.00 S
GNI  39.890 1.00 P
GNI  69.530 1.00 S
ZNJK 71.890 1.00 S
VANB 43.450 1.00 P
# 2012 08 12 11 21 16.200000 38.423 46.707  19.6  2.2 0.0 0.0 0.0        64
TVRZ  3.950 1.00 P
HRS   6.370 1.00 P
HRS  11.140 1.00 S
TABZ  9.780 1.00 P
FTB  17.130 1.00 S
TBZ   9.870 1.00 P
BST  14.350 1.00 P
ORD  14.570 1.00 P
ORD  25.500 1.00 S
MRD  16.190 1.00 P
MRD  28.340 1.00 S
SHB  16.590 1.00 P
SHB  29.020 1.00 S
AZR  17.770 1.00 P
AZR  31.100 1.00 S
SRB  18.070 1.00 P
SRB  31.630 1.00 S
GRMI 18.610 1.00 P
NAX  22.380 1.00 P
SBZ  24.320 1.00 P
SBZ  42.550 1.00 S
ASTR 51.440 1.00 S
LKRN 51.750 1.00 S
MAKU 57.070 1.00 S
BRDA 32.890 1.00 P
SAAT 34.130 1.00 P
SAAT 59.530 1.00 S
ZRD  34.640 1.00 P
GANJ 66.120 1.00 S
GNI  39.030 1.00 P
GNI  67.990 1.00 S
ZNJK 39.850 1.00 P
VANB 43.330 1.00 P
# 2012 08 12 11 51 31.500000 38.400 46.798  15.3  3.3 0.0 0.0 0.0        65
TVRZ  4.180 1.00 P
TVRZ  7.320 1.00 S
HRS   5.170 1.00 P
HRS   9.040 1.00 S
TAHR  9.310 1.00 S
FTB   9.710 1.00 P
FTB  16.980 1.00 S
TBZ  10.450 1.00 P
TBZ  18.290 1.00 S
BST  13.490 1.00 P
ORD  27.910 1.00 S
SRB  30.190 1.00 S
MRD  17.410 1.00 P
SHB  17.640 1.00 P
GRMI 18.330 1.00 P
GRMI 32.070 1.00 S
AZR  18.090 1.00 P
AZR  31.660 1.00 S
NAX  23.740 1.00 P
SBZ  25.740 1.00 P
SBZ  45.040 1.00 S
GLBA 27.750 1.00 P
GLBA 48.570 1.00 S
ASTR 28.850 1.00 P
ASTR 50.480 1.00 S
BRDA 33.770 1.00 P
MAKU 34.040 1.00 P
SAAT 34.610 1.00 P
ZRD  35.390 1.00 P
ZNJK 39.410 1.00 P
ZNJK 68.670 1.00 S
VANB 44.480 1.00 P
VANB 77.420 1.00 S
# 2012 08 12 14 19 08.800000 38.420 46.799  18.9  3.1 0.0 0.0 0.0        66
TVRZ  4.340 1.00 P
TVRZ  7.590 1.00 S
TAHR  5.480 1.00 P
HRS   5.590 1.00 P
HRS   9.780 1.00 S
FTB  18.460 1.00 S
TABZ 10.600 1.00 P
TABZ 18.550 1.00 S
TBZ  10.790 1.00 P
TBZ  18.880 1.00 S
BST  13.960 1.00 P
ORD  15.220 1.00 P
ORD  26.630 1.00 S
SRB  17.270 1.00 P
MRD  17.010 1.00 P
SHB  17.510 1.00 P
SHB  30.650 1.00 S
GRMI 17.960 1.00 P
AZR  18.610 1.00 P
LRK  39.910 1.00 S
SBZ  24.910 1.00 P
SBZ  43.590 1.00 S
ASTR 49.950 1.00 S
LKRN 50.350 1.00 S
BRDA 32.840 1.00 P
MAKU 33.390 1.00 P
SAAT 33.850 1.00 P
ZRD  34.510 1.00 P
GANJ 66.630 1.00 S
ZNJK 39.320 1.00 P
ZNJK 68.500 1.00 S
GNI  69.000 1.00 S
VANB 44.080 1.00 P
# 2012 08 12 15 15 10.000000 38.431 46.858  15.0  2.1 0.0 0.0 0.0        67
HRS   4.840 1.00 P
TABZ 11.060 1.00 P
TABZ 19.360 1.00 S
TBZ  11.460 1.00 P
BST  14.360 1.00 P
BST  25.140 1.00 S
GRMI 17.350 1.00 P
MRD  17.870 1.00 P
SHB  18.490 1.00 P
SHB  32.350 1.00 S
AZR  19.320 1.00 P
LRK  22.310 1.00 P
LRK  39.040 1.00 S
NAX  41.540 1.00 S
SBZ  25.500 1.00 P
SBZ  44.620 1.00 S
GLBA 26.690 1.00 P
GLBA 46.700 1.00 S
ASTR 28.100 1.00 P
ASTR 49.170 1.00 S
LKRN 28.280 1.00 P
LKRN 49.490 1.00 S
BRDA 32.960 1.00 P
BRDA 57.540 1.00 S
SAAT 33.670 1.00 P
SAAT 58.730 1.00 S
MAKU 34.190 1.00 P
ZRD  34.510 1.00 P
ZRD  60.190 1.00 S
GANJ 38.530 1.00 P
GANJ 67.150 1.00 S
ZNJK 68.880 1.00 S
VANB 45.120 1.00 P
# 2012 08 12 15 59 25.400000 38.450 46.811  14.5  2.5 0.0 0.0 0.0        68
TVRZ  3.720 1.00 P
TVRZ  6.510 1.00 S
TAHR  4.660 1.00 P
TAHR  8.150 1.00 S
HRS   5.270 1.00 P
HRS   9.220 1.00 S
FTB  10.540 1.00 P
TBZ  10.940 1.00 P
TBZ  19.140 1.00 S
BST  14.290 1.00 P
BST  25.010 1.00 S
ORD  27.190 1.00 S
MRD  17.390 1.00 P
MRD  30.440 1.00 S
SRB  17.490 1.00 P
SRB  30.610 1.00 S
SHB  18.060 1.00 P
SHB  31.610 1.00 S
AZR  18.960 1.00 P
AZR  33.190 1.00 S
HSH  22.280 1.00 P
HSH  38.990 1.00 S
LRK  22.660 1.00 P
ASTR 49.810 1.00 S
LKRN 28.630 1.00 P
LKRN 50.100 1.00 S
BRDA 33.100 1.00 P
SAAT 34.070 1.00 P
MAKU 33.970 1.00 P
ZRD  60.660 1.00 S
GANJ 38.590 1.00 P
GNI  40.150 1.00 P
VANB 44.730 1.00 P
# 2012 08 12 17 18 30.600000 38.460 46.744  19.4  2.1 0.0 0.0 0.0        69
TVRZ  3.920 1.00 P
TVRZ  6.860 1.00 S
TAHR  5.770 1.00 P
HRS   6.510 1.00 P
HRS  11.390 1.00 S
TBZ  10.260 1.00 P
TBZ  17.950 1.00 S
TABZ 10.230 1.00 P
FTB  10.280 1.00 P
ORD  14.630 1.00 P
BST  14.690 1.00 P
MRD  16.290 1.00 P
MRD  28.510 1.00 S
SHB  16.960 1.00 P
SHB  29.690 1.00 S
SRB  32.050 1.00 S
GRMI 31.950 1.00 S
AZR  18.240 1.00 P
NAX  22.440 1.00 P
NAX  39.280 1.00 S
LRK  40.700 1.00 S
SBZ  24.360 1.00 P
GLBA 27.520 1.00 P
ASTR 50.870 1.00 S
LKRN 29.220 1.00 P
MAKU 57.120 1.00 S
SAAT 59.050 1.00 S
ZRD  34.290 1.00 P
ZRD  59.800 1.00 S
GANJ 37.680 1.00 P
GNI  39.050 1.00 P
VANB 43.450 1.00 P
# 2012 08 12 18 44 22.100000 38.411 46.843  18.1  2.1 0.0 0.0 0.0        70
TVRZ  4.820 1.00 P
TVRZ  8.440 1.00 S
HRS   4.790 1.00 P
HRS   8.380 1.00 S
FTB  10.740 1.00 P
TBZ  11.560 1.00 P
TBZ  20.240 1.00 S
BST  23.980 1.00 S
ORD  16.250 1.00 P
SRB  16.360 1.00 P
GRMI 17.120 1.00 P
GRMI 29.970 1.00 S
MRD  18.020 1.00 P
MRD  31.540 1.00 S
SHB  18.400 1.00 P
SHB  32.200 1.00 S
AZR  18.870 1.00 P
AZR  33.010 1.00 S
LRK  21.940 1.00 P
NAX  42.150 1.00 S
GLBA 26.550 1.00 P
GLBA 46.460 1.00 S
LKRN 27.910 1.00 P
BRDA 33.110 1.00 P
SAAT 58.580 1.00 S
MAKU 34.260 1.00 P
MAKU 59.740 1.00 S
ZRD  34.590 1.00 P
ZNJK 38.760 1.00 P
GNI  40.390 1.00 P
GNI  70.350 1.00 S
VANB 44.940 1.00 P
# 2012 08 12 18 46 40.200000 38.398 46.835  15.6  2.0 0.0 0.0 0.0        71
TVRZ  4.630 1.00 P
TVRZ  8.100 1.00 S
HRS   4.480 1.00 P
HRS   7.830 1.00 S
TABZ 10.660 1.00 P
TBZ  11.380 1.00 P
TBZ  19.910 1.00 S
BST  13.390 1.00 P
SRB  16.410 1.00 P
GRMI 30.870 1.00 S
MRD  18.060 1.00 P
MRD  31.610 1.00 S
SHB  18.390 1.00 P
SHB  32.180 1.00 S
AZR  18.760 1.00 P
HSH  37.100 1.00 S
LRK  22.320 1.00 P
LRK  39.060 1.00 S
ASTR 49.060 1.00 S
LKRN 28.290 1.00 P
BRDA 33.730 1.00 P
BRDA 58.830 1.00 S
SAAT 34.240 1.00 P
MAKU 34.570 1.00 P
MAKU 60.280 1.00 S
ZRD  35.260 1.00 P
ZRD  61.490 1.00 S
ZNJK 38.870 1.00 P
GANJ 39.210 1.00 P
GANJ 68.310 1.00 S
GNI  40.810 1.00 P
VANB 45.130 1.00 P
# 2012 08 12 19 28 04.700000 38.437 46.814  21.0  1.7 0.0 0.0 0.0        72
TVRZ  4.580 1.00 P
TVRZ  8.020 1.00 S
TAHR  5.300 1.00 P
HRS   5.740 1.00 P
HRS  10.040 1.00 S
FTB  10.830 1.00 P
FTB  18.950 1.00 S
TBZ  11.130 1.00 P
TBZ  19.480 1.00 S
ORD  15.120 1.00 P
SRB  17.170 1.00 P
MRD  17.030 1.00 P
MRD  29.800 1.00 S
GRMI 30.080 1.00 S
SHB  17.810 1.00 P
SHB  31.160 1.00 S
AZR  18.800 1.00 P
HSH  22.000 1.00 P
NAX  40.160 1.00 S
SBZ  24.770 1.00 P
GLBA 26.500 1.00 P
GLBA 46.370 1.00 S
ASTR 28.080 1.00 P
LKRN 28.190 1.00 P
BRDA 32.220 1.00 P
BRDA 56.180 1.00 S
SAAT 33.130 1.00 P
SAAT 57.770 1.00 S
MAKU 57.880 1.00 S
GANJ 37.690 1.00 P
GNI  68.460 1.00 S
VANB 44.140 1.00 P
# 2012 08 12 19 29 56.500000 38.422 46.780  19.7  2.1 0.0 0.0 0.0        73
TVRZ  4.400 1.00 P
TAHR  5.380 1.00 P
TAHR  9.410 1.00 S
HRS   5.570 1.00 P
FTB  10.340 1.00 P
FTB  18.090 1.00 S
TABZ 18.250 1.00 S
TBZ  10.780 1.00 P
TBZ  18.860 1.00 S
BST  13.940 1.00 P
MRD  17.100 1.00 P
SHB  17.530 1.00 P
SHB  30.680 1.00 S
GRMI 30.970 1.00 S
AZR  18.360 1.00 P
HSH  21.670 1.00 P
LRK  39.590 1.00 S
SBZ  24.990 1.00 P
GLBA 27.010 1.00 P
GLBA 47.270 1.00 S
ASTR 28.390 1.00 P
ASTR 49.680 1.00 S
LKRN 50.030 1.00 S
BRDA 32.720 1.00 P
MAKU 58.220 1.00 S
SAAT 33.570 1.00 P
SAAT 58.540 1.00 S
ZRD  59.840 1.00 S
GANJ 38.100 1.00 P
ZNJK 39.200 1.00 P
GNI  39.560 1.00 P
GNI  68.910 1.00 S
VANB 44.100 1.00 P
# 2012 08 12 20 04 31.000000 38.494 46.766  18.4  1.8 0.0 0.0 0.0        74
TVRZ  3.820 1.00 P
TVRZ  6.690 1.00 S
TAHR  5.260 1.00 P
TAHR  9.210 1.00 S
HRS   6.070 1.00 P
HRS  10.620 1.00 S
TBZ  11.110 1.00 P
FTB  11.020 1.00 P
FTB  19.280 1.00 S
MRD  16.550 1.00 P
MRD  28.970 1.00 S
SHB  17.740 1.00 P
SHB  31.040 1.00 S
SRB  17.970 1.00 P
AZR  19.050 1.00 P
AZR  33.340 1.00 S
NAX  39.210 1.00 S
LRK  22.790 1.00 P
HSH  22.820 1.00 P
HSH  39.930 1.00 S
SBZ  24.190 1.00 P
GLBA 26.810 1.00 P
LKRN 28.750 1.00 P
LKRN 50.310 1.00 S
BRDA 32.220 1.00 P
BRDA 56.210 1.00 S
MAKU 33.040 1.00 P
SAAT 33.350 1.00 P
ZRD  59.150 1.00 S
GANJ 37.450 1.00 P
GANJ 65.260 1.00 S
ZNJK 39.960 1.00 P
ZNJK 69.600 1.00 S
# 2012 08 12 20 09 35.500000 38.419 46.877  16.6  2.2 0.0 0.0 0.0        75
TAHR  4.500 1.00 P
TAHR  7.870 1.00 S
HRS   4.640 1.00 P
HRS   8.120 1.00 S
TVRZ  4.750 1.00 P
TVRZ  8.310 1.00 S
FTB  11.250 1.00 P
FTB  19.690 1.00 S
TBZ  11.870 1.00 P
TBZ  20.780 1.00 S
BST  13.850 1.00 P
ORD  16.240 1.00 P
SRB  16.630 1.00 P
SRB  29.100 1.00 S
GRMI 17.140 1.00 P
GRMI 30.000 1.00 S
MRD  18.180 1.00 P
MRD  31.820 1.00 S
SHB  18.720 1.00 P
SHB  32.770 1.00 S
AZR  19.450 1.00 P
NAX  42.160 1.00 S
SBZ  25.860 1.00 P
ASTR 27.540 1.00 P
ASTR 48.200 1.00 S
BRDA 57.530 1.00 S
MAKU 34.530 1.00 P
ZRD  34.490 1.00 P
GANJ 38.680 1.00 P
GANJ 67.410 1.00 S
GNI  40.610 1.00 P
VANB 45.230 1.00 P
# 2012 08 12 20 11 02.200000 38.428 46.686  12.7  1.9 0.0 0.0 0.0        76
TVRZ  2.770 1.00 P
TVRZ  4.850 1.00 S
HRS   6.290 1.00 P
HRS  11.000 1.00 S
TBZ   9.290 1.00 P
TBZ  16.260 1.00 S
TABZ  9.470 1.00 P
FTB   9.550 1.00 P
ORD  14.070 1.00 P
MRD  15.720 1.00 P
MRD  27.520 1.00 S
SHB  16.280 1.00 P
SHB  28.490 1.00 S
AZR  31.500 1.00 S
GRMI 33.660 1.00 S
NAX  22.420 1.00 P
HSH  23.000 1.00 P
SBZ  24.450 1.00 P
SBZ  42.790 1.00 S
GLBA 28.580 1.00 P
GLBA 50.020 1.00 S
LKRN 30.400 1.00 P
LKRN 53.210 1.00 S
MAKU 33.120 1.00 P
MAKU 57.930 1.00 S
BRDA 33.620 1.00 P
BRDA 58.700 1.00 S
SAAT 35.200 1.00 P
GANJ 38.570 1.00 P
ZNJK 40.930 1.00 P
ZNJK 71.300 1.00 S
VANB 43.770 1.00 P
# 2012 08 12 21 26 31.800000 38.393 46.677  10.1  2.2 0.0 0.0 0.0        77
TVRZ  2.970 1.00 P
TVRZ  5.200 1.00 S
HRS   5.920 1.00 P
TAHR 10.960 1.00 S
FTB   8.340 1.00 P
FTB  14.590 1.00 S
TBZ   8.500 1.00 P
TBZ  14.870 1.00 S
ORD  14.540 1.00 P
ORD  25.450 1.00 S
MRD  15.760 1.00 P
SHB  15.810 1.00 P
AZR  29.370 1.00 S
SRB  17.970 1.00 P
GRMI 34.440 1.00 S
HSH  22.020 1.00 P
LRK  24.920 1.00 P
LRK  43.600 1.00 S
SBZ  43.990 1.00 S
GLBA 29.530 1.00 P
GLBA 51.670 1.00 S
ASTR 30.740 1.00 P
MAKU 58.750 1.00 S
BRDA 34.770 1.00 P
SAAT 36.180 1.00 P
ZRD  36.630 1.00 P
ZRD  63.870 1.00 S
GANJ 39.700 1.00 P
GANJ 69.190 1.00 S
GNI  40.380 1.00 P
GNI  70.370 1.00 S
ZNJK 40.850 1.00 P
VANB 43.970 1.00 P
# 2012 08 12 21 33 17.800000 38.457 46.805   5.8  3.1 0.0 0.0 0.0        78
TAHR  4.050 1.00 P
HRS   4.950 1.00 P
HRS   8.670 1.00 S
TABZ 10.240 1.00 P
TBZ  10.540 1.00 P
TBZ  18.450 1.00 S
BST  14.220 1.00 P
MRD  16.970 1.00 P
MRD  29.690 1.00 S
GRMI 17.530 1.00 P
SHB  17.720 1.00 P
SHB  31.010 1.00 S
AZR  18.730 1.00 P
AZR  32.790 1.00 S
HSH  39.520 1.00 S
LRK  40.040 1.00 S
NAX  23.470 1.00 P
NAX  41.070 1.00 S
SBZ  44.570 1.00 S
GLBA 27.540 1.00 P
ASTR 29.140 1.00 P
LKRN 29.310 1.00 P
LKRN 51.290 1.00 S
MAKU 34.760 1.00 P
MAKU 60.790 1.00 S
SAAT 34.930 1.00 P
ZRD  35.670 1.00 P
GANJ 39.480 1.00 P
ZNJK 41.140 1.00 P
ZNJK 71.710 1.00 S
GNI  41.090 1.00 P
GNI  71.620 1.00 S
VANB 79.490 1.00 S
# 2012 08 12 22 01 15.900000 38.438 46.708  14.7  2.4 0.0 0.0 0.0        79
TVRZ  3.040 1.00 P
TVRZ  5.320 1.00 S
TAHR  5.690 1.00 P
HRS   6.120 1.00 P
HRS  10.710 1.00 S
TBZ   9.990 1.00 P
TBZ  17.490 1.00 S
TABZ  9.990 1.00 P
FTB  10.040 1.00 P
FTB  17.570 1.00 S
BST  14.770 1.00 P
MRD  16.260 1.00 P
MRD  28.460 1.00 S
SHB  17.030 1.00 P
SHB  29.810 1.00 S
AZR  18.410 1.00 P
SRB  18.430 1.00 P
NAX  22.380 1.00 P
NAX  39.160 1.00 S
HSH  39.910 1.00 S
LRK  41.650 1.00 S
SBZ  24.290 1.00 P
SBZ  42.510 1.00 S
GLBA 27.870 1.00 P
ASTR 29.660 1.00 P
ASTR 51.900 1.00 S
LKRN 29.760 1.00 P
LKRN 52.080 1.00 S
MAKU 33.040 1.00 P
ZRD  34.890 1.00 P
GNI  39.310 1.00 P
ZNJK 70.500 1.00 S
# 2012 08 12 22 05 43.000000 38.429 46.803  16.5  2.2 0.0 0.0 0.0        80
TVRZ  3.970 1.00 P
TVRZ  6.950 1.00 S
TAHR  5.200 1.00 P
HRS   5.440 1.00 P
HRS   9.510 1.00 S
FTB  10.620 1.00 P
TABZ 10.670 1.00 P
TBZ  10.870 1.00 P
TBZ  19.020 1.00 S
BST  25.090 1.00 S
MRD  17.130 1.00 P
MRD  29.970 1.00 S
GRMI 31.500 1.00 S
SHB  17.740 1.00 P
SHB  31.050 1.00 S
AZR  18.830 1.00 P
HSH  22.170 1.00 P
HSH  38.800 1.00 S
SBZ  24.960 1.00 P
SBZ  43.670 1.00 S
GLBA 27.320 1.00 P
ASTR 28.630 1.00 P
ASTR 50.110 1.00 S
LKRN 28.860 1.00 P
BRDA 32.910 1.00 P
BRDA 57.410 1.00 S
MAKU 33.620 1.00 P
SAAT 33.950 1.00 P
SAAT 59.200 1.00 S
ZRD  34.570 1.00 P
ZNJK 69.180 1.00 S
GNI  39.780 1.00 P
# 2012 08 12 22 45 49.200000 38.428 46.729  15.8  1.9 0.0 0.0 0.0        81
TVRZ  3.460 1.00 P
TVRZ  6.050 1.00 S
TAHR  6.040 1.00 P
HRS   6.230 1.00 P
HRS  10.900 1.00 S
TABZ  9.920 1.00 P
TBZ   9.840 1.00 P
TBZ  17.220 1.00 S
BST  25.330 1.00 S
ORD  14.500 1.00 P
MRD  16.220 1.00 P
MRD  28.390 1.00 S
SHB  16.770 1.00 P
SHB  29.350 1.00 S
SRB  18.350 1.00 P
SRB  32.110 1.00 S
AZR  18.220 1.00 P
GRMI 18.970 1.00 P
HSH  22.550 1.00 P
LRK  23.990 1.00 P
LRK  41.980 1.00 S
GLBA 49.330 1.00 S
ASTR 29.770 1.00 P
LKRN 29.960 1.00 P
MAKU 32.960 1.00 P
MAKU 57.540 1.00 S
BRDA 33.170 1.00 P
SAAT 34.560 1.00 P
SAAT 60.280 1.00 S
ZRD  60.970 1.00 S
GANJ 38.290 1.00 P
ZNJK 70.260 1.00 S
# 2012 08 12 22 57 07.600000 38.486 46.901  19.6  2.8 0.0 0.0 0.0        82
TAHR  4.210 1.00 P
TVRZ  5.130 1.00 P
TVRZ  8.980 1.00 S
HRS   5.420 1.00 P
HRS   9.480 1.00 S
FTB  12.280 1.00 P
FTB  21.490 1.00 S
TABZ 12.390 1.00 P
TABZ 21.690 1.00 S
TBZ  12.660 1.00 P
TBZ  22.160 1.00 S
GRMI 15.790 1.00 P
GRMI 27.620 1.00 S
SRB  16.970 1.00 P
MRD  18.330 1.00 P
MRD  32.070 1.00 S
SHB  19.220 1.00 P
SHB  33.640 1.00 S
AZR  20.300 1.00 P
HSH  39.520 1.00 S
NAX  41.910 1.00 S
GLBA 25.060 1.00 P
SBZ  25.480 1.00 P
SBZ  44.600 1.00 S
ASTR 26.830 1.00 P
BRDA 31.620 1.00 P
SAAT 32.110 1.00 P
SAAT 56.030 1.00 S
ZRD  33.090 1.00 P
ZRD  57.690 1.00 S
MAKU 34.150 1.00 P
ZNJK 39.180 1.00 P
ZNJK 68.250 1.00 S
# 2012 08 12 23 02 03.900000 38.388 46.846  19.9  2.7 0.0 0.0 0.0        83
HRS   4.680 1.00 P
HRS   8.190 1.00 S
TVRZ  5.280 1.00 P
TVRZ  9.230 1.00 S
TAHR  5.130 1.00 P
FTB  18.000 1.00 S
TABZ 10.540 1.00 P
TABZ 18.440 1.00 S
TBZ  11.460 1.00 P
TBZ  20.060 1.00 S
BST  22.870 1.00 S
SRB  15.840 1.00 P
SRB  27.720 1.00 S
ORD  16.510 1.00 P
MRD  18.180 1.00 P
MRD  31.820 1.00 S
SHB  18.430 1.00 P
SHB  32.250 1.00 S
AZR  18.320 1.00 P
AZR  32.070 1.00 S
HSH  20.670 1.00 P
NAX  24.320 1.00 P
SBZ  26.190 1.00 P
SBZ  45.840 1.00 S
ASTR 27.650 1.00 P
ASTR 48.380 1.00 S
LKRN 27.900 1.00 P
BRDA 33.370 1.00 P
MAKU 34.320 1.00 P
ZRD  60.720 1.00 S
ZNJK 66.330 1.00 S
GANJ 38.950 1.00 P
GNI  40.560 1.00 P
# 2012 08 12 23 16 13.100000 38.392 46.682  11.2  1.8 0.0 0.0 0.0        84
TVRZ  3.130 1.00 P
TVRZ  5.480 1.00 S
HRS   5.870 1.00 P
HRS  10.270 1.00 S
TAHR 10.940 1.00 S
TABZ 14.680 1.00 S
FTB   8.430 1.00 P
TBZ   8.640 1.00 P
TBZ  15.120 1.00 S
BST  13.380 1.00 P
ORD  14.680 1.00 P
ORD  25.690 1.00 S
MRD  15.910 1.00 P
MRD  27.850 1.00 S
SHB  15.960 1.00 P
AZR  16.890 1.00 P
AZR  29.570 1.00 S
SRB  17.940 1.00 P
NAX  22.970 1.00 P
LRK  43.390 1.00 S
GLBA 29.340 1.00 P
ASTR 53.420 1.00 S
LKRN 30.760 1.00 P
MAKU 33.590 1.00 P
BRDA 34.640 1.00 P
SAAT 35.980 1.00 P
SAAT 62.740 1.00 S
ZRD  36.470 1.00 P
GANJ 68.970 1.00 S
GNI  40.310 1.00 P
ZNJK 40.560 1.00 P
ZNJK 70.680 1.00 S
VANB 76.560 1.00 S
# 2012 08 12 23 58 41.500000 38.459 46.896  16.4  1.9 0.0 0.0 0.0        85
HRS   4.730 1.00 P
HRS   8.280 1.00 S
TVRZ  4.770 1.00 P
TVRZ  8.350 1.00 S
TABZ 12.140 1.00 P
TBZ  12.570 1.00 P
TBZ  22.000 1.00 S
BST  14.470 1.00 P
ORD  16.440 1.00 P
GRMI 16.480 1.00 P
SRB  16.540 1.00 P
MRD  18.420 1.00 P
MRD  32.230 1.00 S
SHB  19.250 1.00 P
SHB  33.690 1.00 S
AZR  20.120 1.00 P
LRK  37.300 1.00 S
HSH  21.990 1.00 P
HSH  38.480 1.00 S
NAX  24.280 1.00 P
ASTR 27.100 1.00 P
LKRN 47.750 1.00 S
BRDA 32.560 1.00 P
BRDA 56.850 1.00 S
SAAT 57.790 1.00 S
ZRD  34.110 1.00 P
ZRD  59.470 1.00 S
MAKU 34.590 1.00 P
GANJ 38.320 1.00 P
GANJ 66.780 1.00 S
ZNJK 39.170 1.00 P
VANB 79.260 1.00 S
# 2012 08 13 00 07 53.900000 38.411 46.676  18.8  2.4 0.0 0.0 0.0        86
TVRZ  3.900 1.00 P
HRS   6.820 1.00 P
HRS  11.940 1.00 S
TAHR 11.950 1.00 S
TBZ   9.350 1.00 P
FTB  16.580 1.00 S
ORD  14.580 1.00 P
MRD  15.800 1.00 P
MRD  27.650 1.00 S
SHB  16.010 1.00 P
SHB  28.010 1.00 S
AZR  17.510 1.00 P
AZR  30.650 1.00 S
SRB  18.520 1.00 P
GRMI 19.470 1.00 P
NAX  39.070 1.00 S
HSH  22.250 1.00 P
SBZ  24.420 1.00 P
LRK  24.340 1.00 P
LRK  42.600 1.00 S
GLBA 28.790 1.00 P
GLBA 50.380 1.00 S
ASTR 30.090 1.00 P
LKRN 52.990 1.00 S
MAKU 56.820 1.00 S
BRDA 58.100 1.00 S
SAAT 34.930 1.00 P
ZRD  61.440 1.00 S
GANJ 38.250 1.00 P
GNI  39.160 1.00 P
ZNJK 40.130 1.00 P
ZNJK 69.890 1.00 S
VANB 42.850 1.00 P
