 2001  2 2 2359 59.7 L  33.842  52.604 18.9  New 11 0.3 4.1LNew                1
 GAP=161        0.83       1.8     1.7  2.1 -0.3467E+00 -0.1074E+01  0.6681E+00E
 Action:ARG 24-03-13 14:55 OP:OBSP STATUS:               ID:20010203000000     I
 STAT SP IPHASW D HRMM SECON CODA AMPLIT PERI AZIMU VELO AIN AR TRES W  DIS CAZ7
 RHPW    IP   0A  24 0 10.20                              97   -0.1010 41.6  35 
 RHPW    ES   0A  24 0 17.85                              97    0.0610 41.6  35 
 XBVK    IP   0A  24 0 12.61                              94   -0.1410 54.4   8 
 XBVK    ES   0A  24 0 22.07                              94    0.0710 54.4   8 
 LUEX    IP   0A  24 0 13.71                              93    0.1110 58.9 274 
 LUEX    ES   0A  24 0 23.99                              93    0.5410 58.9 274 
 DNOA    IP   0A  24 0 18.95                              57    0.0110 91.2  54 
 DNOA    ES   0A  24 0 33.17                              57    0.6010 91.2  54 
 FOUH     IAML A  24 0 20.94      5637.3                                104   9 
 FOUH    IP   0A  24 0 20.94                              57   -0.1310  104   9 
 FOUH    ES   0A  24 0 36.65                              57    0.4310  104   9 
 MGUS    IP   0A  24 0 21.32                              57   -0.2210  107  93 
 MGUS     IAML A  24 0 21.32      5378.1                                107  93 
 RAWC     IAML A  24 0 22.82      4652.2                                117 113 
 RAWC    IP   0A  24 0 22.82                              43   -0.2110  117 113 
 RAWC    ES   0A  24 0 39.93                              43    0.3610  117 113 
 VOCA    IP   0A  24 0 23.54                              43   -0.3910  124  41 
 VOCA     IAML A  24 0 23.54      4287.1                                124  41 
 VOCA    ES   0A  24 0 41.20                              43    0.1010  124  41 
 RPKV    IP   0A  24 0 29.90                              43   -0.13 9  170 334 
 RPKV    ES   0A  24 0 51.61                              43    0.07 9  170 334 
 QYDI    IP   0A  24 0 30.17                              43   -0.50 9  175 352 
 QYDI    ES   0A  24 0 52.17                              43   -0.47 9  175 352 
 HLUH    IP   0A  24 0 31.28                              43   -0.49 8  183 327 
                                                                                
 2001  2 3 0001  9.1 L  33.485  52.689 16.9  New 12 0.3 2.2LNew                1
 GAP=186        0.66       2.6     1.2  3.6  0.6759E-02 -0.3191E+00 -0.5438E+01E
 Action:ARG 24-03-13 14:55 OP:OBSP STATUS:               ID:20010203000110     I
 STAT SP IPHASW D HRMM SECON CODA AMPLIT PERI AZIMU VELO AIN AR TRES W  DIS CAZ7
 LUEX    IP   0A   0 1 26.88                              56    0.2310 79.4 303 
 LUEX    ES   0A   0 1 39.54                              56    0.4510 79.4 303 
 CBZA     IAML A   0 1 27.48       108.4                               85.2 280 
 CBZA    IP   0A   0 1 27.48                              55   -0.1010 85.2 280 
 CBZA    ES   0A   0 1 40.60                              55   -0.0810 85.2 280 
 XBVK    IP   0A   0 1 28.88                              55   -0.0310 93.5   0 
 XBVK     IAML A   0 1 28.88        90.0                               93.5   0 
 XBVK    ES   0A   0 1 43.04                              55    0.0910 93.5   0 
 AVTK    IP   0A   0 1 29.59                              55   -0.0210 97.8 310 
 RAWC    IP   0A   0 1 30.33                              55    0.3310  100  94 
 MGUS    IP   0A   0 1 30.77                              55    0.0110  105  71 
 MGUS    ES   0A   0 1 46.34                              55    0.2210  105  71 
 DNOA     IAML A   0 1 32.27        65.8                                114  35 
 DNOA    IP   0A   0 1 32.27                              55    0.0210  114  35 
 DNOA    ES   0A   0 1 48.96                              55    0.2910  114  35 
 APSL    IP   0A   0 1 33.33                              42   -0.1910  123  53 
 APSL    ES   0A   0 1 50.84                              42    0.0110  123  53 
 DQYH    IP   0A   0 1 35.16                              42   -0.0610  136 327 
 DQYH    ES   0A   0 1 53.89                              42    0.1510  136 327 
 FOUH    IP   0A   0 1 35.91                              42   -0.2110  143   3 
 FOUH     IAML A   0 1 35.91        45.5                                143   3 
 FOUH    ES   0A   0 1 55.15                              42   -0.1410  143   3 
 VOCA    IP   0A   0 1 36.94                              42   -0.36 9  152  29 
 VOCA     IAML A   0 1 36.94        40.9                                152  29 
 VOCA    ES   0A   0 1 56.97                              42   -0.33 9  152  29 
 HLUH    IP   0A   0 1 45.66                              42   -0.80 7  222 331 
                                                                                
 2001  2 3 0002 19.2 L  33.869  52.863 22.9  New  7 0.3 4.3LNew                1
 GAP=212        0.85       3.3     2.5  6.5  0.2910E+01  0.6700E+01 -0.3859E+01E
 Action:ARG 24-03-13 14:55 OP:OBSP STATUS:               ID:20010203000220     I
 STAT SP IPHASW D HRMM SECON CODA AMPLIT PERI AZIMU VELO AIN AR TRES W  DIS CAZ7
 DNOA    IP   0A   0 2 34.89                              66    0.1310 71.0  45 
 DNOA     IAML A   0 2 34.89     15103.7                               71.0  45 
 DNOA    ES   0A   0 2 46.05                              66    0.2410 71.0  45 
 MGUS    IP   0A   0 2 36.74                              66   -0.0610 83.7  96 
 MGUS    ES   0A   0 2 49.29                              66   -0.0110 83.7  96 
 APSL    IP   0A   0 2 37.48                              66   -0.0710 88.4  70 
 APSL     IAML A   0 2 37.48     11012.6                               88.4  70 
 APSL    ES   0A   0 2 50.59                              66   -0.0010 88.4  70 
 FOUH    IP   0A   0 2 39.44                              66   -0.0710  101 355 
 FOUH    ES   0A   0 2 54.02                              66    0.0710  101 355 
 DQYH    IP   0A   0 2 42.01                              49    0.2610  116 308 
 DQYH    ES   0A   0 2 58.51                              49    0.7410  116 308 
 QYDI    IP   0A   0 2 49.51                              49   -0.37 8  177 344 
 QYDI    ES   0A   0 3 11.17                              49   -0.51 8  177 344 
 HLUH    IP   0A   0 2 51.91                              49   -0.32 8  195 321 
 HLUH    ES   0A   0 3 15.00                              49   -0.68 8  195 321 
                                                                                
 2001  2 3 0003 29.2 L  34.014  52.539 11.9  New  9 0.4 1.1LNew                1
 GAP=118        0.96       3.0     1.6  3.9 -0.6789E+00 -0.1833E+01 -0.4564E+00E
 Action:ARG 24-03-13 14:55 OP:OBSP STATUS:               ID:20010203000330     I
 STAT SP IPHASW D HRMM SECON CODA AMPLIT PERI AZIMU VELO AIN AR TRES W  DIS CAZ7
 LUEX    IP   0A   0 3 43.00                              52    0.2410 54.9 254 
 LUEX    ES   0A   0 3 52.75                              52    0.3810 54.9 254 
 AVTK     IAML A   0 3 44.05        11.0                               61.1 274 
 AVTK    IP   0A   0 3 44.05                              52    0.0910 61.1 274 
 AVTK    ES   0A   0 3 54.59                              52    0.1710 61.1 274 
 DQYH    IP   0A   0 3 48.19                              43    0.3010 82.3 312 
 CBZA    IP   0A   0 3 47.64                              42   -0.4010 83.1 237 
 CBZA     IAML A   0 3 47.64         7.2                               83.1 237 
 DNOA     IAML A   0 3 48.94         6.5                               87.0  66 
 DNOA    IP   0A   0 3 48.94                              41    0.2810 87.0  66 
 DNOA    ES   0A   0 4  3.14                              41    0.6810 87.0  66 
 APSL    IP   0A   0 3 52.83                              41   -0.1610  114  82 
 APSL    ES   0A   0 4  9.95                              41    0.1010  114  82 
 VOCA    IP   0A   0 3 53.01                              41   -0.1510  115  50 
 VOCA     IAML A   0 3 53.01         4.2                                115  50 
 RAWC    IP   0A   0 3 55.12                              33   -0.3710  131 120 
 RAWC    ES   0A   0 4 13.96                              33   -0.1710  131 120 
 HLUH    IP   0A   0 3 59.24                              33   -0.62 9  164 325 
 HLUH     IAML A   0 3 59.24         2.3                                164 325 
 HLUH    ES   0A   0 4 20.97                              33   -0.63 9  164 325 
                                                                                
 2001  2 3 0004 39.3 L  33.657  52.538 13.6  New  9 0.3 1.7LNew                1
 GAP=163        0.86       2.5     1.8  4.5  0.6692E+00 -0.3755E+01 -0.4515E+01E
 Action:ARG 24-03-13 14:55 OP:OBSP STATUS:               ID:20010203000440     I
 STAT SP IPHASW D HRMM SECON CODA AMPLIT PERI AZIMU VELO AIN AR TRES W  DIS CAZ7
 CBZA    IP   0A   0 4 55.70                              65    0.1510 70.3 266 
 CBZA     IAML A   0 4 55.70        44.0                               70.3 266 
 CBZA    ES   0A   0 5  7.48                              65    0.3810 70.3 266 
 XBVK    IP   0A   0 4 56.78                              53    0.2110 75.7  11 
 XBVK    ES   0A   0 5  9.37                              53    0.5310 75.7  11 
 DNOA    IP   0A   0 5  1.94                              49   -0.0310  109  47 
 DNOA     IAML A   0 5  1.94        22.6                                109  47 
 DNOA    ES   0A   0 5 18.39                              49    0.3110  109  47 
 MGUS     IAML A   0 5  2.54        21.1                                114  83 
 MGUS    IP   0A   0 5  2.54                              49   -0.2810  114  83 
 MGUS    ES   0A   0 5 19.45                              49   -0.0810  114  83 
 RAWC    IP   0A   0 5  3.16                              49   -0.0610  117 102 
 RAWC    ES   0A   0 5 20.52                              49    0.3110  117 102 
 APSL     IAML A   0 5  4.27        18.1                                125  64 
 APSL    IP   0A   0 5  4.27                              38   -0.1810  125  64 
 APSL    ES   0A   0 5 22.47                              38    0.1510  125  64 
 VOCA    IP   0A   0 5  6.50                              38   -0.3710  144  38 
 VOCA    ES   0A   0 5 26.38                              38   -0.0710  144  38 
 RPKV    IP   0A   0 5 12.34                              38   -0.19 8  187 339 
 HLUH    IP   0A   0 5 13.45                              38   -0.59 8  198 332 
 HLUH    ES   0A   0 5 37.82                              38   -0.89 8  198 332 
                                                                                
 2001  2 3 0005 49.8 L  33.899  52.678 20.2  New 10 0.3 2.3LNew                1
 GAP=152        0.87       2.4     1.9  2.6 -0.2291E+01  0.1371E+01 -0.2668E+00E
 Action:ARG 24-03-13 14:55 OP:OBSP STATUS:               ID:20010203000550     I
 STAT SP IPHASW D HRMM SECON CODA AMPLIT PERI AZIMU VELO AIN AR TRES W  DIS CAZ7
 RHPW    IP   0A   0 5 58.73                             107   -0.0310 32.6  32 
 RHPW    ES   0A   0 6  5.27                             107    0.1810 32.6  32 
 LUEX     IAML A   0 6  4.62       162.4                               65.6 268 
 LUEX    IP   0A   0 6  4.62                              60   -0.1210 65.6 268 
 LUEX    ES   0A   0 6 15.58                              60    0.2610 65.6 268 
 AVTK    IP   0A   0 6  6.37                              57   -0.0410 75.8 283 
 DNOA    IP   0A   0 6  7.48                              57    0.0610 82.0  55 
 DNOA     IAML A   0 6  7.48       114.5                               82.0  55 
 DNOA    ES   0A   0 6 20.60                              57    0.6910 82.0  55 
 CBZA    IP   0A   0 6  8.34                              57   -0.1810 88.9 249 
 CBZA    ES   0A   0 6 22.10                              57    0.3110 88.9 249 
 DQYH    IP   0A   0 6 10.31                              57   -0.0710  100 312 
 DQYH    ES   0A   0 6 25.53                              57    0.5610  100 312 
 MGUS     IAML A   0 6 10.46        83.8                                101  97 
 MGUS    IP   0A   0 6 10.46                              57   -0.0410  101  97 
 VOCA     IAML A   0 6 12.20        68.6                                115  41 
 VOCA    IP   0A   0 6 12.20                              46   -0.4310  115  41 
 VOCA    ES   0A   0 6 28.85                              46    0.0410  115  41 
 RPKV    IP   0A   0 6 19.33                              43   -0.30 9  168 331 
 RPKV    ES   0A   0 6 40.64                              43   -0.14 9  168 331 
 QYDI    IP   0A   0 6 19.32                              43   -0.61 9  170 349 
 QYDI    ES   0A   0 6 40.76                              43   -0.54 9  170 349 
                                                                                
 2001  2 3 0007  0.0 L  33.821  52.542 19.1  New  9 0.4 2.7LNew                1
 GAP=185        0.92       3.8     2.6  4.7  0.4459E+01 -0.7938E+01 -0.1110E+02E
 Action:ARG 24-03-13 14:55 OP:OBSP STATUS:               ID:20010203000700     I
 STAT SP IPHASW D HRMM SECON CODA AMPLIT PERI AZIMU VELO AIN AR TRES W  DIS CAZ7
 LUEX    IP   0A   0 7 12.79                              95   -0.0610 53.4 277 
 LUEX    ES   0A   0 7 22.38                              95    0.4310 53.4 277 
 AVTK    IP   0A   0 7 15.01                              62   -0.1810 66.4 293 
 AVTK     IAML A   0 7 15.01       411.5                               66.4 293 
 AVTK    ES   0A   0 7 26.27                              62    0.3310 66.4 293 
 DQYH    IP   0A   0 7 20.25                              57   -0.0810 98.1 321 
 FOUH    IP   0A   0 7 21.73                              57   -0.1610  108  12 
 FOUH     IAML A   0 7 21.73       202.2                                108  12 
 FOUH    ES   0A   0 7 38.02                              57    0.6110  108  12 
 MGUS     IAML A   0 7 22.52       180.5                                113  92 
 MGUS    IP   0A   0 7 22.52                              57   -0.2110  113  92 
 MGUS    ES   0A   0 7 39.41                              57    0.5610  113  92 
 APSL    IP   0A   0 7 23.37                              43   -0.0810  118  72 
 RPKV    IP   0A   0 7 30.03                              43   -0.24 9  170 336 
 RPKV    ES   0A   0 7 52.05                              43    0.31 9  170 336 
 QYDI    IP   0A   0 7 30.63                              43   -0.53 8  177 353 
 QYDI    ES   0A   0 7 52.95                              43   -0.31 8  177 353 
 HLUH    IP   0A   0 7 31.29                              43   -0.62 8  182 329 
 HLUH     IAML A   0 7 31.29        80.7                                182 329 
 HLUH    ES   0A   0 7 54.25                              43   -0.29 8  182 329 
                                                                                
 2001  2 3 0008  9.5 L  33.514  52.694 21.6  New 11 0.5 2.0LNew                1
 GAP=205        1.17       4.3     2.8  8.2  0.5629E+01 -0.7654E+01 -0.1687E+02E
 Action:ARG 24-03-13 14:55 OP:OBSP STATUS:               ID:20010203000810     I
 STAT SP IPHASW D HRMM SECON CODA AMPLIT PERI AZIMU VELO AIN AR TRES W  DIS CAZ7
 RHPW    IP   0A   0 8 25.54                              58    0.1810 72.0  13 
 RHPW     IAML A   0 8 25.54        70.7                               72.0  13 
 RHPW    ES   0A   0 8 37.20                              58    0.6010 72.0  13 
 LUEX     IAML A   0 8 26.59        61.4                               78.1 301 
 LUEX    IP   0A   0 8 26.59                              57    0.2510 78.1 301 
 LUEX    ES   0A   0 8 39.03                              57    0.7510 78.1 301 
 XBVK     IAML A   0 8 28.09        50.5                               90.2 360 
 XBVK    IP   0A   0 8 28.09                              57   -0.2010 90.2 360 
 XBVK    ES   0A   0 8 41.65                              57    0.0310 90.2 360 
 AVTK    IP   0A   0 8 29.20                              57   -0.0410 96.1 308 
 RAWC    IP   0A   0 8 29.95                              57    0.0810  100  95 
 RAWC    ES   0A   0 8 44.92                              57    0.6110  100  95 
 MGUS    IP   0A   0 8 30.12                              57   -0.3110  104  73 
 MGUS    ES   0A   0 8 45.21                              57   -0.0710  104  73 
 DNOA     IAML A   0 8 31.44        36.8                                111  36 
 DNOA    IP   0A   0 8 31.44                              46   -0.2210  111  36 
 DNOA    ES   0A   0 8 47.52                              46    0.1510  111  36 
 APSL    IP   0A   0 8 32.62                              43   -0.3410  121  55 
 DQYH    IP   0A   0 8 34.65                              43    0.0110  134 326 
 VOCA    IP   0A   0 8 36.21                              43   -0.43 9  149  30 
 HLUH    IP   0A   0 8 45.10                              43   -0.76 7  219 331 
 HLUH    ES   0A   0 9 10.08                              43   -1.57 7  219 331 
                                                                                
 2001  2 3 0009 19.4 L  33.616  52.652 18.0  New 10 0.3 2.3LNew                1
 GAP=193        0.84       2.8     2.0  4.1  0.1987E+01 -0.2082E+01 -0.7901E+00E
 Action:ARG 24-03-13 14:55 OP:OBSP STATUS:               ID:20010203000920     I
 STAT SP IPHASW D HRMM SECON CODA AMPLIT PERI AZIMU VELO AIN AR TRES W  DIS CAZ7
 RHPW    IP   0A   0 9 34.20                              92    0.3210 62.2  18 
 LUEX    IP   0A   0 9 35.29                              60    0.1610 69.4 295 
 LUEX    ES   0A   0 9 46.75                              60    0.4310 69.4 295 
 XBVK    IP   0A   0 9 36.64                              57   -0.0710 79.0   2 
 XBVK    ES   0A   0 9 49.12                              57    0.0910 79.0   2 
 RAWC    IP   0A   0 9 41.02                              57    0.0510  105 101 
 RAWC    ES   0A   0 9 56.78                              57    0.4710  105 101 
 DNOA    IP   0A   0 9 40.84                              57   -0.0410  105  41 
 DNOA    ES   0A   0 9 56.47                              57    0.3210  105  41 
 MGUS    IP   0A   0 9 40.59                              57   -0.2410  105  79 
 MGUS    ES   0A   0 9 56.04                              57   -0.0210  105  79 
 APSL    IP   0A   0 9 42.65                              43   -0.2810  118  60 
 APSL    ES   0A   0 9 59.64                              43   -0.0210  118  60 
 VOCA    IP   0A   0 9 45.56                              43   -0.4210  141  33 
 QYDI    IP   0A   0 9 53.12                              43   -0.68 8  201 351 
 QYDI     IAML A   0 9 53.12        28.0                                201 351 
 HLUH    IP   0A   0 9 53.95                              43   -0.71 7  207 330 
 HLUH     IAML A   0 9 53.95        26.3                                207 330 
                                                                                
