 2001  2 3 0010 29.7 L  34.119  52.530 14.9  New 11 0.3 2.2LNew                1
 GAP=143        0.77       1.5     1.3  2.2 -0.7240E+00  0.5670E+00  0.2184E+00E
 Action:ARG 24-03-13 14:55 OP:OBSP STATUS:               ID:20010203001030     I
 STAT SP IPHASW D HRMM SECON CODA AMPLIT PERI AZIMU VELO AIN AR TRES W  DIS CAZ7
 XBVK    IP   0A   010 37.59                              77    0.1010 27.5  32 
 XBVK    ES   0A   010 43.29                              77    0.2710 27.5  32 
 RHPW     IAML A   010 38.24       350.4                               31.1  84 
 RHPW    IP   0A   010 38.24                              77    0.0210 31.1  84 
 RHPW    ES   0A   010 44.43                              77    0.1710 31.1  84 
 LUEX     IAML A   010 43.66       155.6                               58.5 243 
 LUEX    IP   0A   010 43.66                              68    0.0510 58.5 243 
 LUEX    ES   0A   010 53.90                              68    0.4310 58.5 243 
 DQYH    IP   0A   010 46.67                              53    0.0410 74.4 306 
 DQYH     IAML A   010 46.67       109.5                               74.4 306 
 FOUH    IP   0A   010 46.98                              53    0.0810 76.1  17 
 FOUH     IAML A   010 46.98       105.6                               76.1  17 
 DNOA    IP   0A   010 48.12                              51   -0.0510 83.8  74 
 DNOA    ES   0A   011  1.72                              51    0.4410 83.8  74 
 CBZA    IP   0A   010 48.77                              51   -0.2910 89.3 231 
 CBZA    ES   0A   011  2.85                              51    0.0610 89.3 231 
 VOCA    IP   0A   010 51.65                              51   -0.4910  108  55 
 APSL    IP   0A   010 52.61                              51   -0.3810  114  88 
 APSL    ES   0A   011  9.56                              51    0.0510  114  88 
 RPKV    IP   0A   010 56.37                              40   -0.2310  140 331 
 RPKV     IAML A   010 56.37        40.8                                140 331 
 RPKV    ES   0A   011 16.04                              40    0.3610  140 331 
 QYDI    IP   0A   010 56.57                              40   -0.5410  144 352 
 QYDI    ES   0A   011 16.42                              40   -0.1510  144 352 
                                                                                
 2001  2 3 0011 39.7 L  33.950  52.924 28.1  New  8 0.2 3.7LNew                1
 GAP=176        0.53       2.0     1.2  1.8 -0.9666E+00  0.5125E+00  0.1285E+01E
 Action:ARG 24-03-13 14:55 OP:OBSP STATUS:               ID:20010203001140     I
 STAT SP IPHASW D HRMM SECON CODA AMPLIT PERI AZIMU VELO AIN AR TRES W  DIS CAZ7
 RHPW    IP   0A   011 47.48                             127   -0.0410 22.6 346 
 RHPW    ES   0A   011 53.10                             127   -0.0010 22.6 346 
 DNOA    IP   0A   011 53.38                              93   -0.0010 60.7  47 
 DNOA    ES   0A   012  3.42                              93    0.2910 60.7  47 
 APSL    IP   0A   011 56.36                              92   -0.1710 80.3  74 
 APSL    ES   0A   012  8.63                              92    0.1310 80.3  74 
 LUEX     IAML A   011 57.75      2644.4                               88.7 265 
 LUEX    IP   0A   011 57.75                              91   -0.1410 88.7 265 
 LUEX    ES   0A   012 11.07                              91    0.2410 88.7 265 
 AVTK    IP   0A   011 58.97                              60   -0.2410 97.3 277 
 AVTK     IAML A   011 58.97      2297.2                               97.3 277 
 AVTK    ES   0A   012 13.20                              60    0.1110 97.3 277 
 CBZA    IP   0A   012  1.07                              55   -0.1710  112 251 
 CBZA     IAML A   012  1.07      1847.0                                112 251 
 CBZA    ES   0A   012 16.85                              55    0.2810  112 251 
 QYDI    IP   0A   012  8.52                              55   -0.40 9  171 341 
 RPKV    IP   0A   012  9.48                              55   -0.08 9  175 324 
 RPKV    ES   0A   012 30.86                              55    0.08 9  175 324 
                                                                                
 2001  2 3 0012 49.2 L  33.421  52.543 11.8  New  8 0.6 1.6LNew                1
 GAP=197        1.25       6.8     4.3  7.2  0.1798E+02 -0.1718E+02 -0.3349E+02E
 Action:ARG 24-03-13 14:55 OP:OBSP STATUS:               ID:20010203001250     I
 STAT SP IPHASW D HRMM SECON CODA AMPLIT PERI AZIMU VELO AIN AR TRES W  DIS CAZ7
 CBZA    IP   0A   013  6.36                              52    0.0410 73.6 287 
 AVTK    IP   0A   013  9.86                              41    0.2510 93.0 319 
 AVTK    ES   0A   013 24.76                              41    0.6410 93.0 319 
 XBVK    IP   0A   013 11.15                              41    0.1810  102   8 
 XBVK     IAML A   013 11.15        19.9                                102   8 
 XBVK    ES   0A   013 27.02                              41    0.5810  102   8 
 RAWC     IAML A   013 12.91        17.1                                114  89 
 RAWC    IP   0A   013 12.91                              41   -0.0110  114  89 
 RAWC    ES   0A   013 30.10                              41    0.3310  114  89 
 DNOA    IP   0A   013 14.90                              33   -0.1610  128  38 
 DNOA    ES   0A   013 33.56                              33    0.1310  128  38 
 VOCA    IP   0A   013 19.48                              33   -0.45 9  165  32 
 VOCA     IAML A   013 19.48         8.9                                165  32 
 RPKV    IP   0A   013 25.76                              33   -0.28 7  211 341 
 RPKV    ES   0A   013 51.36                              33   -0.85 7  211 341 
 QYDI    IP   0A   013 26.67                              33   -0.62 7  221 355 
 QYDI    ES   0A   013 52.71                              33   -1.64 7  221 355 
                                                                                
 2001  2 3 0013 59.6 L  33.748  52.566 17.5  New 10 0.3 0.3LNew                1
 GAP=171        0.91       2.4     2.0  2.7  0.5085E+00  0.2036E-01  0.1741E+01E
 Action:ARG 24-03-13 14:55 OP:OBSP STATUS:               ID:20010203001400     I
 STAT SP IPHASW D HRMM SECON CODA AMPLIT PERI AZIMU VELO AIN AR TRES W  DIS CAZ7
 RHPW    IP   0A   014 12.17                              91   -0.0110 52.3  32 
 RHPW    ES   0A   014 21.30                              91    0.1810 52.3  32 
 XBVK    IP   0A   014 14.52                              91   -0.1710 65.3  10 
 XBVK    ES   0A   014 25.42                              91    0.0110 65.3  10 
 CBZA     IAML A   014 16.63         1.5                               74.2 258 
 CBZA    IP   0A   014 16.63                              60    0.4310 74.2 258 
 DNOA    IP   0A   014 20.45                              57    0.0310  100  50 
 DNOA     IAML A   014 20.45         1.0                                100  50 
 DNOA    ES   0A   014 35.78                              57    0.5710  100  50 
 DQYH    IP   0A   014 21.32                              57    0.0210  106 323 
 DQYH     IAML A   014 21.32         0.9                                106 323 
 DQYH    ES   0A   014 37.32                              57    0.6110  106 323 
 MGUS     IAML A   014 21.85         0.9                                111  88 
 MGUS    IP   0A   014 21.85                              57   -0.2510  111  88 
 MGUS    ES   0A   014 38.24                              57    0.1510  111  88 
 APSL     IAML A   014 23.10         0.8                                119  68 
 APSL    IP   0A   014 23.10                              43   -0.2110  119  68 
 APSL    ES   0A   014 40.42                              43    0.2610  119  68 
 VOCA    IP   0A   014 24.90                              43   -0.4310  134  39 
 VOCA     IAML A   014 24.90         0.6                                134  39 
 VOCA    ES   0A   014 43.57                              43   -0.0310  134  39 
 RPKV    IP   0A   014 30.97                              43   -0.18 8  178 337 
 RPKV    ES   0A   014 53.44                              43   -0.11 8  178 337 
 QYDI    IP   0A   014 31.41                              43   -0.62 8  185 353 
 QYDI    ES   0A   014 54.25                              43   -0.82 8  185 353 
                                                                                
 2001  2 3 0015  9.6 L  33.776  52.630 21.1  New  9 0.3 2.5LNew                1
 GAP=147        0.76       2.1     2.1  4.0  0.1040E+01 -0.1774E+01 -0.4917E+00E
 Action:ARG 24-03-13 14:55 OP:OBSP STATUS:               ID:20010203001510     I
 STAT SP IPHASW D HRMM SECON CODA AMPLIT PERI AZIMU VELO AIN AR TRES W  DIS CAZ7
 RHPW    IP   0A   015 21.10                              66   -0.0510 46.7  28 
 XBVK     IAML A   015 23.66       334.8                               61.5   5 
 XBVK    IP   0A   015 23.66                              62   -0.0510 61.5   5 
 XBVK    ES   0A   015 33.91                              62    0.1610 61.5   5 
 CBZA    IP   0A   015 27.47                              57    0.6110 80.7 257 
 DNOA    IP   0A   015 29.01                              57    0.0210 93.9  49 
 DNOA    ES   0A   015 43.26                              57    0.4910 93.9  49 
 RAWC     IAML A   015 31.60       139.2                                112 110 
 RAWC    IP   0A   015 31.60                              46   -0.3110  112 110 
 RAWC    ES   0A   015 47.81                              46    0.0510  112 110 
 APSL    IP   0A   015 31.62                              46   -0.2910  112  68 
 APSL    ES   0A   015 47.83                              46    0.0610  112  68 
 RPKV    IP   0A   015 40.57                              43   -0.02 8  178 334 
 RPKV    ES   0A   016  2.69                              43    0.09 8  178 334 
 QYDI    IP   0A   015 40.80                              43   -0.43 8  183 351 
 QYDI     IAML A   015 40.80        58.3                                183 351 
 HLUH    IP   0A   015 41.98                              43   -0.32 8  191 328 
 HLUH     IAML A   015 41.98        53.2                                191 328 
 HLUH    ES   0A   016  5.12                              43   -0.41 8  191 328 
                                                                                
 2001  2 3 0016 18.8 L  33.556  52.480 12.6  New 10 0.2 5.0LNew                1
 GAP=229        0.58       2.4     1.5  2.4  0.1641E+01 -0.1301E+01 -0.2017E+01E
 Action:ARG 24-03-13 14:55 OP:OBSP STATUS:               ID:20010203001620     I
 STAT SP IPHASW D HRMM SECON CODA AMPLIT PERI AZIMU VELO AIN AR TRES W  DIS CAZ7
 LUEX    IP   0A   016 33.32                              52    0.3210 59.0 307 
 LUEX    ES   0A   016 43.31                              52    0.2210 59.0 307 
 RHPW    IP   0A   016 36.23                              52    0.2010 74.8  28 
 RHPW    ES   0A   016 48.41                              52    0.1510 74.8  28 
 XBVK    IP   0A   016 38.18                              41   -0.0410 87.8  13 
 XBVK     IAML A   016 38.18     59923.5                               87.8  13 
 DQYH    IP   0A   016 43.22                              41   -0.1110  120 332 
 DQYH    ES   0A   017  0.64                              41   -0.1110  120 332 
 DNOA    IP   0A   016 43.37                              35   -0.1510  121  45 
 MGUS    IP   0A   016 43.60                              35   -0.0310  122  78 
 MGUS    ES   0A   017  1.30                              35    0.0310  122  78 
 APSL    IP   0A   016 45.58                              33    0.1210  135  61 
 APSL    ES   0A   017  4.75                              33    0.3610  135  61 
 FOUH    IP   0A   016 45.53                              33   -0.2510  138  11 
 FOUH    ES   0A   017  4.67                              33   -0.2610  138  11 
 VOCA    IP   0A   016 47.89                              33   -0.28 9  156  37 
 RPKV    IP   0A   016 53.04                              33   -0.32 8  195 341 
 RPKV     IAML A   016 53.04     15025.8                                195 341 
                                                                                
 2001  2 3 0017 29.4 L  33.615  52.814 20.3  New  7 0.5 0.8LNew                1
 GAP=214        1.20      10.1     4.4 12.1 -0.3595E+02  0.3771E+02 -0.1002E+03E
 Action:ARG 24-03-13 14:55 OP:OBSP STATUS:               ID:20010203001730     I
 STAT SP IPHASW D HRMM SECON CODA AMPLIT PERI AZIMU VELO AIN AR TRES W  DIS CAZ7
 LUEX    IP   0A   017 47.37                              57    0.1310 83.4 290 
 LUEX    ES   0A   018  0.40                              57    0.5210 83.4 290 
 CBZA     IAML A   017 49.08         3.0                               95.6 270 
 CBZA    IP   0A   017 49.08                              57   -0.1310 95.6 270 
 CBZA    ES   0A   018  3.39                              57    0.1410 95.6 270 
 DNOA     IAML A   017 49.39         2.9                               95.8  35 
 DNOA    IP   0A   017 49.39                              57    0.1510 95.8  35 
 DNOA    ES   0A   018  3.93                              57    0.6310 95.8  35 
 APSL    IP   0A   017 50.58                              57   -0.2210  106  56 
 APSL    ES   0A   018  6.01                              57    0.0410  106  56 
 FOUH    IP   0A   017 53.67                              43   -0.3710  129 359 
 FOUH     IAML A   017 53.67         1.8                                129 359 
 FOUH    ES   0A   018 11.43                              43   -0.0810  129 359 
 DQYH    IP   0A   017 54.48                              43    0.0110  132 319 
 DQYH    ES   0A   018 12.62                              43    0.3710  132 319 
 HLUH    IP   0A   018  4.72                              43   -0.74 7  215 327 
 HLUH    ES   0A   018 29.36                              43   -1.69 7  215 327 
                                                                                
 2001  2 3 0018 39.2 L  33.687  52.772 17.3  New  8 0.2 3.7LNew                1
 GAP=158        0.66       2.1     1.0  4.2  0.2456E-01 -0.1382E+00 -0.3497E+01E
 Action:ARG 24-03-13 14:55 OP:OBSP STATUS:               ID:20010203001840     I
 STAT SP IPHASW D HRMM SECON CODA AMPLIT PERI AZIMU VELO AIN AR TRES W  DIS CAZ7
 LUEX    IP   0A   018 56.43                              58    0.1010 77.2 286 
 LUEX    ES   0A   019  8.75                              58    0.2710 77.2 286 
 DNOA    IP   0A   018 58.87                              57    0.2010 91.8  39 
 DNOA    ES   0A   019 13.02                              57    0.5210 91.8  39 
 AVTK     IAML A   018 58.67      2860.8                               92.0 296 
 AVTK    IP   0A   018 58.67                              57   -0.0410 92.0 296 
 AVTK    ES   0A   019 12.68                              57    0.1210 92.0 296 
 CBZA     IAML A   018 58.64      2904.8                               92.1 265 
 CBZA    IP   0A   018 58.64                              57   -0.0910 92.1 265 
 CBZA    ES   0A   019 12.62                              57    0.0210 92.1 265 
 MGUS    IP   0A   018 58.71                              57   -0.0710 92.4  83 
 MGUS    ES   0A   019 12.74                              57    0.0710 92.4  83 
 RAWC    IP   0A   018 59.37                              57   -0.0910 96.6 107 
 RAWC    ES   0A   019 13.89                              57    0.0510 96.6 107 
 APSL    IP   0A   019  0.60                              57   -0.1510  105  61 
 APSL     IAML A   019  0.60      2346.6                                105  61 
 APSL    ES   0A   019 16.05                              57    0.0110  105  61 
 FOUH    IP   0A   019  2.71                              43   -0.4710  121   0 
 FOUH    ES   0A   019 19.75                              43   -0.4510  121   0 
                                                                                
 2001  2 3 0019 49.5 L  33.720  52.487 12.8  New  8 0.5 3.6LNew                1
 GAP=173        1.21       2.9     2.3  4.7 -0.1354E+01 -0.2220E+01 -0.2202E+01E
 Action:ARG 24-03-13 14:55 OP:OBSP STATUS:               ID:20010203001950     I
 STAT SP IPHASW D HRMM SECON CODA AMPLIT PERI AZIMU VELO AIN AR TRES W  DIS CAZ7
 RHPW    IP   0A   020  4.00                              52    0.2810 58.9  36 
 RHPW    ES   0A   020 14.50                              52    0.7210 58.9  36 
 CBZA    IP   0A   020  5.29                              52    0.1310 66.4 259 
 CBZA    ES   0A   020 16.76                              52    0.5210 66.4 259 
 AVTK     IAML A   020  5.20      3776.0                               67.1 303 
 AVTK    IP   0A   020  5.20                              52   -0.1010 67.1 303 
 AVTK    ES   0A   020 16.60                              52    0.1210 67.1 303 
 XBVK    IP   0A   020  5.94                              52    0.1010 69.9  15 
 XBVK    ES   0A   020 17.89                              52    0.4910 69.9  15 
 MGUS    IP   0A   020 13.55                              41   -0.3210  118  86 
 MGUS     IAML A   020 13.55      1559.5                                118  86 
 MGUS    ES   0A   020 31.21                              41    0.0710  118  86 
 FOUH    IP   0A   020 13.59                              41   -0.5110  120  13 
 FOUH     IAML A   020 13.59      1570.5                                120  13 
 FOUH    ES   0A   020 31.29                              41   -0.2410  120  13 
 APSL    IP   0A   020 14.85                              33   -0.2210  127  68 
 APSL    ES   0A   020 33.49                              33    0.3010  127  68 
 QYDI    IP   0A   020 22.19                              33   -0.85 8  187 355 
 QYDI    ES   0A   020 45.59                              33   -1.23 8  187 355 
                                                                                
