 2001  2 3 0039 39.7 L  33.462  52.467 16.1  New  8 0.5 1.2LNew                1
 GAP=227        1.24       6.7     3.3  7.9  0.2417E+01 -0.1255E+02 -0.3158E+02E
 Action:ARG 24-03-13 14:55 OP:OBSP STATUS:               ID:20010203003940     I
 STAT SP IPHASW D HRMM SECON CODA AMPLIT PERI AZIMU VELO AIN AR TRES W  DIS CAZ7
 CBZA    IP   0A   039 54.95                              78    0.0810 65.6 285 
 CBZA     IAML A   039 54.95        13.1                               65.6 285 
 CBZA    ES   0A   040  6.16                              78    0.5110 65.6 285 
 RHPW     IAML A   039 58.08         9.2                               84.6  26 
 RHPW    IP   0A   039 58.08                              55   -0.0510 84.6  26 
 RHPW    ES   0A   040 11.64                              55    0.4210 84.6  26 
 AVTK    IP   0A   039 58.16                              55   -0.0410 85.0 320 
 AVTK    ES   0A   040 11.77                              55    0.4210 85.0 320 
 XBVK    IP   0A   040  0.13                              55   -0.2010 98.2  12 
 XBVK    ES   0A   040 15.22                              55    0.2310 98.2  12 
 DNOA     IAML A   040  4.78         4.7                                129  42 
 DNOA    IP   0A   040  4.78                              42   -0.1910  129  42 
 DNOA    ES   0A   040 23.36                              42    0.4410  129  42 
 APSL    IP   0A   040  6.44                              42   -0.1910  142  57 
 APSL    ES   0A   040 26.26                              42    0.5010  142  57 
 HLUH    IP   0A   040 15.65                              42   -0.59 7  215 336 
 HLUH     IAML A   040 15.65         1.8                                215 336 
 HLUH    ES   0A   040 41.16                              42   -1.02 7  215 336 
 QYDI    IP   0A   040 15.63                              42   -0.76 7  216 356 
 QYDI     IAML A   040 15.63         1.8                                216 356 
 QYDI    ES   0A   040 40.94                              42   -1.51 7  216 356 
                                                                                
 2001  2 3 0040 49.7 L  33.846  52.618 18.6  New  8 0.3 0.6LNew                1
 GAP=160        0.90       2.6     2.1  3.1 -0.4669E+00 -0.2765E+01 -0.4613E+00E
 Action:ARG 24-03-13 14:55 OP:OBSP STATUS:               ID:20010203004050     I
 STAT SP IPHASW D HRMM SECON CODA AMPLIT PERI AZIMU VELO AIN AR TRES W  DIS CAZ7
 XBVK    IP   0A   041  2.45                              93   -0.1710 53.9   7 
 XBVK    ES   0A   041 11.79                              93    0.0010 53.9   7 
 LUEX     IAML A   041  3.78         4.3                               60.1 273 
 LUEX    IP   0A   041  3.78                              93   -0.0410 60.1 273 
 LUEX    ES   0A   041 14.12                              93    0.2810 60.1 273 
 DNOA    IP   0A   041  8.84                              57    0.0910 89.9  54 
 DNOA     IAML A   041  8.84         2.4                               89.9  54 
 DNOA    ES   0A   041 22.96                              57    0.6910 89.9  54 
 DQYH     IAML A   041 10.38         2.0                                101 317 
 DQYH    IP   0A   041 10.38                              57   -0.0910  101 317 
 DQYH    ES   0A   041 25.67                              57    0.4610  101 317 
 APSL    IP   0A   041 12.08                              57   -0.0210  111  72 
 RAWC    IP   0A   041 12.88                              46   -0.0410  116 113 
 VOCA    IP   0A   041 13.44                              43   -0.3710  123  41 
 VOCA     IAML A   041 13.44         1.5                                123  41 
 VOCA    ES   0A   041 31.02                              43    0.1010  123  41 
 QYDI    IP   0A   041 20.09                              43   -0.59 9  175 351 
 QYDI    ES   0A   041 42.04                              43   -0.63 9  175 351 
                                                                                
 2001  2 3 0041 59.6 L  33.775  52.631 18.4  New 12 0.4 0.7LNew                1
 GAP=168        0.91       2.4     1.9  4.7 -0.6992E+00 -0.3644E+00 -0.3446E+01E
 Action:ARG 24-03-13 14:55 OP:OBSP STATUS:               ID:20010203004200     I
 STAT SP IPHASW D HRMM SECON CODA AMPLIT PERI AZIMU VELO AIN AR TRES W  DIS CAZ7
 XBVK    IP   0A   042 14.08                              92    0.0710 61.6   5 
 XBVK    ES   0A   042 24.65                              92    0.4310 61.6   5 
 AVTK    IP   0A   042 16.54                              58    0.1110 76.0 294 
 CBZA     IAML A   042 17.28         3.1                               80.7 257 
 CBZA    IP   0A   042 17.28                              57    0.0810 80.7 257 
 CBZA    ES   0A   042 30.24                              57    0.5710 80.7 257 
 DNOA    IP   0A   042 19.47                              57    0.1410 93.9  49 
 DNOA    ES   0A   042 34.07                              57    0.7610 93.9  49 
 MGUS    IP   0A   042 20.82                              57   -0.2610  105  89 
 MGUS    ES   0A   042 36.43                              57    0.1210  105  89 
 DQYH    IP   0A   042 21.52                              57    0.0510  107 319 
 FOUH     IAML A   042 21.88         1.9                                112   7 
 APSL     IAML A   042 22.03         1.9                                112  68 
 APSL    IP   0A   042 22.03                              57   -0.2510  112  68 
 FOUH    IP   0A   042 21.88                              57   -0.2810  112   7 
 FOUH    ES   0A   042 38.30                              57    0.1410  112   7 
 VOCA    IP   0A   042 24.08                              43   -0.3710  128  38 
 VOCA     IAML A   042 24.08         1.5                                128  38 
 VOCA    ES   0A   042 42.14                              43    0.0710  128  38 
 RPKV     IAML A   042 30.84         0.8                                178 334 
 RPKV    IP   0A   042 30.84                              43   -0.19 8  178 334 
 RPKV    ES   0A   042 53.15                              43   -0.17 8  178 334 
 QYDI     IAML A   042 31.12         0.8                                183 351 
 QYDI    IP   0A   042 31.12                              43   -0.55 8  183 351 
 QYDI    ES   0A   042 53.77                              43   -0.64 8  183 351 
 HLUH     IAML A   042 32.22         0.7                                191 328 
 HLUH    IP   0A   042 32.22                              43   -0.52 8  191 328 
                                                                                
 2001  2 3 0043  8.9 L  33.657  52.482 10.6  New 10 0.3 2.3LNew                1
 GAP=214        0.86       5.6     2.3  4.0  0.8978E+01 -0.4975E+01 -0.1142E+02E
 Action:ARG 24-03-13 14:55 OP:OBSP STATUS:               ID:20010203004310     I
 STAT SP IPHASW D HRMM SECON CODA AMPLIT PERI AZIMU VELO AIN AR TRES W  DIS CAZ7
 LUEX    IP   0A   043 22.65                              53    0.3210 53.3 297 
 LUEX    ES   0A   043 32.14                              53    0.2810 53.3 297 
 RHPW     IAML A   043 25.12       189.2                               64.9  33 
 RHPW    IP   0A   043 25.12                              52    0.5410 64.9  33 
 AVTK    IP   0A   043 25.75                              52    0.0210 70.9 308 
 AVTK    ES   0A   043 37.56                              52   -0.1010 70.9 308 
 DQYH    IP   0A   043 32.30                              41    0.0210  110 329 
 DQYH    ES   0A   043 49.02                              41    0.1510  110 329 
 MGUS    IP   0A   043 33.78                              41   -0.0410  119  83 
 MGUS    ES   0A   043 51.62                              41    0.1210  119  83 
 APSL    IP   0A   043 35.36                              33    0.0510  130  65 
 APSL     IAML A   043 35.36        64.1                                130  65 
 APSL    ES   0A   043 54.38                              33    0.3410  130  65 
 VOCA    IP   0A   043 37.19                              33   -0.3410  147  39 
 VOCA    ES   0A   043 57.58                              33   -0.2710  147  39 
 RPKV    IP   0A   043 42.11                              33   -0.42 8  185 340 
 QYDI    IP   0A   043 43.09                              33   -0.69 8  194 356 
 QYDI     IAML A   043 43.09        32.0                                194 356 
 HLUH    IP   0A   043 43.20                              33   -0.76 8  196 333 
                                                                                
 2001  2 3 0044 19.9 L  33.919  52.683 21.7  New  8 0.3 2.7LNew                1
 GAP=150        0.74       2.2     2.2  2.1 -0.2694E+01  0.2033E+01 -0.6898E+00E
 Action:ARG 24-03-13 14:55 OP:OBSP STATUS:               ID:20010203004420     I
 STAT SP IPHASW D HRMM SECON CODA AMPLIT PERI AZIMU VELO AIN AR TRES W  DIS CAZ7
 RHPW    IP   0A   044 28.52                             113   -0.0210 30.4  34 
 RHPW     IAML A   044 28.52       943.6                               30.4  34 
 RHPW    ES   0A   044 34.91                             113    0.2510 30.4  34 
 LUEX    IP   0A   044 34.70                              60   -0.0910 66.2 266 
 LUEX    ES   0A   044 45.72                              60    0.3710 66.2 266 
 CBZA    IP   0A   044 38.45                              57   -0.2210 90.2 248 
 CBZA    ES   0A   044 52.28                              57    0.3010 90.2 248 
 MGUS    IP   0A   044 40.37                              57   -0.0510  101  98 
 MGUS     IAML A   044 40.37       196.5                                101  98 
 VOCA    IP   0A   044 42.02                              46   -0.2210  113  41 
 VOCA    ES   0A   044 58.54                              46    0.4510  113  41 
 RPKV    IP   0A   044 49.21                              43   -0.07 9  166 331 
 RPKV    ES   0A   045 10.43                              43    0.30 9  166 331 
 QYDI    IP   0A   044 49.15                              43   -0.38 9  168 349 
 QYDI    ES   0A   045 10.48                              43   -0.08 9  168 349 
 HLUH    IP   0A   044 50.69                              43   -0.49 8  181 324 
 HLUH     IAML A   044 50.69        72.8                                181 324 
 HLUH    ES   0A   045 13.00                              43   -0.38 8  181 324 
                                                                                
 2001  2 3 0045 29.9 L  33.641  52.834 30.7  New  8 0.4 2.0LNew                1
 GAP=260        0.97       5.0     4.0  4.3 -0.8932E+01  0.3065E+01  0.2462E+01E
 Action:ARG 24-03-13 14:55 OP:OBSP STATUS:               ID:20010203004530     I
 STAT SP IPHASW D HRMM SECON CODA AMPLIT PERI AZIMU VELO AIN AR TRES W  DIS CAZ7
 RHPW    IP   0A   045 42.88                             100   -0.0410 56.3   3 
 XBVK     IAML A   045 46.09        64.3                               77.4 350 
 XBVK    IP   0A   045 46.09                              96   -0.1910 77.4 350 
 XBVK    ES   0A   045 58.15                              96    0.2010 77.4 350 
 LUEX    IP   0A   045 47.28                              60   -0.1010 84.2 288 
 LUEX    ES   0A   046  0.24                              60    0.4210 84.2 288 
 AVTK    IP   0A   045 49.40                              60   -0.1010 99.5 297 
 AVTK     IAML A   045 49.40        43.9                               99.5 297 
 AVTK    ES   0A   046  3.96                              60    0.5210 99.5 297 
 VOCA     IAML A   045 53.53        28.6                                130  28 
 VOCA    IP   0A   045 53.53                              55   -0.0610  130  28 
 VOCA    ES   0A   046 11.17                              55    0.7310  130  28 
 RPKV    IP   0A   046  2.69                              55   -0.06 8  200 332 
 RPKV    ES   0A   046 25.88                              55   -0.23 8  200 332 
 QYDI    IP   0A   046  2.59                              55   -0.33 8  201 347 
 QYDI    ES   0A   046 25.80                              55   -0.59 8  201 347 
 HLUH    IP   0A   046  4.11                              55   -0.48 7  214 326 
 HLUH     IAML A   046  4.11        11.4                                214 326 
 HLUH    ES   0A   046 28.34                              55   -0.91 7  214 326 
                                                                                
 2001  2 3 0046 39.1 L  33.709  52.462  9.3  New 10 0.4 2.2LNew                1
 GAP=156        0.90       2.5     1.6  3.2  0.1353E+01 -0.1828E+01 -0.2546E+01E
 Action:ARG 24-03-13 14:55 OP:OBSP STATUS:               ID:20010203004640     I
 STAT SP IPHASW D HRMM SECON CODA AMPLIT PERI AZIMU VELO AIN AR TRES W  DIS CAZ7
 LUEX    IP   0A   046 52.10                              56    0.1810 49.2 292 
 LUEX     IAML A   046 52.10       238.9                               49.2 292 
 LUEX    ES   0A   047  1.18                              56    0.1810 49.2 292 
 CBZA    IP   0A   046 54.74                              52   -0.0510 64.0 260 
 CBZA    ES   0A   047  5.80                              52   -0.1210 64.0 260 
 AVTK    IP   0A   046 55.30                              52    0.1110 66.0 305 
 AVTK     IAML A   046 55.30       158.0                               66.0 305 
 AVTK    ES   0A   047  6.77                              52    0.1810 66.0 305 
 DQYH     IAML A   047  2.00        79.5                                104 329 
 DQYH    IP   0A   047  2.00                              41    0.2210  104 329 
 DQYH    ES   0A   047 18.50                              41    0.6310  104 329 
 MGUS    IP   0A   047  4.34                              41   -0.1410  121  86 
 MGUS     IAML A   047  4.34        61.1                                121  86 
 MGUS    ES   0A   047 22.59                              41    0.1210  121  86 
 FOUH    IP   0A   047  4.60                              41   -0.0110  122  14 
 RAWC     IAML A   047  5.06        58.1                                125 104 
 RAWC    IP   0A   047  5.06                              33   -0.0510  125 104 
 RAWC    ES   0A   047 23.85                              33    0.2910  125 104 
 VOCA    IP   0A   047  7.45                              33   -0.1410  144  41 
 VOCA     IAML A   047  7.45        45.6                                144  41 
 VOCA    ES   0A   047 28.03                              33    0.2210  144  41 
 RPKV    IP   0A   047 11.92                              33   -0.29 8  179 340 
 RPKV    ES   0A   047 35.35                              33   -0.36 8  179 340 
 HLUH     IAML A   047 12.99        28.0                                190 333 
 HLUH    IP   0A   047 12.99                              33   -0.66 8  190 333 
 HLUH    ES   0A   047 37.02                              33   -1.15 8  190 333 
                                                                                
 2001  2 3 0047 49.4 L  33.995  52.443 10.2  New  7 0.2 1.3LNew                1
 GAP=118        0.65       1.6     1.2  1.7 -0.9013E+00 -0.3296E+00  0.1420E+01E
 Action:ARG 24-03-13 14:55 OP:OBSP STATUS:               ID:20010203004750     I
 STAT SP IPHASW D HRMM SECON CODA AMPLIT PERI AZIMU VELO AIN AR TRES W  DIS CAZ7
 XBVK    IP   0A   048  0.98                              58    0.1210 43.3  31 
 XBVK    ES   0A   048  9.21                              58    0.2210 43.3  31 
 LUEX    IP   0A   048  1.52                              56    0.1410 45.8 253 
 LUEX    ES   0A   048 10.16                              56    0.2710 45.8 253 
 AVTK     IAML A   048  2.78        21.7                               52.5 277 
 AVTK    IP   0A   048  2.78                              53    0.0610 52.5 277 
 AVTK    ES   0A   048 12.37                              53    0.2010 52.5 277 
 CBZA    IP   0A   048  6.73                              52   -0.2410 74.6 235 
 CBZA     IAML A   048  6.73        13.4                               74.6 235 
 CBZA    ES   0A   048 19.28                              52   -0.1710 74.6 235 
 APSL    IP   0A   048 14.68                              35   -0.2210  123  82 
 APSL     IAML A   048 14.68         6.1                                123  82 
 APSL    ES   0A   048 33.19                              35    0.1810  123  82 
 RAWC    IP   0A   048 16.69                              33   -0.2010  138 117 
 RAWC     IAML A   048 16.69         5.1                                138 117 
 RAWC    ES   0A   048 36.70                              33    0.2910  138 117 
 QYDI    IP   0A   048 18.89                              33   -0.48 9  157 356 
 QYDI    ES   0A   048 40.36                              33   -0.29 9  157 356 
                                                                                
 2001  2 3 0049  0.2 L  33.800  52.591 20.8  New 10 0.3 1.6LNew                1
 GAP=164        0.78       2.2     2.2  3.2 -0.1801E+01  0.3674E+01 -0.1084E+00E
 Action:ARG 24-03-13 14:55 OP:OBSP STATUS:               ID:20010203004900     I
 STAT SP IPHASW D HRMM SECON CODA AMPLIT PERI AZIMU VELO AIN AR TRES W  DIS CAZ7
 RHPW    IP   0A   049 11.52                             100   -0.1510 46.2  33 
 RHPW     IAML A   049 11.52        50.5                               46.2  33 
 RHPW    ES   0A   049 20.16                             100    0.3410 46.2  33 
 XBVK    IP   0A   049 13.82                              64   -0.1610 59.3   9 
 XBVK    ES   0A   049 24.19                              64    0.4310 59.3   9 
 AVTK    IP   0A   049 15.73                              58   -0.3010 71.5 293 
 AVTK    ES   0A   049 27.52                              58    0.2510 71.5 293 
 CBZA    IP   0A   049 16.89                              57   -0.1610 77.8 254 
 CBZA    ES   0A   049 29.56                              57    0.5410 77.8 254 
 MGUS    IP   0A   049 22.06                              57    0.0810  108  91 
 FOUH    IP   0A   049 21.97                              57   -0.1410  109   9 
 FOUH     IAML A   049 21.97        14.9                                109   9 
 APSL    IP   0A   049 23.12                              46    0.2210  115  70 
 VOCA    IP   0A   049 24.62                              43   -0.0810  128  40 
 VOCA     IAML A   049 24.62        11.3                                128  40 
 QYDI    IP   0A   049 31.01                              43   -0.46 8  180 352 
 QYDI    ES   0A   049 53.59                              43   -0.08 8  180 352 
 HLUH    IP   0A   049 31.83                              43   -0.58 8  187 328 
 HLUH     IAML A   049 31.83         5.9                                187 328 
 HLUH    ES   0A   049 55.11                              43   -0.17 8  187 328 
                                                                                
