 2001  2 3 0020 60.0 L  33.801  52.780 24.9  New  9 0.3 1.1LNew                1
 GAP=190        0.85       2.5     1.9  3.6 -0.2346E+01  0.3540E+00 -0.1349E+00E
 Action:ARG 24-03-13 14:55 OP:OBSP STATUS:               ID:20010203002100     I
 STAT SP IPHASW D HRMM SECON CODA AMPLIT PERI AZIMU VELO AIN AR TRES W  DIS CAZ7
 RHPW    IP   0A   021 10.08                              98   -0.1410 39.3  12 
 RHPW     IAML A   021 10.08        22.4                               39.3  12 
 RHPW    ES   0A   021 17.63                              98    0.1610 39.3  12 
 XBVK    IP   0A   021 13.28                              75   -0.2210 59.0 352 
 XBVK    ES   0A   021 23.23                              75    0.1310 59.0 352 
 LUEX    IP   0A   021 16.04                              72   -0.1210 75.5 276 
 LUEX     IAML A   021 16.04         9.3                               75.5 276 
 LUEX    ES   0A   021 28.06                              72    0.4210 75.5 276 
 DNOA     IAML A   021 17.15         8.3                               81.8  45 
 DNOA    IP   0A   021 17.15                              72   -0.0310 81.8  45 
 DNOA    ES   0A   021 30.02                              72    0.6310 81.8  45 
 CBZA    IP   0A   021 19.10                              72   -0.1810 94.8 257 
 CBZA    ES   0A   021 33.42                              72    0.4510 94.8 257 
 APSL    IP   0A   021 19.57                              72   -0.2810 98.4  67 
 APSL     IAML A   021 19.57         6.3                               98.4  67 
 APSL    ES   0A   021 34.25                              72    0.3010 98.4  67 
 VOCA     IAML A   021 22.18         4.7                                118  34 
 VOCA    IP   0A   021 22.18                              51   -0.4210  118  34 
 VOCA    ES   0A   021 38.82                              51    0.1610  118  34 
 RPKV    IP   0A   021 30.79                              51   -0.28 8  182 330 
 RPKV    ES   0A   021 53.13                              51   -0.01 8  182 330 
 QYDI    IP   0A   021 30.59                              51   -0.59 8  183 347 
 QYDI    ES   0A   021 52.93                              51   -0.39 8  183 347 
                                                                                
 2001  2 3 0022  9.7 L  33.783  52.562 16.3  New 12 0.3 0.5LNew                1
 GAP=146        0.90       2.2     1.8  3.5  0.7496E+00 -0.1053E+01  0.1357E+01E
 Action:ARG 24-03-13 14:55 OP:OBSP STATUS:               ID:20010203002210     I
 STAT SP IPHASW D HRMM SECON CODA AMPLIT PERI AZIMU VELO AIN AR TRES W  DIS CAZ7
 RHPW    IP   0A   022 21.81                              78    0.0710 49.2  35 
 RHPW     IAML A   022 21.81         4.4                               49.2  35 
 XBVK    IP   0A   022 24.11                              78   -0.0010 61.5  11 
 XBVK    ES   0A   022 34.69                              78    0.3510 61.5  11 
 AVTK     IAML A   022 25.76         2.7                               69.8 295 
 AVTK    IP   0A   022 25.76                              60    0.0510 69.8 295 
 AVTK    ES   0A   022 37.59                              60    0.5310 69.8 295 
 CBZA    IP   0A   022 26.84                              58    0.3110 74.8 255 
 DNOA    IP   0A   022 30.32                              55   -0.0210 98.2  52 
 DNOA    ES   0A   022 45.56                              55    0.5810 98.2  52 
 DQYH    IP   0A   022 31.06                              55    0.0410  102 322 
 MGUS    IP   0A   022 32.08                              55   -0.3310  111  90 
 MGUS    ES   0A   022 48.63                              55    0.1010  111  90 
 FOUH     IAML A   022 32.13         1.3                                112  10 
 FOUH    IP   0A   022 32.13                              55   -0.3510  112  10 
 RAWC    IP   0A   022 33.28                              45   -0.2710  118 109 
 RAWC    ES   0A   022 50.74                              45    0.2710  118 109 
 APSL     IAML A   022 33.18         1.2                                118  70 
 APSL    IP   0A   022 33.18                              45   -0.2910  118  70 
 APSL    ES   0A   022 50.56                              45    0.2310  118  70 
 RPKV    IP   0A   022 40.70                              42   -0.26 9  175 336 
 RPKV     IAML A   022 40.70         0.6                                175 336 
 RPKV    ES   0A   023  2.97                              42   -0.17 9  175 336 
 QYDI    IP   0A   022 41.16                              42   -0.66 8  181 353 
 QYDI    ES   0A   023  3.84                              42   -0.77 8  181 353 
                                                                                
 2001  2 3 0023 19.5 L  34.023  52.861 24.7  New 10 0.3 3.3LNew                1
 GAP=117        0.71       1.7     1.3  1.8 -0.1032E+00  0.3117E+00  0.1105E+01E
 Action:ARG 24-03-13 14:55 OP:OBSP STATUS:               ID:20010203002320     I
 STAT SP IPHASW D HRMM SECON CODA AMPLIT PERI AZIMU VELO AIN AR TRES W  DIS CAZ7
 RHPW    IP   0A   023 25.98                             141    0.0810 13.9   2 
 RHPW    ES   0A   023 30.46                             141   -0.0110 13.9   2 
 FOUH    IP   0A   023 36.89                              72   -0.0610 83.6 355 
 LUEX     IAML A   023 37.09      1171.6                               84.1 259 
 LUEX    IP   0A   023 37.09                              72    0.0610 84.1 259 
 LUEX    ES   0A   023 49.90                              72    0.3910 84.1 259 
 APSL    IP   0A   023 37.09                              72    0.0410 84.2  81 
 APSL     IAML A   023 37.09      1204.5                               84.2  81 
 APSL    ES   0A   023 49.91                              72    0.3710 84.2  81 
 VOCA    IP   0A   023 38.36                              72   -0.1610 93.3  38 
 VOCA    ES   0A   023 52.12                              72    0.0710 93.3  38 
 DQYH    IP   0A   023 40.55                              55    0.0510  106 301 
 DQYH    ES   0A   023 55.97                              55    0.5410  106 301 
 RAWC    IP   0A   023 40.45                              55   -0.2010  107 128 
 RAWC    ES   0A   023 55.78                              55    0.1010  107 128 
 CBZA    IP   0A   023 40.70                              55   -0.3610  110 246 
 CBZA    ES   0A   023 56.22                              55   -0.1810  110 246 
 QYDI    IP   0A   023 47.23                              51   -0.58 9  161 342 
 RPKV    IP   0A   023 48.22                              51   -0.16 9  165 324 
 RPKV     IAML A   023 48.22       394.4                                165 324 
 RPKV    ES   0A   024  8.75                              51   -0.16 9  165 324 
                                                                                
 2001  2 3 0024 29.0 L  33.288  52.535 11.3  New  8 0.4 3.2LNew                1
 GAP=215        0.87       4.7     2.3  4.6  0.4864E+01 -0.3091E+01 -0.1257E+02E
 Action:ARG 24-03-13 14:55 OP:OBSP STATUS:               ID:20010203002430     I
 STAT SP IPHASW D HRMM SECON CODA AMPLIT PERI AZIMU VELO AIN AR TRES W  DIS CAZ7
 CBZA    IP   0A   024 47.19                              43    0.0510 78.4 297 
 CBZA    ES   0A   025  0.08                              43    0.0710 78.4 297 
 LUEX    IP   0A   024 48.21                              42    0.2210 83.6 321 
 LUEX    ES   0A   025  1.86                              42    0.3910 83.6 321 
 RAWC    IP   0A   024 53.14                              41    0.0110  115  82 
 RAWC    ES   0A   025 10.50                              41    0.2410  115  82 
 XBVK     IAML A   024 53.27       639.9                                116   7 
 XBVK    IP   0A   024 53.27                              41    0.0010  116   7 
 XBVK    ES   0A   025 10.73                              41    0.2410  116   7 
 DNOA    IP   0A   024 56.44                              33   -0.1710  140  35 
 DNOA    ES   0A   025 16.26                              33    0.0510  140  35 
 APSL    IP   0A   024 57.55                              33   -0.0810  148  50 
 APSL     IAML A   024 57.55       428.0                                148  50 
 FOUH    IP   0A   024 59.81                              33   -0.21 9  166   8 
 RPKV    IP   0A   025  7.31                              33   -0.48 7  225 342 
 RPKV    ES   0A   025 33.87                              33   -1.45 7  225 342 
                                                                                
 2001  2 3 0025 39.6 L  34.059  52.936 28.6  New 12 0.2 1.0LNew                1
 GAP=113        0.51       1.5     1.0  2.4  0.3480E+00  0.1166E+01  0.1461E+01E
 Action:ARG 24-03-13 14:55 OP:OBSP STATUS:               ID:20010203002540     I
 STAT SP IPHASW D HRMM SECON CODA AMPLIT PERI AZIMU VELO AIN AR TRES W  DIS CAZ7
 DNOA    IP   0A   025 52.03                              96    0.0610 52.3  56 
 APSL     IAML A   025 55.83         7.1                               76.8  83 
 APSL    IP   0A   025 55.83                              92   -0.0810 76.8  83 
 APSL    ES   0A   026  7.70                              92    0.2110 76.8  83 
 FOUH     IAML A   025 56.60         6.5                               80.6 350 
 FOUH    IP   0A   025 56.60                              92    0.0910 80.6 350 
 MGUS     IAML A   025 56.68         6.5                               82.2 112 
 MGUS    IP   0A   025 56.68                              92   -0.1010 82.2 112 
 MGUS    ES   0A   026  9.19                              92    0.2110 82.2 112 
 VOCA    IP   0A   025 57.32                              92   -0.0610 86.0  37 
 LUEX    IP   0A   025 58.12                              92   -0.1810 91.7 257 
 LUEX     IAML A   025 58.12         5.5                               91.7 257 
 LUEX    ES   0A   026 11.71                              92    0.1310 91.7 257 
 AVTK     IAML A   025 59.01         5.0                               97.7 270 
 AVTK    IP   0A   025 59.01                              60   -0.1610 97.7 270 
 AVTK    ES   0A   026 13.27                              60    0.2110 97.7 270 
 RAWC    IP   0A   025 59.78                              60   -0.2810  104 132 
 RAWC    ES   0A   026 14.61                              60    0.0110  104 132 
 DQYH    IP   0A   026  1.06                              55    0.2310  110 297 
 CBZA    IP   0A   026  1.67                              55   -0.2010  118 245 
 CBZA    ES   0A   026 17.90                              55    0.2210  118 245 
 RPKV    IP   0A   026  8.23                              55   -0.05 9  166 321 
 RPKV     IAML A   026  8.23         2.0                                166 321 
 HLUH    IP   0A   026 10.19                              55   -0.40 8  184 315 
                                                                                
 2001  2 3 0026 49.9 L  33.758  52.547 17.7  New 10 0.5 0.8LNew                1
 GAP=149        1.16       2.8     2.4  3.8 -0.3313E+00 -0.4421E+00  0.3761E+01E
 Action:ARG 24-03-13 14:55 OP:OBSP STATUS:               ID:20010203002650     I
 STAT SP IPHASW D HRMM SECON CODA AMPLIT PERI AZIMU VELO AIN AR TRES W  DIS CAZ7
 RHPW    IP   0A   027  2.62                              92    0.0910 52.3  34 
 RHPW     IAML A   027  2.62         7.3                               52.3  34 
 XBVK     IAML A   027  4.83         5.5                               64.6  12 
 XBVK    IP   0A   027  4.83                              91   -0.0510 64.6  12 
 XBVK    ES   0A   027 15.95                              91    0.4510 64.6  12 
 CBZA     IAML A   027  6.26         4.7                               72.7 257 
 CBZA    IP   0A   027  6.26                              60    0.0010 72.7 257 
 CBZA    ES   0A   027 18.46                              60    0.6110 72.7 257 
 DNOA     IAML A   027 10.76         2.8                                101  51 
 DNOA    IP   0A   027 10.76                              57   -0.0910  101  51 
 DNOA    ES   0A   027 26.34                              57    0.6310  101  51 
 DQYH    IP   0A   027 11.24                              57   -0.0610  104 323 
 DQYH    ES   0A   027 27.16                              57    0.6910  104 323 
 FOUH    IP   0A   027 12.58                              57   -0.4410  115  11 
 RAWC     IAML A   027 13.27         2.2                                119 108 
 RAWC    IP   0A   027 13.27                              43   -0.3510  119 108 
 RAWC    ES   0A   027 30.72                              43    0.2710  119 108 
 APSL    IP   0A   027 13.46                              43   -0.3310  120  69 
 APSL    ES   0A   027 31.06                              43    0.3210  120  69 
 QYDI    IP   0A   027 21.47                              43   -0.70 8  184 354 
 QYDI     IAML A   027 21.47         1.0                                184 354 
 QYDI    ES   0A   027 44.34                              43   -0.72 8  184 354 
 HLUH    IP   0A   027 22.15                              43   -0.67 8  189 330 
 HLUH    ES   0A   027 45.63                              43   -0.54 8  189 330 
                                                                                
 2001  2 3 0027 59.5 L  33.818  52.240  4.1  New  9 0.5 1.4LNew                1
 GAP=135        1.20       2.5     2.3  3.8 -0.1448E+01 -0.2221E+01 -0.3275E+01E
 Action:ARG 24-03-13 14:55 OP:OBSP STATUS:               ID:20010203002800     I
 STAT SP IPHASW D HRMM SECON CODA AMPLIT PERI AZIMU VELO AIN AR TRES W  DIS CAZ7
 CBZA    IP   0A   028 12.57                              61    0.1810 48.3 241 
 CBZA    ES   0A   028 21.99                              61    0.4710 48.3 241 
 RHPW     IAML A   028 17.16        20.7                               68.4  57 
 RHPW    IP   0A   028 17.16                              44    0.2410 68.4  57 
 RHPW    ES   0A   028 30.04                              44    0.7710 68.4  57 
 XBVK    IP   0A   028 17.27                              44    0.0110 70.1  36 
 XBVK    ES   0A   028 30.22                              44    0.3710 70.1  36 
 DQYH    IP   0A   028 20.00                              44    0.1310 83.7 336 
 DQYH     IAML A   028 20.00        15.2                               83.7 336 
 DQYH    ES   0A   028 35.00                              44    0.6910 83.7 336 
 FOUH     IAML A   028 25.00         9.2                                117  25 
 FOUH    IP   0A   028 25.00                              35   -0.3010  117  25 
 FOUH    ES   0A   028 43.75                              35    0.1610  117  25 
 DNOA    IP   0A   028 25.65                              35   -0.3610  121  62 
 DNOA     IAML A   028 25.65         8.7                                121  62 
 DNOA    ES   0A   028 44.90                              35    0.1010  121  62 
 RAWC    IP   0A   028 29.25                              28   -0.4410  148 107 
 RAWC     IAML A   028 29.25         6.2                                148 107 
 RAWC    ES   0A   028 51.16                              28    0.0610  148 107 
 HLUH    IP   0A   028 31.98                              28   -0.62 9  170 337 
 HLUH    ES   0A   028 55.46                              28   -0.62 9  170 337 
 QYDI     IAML A   028 32.69         4.5                                176   2 
 QYDI    IP   0A   028 32.69                              28   -0.71 8  176   2 
 QYDI    ES   0A   028 56.54                              28   -0.90 8  176   2 
                                                                                
 2001  2 3 0029  9.7 L  34.133  52.861 26.6  New 11 0.3 1.5LNew                1
 GAP=107        0.88       1.8     1.6  2.9  0.3265E+00  0.1605E+00 -0.3655E+00E
 Action:ARG 24-03-13 14:55 OP:OBSP STATUS:               ID:20010203002910     I
 STAT SP IPHASW D HRMM SECON CODA AMPLIT PERI AZIMU VELO AIN AR TRES W  DIS CAZ7
 RHPW    IP   0A   029 15.28                             175   -0.4210 1.69  11 
 DNOA    IP   0A   029 22.42                              80   -0.0310 54.4  67 
 DNOA    ES   0A   029 31.73                              80    0.2610 54.4  67 
 FOUH    IP   0A   029 25.27                              80    0.0810 71.4 354 
 FOUH    ES   0A   029 36.72                              80    0.5610 71.4 354 
 LUEX    IP   0A   029 27.69                              80   -0.0610 87.3 251 
 LUEX    ES   0A   029 40.96                              80    0.4210 87.3 251 
 AVTK    IP   0A   029 28.37                              80   -0.0110 91.2 264 
 AVTK    ES   0A   029 42.14                              80    0.5310 91.2 264 
 MGUS    IP   0A   029 28.33                              80   -0.1410 91.8 115 
 MGUS    ES   0A   029 42.08                              80    0.3110 91.8 115 
 DQYH    IP   0A   029 29.97                              58    0.1510  100 295 
 DQYH     IAML A   029 29.97        13.0                                100 295 
 RAWC    IP   0A   029 31.53                              54   -0.2710  115 133 
 RAWC    ES   0A   029 47.67                              54    0.2110  115 133 
 CBZA    IP   0A   029 31.41                              54   -0.4810  115 240 
 QYDI    IP   0A   029 35.94                              54   -0.43 9  149 341 
 QYDI    ES   0A   029 55.15                              54   -0.12 9  149 341 
 HLUH    IP   0A   029 39.09                              54   -0.42 9  173 315 
 HLUH    ES   0A   030  0.22                              54   -0.42 9  173 315 
                                                                                
