 2001  2 3 0030 20.3 L  33.712  52.713 28.9  New 12 0.3 0.7LNew                1
 GAP=155        0.90       2.1     2.1  3.7 -0.2888E+00 -0.3746E+01  0.1456E+01E
 Action:ARG 24-03-13 14:55 OP:OBSP STATUS:               ID:20010203003020     I
 STAT SP IPHASW D HRMM SECON CODA AMPLIT PERI AZIMU VELO AIN AR TRES W  DIS CAZ7
 RHPW    IP   0A   030 32.19                              98   -0.1910 50.3  16 
 RHPW    ES   0A   030 41.32                              98    0.3810 50.3  16 
 XBVK    IP   0A   030 34.93                              94   -0.3410 68.3 358 
 XBVK    ES   0A   030 46.13                              94    0.2510 68.3 358 
 LUEX    IP   0A   030 35.66                              93   -0.0710 71.2 285 
 CBZA    IP   0A   030 38.11                              92   -0.1710 87.0 263 
 CBZA     IAML A   030 38.11         2.8                               87.0 263 
 CBZA    ES   0A   030 51.69                              92    0.6610 87.0 263 
 DNOA     IAML A   030 38.96         2.6                               93.2  43 
 DNOA    IP   0A   030 38.96                              60   -0.2710 93.2  43 
 DNOA    ES   0A   030 53.18                              60    0.5110 93.2  43 
 MGUS    IP   0A   030 39.41                              60   -0.4210 97.5  85 
 MGUS     IAML A   030 39.41         2.4                               97.5  85 
 MGUS    ES   0A   030 53.96                              60    0.2710 97.5  85 
 RAWC    IP   0A   030 40.24                              60   -0.3110  103 108 
 RAWC     IAML A   030 40.24         2.3                                103 108 
 RAWC    ES   0A   030 55.42                              60    0.5010  103 108 
 DQYH    IP   0A   030 42.74                              55    0.2210  118 319 
 FOUH    IP   0A   030 42.34                              55   -0.2210  118   3 
 DQYH     IAML A   030 42.74         1.7                                118 319 
 VOCA    IP   0A   030 43.79                              55   -0.2810  129  34 
 VOCA     IAML A   030 43.79         1.5                                129  34 
 QYDI    IP   0A   030 51.86                              55   -0.35 8  191 349 
 QYDI    ES   0A   031 14.92                              55    0.06 8  191 349 
 HLUH     IAML A   030 53.10         0.7                                201 327 
 HLUH    IP   0A   030 53.10                              55   -0.43 8  201 327 
 HLUH    ES   0A   031 16.97                              55   -0.14 8  201 327 
                                                                                
 2001  2 3 0031 29.8 L  33.696  52.521 18.7  New 10 0.3 1.7LNew                1
 GAP=206        0.82       2.7     1.9  2.6 -0.3761E+00 -0.1795E+01  0.3743E+00E
 Action:ARG 24-03-13 14:55 OP:OBSP STATUS:               ID:20010203003130     I
 STAT SP IPHASW D HRMM SECON CODA AMPLIT PERI AZIMU VELO AIN AR TRES W  DIS CAZ7
 LUEX    IP   0A   031 42.91                              93    0.0710 54.8 291 
 LUEX    ES   0A   031 52.60                              93    0.4710 54.8 291 
 RHPW    IP   0A   031 43.59                              93   -0.1310 59.4  32 
 RHPW    ES   0A   031 53.78                              93    0.1510 59.4  32 
 AVTK     IAML A   031 45.68        35.6                               71.3 304 
 AVTK    IP   0A   031 45.68                              60   -0.0810 71.3 304 
 XBVK     IAML A   031 45.73        35.7                               71.8  12 
 XBVK    IP   0A   031 45.73                              60   -0.1110 71.8  12 
 XBVK    ES   0A   031 57.52                              60    0.2510 71.8  12 
 DNOA    IP   0A   031 51.51                              57   -0.0710  107  49 
 MGUS    IP   0A   031 52.81                              46   -0.0410  115  85 
 MGUS    ES   0A   032  9.92                              46    0.6810  115  85 
 FOUH    IP   0A   031 53.32                              43   -0.3810  122  11 
 FOUH     IAML A   031 53.32        15.7                                122  11 
 FOUH    ES   0A   032 10.81                              43    0.1110  122  11 
 VOCA    IP   0A   031 55.88                              43   -0.3910  141  39 
 VOCA     IAML A   031 55.88        12.1                                141  39 
 RPKV    IP   0A   032  1.39                              43   -0.25 8  182 338 
 RPKV     IAML A   032  1.39         7.7                                182 338 
 RPKV    ES   0A   032 24.31                              43    0.03 8  182 338 
 QYDI    IP   0A   032  2.11                              43   -0.62 8  190 355 
                                                                                
 2001  2 3 0032 39.0 L  33.468  52.569 14.7  New  8 0.2 1.1LNew                1
 GAP=210        0.43       1.7     0.9  2.4  0.6023E-01 -0.5062E+00 -0.1854E+01E
 Action:ARG 24-03-13 14:55 OP:OBSP STATUS:               ID:20010203003240     I
 STAT SP IPHASW D HRMM SECON CODA AMPLIT PERI AZIMU VELO AIN AR TRES W  DIS CAZ7
 LUEX    IP   0A   032 55.51                              68    0.1010 71.5 309 
 LUEX    ES   0A   033  7.14                              68    0.0710 71.5 309 
 CBZA     IAML A   032 56.00         9.7                               74.6 282 
 CBZA    IP   0A   032 56.00                              53    0.0310 74.6 282 
 CBZA    ES   0A   033  8.01                              53   -0.0210 74.6 282 
 RHPW    IP   0A   032 57.03                              52    0.1310 80.2  20 
 RHPW    ES   0A   033  9.80                              52    0.1910 80.2  20 
 AVTK    IP   0A   032 58.67                              51    0.0510 90.9 315 
 AVTK    ES   0A   033 12.68                              51    0.1210 90.9 315 
 XBVK    IP   0A   032 59.30                              51   -0.1510 96.0   7 
 XBVK     IAML A   032 59.30         6.7                               96.0   7 
 XBVK    ES   0A   033 13.78                              51   -0.1910 96.0   7 
 MGUS     IAML A   033  2.66         4.7                                116  72 
 MGUS    IP   0A   033  2.66                              51   -0.0310  116  72 
 MGUS    ES   0A   033 19.66                              51    0.1510  116  72 
 FOUH    IP   0A   033  6.52                              40   -0.1910  146   7 
 FOUH     IAML A   033  6.52         3.4                                146   7 
 FOUH    ES   0A   033 26.36                              40   -0.0310  146   7 
 RPKV    IP   0A   033 14.34                              40   -0.44 7  207 340 
 RPKV     IAML A   033 14.34         1.7                                207 340 
                                                                                
 2001  2 3 0033 49.2 L  33.618  52.223  8.4  New 12 0.4 2.3LNew                1
 GAP=222        0.99       4.1     4.2  2.9  0.1346E+02 -0.8587E+01 -0.5484E+01E
 Action:ARG 24-03-13 14:55 OP:OBSP STATUS:               ID:20010203003350     I
 STAT SP IPHASW D HRMM SECON CODA AMPLIT PERI AZIMU VELO AIN AR TRES W  DIS CAZ7
 LUEX    IP   0A   033 59.15                              95    0.1410 36.9 320 
 LUEX    ES   0A   034  6.01                              95    0.0110 36.9 320 
 AVTK    IP   0A   034  3.98                              53    0.2510 57.6 326 
 RHPW    IP   0A   034  8.64                              43   -0.0110 83.5  45 
 RHPW    ES   0A   034 22.62                              43    0.1310 83.5  45 
 DQYH    IP   0A   034 12.26                              41    0.3210  104 342 
 DQYH    ES   0A   034 28.95                              41    0.8310  104 342 
 DNOA    IP   0A   034 16.37                              33   -0.1910  134  54 
 DNOA     IAML A   034 16.37        54.4                                134  54 
 FOUH    IP   0A   034 16.68                              33   -0.3410  138  22 
 FOUH    ES   0A   034 36.68                              33   -0.1310  138  22 
 MGUS    IP   0A   034 17.48                              33   -0.3310  144  82 
 MGUS     IAML A   034 17.48        47.1                                144  82 
 RAWC    IP   0A   034 17.98                              33    0.0510  145  98 
 RAWC     IAML A   034 17.98        45.7                                145  98 
 RAWC    ES   0A   034 38.95                              33    0.6010  145  98 
 APSL    IP   0A   034 19.03                              33   -0.09 9  154  67 
 APSL    ES   0A   034 40.77                              33    0.38 9  154  67 
 RPKV    IP   0A   034 22.73                              33   -0.14 8  182 347 
 RPKV     IAML A   034 22.73        30.6                                182 347 
 RPKV    ES   0A   034 46.71                              33   -0.09 8  182 347 
 HLUH    IP   0A   034 23.67                              33   -0.24 8  190 340 
 HLUH    ES   0A   034 48.20                              33   -0.38 8  190 340 
 QYDI    IP   0A   034 24.36                              33   -0.63 8  198   3 
 QYDI    ES   0A   034 49.30                              33   -1.12 8  198   3 
                                                                                
 2001  2 3 0034 59.1 L  33.396  52.770 14.6  New 12 0.5 1.8LNew                1
 GAP=220        1.14       8.1     2.6  7.4 -0.3368E+01  0.1695E+01 -0.4228E+02E
 Action:ARG 24-03-13 14:55 OP:OBSP STATUS:               ID:20010203003500     I
 STAT SP IPHASW D HRMM SECON CODA AMPLIT PERI AZIMU VELO AIN AR TRES W  DIS CAZ7
 LUEX    IP   0A   035 19.20                              51    0.4410 91.2 306 
 LUEX     IAML A   035 19.20        33.4                               91.2 306 
 LUEX    ES   0A   035 33.61                              51    0.8710 91.2 306 
 CBZA    IP   0A   035 19.23                              51   -0.0810 94.7 285 
 CBZA    ES   0A   035 33.65                              51   -0.0410 94.7 285 
 MGUS    IP   0A   035 20.57                              51    0.1310  102  65 
 XBVK    IP   0A   035 21.02                              51    0.2710  104 356 
 AVTK    IP   0A   035 21.64                              51   -0.1310  110 312 
 AVTK     IAML A   035 21.64        25.0                                110 312 
 AVTK    ES   0A   035 37.87                              51   -0.0210  110 312 
 DNOA     IAML A   035 23.27        21.6                                119  30 
 DNOA    IP   0A   035 23.27                              42    0.1210  119  30 
 DNOA    ES   0A   035 40.72                              42    0.4710  119  30 
 APSL     IAML A   035 23.82        20.5                                124  48 
 APSL    IP   0A   035 23.82                              40   -0.0410  124  48 
 APSL    ES   0A   035 41.66                              40    0.2010  124  48 
 FOUH    IP   0A   035 27.41                              40   -0.26 9  153   0 
 FOUH    ES   0A   035 47.80                              40   -0.18 9  153   0 
 VOCA    IP   0A   035 28.09                              40   -0.20 9  157  25 
 VOCA     IAML A   035 28.09        13.5                                157  25 
 RPKV    IP   0A   035 36.26                              40   -0.50 7  222 336 
 RPKV     IAML A   035 36.26         7.1                                222 336 
 RPKV    ES   0A   036  1.90                              40   -1.62 7  222 336 
 QYDI    IP   0A   035 36.64                              40   -0.76 7  226 350 
 HLUH    IP   0A   035 37.52                              40   -0.84 6  234 331 
                                                                                
 2001  2 3 0036  9.7 L  33.992  52.740 22.3  New  9 0.3 2.4LNew                1
 GAP=141        0.69       1.7     1.2  2.2 -0.3421E+00  0.9974E-01  0.1531E+01E
 Action:ARG 24-03-13 14:55 OP:OBSP STATUS:               ID:20010203003610     I
 STAT SP IPHASW D HRMM SECON CODA AMPLIT PERI AZIMU VELO AIN AR TRES W  DIS CAZ7
 RHPW    IP   0A   036 16.75                             120    0.0210 20.8  34 
 RHPW     IAML A   036 16.75       721.4                               20.8  34 
 RHPW    ES   0A   036 21.81                             120    0.0610 20.8  34 
 XBVK    IP   0A   036 19.50                              92   -0.0610 37.6 353 
 XBVK    ES   0A   036 26.63                              92    0.0410 37.6 353 
 DNOA     IAML A   036 25.30       149.1                               71.6  59 
 DNOA    IP   0A   036 25.30                              66   -0.0510 71.6  59 
 DNOA    ES   0A   036 36.78                              66    0.2910 71.6  59 
 AVTK    IP   0A   036 26.79                              66    0.1010 79.9 275 
 AVTK    ES   0A   036 39.38                              66    0.6010 79.9 275 
 APSL     IAML A   036 29.12        97.4                               95.8  80 
 APSL    IP   0A   036 29.12                              66   -0.1410 95.8  80 
 APSL    ES   0A   036 43.45                              66    0.2710 95.8  80 
 MGUS    IP   0A   036 29.22                              66   -0.2810 97.3 103 
 MGUS    ES   0A   036 43.64                              66    0.0510 97.3 103 
 CBZA    IP   0A   036 29.39                              66   -0.2610 98.2 245 
 CBZA    ES   0A   036 43.94                              66    0.1010 98.2 245 
 VOCA    IP   0A   036 30.21                              66   -0.2410  103  42 
 VOCA    ES   0A   036 45.36                              66    0.1410  103  42 
 HLUH    IP   0A   036 39.99                              49   -0.43 8  177 321 
 HLUH    ES   0A   037  1.78                              49   -0.48 8  177 321 
                                                                                
 2001  2 3 0037 19.2 L  34.112  52.405  9.2  New 10 0.3 1.3LNew                1
 GAP=191        0.85       2.1     1.8  1.8  0.1188E+01  0.1143E+01  0.9570E+00E
 Action:ARG 24-03-13 14:55 OP:OBSP STATUS:               ID:20010203003720     I
 STAT SP IPHASW D HRMM SECON CODA AMPLIT PERI AZIMU VELO AIN AR TRES W  DIS CAZ7
 XBVK    IP   0A   037 28.82                              97    0.1110 35.4  47 
 XBVK     IAML A   037 28.82        41.3                               35.4  47 
 XBVK    ES   0A   037 35.44                              97   -0.0310 35.4  47 
 RHPW    IP   0A   037 30.73                              96    0.2810 42.6  85 
 RHPW     IAML A   037 30.73        31.0                               42.6  85 
 DQYH    IP   0A   037 35.46                              52    0.2310 65.8 312 
 DQYH    ES   0A   037 47.05                              52    0.4410 65.8 312 
 FOUH    IP   0A   037 38.10                              43    0.0010 80.9  25 
 FOUH    ES   0A   037 51.68                              43    0.1510 80.9  25 
 DNOA    IP   0A   037 40.56                              41    0.1410 95.1  75 
 DNOA    ES   0A   037 55.98                              41    0.4910 95.1  75 
 VOCA    IP   0A   037 43.69                              41   -0.4810  118  58 
 VOCA    ES   0A   038  1.46                              41   -0.4410  118  58 
 APSL    IP   0A   037 44.93                              33   -0.2910  125  88 
 RPKV    IP   0A   037 46.30                              33   -0.2610  135 335 
 RPKV    ES   0A   038  6.02                              33    0.0210  135 335 
 RAWC     IAML A   037 48.00         4.9                                147 121 
 RAWC    IP   0A   037 48.00                              33   -0.1210  147 121 
 RAWC    ES   0A   038  8.97                              33    0.3110  147 121 
 HLUH     IAML A   037 47.66         5.0                                148 327 
 HLUH    IP   0A   037 47.66                              33   -0.6110  148 327 
                                                                                
 2001  2 3 0038 29.6 L  33.801  52.959 30.6  New 11 0.3 1.5LNew                1
 GAP=140        0.72       1.7     1.7  3.2  0.3957E+00  0.3532E+01  0.2898E+00E
 Action:ARG 24-03-13 14:55 OP:OBSP STATUS:               ID:20010203003830     I
 STAT SP IPHASW D HRMM SECON CODA AMPLIT PERI AZIMU VELO AIN AR TRES W  DIS CAZ7
 XBVK    IP   0A   038 43.72                              98   -0.0710 63.5 337 
 XBVK     IAML A   038 43.72        29.2                               63.5 337 
 XBVK    ES   0A   038 54.01                              98    0.1310 63.5 337 
 DNOA    IP   0A   038 44.92                              96   -0.0910 71.1  35 
 DNOA    ES   0A   038 56.10                              96    0.1410 71.1  35 
 MGUS     IAML A   038 45.46        24.2                               74.4  91 
 MGUS    IP   0A   038 45.46                              96   -0.0710 74.4  91 
 MGUS    ES   0A   038 57.05                              96    0.2010 74.4  91 
 APSL    IP   0A   038 46.75                              95   -0.2110 83.4  63 
 APSL    ES   0A   038 59.31                              95    0.0010 83.4  63 
 RAWC     IAML A   038 47.12        19.8                               85.6 119 
 RAWC    IP   0A   038 47.12                              60   -0.1910 85.6 119 
 RAWC    ES   0A   038 59.95                              60    0.0610 85.6 119 
 LUEX    IP   0A   038 48.14                              60   -0.0510 92.0 275 
 LUEX    ES   0A   039  1.75                              60    0.3510 92.0 275 
 AVTK    IP   0A   038 49.71                              55   -0.0910  104 286 
 AVTK    ES   0A   039  4.49                              55    0.3310  104 286 
 VOCA    ES   0A   039  5.89                              55    0.4610  109  27 
 FOUH    IP   0A   038 50.34                              55   -0.1810  109 351 
 VOCA    IP   0A   038 50.51                              55   -0.0310  109  27 
 CBZA    IP   0A   038 50.88                              55    0.1110  111 259 
 CBZA     IAML A   038 50.88        13.0                                111 259 
 HLUH    IP   0A   039  2.94                              55   -0.42 7  207 320 
 HLUH     IAML A   039  2.94         4.3                                207 320 
 HLUH    ES   0A   039 26.31                              55   -1.04 7  207 320 
                                                                                
