 2001  2 3 0109 59.4 L  33.555  52.554 15.3  New 12 0.4 4.3LNew                1
 GAP=178        0.95       3.4     1.8  5.1  0.1230E+01 -0.2104E+01 -0.4326E+01E
 Action:ARG 24-03-13 14:55 OP:OBSP STATUS:               ID:20010203011000     I
 STAT SP IPHASW D HRMM SECON CODA AMPLIT PERI AZIMU VELO AIN AR TRES W  DIS CAZ7
 CBZA    IP   0A   110 15.75                              57   -0.1210 71.8 275 
 CBZA     IAML A   110 15.75     14605.3                               71.8 275 
 RHPW    IP   0A   110 16.25                              57    0.3710 71.8  24 
 CBZA    ES   0A   110 27.56                              57    0.0310 71.8 275 
 AVTK    IP   0A   110 17.91                              53    0.1510 83.2 311 
 AVTK    ES   0A   110 31.33                              53    0.5610 83.2 311 
 XBVK    IP   0A   110 18.46                              53    0.1410 86.7   8 
 XBVK     IAML A   110 18.46     10858.5                               86.7   8 
 RAWC    IP   0A   110 22.60                              53   -0.0210  113  97 
 RAWC    ES   0A   110 39.55                              53    0.4710  113  97 
 MGUS    IP   0A   110 22.48                              53   -0.3910  115  77 
 MGUS    ES   0A   110 39.34                              53   -0.1510  115  77 
 DNOA    IP   0A   110 22.92                              53   -0.1310  116  42 
 DNOA    ES   0A   110 40.11                              53    0.3010  116  42 
 DQYH    IP   0A   110 24.08                              41    0.0510  123 329 
 DQYH     IAML A   110 24.08      6340.5                                123 329 
 APSL    IP   0A   110 24.69                              41   -0.1910  129  59 
 APSL     IAML A   110 24.69      5766.6                                129  59 
 APSL    ES   0A   110 43.20                              41    0.2610  129  59 
 FOUH    IP   0A   110 25.75                              41   -0.0810  137   9 
 VOCA     IAML A   110 27.58      4379.1                                152  35 
 VOCA    IP   0A   110 27.58                              41   -0.28 9  152  35 
 QYDI     IAML A   110 34.44      2478.4                                206 354 
 QYDI    IP   0A   110 34.44                              41   -0.56 7  206 354 
 QYDI    ES   0A   110 58.95                              41   -1.29 7  206 354 
                                                                                
 2001  2 3 0111  9.0 L  33.513  52.710 17.6  New 10 0.2 2.8LNew                1
 GAP=205        0.57       2.6     1.2  3.5 -0.1216E+00 -0.3610E+00 -0.5034E+01E
 Action:ARG 24-03-13 14:55 OP:OBSP STATUS:               ID:20010203011110     I
 STAT SP IPHASW D HRMM SECON CODA AMPLIT PERI AZIMU VELO AIN AR TRES W  DIS CAZ7
 LUEX    IP   0A   111 26.63                              57    0.1910 79.5 300 
 LUEX     IAML A   111 26.63       473.1                               79.5 300 
 LUEX    ES   0A   111 39.11                              57    0.2810 79.5 300 
 CBZA    IP   0A   111 27.59                              57   -0.0110 86.7 277 
 CBZA    ES   0A   111 40.78                              57   -0.0410 86.7 277 
 XBVK     IAML A   111 28.31       381.7                               90.4 359 
 XBVK    IP   0A   111 28.31                              57    0.1110 90.4 359 
 XBVK    ES   0A   111 42.05                              57    0.2110 90.4 359 
 MGUS    IP   0A   111 30.22                              57    0.1410  102  73 
 MGUS     IAML A   111 30.22       317.9                                102  73 
 MGUS    ES   0A   111 45.39                              57    0.3210  102  73 
 APSL     IAML A   111 32.74       245.9                                120  54 
 APSL    IP   0A   111 32.74                              43   -0.0810  120  54 
 APSL    ES   0A   111 49.79                              43    0.0410  120  54 
 DQYH    IP   0A   111 34.74                              43   -0.0410  135 325 
 DQYH    ES   0A   111 53.16                              43    0.0610  135 325 
 FOUH     IAML A   111 35.30       190.5                                140   3 
 FOUH    IP   0A   111 35.30                              43   -0.1610  140   3 
 FOUH    ES   0A   111 54.20                              43   -0.0610  140   3 
 VOCA    IP   0A   111 36.34                              43   -0.2310  148  29 
 VOCA    ES   0A   111 55.94                              43   -0.2210  148  29 
 RPKV    IP   0A   111 43.95                              43   -0.43 7  208 336 
 QYDI    IP   0A   111 44.42                              43   -0.64 7  213 350 
                                                                                
 2001  2 3 0112 19.6 L  33.834  52.306  7.8  New  9 0.4 1.6LNew                1
 GAP=170        0.92       2.8     2.6  3.4  0.2045E+01 -0.6655E+01 -0.3514E+01E
 Action:ARG 24-03-13 14:55 OP:OBSP STATUS:               ID:20010203011220     I
 STAT SP IPHASW D HRMM SECON CODA AMPLIT PERI AZIMU VELO AIN AR TRES W  DIS CAZ7
 LUEX    IP   0A   112 28.30                              95    0.1410 31.5 278 
 LUEX     IAML A   112 28.30        91.4                               31.5 278 
 LUEX    ES   0A   112 34.53                              95    0.3210 31.5 278 
 XBVK     IAML A   112 35.73        35.4                               65.2  33 
 XBVK    IP   0A   112 35.73                              52   -0.0210 65.2  33 
 XBVK    ES   0A   112 47.52                              52    0.3310 65.2  33 
 DQYH     IAML A   112 39.64        24.3                               84.7 332 
 DQYH    IP   0A   112 39.64                              43    0.2110 84.7 332 
 DNOA    IP   0A   112 44.19                              41   -0.1510  115  62 
 DNOA    ES   0A   113  2.32                              41    0.4510  115  62 
 MGUS     IAML A   112 46.82        11.4                                135  92 
 MGUS    IP   0A   112 46.82                              33   -0.4110  135  92 
 RAWC    IP   0A   112 48.07                              33   -0.1910  143 108 
 RAWC    ES   0A   113  9.10                              33    0.5110  143 108 
 RPKV    IP   0A   112 50.42                              33   -0.25 9  161 343 
 RPKV    ES   0A   113 12.97                              33    0.27 9  161 343 
 HLUH    IP   0A   112 51.48                              33   -0.49 9  171 335 
 HLUH     IAML A   112 51.48         7.6                                171 335 
 QYDI    IP   0A   112 51.82                              33   -0.58 9  174   0 
 QYDI    ES   0A   113 15.14                              33   -0.52 9  174   0 
                                                                                
 2001  2 3 0113 29.6 L  33.790  52.596 17.4  New 11 0.3 2.7LNew                1
 GAP=165        0.80       2.2     1.8  2.8 -0.9450E+00 -0.7934E+00 -0.2928E+00E
 Action:ARG 24-03-13 14:55 OP:OBSP STATUS:               ID:20010203011330     I
 STAT SP IPHASW D HRMM SECON CODA AMPLIT PERI AZIMU VELO AIN AR TRES W  DIS CAZ7
 LUEX    IP   0A   113 43.66                              91    0.2010 58.8 279 
 XBVK    IP   0A   113 43.64                              91   -0.1110 60.3   8 
 XBVK    ES   0A   113 53.87                              91    0.0910 60.3   8 
 AVTK    IP   0A   113 45.93                              60    0.0010 72.4 294 
 AVTK    ES   0A   113 57.89                              60    0.3810 72.4 294 
 CBZA    IP   0A   113 47.05                              58    0.2010 78.0 255 
 DNOA    IP   0A   113 49.77                              57    0.1310 95.3  51 
 DNOA    ES   0A   114  4.59                              57    0.7310 95.3  51 
 MGUS    IP   0A   113 51.58                              57   -0.0910  108  90 
 MGUS     IAML A   113 51.58       218.2                                108  90 
 FOUH    IP   0A   113 51.74                              57   -0.3210  110   9 
 FOUH    ES   0A   114  8.05                              57    0.0510  110   9 
 APSL    IP   0A   113 52.65                              57   -0.1010  115  70 
 VOCA     IAML A   113 54.28       167.4                                129  40 
 VOCA    IP   0A   113 54.28                              43   -0.3910  129  40 
 VOCA    ES   0A   114 12.48                              43    0.0210  129  40 
 RPKV    IP   0A   114  0.50                              43   -0.28 9  175 335 
 RPKV    ES   0A   114 22.62                              43   -0.29 9  175 335 
 HLUH    IP   0A   114  1.85                              43   -0.61 8  188 328 
 HLUH     IAML A   114  1.85        85.4                                188 328 
                                                                                
 2001  2 3 0114 39.6 L  34.170  52.789 21.0  New 11 0.3 2.5LNew                1
 GAP=115        0.81       1.8     1.6  1.6  0.3850E+00  0.9269E+00 -0.5816E+00E
 Action:ARG 24-03-13 14:55 OP:OBSP STATUS:               ID:20010203011440     I
 STAT SP IPHASW D HRMM SECON CODA AMPLIT PERI AZIMU VELO AIN AR TRES W  DIS CAZ7
 RHPW    IP   0A   114 44.96                             157    0.0710 7.38 109 
 RHPW    ES   0A   114 48.68                             157    0.0510 7.38 109 
 DNOA    IP   0A   114 53.50                              64    0.1310 59.2  73 
 FOUH     IAML A   114 54.58       263.1                               66.9 359 
 FOUH    IP   0A   114 54.58                              60   -0.0810 66.9 359 
 FOUH    ES   0A   115  5.51                              60    0.1710 66.9 359 
 LUEX    IP   0A   114 57.03                              57   -0.1710 82.6 247 
 LUEX     IAML A   114 57.03       199.7                               82.6 247 
 LUEX    ES   0A   115  9.80                              57    0.1110 82.6 247 
 AVTK     IAML A   114 57.43       190.8                               85.1 261 
 AVTK    IP   0A   114 57.43                              57   -0.1910 85.1 261 
 AVTK    ES   0A   115 10.50                              57    0.1010 85.1 261 
 APSL    IP   0A   114 58.14                              57   -0.2210 89.7  92 
 APSL     IAML A   114 58.14       170.1                               89.7  92 
 DQYH    IP   0A   114 58.91                              57    0.1210 92.4 294 
 DQYH    ES   0A   115 13.08                              57    0.6810 92.4 294 
 MGUS    IP   0A   114 59.94                              57    0.0010 99.5 115 
 MGUS    ES   0A   115 14.89                              57    0.5210 99.5 115 
 RAWC    IP   0A   115  2.88                              43   -0.4310  122 132 
 RPKV    IP   0A   115  6.51                              43   -0.2210  148 322 
 RPKV    ES   0A   115 26.15                              43    0.1710  148 322 
 HLUH    IP   0A   115  8.47                              43   -0.54 9  166 315 
 HLUH    ES   0A   115 29.36                              43   -0.52 9  166 315 
                                                                                
 2001  2 3 0115 49.7 L  33.944  52.698 20.7  New 12 0.3 2.9LNew                1
 GAP=147        0.79       1.6     1.4  2.0 -0.1868E+00  0.5297E+00  0.1168E+01E
 Action:ARG 24-03-13 14:55 OP:OBSP STATUS:               ID:20010203011550     I
 STAT SP IPHASW D HRMM SECON CODA AMPLIT PERI AZIMU VELO AIN AR TRES W  DIS CAZ7
 RHPW    IP   0A   115 57.78                             114    0.0510 27.4  34 
 RHPW     IAML A   115 57.78      1966.1                               27.4  34 
 RHPW    ES   0A   116  3.62                             114    0.2110 27.4  34 
 XBVK     IAML A   116  0.42      1122.9                               42.6 359 
 XBVK    IP   0A   116  0.42                             101   -0.1110 42.6 359 
 XBVK    ES   0A   116  8.24                             101    0.0410 42.6 359 
 LUEX    IP   0A   116  4.99                              60    0.0210 67.9 264 
 LUEX     IAML A   116  4.99       617.4                               67.9 264 
 AVTK    IP   0A   116  6.50                              57    0.0910 76.7 279 
 AVTK    ES   0A   116 18.87                              57    0.6210 76.7 279 
 DNOA    IP   0A   116  6.52                              57   -0.0510 77.6  57 
 FOUH     IAML A   116  8.88       390.3                               92.2   5 
 FOUH    IP   0A   116  8.88                              57   -0.0410 92.2   5 
 FOUH    ES   0A   116 23.04                              57    0.5010 92.2   5 
 CBZA    IP   0A   116  8.74                              57   -0.2210 92.5 247 
 CBZA    ES   0A   116 22.80                              57    0.1810 92.5 247 
 MGUS    IP   0A   116  9.96                              57   -0.2110  100 100 
 MGUS     IAML A   116  9.96       354.6                                100 100 
 MGUS    ES   0A   116 24.93                              57    0.2410  100 100 
 APSL     IAML A   116 10.08       348.5                                101  77 
 APSL    IP   0A   116 10.08                              57   -0.2010  101  77 
 APSL    ES   0A   116 25.15                              57    0.2810  101  77 
 RPKV    IP   0A   116 18.79                              43   -0.22 9  164 330 
 RPKV    ES   0A   116 39.72                              43   -0.08 9  164 330 
 QYDI    IP   0A   116 18.66                              43   -0.50 9  166 348 
 QYDI    ES   0A   116 39.63                              43   -0.43 9  166 348 
 HLUH    IP   0A   116 20.31                              43   -0.64 8  179 323 
                                                                                
 2001  2 3 0116 59.1 L  33.601  52.535 12.2  New 11 0.2 2.2LNew                1
 GAP=172        0.65       2.2     1.1  2.7  0.9947E+00 -0.2258E+00 -0.6985E+00E
 Action:ARG 24-03-13 14:55 OP:OBSP STATUS:               ID:20010203011700     I
 STAT SP IPHASW D HRMM SECON CODA AMPLIT PERI AZIMU VELO AIN AR TRES W  DIS CAZ7
 LUEX    IP   0A   117 13.88                              52    0.2310 60.6 300 
 LUEX    ES   0A   117 24.29                              52    0.2910 60.6 300 
 RHPW    IP   0A   117 15.56                              52    0.5110 67.9  27 
 RHPW     IAML A   117 15.56       138.9                               67.9  27 
 CBZA    IP   0A   117 15.40                              52   -0.0310 69.8 271 
 CBZA    ES   0A   117 26.95                              52   -0.0910 69.8 271 
 AVTK    IP   0A   117 17.03                              43   -0.0410 78.6 309 
 AVTK    ES   0A   117 29.80                              43   -0.0510 78.6 309 
 DNOA    IP   0A   117 22.63                              41   -0.0910  114  45 
 RAWC     IAML A   117 23.18        61.3                                116  99 
 MGUS    IP   0A   117 22.78                              41   -0.2610  116  80 
 MGUS    ES   0A   117 39.86                              41   -0.2010  116  80 
 RAWC    IP   0A   117 23.18                              41    0.0910  116  99 
 RAWC    ES   0A   117 40.56                              41    0.4210  116  99 
 DQYH     IAML A   117 23.24        62.1                                118 329 
 DQYH    IP   0A   117 23.24                              41   -0.1610  118 329 
 DQYH    ES   0A   117 40.66                              41   -0.0110  118 329 
 APSL    IP   0A   117 24.80                              33   -0.1110  128  62 
 FOUH    IP   0A   117 25.07                              33   -0.3010  132  10 
 RPKV    IP   0A   117 33.02                              33   -0.32 8  192 339 
 RPKV     IAML A   117 33.02        25.8                                192 339 
                                                                                
 2001  2 3 0118  8.9 L  33.794  52.553 11.5  New 10 0.3 1.0LNew                1
 GAP=144        0.85       2.7     1.6  3.9 -0.6211E+00  0.2986E-01 -0.5955E+01E
 Action:ARG 24-03-13 14:55 OP:OBSP STATUS:               ID:20010203011810     I
 STAT SP IPHASW D HRMM SECON CODA AMPLIT PERI AZIMU VELO AIN AR TRES W  DIS CAZ7
 CBZA    IP   0A   118 26.37                              52    0.1710 74.3 254 
 CBZA     IAML A   118 26.37         7.0                               74.3 254 
 CBZA    ES   0A   118 38.65                              52    0.1510 74.3 254 
 DNOA    IP   0A   118 30.56                              41    0.3610 98.2  53 
 DNOA     IAML A   118 30.56         4.6                               98.2  53 
 DNOA    ES   0A   118 45.99                              41    0.6510 98.2  53 
 DQYH     IAML A   118 30.84         4.5                                101 322 
 DQYH    IP   0A   118 30.84                              41    0.1810  101 322 
 DQYH    ES   0A   118 46.46                              41    0.3410  101 322 
 FOUH    IP   0A   118 32.19                              41   -0.0010  111  11 
 FOUH    ES   0A   118 48.84                              41    0.1010  111  11 
 MGUS    IP   0A   118 32.33                              41   -0.0910  112  90 
 MGUS     IAML A   118 32.33         3.7                                112  90 
 APSL    IP   0A   118 33.40                              41   -0.0310  118  71 
 APSL    ES   0A   118 50.95                              41    0.0910  118  71 
 RAWC    IP   0A   118 33.49                              41   -0.1710  120 110 
 VOCA    IP   0A   118 34.88                              33   -0.3510  131  41 
 VOCA     IAML A   118 34.88         2.9                                131  41 
 VOCA    ES   0A   118 53.54                              33   -0.4010  131  41 
 RPKV    IP   0A   118 40.56                              33   -0.21 9  173 336 
 RPKV     IAML A   118 40.56         1.8                                173 336 
 RPKV    ES   0A   119  2.83                              33   -0.59 9  173 336 
 HLUH    IP   0A   118 41.80                              33   -0.60 8  186 329 
 HLUH     IAML A   118 41.80         1.6                                186 329 
                                                                                
