 2001  2 3 0050  9.7 L  33.443  52.860 29.0  New 11 0.6 1.9LNew                1
 GAP=215        1.27       7.5     4.5  9.1 -0.3961E+01  0.1206E+02 -0.3125E+02E
 Action:ARG 24-03-13 14:55 OP:OBSP STATUS:               ID:20010203005010     I
 STAT SP IPHASW D HRMM SECON CODA AMPLIT PERI AZIMU VELO AIN AR TRES W  DIS CAZ7
 RHPW    IP   0A   050 26.58                              93    0.3210 78.2   0 
 MGUS    IP   0A   050 28.27                              60   -0.1810 91.8  65 
 CBZA    IP   0A   050 29.77                              60   -0.0510  102 281 
 DNOA    IP   0A   050 30.95                              55    0.0310  110  27 
 DNOA    ES   0A   050 46.65                              55    0.6810  110  27 
 AVTK    IP   0A   050 31.36                              55    0.0110  113 307 
 AVTK    ES   0A   050 47.38                              55    0.6810  113 307 
 APSL    IP   0A   050 31.41                              55   -0.0510  114  47 
 FOUH     IAML A   050 35.86        19.1                                148 357 
 FOUH    IP   0A   050 35.86                              55   -0.0410  148 357 
 DQYH    IP   0A   050 36.23                              55    0.13 9  149 323 
 DQYH     IAML A   050 36.23        18.7                                149 323 
 DQYH    ES   0A   050 55.55                              55    0.72 9  149 323 
 RPKV     IAML A   050 45.20         8.9                                221 334 
 RPKV    IP   0A   050 45.20                              55   -0.29 7  221 334 
 RPKV    ES   0A   051 10.02                              55   -0.86 7  221 334 
 QYDI    IP   0A   050 45.35                              55   -0.48 7  223 347 
 QYDI     IAML A   050 45.35         8.7                                223 347 
 QYDI    ES   0A   051 10.22                              55   -1.25 7  223 347 
 HLUH    IP   0A   050 46.53                              55   -0.68 6  234 328 
 HLUH    ES   0A   051 12.41                              55   -1.42 6  234 328 
                                                                                
 2001  2 3 0051 19.9 L  33.636  52.578 18.3  New 11 0.4 0.9LNew                1
 GAP=166        0.99       2.5     1.9  5.1 -0.2032E+00 -0.2193E+01 -0.3390E+01E
 Action:ARG 24-03-13 14:55 OP:OBSP STATUS:               ID:20010203005120     I
 STAT SP IPHASW D HRMM SECON CODA AMPLIT PERI AZIMU VELO AIN AR TRES W  DIS CAZ7
 LUEX     IAML A   051 34.41         8.1                               62.3 295 
 LUEX    IP   0A   051 34.41                              64    0.0410 62.3 295 
 LUEX    ES   0A   051 45.21                              64    0.5410 62.3 295 
 RHPW    IP   0A   051 34.40                              64   -0.0310 62.6  25 
 RHPW    ES   0A   051 45.21                              64    0.4310 62.6  25 
 CBZA    IP   0A   051 36.21                              58   -0.1110 73.8 268 
 CBZA    ES   0A   051 48.37                              58    0.3610 73.8 268 
 XBVK    IP   0A   051 36.77                              58   -0.1310 77.4   8 
 XBVK    ES   0A   051 49.34                              58    0.3410 77.4   8 
 AVTK    IP   0A   051 37.17                              57   -0.0510 79.4 305 
 DNOA     IAML A   051 41.51         3.6                                108  45 
 DNOA    IP   0A   051 41.51                              57   -0.3110  108  45 
 DNOA    ES   0A   051 57.64                              57    0.2210  108  45 
 RAWC    IP   0A   051 42.40                              57   -0.1710  113 102 
 RAWC     IAML A   051 42.40         3.4                                113 102 
 RAWC    ES   0A   051 59.20                              57    0.4910  113 102 
 APSL    IP   0A   051 43.72                              43   -0.3010  123  63 
 APSL    ES   0A   052  1.50                              43    0.3210  123  63 
 FOUH    IP   0A   051 44.16                              43   -0.4310  127   8 
 FOUH     IAML A   051 44.16         2.8                                127   8 
 FOUH    ES   0A   052  2.27                              43    0.1210  127   8 
 QYDI    IP   0A   051 53.10                              43   -0.73 8  198 353 
 QYDI    ES   0A   052 16.99                              43   -0.96 8  198 353 
 HLUH    IP   0A   051 53.80                              43   -0.60 8  202 331 
                                                                                
 2001  2 3 0052 29.7 L  33.979  52.695 19.5  New 10 0.4 2.9LNew                1
 GAP=142        0.93       2.6     1.6  2.9 -0.1351E+00  0.1512E+01  0.2712E+01E
 Action:ARG 24-03-13 14:55 OP:OBSP STATUS:               ID:20010203005230     I
 STAT SP IPHASW D HRMM SECON CODA AMPLIT PERI AZIMU VELO AIN AR TRES W  DIS CAZ7
 RHPW    IP   0A   052 37.16                             114    0.0310 24.4  40 
 RHPW    ES   0A   052 42.54                             114    0.1610 24.4  40 
 LUEX     IAML A   052 45.08       589.3                               68.1 260 
 LUEX    IP   0A   052 45.08                              60   -0.0510 68.1 260 
 LUEX    ES   0A   052 56.39                              60    0.3310 68.1 260 
 AVTK    IP   0A   052 46.34                              58   -0.0610 75.9 276 
 AVTK    ES   0A   052 58.59                              58    0.3510 75.9 276 
 CBZA     IAML A   052 48.95       367.0                               93.9 244 
 CBZA    IP   0A   052 48.95                              57   -0.3610 93.9 244 
 CBZA    ES   0A   053  3.16                              57   -0.0410 93.9 244 
 DQYH    IP   0A   052 49.71                              57    0.0910 95.9 308 
 DQYH    ES   0A   053  4.48                              57    0.7310 95.9 308 
 APSL    IP   0A   052 50.16                              57   -0.1510  100  79 
 APSL     IAML A   052 50.16       325.2                                100  79 
 APSL    ES   0A   053  5.28                              57    0.3610  100  79 
 MGUS     IAML A   052 50.26       320.5                                101 102 
 MGUS    IP   0A   052 50.26                              57   -0.1910  101 102 
 MGUS    ES   0A   053  5.46                              57    0.3010  101 102 
 RPKV    IP   0A   052 58.52                              43   -0.19 9  161 329 
 RPKV     IAML A   052 58.52       150.1                                161 329 
 QYDI    IP   0A   052 58.27                              43   -0.55 9  162 348 
 HLUH     IAML A   053  0.09       127.4                                176 322 
 HLUH    IP   0A   053  0.09                              43   -0.60 8  176 322 
 HLUH    ES   0A   053 22.01                              43   -0.65 8  176 322 
                                                                                
 2001  2 3 0053 39.7 L  33.675  52.779 27.0  New 12 0.4 2.3LNew                1
 GAP=180        0.93       2.9     2.3  4.9 -0.3873E+00  0.6221E+00 -0.3436E+01E
 Action:ARG 24-03-13 14:55 OP:OBSP STATUS:               ID:20010203005340     I
 STAT SP IPHASW D HRMM SECON CODA AMPLIT PERI AZIMU VELO AIN AR TRES W  DIS CAZ7
 RHPW    IP   0A   053 52.08                              80   -0.0510 53.0   9 
 RHPW    ES   0A   054  1.15                              80    0.1610 53.0   9 
 XBVK    IP   0A   053 55.09                              80   -0.2410 72.9 353 
 XBVK    ES   0A   054  6.41                              80   -0.0510 72.9 353 
 LUEX    IP   0A   053 56.28                              80    0.0910 78.2 287 
 LUEX     IAML A   053 56.28       143.6                               78.2 287 
 DNOA    IP   0A   053 58.41                              80   -0.0510 92.3  39 
 DNOA    ES   0A   054 12.22                              80    0.4110 92.3  39 
 AVTK     IAML A   053 58.47       111.5                               93.2 297 
 AVTK    IP   0A   053 58.47                              80   -0.1310 93.2 297 
 AVTK    ES   0A   054 12.31                              80    0.2610 93.2 297 
 RAWC     IAML A   053 59.27       106.0                               95.6 107 
 RAWC    IP   0A   053 59.27                              80    0.2810 95.6 107 
 APSL    IP   0A   054  0.25                              58   -0.0810  105  60 
 APSL     IAML A   054  0.25        94.8                                105  60 
 DQYH    IP   0A   054  3.05                              54    0.0710  125 318 
 DQYH    ES   0A   054 20.33                              54    0.7910  125 318 
 VOCA    IP   0A   054  3.34                              54   -0.2810  130  30 
 VOCA    ES   0A   054 20.85                              54    0.2110  130  30 
 RPKV    IP   0A   054 11.85                              54   -0.29 8  194 332 
 QYDI    IP   0A   054 11.87                              54   -0.55 8  196 348 
 QYDI    ES   0A   054 34.79                              54   -0.90 8  196 348 
 HLUH    IP   0A   054 13.27                              54   -0.67 7  208 326 
 HLUH     IAML A   054 13.27        28.0                                208 326 
                                                                                
 2001  2 3 0054 49.2 L  33.693  52.525 15.5  New  7 0.2 0.7LNew                1
 GAP=242        0.58       3.0     2.3  3.8  0.3868E+01 -0.3734E+01 -0.6511E+01E
 Action:ARG 24-03-13 14:55 OP:OBSP STATUS:               ID:20010203005450     I
 STAT SP IPHASW D HRMM SECON CODA AMPLIT PERI AZIMU VELO AIN AR TRES W  DIS CAZ7
 XBVK    IP   0A   055  5.60                              57   -0.0410 72.0  12 
 XBVK    ES   0A   055 17.30                              57   -0.0110 72.0  12 
 DNOA     IAML A   055 11.37         2.4                                107  49 
 DNOA    IP   0A   055 11.37                              53    0.0010  107  49 
 DNOA    ES   0A   055 27.40                              53    0.3010  107  49 
 DQYH    IP   0A   055 11.97                              53    0.3910  109 326 
 DQYH     IAML A   055 11.97         2.3                                109 326 
 MGUS     IAML A   055 12.54         2.1                                115  85 
 MGUS    IP   0A   055 12.54                              53   -0.0910  115  85 
 MGUS    ES   0A   055 29.45                              53    0.1910  115  85 
 FOUH    IP   0A   055 13.33                              41   -0.3010  122  11 
 FOUH    ES   0A   055 30.83                              41   -0.1410  122  11 
 VOCA    IP   0A   055 15.83                              41   -0.3510  141  39 
 VOCA    ES   0A   055 35.21                              41   -0.1110  141  39 
 RPKV    IP   0A   055 21.68                              41    0.08 8  182 338 
 RPKV     IAML A   055 21.68         0.9                                182 338 
 RPKV    ES   0A   055 44.70                              41    0.10 8  182 338 
                                                                                
 2001  2 3 0055 59.5 L  33.672  52.570 19.9  New  7 0.3 3.2LNew                1
 GAP=245        0.79       6.1     2.2  5.6 -0.6740E+01  0.4215E+01 -0.2266E+02E
 Action:ARG 24-03-13 14:55 OP:OBSP STATUS:               ID:20010203005600     I
 STAT SP IPHASW D HRMM SECON CODA AMPLIT PERI AZIMU VELO AIN AR TRES W  DIS CAZ7
 RHPW    IP   0A   056 13.25                              64   -0.1110 59.4  27 
 RHPW    ES   0A   056 23.19                              64   -0.0310 59.4  27 
 LUEX    IP   0A   056 13.63                              64    0.1710 60.0 292 
 LUEX    ES   0A   056 23.85                              64    0.4710 60.0 292 
 DNOA    IP   0A   056 20.93                              57    0.0110  106  47 
 DNOA    ES   0A   056 36.63                              57    0.4810  106  47 
 DQYH    IP   0A   056 21.90                              46   -0.1510  113 325 
 DQYH    ES   0A   056 38.32                              46    0.2510  113 325 
 VOCA    IP   0A   056 25.44                              43   -0.2910  141  37 
 VOCA    ES   0A   056 44.53                              43    0.1610  141  37 
 RPKV    IP   0A   056 31.55                              43   -0.19 8  186 338 
 RPKV    ES   0A   056 54.41                              43   -0.23 8  186 338 
 HLUH    IP   0A   056 32.78                              43   -0.51 8  198 331 
 HLUH     IAML A   056 32.78       246.4                                198 331 
 HLUH    ES   0A   056 56.65                              43   -0.65 8  198 331 
                                                                                
 2001  2 3 0057  9.8 L  33.699  52.674 20.4  New  9 0.4 1.7LNew                1
 GAP=180        0.98       3.4     2.2  5.7  0.2904E+01 -0.1623E+01 -0.8206E+01E
 Action:ARG 24-03-13 14:55 OP:OBSP STATUS:               ID:20010203005710     I
 STAT SP IPHASW D HRMM SECON CODA AMPLIT PERI AZIMU VELO AIN AR TRES W  DIS CAZ7
 RHPW    IP   0A   057 22.81                              66    0.3210 52.8  20 
 RHPW     IAML A   057 22.81        52.9                               52.8  20 
 LUEX     IAML A   057 25.20        38.4                               68.1 287 
 LUEX    IP   0A   057 25.20                              60    0.1110 68.1 287 
 LUEX    ES   0A   057 36.60                              60    0.6510 68.1 287 
 DNOA    IP   0A   057 29.74                              57    0.0110 96.8  44 
 DNOA     IAML A   057 29.74        22.9                               96.8  44 
 DNOA    ES   0A   057 44.54                              57    0.6510 96.8  44 
 MGUS    IP   0A   057 30.19                              57   -0.2610  101  84 
 MGUS    ES   0A   057 45.34                              57    0.2110  101  84 
 RAWC     IAML A   057 30.90        20.6                                106 106 
 RAWC    IP   0A   057 30.90                              57   -0.2710  106 106 
 RAWC    ES   0A   057 46.58                              57    0.2210  106 106 
 FOUH    IP   0A   057 32.84                              43   -0.3410  119   5 
 FOUH    ES   0A   057 49.96                              43    0.1710  119   5 
 VOCA    IP   0A   057 34.48                              43   -0.4210  133  35 
 VOCA     IAML A   057 34.48        13.8                                133  35 
 RPKV     IAML A   057 41.87         7.4                                187 335 
 RPKV    IP   0A   057 41.87                              43   -0.26 8  187 335 
 RPKV    ES   0A   058  4.80                              43   -0.29 8  187 335 
 QYDI    IP   0A   057 42.18                              43   -0.53 8  192 350 
 QYDI     IAML A   057 42.18         7.1                                192 350 
 QYDI    ES   0A   058  5.48                              43   -0.61 8  192 350 
                                                                                
 2001  2 3 0058 19.3 L  33.640  52.580 17.4  New  7 0.3 1.5LNew                1
 GAP=224        0.76       2.8     2.7  3.5  0.3837E+01  0.1311E+01 -0.1249E+01E
 Action:ARG 24-03-13 14:55 OP:OBSP STATUS:               ID:20010203005820     I
 STAT SP IPHASW D HRMM SECON CODA AMPLIT PERI AZIMU VELO AIN AR TRES W  DIS CAZ7
 RHPW    IP   0A   058 33.95                              91    0.1810 62.2  25 
 XBVK    IP   0A   058 36.31                              58   -0.0310 77.0   7 
 XBVK    ES   0A   058 48.54                              58    0.0810 77.0   7 
 DNOA     IAML A   058 41.09        13.4                                108  45 
 DNOA    IP   0A   058 41.09                              57   -0.1810  108  45 
 DNOA    ES   0A   058 56.91                              57    0.0310  108  45 
 RAWC    IP   0A   058 41.99                              57   -0.0810  113 102 
 RAWC    ES   0A   058 58.47                              57    0.2210  113 102 
 DQYH    IP   0A   058 42.79                              46    0.1410  116 326 
 DQYH    ES   0A   058 59.89                              46    0.6310  116 326 
 FOUH    IP   0A   058 43.76                              43   -0.3110  127   8 
 FOUH     IAML A   058 43.76        10.0                                127   8 
 FOUH    ES   0A   059  1.58                              43   -0.1110  127   8 
 HLUH    IP   0A   058 53.62                              43   -0.29 8  202 331 
 HLUH    ES   0A   059 17.78                              43   -0.72 8  202 331 
                                                                                
 2001  2 3 0059 29.6 L  33.938  52.405 10.2  New  8 0.3 3.3LNew                1
 GAP=146        0.82       2.0     1.5  2.3 -0.2112E+00 -0.1928E+01 -0.8158E+00E
 Action:ARG 24-03-13 14:55 OP:OBSP STATUS:               ID:20010203005930     I
 STAT SP IPHASW D HRMM SECON CODA AMPLIT PERI AZIMU VELO AIN AR TRES W  DIS CAZ7
 LUEX    IP   0A   059 40.52                              98    0.0510 41.0 260 
 LUEX    ES   0A   059 48.40                              98    0.2010 41.0 260 
 RHPW     IAML A   059 42.27      2504.2                               48.4  61 
 RHPW    IP   0A   059 42.27                              56    0.2010 48.4  61 
 RHPW    ES   0A   059 51.47                              56    0.5210 48.4  61 
 AVTK    IP   0A   059 42.52                              53    0.0710 50.3 284 
 AVTK     IAML A   059 42.52      2407.2                               50.3 284 
 AVTK    ES   0A   059 51.92                              53    0.3210 50.3 284 
 XBVK     IAML A   059 42.40      2386.7                               50.6  31 
 XBVK    IP   0A   059 42.40                              53   -0.1110 50.6  31 
 XBVK    ES   0A   059 51.71                              53    0.0210 50.6  31 
 MGUS    IP   0A   059 55.20                              33   -0.4010  127  97 
 MGUS     IAML A   059 55.20       608.1                                127  97 
 MGUS    ES   0A   1 0 14.09                              33    0.0110  127  97 
 RAWC    IP   0A   059 56.85                              33   -0.2710  138 114 
 RAWC    ES   0A   1 0 16.97                              33    0.2810  138 114 
 RPKV    IP   0A   059 58.70                              33   -0.39 9  153 338 
 RPKV    ES   0A   1 0 20.08                              33    0.03 9  153 338 
 HLUH    IP   0A   059 59.90                              33   -0.73 9  165 330 
                                                                                
