 2001  2 3 0100 39.9 L  33.840  52.799 28.5  New 12 0.3 2.2LNew                1
 GAP=156        0.76       2.2     1.7  3.0  0.7043E+00 -0.3899E+00  0.1888E+01E
 Action:ARG 24-03-13 14:55 OP:OBSP STATUS:               ID:20010203010040     I
 STAT SP IPHASW D HRMM SECON CODA AMPLIT PERI AZIMU VELO AIN AR TRES W  DIS CAZ7
 RHPW    IP   0A   1 0 49.15                             110   -0.3310 34.7  10 
 XBVK     IAML A   1 0 52.44       173.0                               55.1 349 
 XBVK    IP   0A   1 0 52.44                              95   -0.2510 55.1 349 
 XBVK    ES   0A   1 1  1.78                              95   -0.0110 55.1 349 
 LUEX    IP   0A   1 0 56.19                              92    0.0010 76.9 273 
 DNOA    IP   0A   1 0 56.31                              92    0.0110 77.6  46 
 DNOA     IAML A   1 0 56.31       109.5                               77.6  46 
 DNOA    ES   0A   1 1  8.55                              92    0.5810 77.6  46 
 AVTK    IP   0A   1 0 57.93                              92   -0.0910 88.2 286 
 AVTK    ES   0A   1 1 11.39                              92    0.4910 88.2 286 
 APSL    IP   0A   1 0 58.89                              60   -0.2010 95.2  69 
 APSL     IAML A   1 0 58.89        81.4                               95.2  69 
 RAWC    IP   0A   1 0 59.63                              60   -0.2310  101 117 
 RAWC    ES   0A   1 1 14.36                              60    0.3010  101 117 
 VOCA    IP   0A   1 1  1.43                              55   -0.1010  113  34 
 DQYH    IP   0A   1 1  1.70                              55    0.1810  113 311 
 QYDI    IP   0A   1 1  9.90                              55   -0.30 8  179 346 
 RPKV    IP   0A   1 1 10.25                              55    0.03 8  179 329 
 RPKV     IAML A   1 1 10.25        27.6                                179 329 
 RPKV    ES   0A   1 1 32.21                              55    0.43 8  179 329 
 HLUH    IP   0A   1 1 11.77                              55   -0.42 8  194 323 
 HLUH     IAML A   1 1 11.77        23.7                                194 323 
 HLUH    ES   0A   1 1 34.80                              55   -0.33 8  194 323 
                                                                                
 2001  2 3 0101 49.4 L  33.716  52.537 11.8  New  8 0.4 2.6LNew                1
 GAP=203        0.98       4.7     2.0  4.8  0.3279E+01 -0.3469E+01 -0.1293E+02E
 Action:ARG 24-03-13 14:55 OP:OBSP STATUS:               ID:20010203010150     I
 STAT SP IPHASW D HRMM SECON CODA AMPLIT PERI AZIMU VELO AIN AR TRES W  DIS CAZ7
 LUEX    IP   0A   1 2  3.24                              52    0.1910 55.5 289 
 LUEX    ES   0A   1 2 13.17                              52    0.4310 55.5 289 
 AVTK     IAML A   1 2  6.12       316.2                               71.4 301 
 AVTK    IP   0A   1 2  6.12                              52    0.0110 71.4 301 
 AVTK    ES   0A   1 2 18.22                              52    0.2510 71.4 301 
 DNOA    IP   0A   1 2 11.87                              41    0.1610  105  50 
 DNOA    ES   0A   1 2 28.28                              41    0.7210  105  50 
 DQYH    IP   0A   1 2 12.17                              41    0.0710  107 325 
 MGUS     IAML A   1 2 12.88       150.1                                114  86 
 MGUS    IP   0A   1 2 12.88                              41   -0.2810  114  86 
 MGUS    ES   0A   1 2 30.05                              41    0.0210  114  86 
 FOUH    IP   0A   1 2 13.80                              41   -0.2610  119  11 
 FOUH     IAML A   1 2 13.80       139.2                                119  11 
 FOUH    ES   0A   1 2 31.65                              41    0.0810  119  11 
 RPKV    IP   0A   1 2 21.92                              33   -0.28 8  181 338 
 RPKV    ES   0A   1 2 45.19                              33   -0.30 8  181 338 
 HLUH    IP   0A   1 2 23.07                              33   -0.67 8  192 331 
 HLUH    ES   0A   1 2 47.20                              33   -0.93 8  192 331 
                                                                                
 2001  2 3 0102 59.2 L  33.868  52.325  4.9  New 12 0.3 2.0LNew                1
 GAP=131        0.88       2.3     1.7  2.7  0.1476E+01 -0.2711E+01 -0.3080E+01E
 Action:ARG 24-03-13 14:55 OP:OBSP STATUS:               ID:20010203010300     I
 STAT SP IPHASW D HRMM SECON CODA AMPLIT PERI AZIMU VELO AIN AR TRES W  DIS CAZ7
 LUEX    IP   0A   1 3  8.38                              61    0.1710 33.0 271 
 AVTK    IP   0A   1 3 11.55                              61    0.1510 46.0 296 
 AVTK    ES   0A   1 3 20.21                              61    0.1510 46.0 296 
 CBZA     IAML A   1 3 14.39        97.6                               57.9 240 
 CBZA    IP   0A   1 3 14.39                              61    0.1010 57.9 240 
 XBVK     IAML A   1 3 15.08        87.6                               61.1  33 
 XBVK    IP   0A   1 3 15.08                              45    0.0510 61.1  33 
 DQYH    IP   0A   1 3 19.28                              44    0.1610 82.4 330 
 DQYH    ES   0A   1 3 33.73                              44    0.4710 82.4 330 
 FOUH    IP   0A   1 3 23.40                              35   -0.0610  109  22 
 FOUH    ES   0A   1 3 40.94                              35    0.2610  109  22 
 DNOA    IP   0A   1 3 24.03                              35    0.0810  112  63 
 DNOA    ES   0A   1 3 42.06                              35    0.5410  112  63 
 APSL    IP   0A   1 3 27.38                              28   -0.2210  136  77 
 APSL     IAML A   1 3 27.38        26.1                                136  77 
 VOCA     IAML A   1 3 27.73        24.7                                140  50 
 VOCA    IP   0A   1 3 27.73                              28   -0.4310  140  50 
 VOCA    ES   0A   1 3 48.52                              28   -0.2110  140  50 
 RAWC     IAML A   1 3 28.31        24.2                                142 110 
 RAWC    IP   0A   1 3 28.31                              28   -0.0910  142 110 
 RAWC    ES   0A   1 3 49.50                              28    0.3710  142 110 
 RPKV    IP   0A   1 3 30.13                              28   -0.35 9  158 342 
 RPKV    ES   0A   1 3 52.57                              28   -0.12 9  158 342 
 HLUH    IP   0A   1 3 31.21                              28   -0.63 9  168 334 
 HLUH     IAML A   1 3 31.21        18.1                                168 334 
 HLUH    ES   0A   1 3 54.18                              28   -0.83 9  168 334 
                                                                                
 2001  2 3 0104  9.8 L  33.826  52.647 21.5  New 12 0.3 2.3LNew                1
 GAP=162        0.78       1.9     1.6  2.3  0.3280E+00  0.3578E+00  0.1162E+01E
 Action:ARG 24-03-13 14:55 OP:OBSP STATUS:               ID:20010203010410     I
 STAT SP IPHASW D HRMM SECON CODA AMPLIT PERI AZIMU VELO AIN AR TRES W  DIS CAZ7
 RHPW    IP   0A   1 4 20.30                             104   -0.0110 41.0  29 
 RHPW    ES   0A   1 4 28.02                             104    0.2310 41.0  29 
 XBVK     IAML A   1 4 22.78       192.5                               55.8   4 
 XBVK    IP   0A   1 4 22.78                              64   -0.1110 55.8   4 
 XBVK    ES   0A   1 4 32.36                              64    0.1510 55.8   4 
 LUEX     IAML A   1 4 24.17       163.0                               62.9 275 
 LUEX    IP   0A   1 4 24.17                              60    0.0510 62.9 275 
 AVTK    IP   0A   1 4 26.24                              57    0.1010 75.3 289 
 AVTK    ES   0A   1 4 38.42                              57    0.6610 75.3 289 
 DNOA    IP   0A   1 4 28.50                              57    0.1210 89.1  52 
 DQYH    IP   0A   1 4 30.77                              57    0.0010  104 317 
 FOUH    IP   0A   1 4 30.82                              57   -0.2210  106   6 
 FOUH     IAML A   1 4 30.82        76.7                                106   6 
 APSL     IAML A   1 4 31.40        74.3                                109  71 
 APSL    IP   0A   1 4 31.40                              57   -0.1610  109  71 
 APSL    ES   0A   1 4 47.46                              57    0.4410  109  71 
 RAWC     IAML A   1 4 31.82        70.6                                113 113 
 RAWC    IP   0A   1 4 31.82                              46   -0.3210  113 113 
 RAWC    ES   0A   1 4 48.19                              46    0.1810  113 113 
 VOCA    IP   0A   1 4 33.15                              43   -0.3010  123  39 
 VOCA     IAML A   1 4 33.15        60.8                                123  39 
 VOCA    ES   0A   1 4 50.51                              43    0.2510  123  39 
 RPKV     IAML A   1 4 39.90        32.8                                174 333 
 RPKV    IP   0A   1 4 39.90                              43   -0.25 9  174 333 
 RPKV    ES   0A   1 5  1.56                              43   -0.16 9  174 333 
 QYDI    IP   0A   1 4 40.14                              43   -0.53 8  178 350 
 QYDI    ES   0A   1 5  2.07                              43   -0.53 8  178 350 
                                                                                
 2001  2 3 0105 19.6 L  33.972  52.596 16.6  New 12 0.3 0.9LNew                1
 GAP=123        0.87       2.1     1.9  3.4  0.6449E+00 -0.1593E+01 -0.1470E+01E
 Action:ARG 24-03-13 14:55 OP:OBSP STATUS:               ID:20010203010520     I
 STAT SP IPHASW D HRMM SECON CODA AMPLIT PERI AZIMU VELO AIN AR TRES W  DIS CAZ7
 XBVK    IP   0A   1 5 30.07                              78    0.1210 40.4  12 
 AVTK     IAML A   1 5 35.07         6.4                               66.9 278 
 AVTK    IP   0A   1 5 35.07                              78    0.0210 66.9 278 
 AVTK    ES   0A   1 5 46.38                              78    0.3810 66.9 278 
 DNOA    IP   0A   1 5 38.05                              55    0.1010 84.2  62 
 DNOA     IAML A   1 5 38.05         4.5                               84.2  62 
 CBZA    IP   0A   1 5 38.13                              55   -0.0110 85.4 242 
 DQYH    IP   0A   1 5 38.95                              55    0.1610 89.4 312 
 DQYH     IAML A   1 5 38.95         4.2                               89.4 312 
 FOUH    IP   0A   1 5 39.08                              55    0.1310 90.4  11 
 FOUH    ES   0A   1 5 53.38                              55    0.7010 90.4  11 
 APSL    IP   0A   1 5 41.86                              55   -0.1310  109  80 
 APSL     IAML A   1 5 41.86         3.0                                109  80 
 VOCA    IP   0A   1 5 42.38                              55   -0.3810  114  46 
 RAWC    IP   0A   1 5 44.02                              42   -0.1510  124 119 
 RAWC    ES   0A   1 6  2.03                              42    0.4310  124 119 
 RPKV    IP   0A   1 5 48.34                              42   -0.19 9  157 332 
 RPKV     IAML A   1 5 48.34         1.7                                157 332 
 RPKV    ES   0A   1 6  9.22                              42    0.17 9  157 332 
 QYDI    IP   0A   1 5 48.55                              42   -0.47 9  161 351 
 QYDI     IAML A   1 5 48.55         1.6                                161 351 
 QYDI    ES   0A   1 6  9.66                              42   -0.22 9  161 351 
 HLUH    IP   0A   1 5 49.75                              42   -0.62 9  171 325 
 HLUH     IAML A   1 5 49.75         1.4                                171 325 
 HLUH    ES   0A   1 6 11.77                              42   -0.43 9  171 325 
                                                                                
 2001  2 3 0106 29.7 L  33.806  52.810 25.5  New 12 0.3 3.0LNew                1
 GAP=166        0.81       2.6     1.7  4.4 -0.1704E+00  0.1226E+01 -0.5631E+01E
 Action:ARG 24-03-13 14:55 OP:OBSP STATUS:               ID:20010203010630     I
 STAT SP IPHASW D HRMM SECON CODA AMPLIT PERI AZIMU VELO AIN AR TRES W  DIS CAZ7
 XBVK    IP   0A   1 6 43.06                              80   -0.0710 59.0 349 
 XBVK     IAML A   1 6 43.06       876.5                               59.0 349 
 XBVK    ES   0A   1 6 52.85                              80    0.1410 59.0 349 
 LUEX    IP   0A   1 6 46.40                              75    0.1610 78.2 276 
 DNOA     IAML A   1 6 46.46       578.4                               79.5  44 
 DNOA    IP   0A   1 6 46.46                              75    0.0210 79.5  44 
 DNOA    ES   0A   1 6 58.81                              75    0.4610 79.5  44 
 MGUS    IP   0A   1 6 47.71                              75   -0.1210 88.1  91 
 MGUS    ES   0A   1 7  0.99                              75    0.2510 88.1  91 
 AVTK    IP   0A   1 6 48.22                              75    0.0310 90.4 288 
 APSL    IP   0A   1 6 48.86                              75   -0.1710 95.6  67 
 CBZA    IP   0A   1 6 49.49                              75    0.1210 97.7 257 
 FOUH     IAML A   1 6 50.43       364.8                                107 358 
 FOUH    IP   0A   1 6 50.43                              57   -0.3910  107 358 
 FOUH    ES   0A   1 7  5.75                              57   -0.1010  107 358 
 VOCA    ES   0A   1 7  7.80                              52    0.0510  116  33 
 DQYH    IP   0A   1 6 52.10                              52    0.0710  116 312 
 DQYH     IAML A   1 6 52.10       318.0                                116 312 
 DQYH    ES   0A   1 7  8.67                              52    0.7510  116 312 
 VOCA    IP   0A   1 6 51.60                              52   -0.3310  116  33 
 VOCA     IAML A   1 6 51.60       324.6                                116  33 
 RPKV    IP   0A   1 7  0.66                              52   -0.13 8  183 329 
 RPKV    ES   0A   1 7 22.91                              52    0.00 8  183 329 
 HLUH     IAML A   1 7  2.18       124.2                                198 323 
 HLUH    IP   0A   1 7  2.18                              52   -0.56 8  198 323 
 HLUH    ES   0A   1 7 25.51                              52   -0.72 8  198 323 
                                                                                
 2001  2 3 0107 39.5 L  33.527  52.699 21.1  New 10 0.4 1.5LNew                1
 GAP=226        0.89       5.0     2.2  6.5  0.1756E+01  0.7273E-01 -0.1833E+02E
 Action:ARG 24-03-13 14:55 OP:OBSP STATUS:               ID:20010203010740     I
 STAT SP IPHASW D HRMM SECON CODA AMPLIT PERI AZIMU VELO AIN AR TRES W  DIS CAZ7
 RHPW    IP   0A   1 7 55.37                              58    0.2510 70.5  13 
 LUEX    IP   0A   1 7 56.44                              57    0.1410 77.8 300 
 LUEX    ES   0A   1 8  8.77                              57    0.5210 77.8 300 
 XBVK    IP   0A   1 7 57.95                              57   -0.1210 88.8 359 
 XBVK    ES   0A   1 8 11.42                              57    0.1510 88.8 359 
 AVTK    IP   0A   1 7 59.07                              57   -0.1010 95.6 308 
 AVTK    ES   0A   1 8 13.37                              57    0.2310 95.6 308 
 MGUS    IP   0A   1 8  0.25                              57   -0.0510  103  74 
 MGUS    ES   0A   1 8 15.43                              57    0.3510  103  74 
 DNOA    IP   0A   1 8  1.38                              57   -0.0810  110  36 
 DQYH    IP   0A   1 8  4.53                              43   -0.0210  133 325 
 DQYH     IAML A   1 8  4.53         8.9                                133 325 
 FOUH    IP   0A   1 8  5.01                              43   -0.2610  138   3 
 FOUH     IAML A   1 8  5.01         8.3                                138   3 
 FOUH    ES   0A   1 8 23.75                              43    0.1710  138   3 
 RPKV    IP   0A   1 8 13.72                              43   -0.42 7  206 336 
 RPKV    ES   0A   1 8 37.67                              43   -1.08 7  206 336 
 HLUH    IP   0A   1 8 14.98                              43   -0.77 7  218 330 
 HLUH     IAML A   1 8 14.98         3.5                                218 330 
                                                                                
 2001  2 3 0108 49.2 L  34.106  52.472  9.4  New  8 0.2 1.2LNew                1
 GAP=107        0.58       1.4     1.0  2.5 -0.3741E+00 -0.5323E+00  0.3804E+00E
 Action:ARG 24-03-13 14:55 OP:OBSP STATUS:               ID:20010203010850     I
 STAT SP IPHASW D HRMM SECON CODA AMPLIT PERI AZIMU VELO AIN AR TRES W  DIS CAZ7
 LUEX    IP   0A   1 9  2.95                              53    0.2410 53.1 241 
 LUEX    ES   0A   1 9 12.67                              53    0.3410 53.1 241 
 AVTK     IAML A   1 9  3.07        18.7                               55.1 264 
 AVTK    IP   0A   1 9  3.07                              53   -0.0410 55.1 264 
 AVTK    ES   0A   1 9 12.87                              53   -0.1510 55.1 264 
 DQYH    IP   0A   1 9  6.18                              52    0.0210 70.9 309 
 DQYH     IAML A   1 9  6.18        13.4                               70.9 309 
 DQYH    ES   0A   1 9 18.32                              52    0.1010 70.9 309 
 CBZA     IAML A   1 9  8.37        10.0                               84.3 229 
 CBZA    IP   0A   1 9  8.37                              43   -0.2410 84.3 229 
 CBZA    ES   0A   1 9 22.14                              43   -0.2710 84.3 229 
 DNOA    IP   0A   1 9  9.74                              41    0.3110 89.3  74 
 DNOA     IAML A   1 9  9.74         9.0                               89.3  74 
 VOCA    IP   0A   1 9 13.09                              41   -0.2510  114  56 
 VOCA    ES   0A   1 9 30.41                              41   -0.0910  114  56 
 MGUS    IP   0A   1 9 14.96                              35   -0.1010  125 106 
 MGUS    ES   0A   1 9 33.68                              35    0.2310  125 106 
 RAWC    IP   0A   1 9 17.24                              33   -0.0810  142 122 
                                                                                
