 2012  811 1342 11.9 L  38.402  46.681 14.0  New 21 0.2 4.0LNew                1
 GAP= 44        0.48       0.8     0.7  1.1  0.7271E-01 -0.1434E+00 -0.3459E+00E
 Action:ARG 24-03-13 16:01 OP:OBSP STATUS:               ID:20120811134211     I
 STAT SP IPHASW D HRMM SECON CODA AMPLIT PERI AZIMU VELO AIN AR TRES W  DIS CAZ7
 TVRZ    ES   0A  1342 17.12                             139   -0.1510 11.4 354 
 HRS      IAML A  1342 17.85     21768.6                               32.8 106 
 HRS     IP   0A  1342 17.85                             110   -0.0810 32.8 106 
 HRS     ES   0A  1342 22.69                             110    0.2010 32.8 106 
 TAHR    ES   0A  1342 22.70                             110   -0.0310 33.7  73 
 TABZ    ES   0A  1342 27.03                             103    0.0010 49.2 219 
 FTB     ES   0A  1342 27.14                             103    0.0310 49.6 211 
 TBZ     IP   0A  1342 20.42                             103   -0.2310 50.0 248 
 BST     IP   0A  1342 25.44                              98   -0.0410 79.9 167 
 BST     ES   0A  1342 35.97                              98    0.2710 79.9 167 
 ORD     IP   0A  1342 26.11                              97    0.0210 83.6 315 
 ORD     ES   0A  1342 37.15                              97    0.3810 83.6 315 
 MRD      IAML A  1342 27.39      5469.7                               92.1 292 
 MRD     IP   0A  1342 27.39                              97   -0.0910 92.1 292 
 MRD     ES   0A  1342 39.38                              97    0.1810 92.1 292 
 SHB     IP   0A  1342 27.55                              97   -0.2110 93.8 262 
 SHB      IAML A  1342 27.55      5293.9                               93.8 262 
 SRB     IP   0A  1342 30.19                              96    0.2310  107 126 
 NAX     IP   0A  1342 34.10                              69   -0.0710  134 310 
 NAX     ES   0A  1342 51.13                              69    0.2110  134 310 
 LRK     IP   0A  1342 35.98                              69   -0.1910  147  79 
 LRK      IAML A  1342 35.98      2539.4                                147  79 
 LRK     ES   0A  1342 54.42                              69    0.0110  147  79 
 SBZ     IP   0A  1342 36.20                              69   -0.0510  148 319 
 SBZ      IAML A  1342 36.20      2544.4                                148 319 
 GLBA    IP   0A  1342 40.49                              69   -0.0410  175  57 
 GLBA     IAML A  1342 40.49      1850.0                                175  57 
 GLBA    ES   0A  1343  2.30                              69    0.2710  175  57 
 ASTR    IP   0A  1342 41.72                              69   -0.2510  185  84 
 LKRN    IP   0A  1342 41.95                              69   -0.1910  186  79 
 LKRN     IAML A  1342 41.95      1652.2                                186  79 
 LKRN    ES   0A  1343  4.86                              69    0.0010  186  79 
 BRDA    IP   0A  1342 45.40                              49   -0.2110  211  12 
 BRDA     IAML A  1342 45.40      1295.7                                211  12 
 SAAT    IP   0A  1342 46.92                              49    0.0510  221  42 
 SAAT    ES   0A  1343 13.35                              49    0.2210  221  42 
 GANJ     IAML A  1342 50.31       897.8                                251 353 
 GANJ    IP   0A  1342 50.31                              49   -0.25 9  251 353 
 GNI     IP   0A  1342 51.18                              49   -0.02 9  256 320 
 GNI     ES   0A  1343 20.71                              49   -0.01 9  256 320 
                                                                                
 2012  811 1414 53.8 L  38.501  46.703 27.0  New 22 0.1 3.0LNew                1
 GAP= 37        0.30       0.5     0.5  0.6 -0.2197E-02 -0.4063E-01 -0.1051E+00E
 Action:ARG 24-03-13 16:01 OP:OBSP STATUS:               ID:20120811141453     I
 STAT SP IPHASW D HRMM SECON CODA AMPLIT PERI AZIMU VELO AIN AR TRES W  DIS CAZ7
 TVRZ    IP   0A  1414 58.31                             173   -0.0110 3.08 277 
 TVRZ     IAML A  1414 58.31     22995.2                               3.08 277 
 TVRZ    ES   0A  1415  1.84                             173    0.1510 3.08 277 
 TAHR    ES   0A  1415  5.50                             127   -0.0610 30.4  92 
 HRS     IP   0A  1415  1.19                             122   -0.0410 35.9 124 
 HRS     ES   0A  1415  6.88                             122    0.1010 35.9 124 
 TBZ     IP   0A  1415  4.01                             108   -0.1110 56.6 239 
 TBZ      IAML A  1415  4.01       706.6                               56.6 239 
 TBZ     ES   0A  1415 11.81                             108   -0.0310 56.6 239 
 TABZ    ES   0A  1415 12.50                             107   -0.0110 59.2 214 
 FTB     IP   0A  1415  4.53                             107   -0.1010 60.1 207 
 FTB     ES   0A  1415 12.72                             107   -0.0210 60.1 207 
 BST     IP   0A  1415  9.09                              99   -0.0610 90.2 170 
 BST     ES   0A  1415 20.71                              99    0.0710 90.2 170 
 MRD     IP   0A  1415  9.26                              99    0.1010 90.3 285 
 SHB     IP   0A  1415 10.13                              97   -0.1610 97.7 256 
 SHB     ES   0A  1415 22.53                              97   -0.1010 97.7 256 
 GRMI    IP   0A  1415 11.90                              96   -0.1210  109  71 
 GRMI    ES   0A  1415 25.62                              96   -0.0510  109  71 
 AZR     IP   0A  1415 12.19                              96   -0.1110  111 215 
 SRB     IP   0A  1415 12.47                              96   -0.1010  113 131 
 SRB      IAML A  1415 12.47       251.8                                113 131 
 SBZ     IP   0A  1415 16.90                              94    0.0310  141 315 
 SBZ      IAML A  1415 16.90       171.9                                141 315 
 SBZ     ES   0A  1415 34.38                              94    0.2310  141 315 
 HSH      IAML A  1415 16.98       173.5                                142 159 
 HSH     IP   0A  1415 16.98                              94    0.0010  142 159 
 HSH     ES   0A  1415 34.51                              94    0.1610  142 159 
 ASTR    IP   0A  1415 22.71                              54   -0.0110  182  87 
 ASTR     IAML A  1415 22.71       107.8                                182  87 
 BRDA    IP   0A  1415 24.84                              54   -0.0710  200  12 
 SAAT    ES   0A  1415 50.84                              54    0.0210  212  44 
 ZRD      IAML A  1415 26.73        77.4                                215  23 
 ZRD     IP   0A  1415 26.73                              54   -0.0210  215  23 
 ZRD     ES   0A  1415 51.34                              54   -0.1010  215  23 
 GANJ    IP   0A  1415 29.84                              54   -0.0710  240 352 
 GNI     IP   0A  1415 31.14                              54    0.13 9  249 318 
 ZNJK    IP   0A  1415 33.53                              54    0.19 9  268 139 
 ZNJK    ES   0A  1416  3.10                              54    0.12 9  268 139 
 VANB    IP   0A  1415 36.07                              54    0.15 9  289 273 
 VANB     IAML A  1415 36.07        41.0                                289 273 
                                                                                
 2012  811 1425 15.5 L  38.430  46.683 11.9  New 19 0.1 4.3LNew                1
 GAP= 56        0.30       0.4     0.5  0.7  0.2311E-01  0.7106E-03 -0.4045E-01E
 Action:ARG 24-03-13 16:01 OP:OBSP STATUS:               ID:20120811142515     I
 STAT SP IPHASW D HRMM SECON CODA AMPLIT PERI AZIMU VELO AIN AR TRES W  DIS CAZ7
 TVRZ    ES   0A  1425 19.97                             143    0.1310 8.34 351 
 TAHR    ES   0A  1425 25.84                             106   -0.0610 32.8  78 
 HRS      IAML A  1425 21.45     41505.8                               33.8 111 
 HRS     IP   0A  1425 21.45                             106   -0.1210 33.8 111 
 HRS     ES   0A  1425 26.14                             106   -0.0110 33.8 111 
 TBZ      IAML A  1425 24.21     24554.1                               51.3 245 
 TBZ     IP   0A  1425 24.21                             100   -0.1810 51.3 245 
 TBZ     ES   0A  1425 30.97                             100   -0.1310 51.3 245 
 TABZ    ES   0A  1425 31.20                             100   -0.0210 51.8 217 
 FTB     ES   0A  1425 31.39                             100    0.0210 52.3 209 
 ORD     ES   0A  1425 39.84                              96    0.1310 81.5 313 
 BST     IP   0A  1425 29.47                              96   -0.0610 82.9 167 
 BST      IAML A  1425 29.47     12400.8                               82.9 167 
 BST     ES   0A  1425 40.17                              96    0.0810 82.9 167 
 MRD      IAML A  1425 30.80     11144.6                               91.1 291 
 MRD     IP   0A  1425 30.80                              95   -0.0710 91.1 291 
 MRD     ES   0A  1425 42.51                              95    0.0810 91.1 291 
 SHB      IAML A  1425 31.31     10445.9                               94.4 260 
 SHB     IP   0A  1425 31.31                              95   -0.1110 94.4 260 
 SHB     ES   0A  1425 43.40                              95    0.0110 94.4 260 
 AZR     ES   0A  1425 46.12                              95    0.1010  104 217 
 SRB     IP   0A  1425 33.79                              94   -0.0310  109 128 
 GRMI    IP   0A  1425 34.61                              94    0.0610  114  68 
 GRMI     IAML A  1425 34.61      7853.7                                114  68 
 NAX     ES   0A  1425 54.31                              69    0.0910  132 309 
 HSH     ES   0A  1425 55.10                              69    0.1410  135 158 
 MAKU    IP   0A  1425 48.16                              69   -0.1010  202 301 
 BRDA    ES   0A  1426 14.18                              49   -0.0910  208  12 
 GNI     IP   0A  1425 54.77                              49    0.02 9  254 319 
 ZNJK     IAML A  1425 56.05      1584.3                                264 137 
 ZNJK    IP   0A  1425 56.05                              49    0.13 9  264 137 
                                                                                
 2012  811 1455 57.3 L  38.429  46.741  5.3  New 23 0.1 3.1LNew                1
 GAP= 47        0.30       0.5     0.4  1.1 -0.6556E-02  0.3854E-01 -0.2217E+00E
 Action:ARG 24-03-13 16:01 OP:OBSP STATUS:               ID:20120811145557     I
 STAT SP IPHASW D HRMM SECON CODA AMPLIT PERI AZIMU VELO AIN AR TRES W  DIS CAZ7
 HRS     IP   0A  1456  2.37                              93   -0.0910 29.1 115 
 HRS      IAML A  1456  2.37      3188.3                               29.1 115 
 HRS     ES   0A  1456  6.24                              93   -0.1010 29.1 115 
 FTB      IAML A  1456  6.71      1377.0                               54.9 214 
 TABZ     IAML A  1456  6.69      1378.8                               54.9 221 
 FTB     IP   0A  1456  6.71                              92    0.0110 54.9 214 
 FTB     ES   0A  1456 13.85                              92    0.0810 54.9 214 
 TABZ    IP   0A  1456  6.69                              92   -0.0210 54.9 221 
 TBZ     IP   0A  1456  6.83                              92   -0.0510 56.0 248 
 TBZ     ES   0A  1456 14.06                              92   -0.0110 56.0 248 
 BST      IAML A  1456 11.09       794.0                               81.9 171 
 BST     IP   0A  1456 11.09                              91   -0.0510 81.9 171 
 BST     ES   0A  1456 21.51                              91   -0.0210 81.9 171 
 ORD     IP   0A  1456 11.70                              91   -0.0110 85.4 311 
 MRD     IP   0A  1456 13.45                              91    0.0110 95.8 290 
 SHB     IP   0A  1456 14.02                              91    0.0010 99.4 261 
 SHB      IAML A  1456 14.02       603.0                               99.4 261 
 SHB     ES   0A  1456 26.63                              91    0.0710 99.4 261 
 SRB     IP   0A  1456 14.85                              91   -0.1010  105 129 
 SRB     ES   0A  1456 28.09                              91   -0.1110  105 129 
 AZR     IP   0A  1456 15.20                              91   -0.0010  107 219 
 GRMI     IAML A  1456 15.53       535.1                                109  67 
 GRMI    IP   0A  1456 15.53                              91   -0.0510  109  67 
 GRMI    ES   0A  1456 29.28                              91   -0.0210  109  67 
 HSH     ES   0A  1456 36.37                              91    0.1310  133 160 
 LRK     IP   0A  1456 20.91                              91   -0.0210  141  80 
 SBZ     IP   0A  1456 22.18                              91    0.0310  149 317 
 GLBA    ES   0A  1456 46.77                              90    0.0310  169  57 
 ASTR    ES   0A  1456 49.56                              69    0.1310  179  85 
 LKRN    IP   0A  1456 27.28                              69    0.0610  180  79 
 LKRN    ES   0A  1456 49.85                              69    0.1810  180  79 
 MAKU    IP   0A  1456 31.26                              69    0.1110  206 301 
 MAKU    ES   0A  1456 56.77                              69    0.2210  206 301 
 BRDA     IAML A  1456 31.20       171.3                                207  10 
 BRDA    IP   0A  1456 31.20                              69   -0.1210  207  10 
 GANJ    IP   0A  1456 36.55                              49   -0.09 9  249 352 
 GNI     ES   0A  1457  7.89                              49   -0.14 9  257 319 
 ZNJK    IP   0A  1456 38.18                              49    0.14 9  260 138 
 VANB    IP   0A  1456 42.10                              49    0.01 8  293 275 
 VANB    ES   0A  1457 15.39                              49   -0.31 8  293 275 
                                                                                
 2012  811 1521 14.8 L  38.444  46.777 16.9  New 22 0.1 4.7LNew                1
 GAP= 46        0.32       0.5     0.5  0.8  0.1110E-01 -0.6784E-01 -0.1737E+00E
 Action:ARG 24-03-13 16:01 OP:OBSP STATUS:               ID:20120811152114     I
 STAT SP IPHASW D HRMM SECON CODA AMPLIT PERI AZIMU VELO AIN AR TRES W  DIS CAZ7
 HRS     IP   0A  1521 20.12                             120   -0.1210 27.0 121 
 TBZ     IP   0A  1521 25.16                             104   -0.0810 59.5 247 
 TBZ     ES   0A  1521 33.16                             104    0.1010 59.5 247 
 BST     ES   0A  1521 39.78                             100    0.0810 83.0 173 
 ORD      IAML A  1521 29.59     28748.4                               86.8 309 
 ORD     IP   0A  1521 29.59                              99   -0.0510 86.8 309 
 ORD     ES   0A  1521 40.91                              99    0.1510 86.8 309 
 MRD     IP   0A  1521 31.44                              69   -0.0410 98.3 288 
 MRD      IAML A  1521 31.44     23962.1                               98.3 288 
 MRD     ES   0A  1521 44.14                              69    0.1610 98.3 288 
 SHB      IAML A  1521 32.03     22621.9                                103 260 
 SHB     IP   0A  1521 32.03                              69   -0.1310  103 260 
 SRB     IP   0A  1521 32.15                              69   -0.1610  104 131 
 GRMI    IP   0A  1521 32.56                              69   -0.0010  105  67 
 GRMI    ES   0A  1521 46.11                              69    0.2410  105  67 
 AZR     ES   0A  1521 47.14                              69    0.0710  110 220 
 LRK      IAML A  1521 37.56     14420.9                                138  80 
 LRK     IP   0A  1521 37.56                              69   -0.0210  138  80 
 SBZ     IP   0A  1521 39.28                              69   -0.1110  150 315 
 SBZ     ES   0A  1521 57.87                              69    0.0510  150 315 
 GLBA     IAML A  1521 41.83     10307.5                                166  57 
 GLBA    IP   0A  1521 41.83                              69   -0.0310  166  57 
 GLBA    ES   0A  1522  2.32                              69    0.1910  166  57 
 ASTR    IP   0A  1521 43.35                              69   -0.0710  176  85 
 ASTR     IAML A  1521 43.35      9314.8                                176  85 
 LKRN     IAML A  1521 43.53      9221.3                                177  80 
 LKRN    IP   0A  1521 43.53                              69   -0.0110  177  80 
 BRDA    IP   0A  1521 47.39                              49   -0.1110  205  10 
 BRDA    ES   0A  1522 11.88                              49   -0.1410  205  10 
 MAKU    IP   0A  1521 47.92                              49    0.0510  208 300 
 MAKU    ES   0A  1522 12.78                              49    0.1210  208 300 
 SAAT    IP   0A  1521 48.44                              49    0.0510  212  42 
 SAAT    ES   0A  1522 13.68                              49    0.1010  212  42 
 ZRD     IP   0A  1521 49.05                              49   -0.1010  218  21 
 ZRD      IAML A  1521 49.05      5980.0                                218  21 
 ZRD     ES   0A  1522 14.76                              49   -0.1310  218  21 
 GANJ    IP   0A  1521 52.75                              49   -0.02 9  248 351 
 GNI      IAML A  1521 54.09      4127.7                                258 318 
 GNI     IP   0A  1521 54.09                              49   -0.00 9  258 318 
 ZNJK    IP   0A  1521 54.28                              49    0.08 9  259 139 
 ZNJK    ES   0A  1522 23.79                              49    0.05 9  259 139 
 VANB    IP   0A  1521 58.72                              49   -0.02 8  296 274 
 VANB    ES   0A  1522 31.47                              49   -0.20 8  296 274 
                                                                                
