 2012  811 1745 44.5 L  38.412  46.788  8.6  New 22 0.1 2.5LNew                1
 GAP= 48        0.39       0.6     0.6  1.1  0.6146E-01 -0.1484E+00 -0.2821E+00E
 Action:ARG 24-03-13 16:01 OP:OBSP STATUS:               ID:20120811174544     I
 STAT SP IPHASW D HRMM SECON CODA AMPLIT PERI AZIMU VELO AIN AR TRES W  DIS CAZ7
 HRS     IP   0A  1745 48.97                             104   -0.0710 24.5 115 
 HRS     ES   0A  1745 52.48                             104    0.0610 24.5 115 
 TABZ    IP   0A  1745 54.09                              95   -0.1310 56.4 226 
 TABZ     IAML A  1745 54.09       338.1                               56.4 226 
 TBZ      IAML A  1745 54.64       315.1                               59.1 251 
 TBZ     IP   0A  1745 54.64                              95   -0.0410 59.1 251 
 TBZ     ES   0A  1746  2.40                              95    0.1210 59.1 251 
 BST     IP   0A  1745 57.83                              94   -0.1610 79.4 174 
 BST     ES   0A  1746  7.98                              94   -0.1110 79.4 174 
 ORD     ES   0A  1746 11.04                              93   -0.0410 89.8 310 
 MRD     IP   0A  1746  1.45                              93    0.0010  100 290 
 MRD     ES   0A  1746 14.31                              93    0.1810  100 290 
 SRB     IP   0A  1746  1.48                              93   -0.0010  101 130 
 SRB      IAML A  1746  1.48       152.3                                101 130 
 SHB     IP   0A  1746  1.90                              93   -0.0110  103 262 
 SHB     ES   0A  1746 15.10                              93    0.1610  103 262 
 GRMI    ES   0A  1746 15.81                              93    0.1010  106  65 
 AZR     IP   0A  1746  2.52                              93   -0.1410  108 221 
 AZR      IAML A  1746  2.52       133.0                                108 221 
 HSH     IP   0A  1746  6.24                              92   -0.0310  130 161 
 HSH     ES   0A  1746 22.69                              92    0.1110  130 161 
 LRK     IP   0A  1746  7.45                              92   -0.1310  138  79 
 LRK     ES   0A  1746 24.81                              92   -0.0610  138  79 
 NAX      IAML A  1746  7.99        85.8                                141 307 
 NAX     IP   0A  1746  7.99                              92   -0.0710  141 307 
 NAX     ES   0A  1746 25.75                              92    0.0410  141 307 
 GLBA    IP   0A  1746 12.35                              69    0.1110  167  56 
 GLBA    ES   0A  1746 33.38                              69    0.3710  167  56 
 ASTR    IP   0A  1746 13.42                              69   -0.1110  176  84 
 LKRN    IP   0A  1746 13.66                              69   -0.0410  177  79 
 LKRN     IAML A  1746 13.66        58.5                                177  79 
 BRDA    IP   0A  1746 18.31                              49   -0.2310  208   9 
 BRDA     IAML A  1746 18.31        42.0                                208   9 
 BRDA    ES   0A  1746 43.74                              49   -0.3010  208   9 
 SAAT    IP   0A  1746 19.36                              49    0.1010  214  41 
 GANJ    ES   0A  1746 53.21                              49   -0.12 9  251 351 
 ZNJK    IP   0A  1746 24.56                              49    0.15 9  256 138 
 ZNJK    ES   0A  1746 54.46                              49    0.15 9  256 138 
 GNI     IP   0A  1746 25.32                              49    0.20 9  262 318 
 VANB     IAML A  1746 29.51        19.0                                297 275 
 VANB    IP   0A  1746 29.51                              49   -0.00 8  297 275 
                                                                                
 2012  811 1749 25.8 L  38.426  46.829 16.9  New 23 0.2 2.6LNew                1
 GAP= 51        0.53       0.9     0.8  1.2  0.8583E-01 -0.5605E-01 -0.5595E+00E
 Action:ARG 24-03-13 16:01 OP:OBSP STATUS:               ID:20120811174925     I
 STAT SP IPHASW D HRMM SECON CODA AMPLIT PERI AZIMU VELO AIN AR TRES W  DIS CAZ7
 TAHR    IP   0A  1749 30.33                             127   -0.0110 20.7  70 
 HRS     IP   0A  1749 30.53                             125   -0.0010 22.1 123 
 HRS     ES   0A  1749 34.37                             125    0.2910 22.1 123 
 TABZ     IAML A  1749 36.27       407.8                               60.0 227 
 TABZ    IP   0A  1749 36.27                             103   -0.0410 60.0 227 
 TABZ    ES   0A  1749 44.42                             103    0.2310 60.0 227 
 TBZ     IP   0A  1749 36.63                             103   -0.1510 63.0 251 
 TBZ     ES   0A  1749 45.05                             103    0.0310 63.0 251 
 BST      IAML A  1749 39.40       266.4                               80.6 176 
 BST     IP   0A  1749 39.40                             100   -0.2210 80.6 176 
 BST     ES   0A  1749 49.90                             100   -0.0910 80.6 176 
 ORD     IP   0A  1749 41.48                              99    0.0810 91.6 308 
 SRB     IP   0A  1749 42.56                              69   -0.0110 99.0 132 
 SRB     ES   0A  1749 55.44                              69    0.3010 99.0 132 
 MRD     IP   0A  1749 43.13                              69   -0.0910  103 288 
 MRD      IAML A  1749 43.13       182.5                                103 288 
 MRD     ES   0A  1749 56.42                              69    0.1310  103 288 
 SHB     IP   0A  1749 43.45                              69   -0.3410  107 262 
 HSH     ES   0A  1750  3.60                              69    0.0910  130 163 
 LRK     IP   0A  1749 47.78                              69   -0.1510  134  79 
 LRK     ES   0A  1750  4.56                              69    0.0310  134  79 
 NAX     IP   0A  1749 49.31                              69    0.0610  143 306 
 SBZ     ES   0A  1750 10.45                              69    0.4010  155 315 
 GLBA     IAML A  1749 52.22        83.2                                163  56 
 GLBA    IP   0A  1749 52.22                              69   -0.2110  163  56 
 ASTR    IP   0A  1749 53.56                              69   -0.1810  172  84 
 LKRN    IP   0A  1749 53.75                              69   -0.1510  173  79 
 LKRN     IAML A  1749 53.75        75.1                                173  79 
 LKRN    ES   0A  1750 15.01                              69    0.0310  173  79 
 BRDA     IAML A  1749 58.42        53.4                                206   8 
 BRDA    IP   0A  1749 58.42                              49   -0.2310  206   8 
 SAAT    ES   0A  1750 24.51                              49    0.2610  211  40 
 MAKU    IP   0A  1749 59.53                              49    0.0610  213 300 
 MAKU    ES   0A  1750 24.92                              49    0.2010  213 300 
 ZRD     IP   0A  1750  0.05                              49   -0.1310  219  19 
 ZNJK     IAML A  1750  4.77        34.5                                255 139 
 ZNJK    IP   0A  1750  4.77                              49    0.14 9  255 139 
 GNI     IP   0A  1750  5.69                              49    0.05 9  263 317 
 VANB    ES   0A  1750 43.22                              49   -0.46 8  301 275 
                                                                                
 2012  811 1758 33.4 L  38.376  46.792  8.9  New 24 0.1 4.1LNew                1
 GAP= 49        0.42       0.6     0.6  1.1  0.9068E-01 -0.2869E-01 -0.2947E+00E
 Action:ARG 24-03-13 16:01 OP:OBSP STATUS:               ID:20120811175833     I
 STAT SP IPHASW D HRMM SECON CODA AMPLIT PERI AZIMU VELO AIN AR TRES W  DIS CAZ7
 TVRZ    ES   0A  1758 39.52                             111    0.0810 17.9 323 
 HRS     IP   0A  1758 37.34                             106   -0.2610 22.8 106 
 HRS     ES   0A  1758 40.53                             106   -0.2510 22.8 106 
 TAHR    IP   0A  1758 38.07                             104   -0.0310 25.9  61 
 TAHR    ES   0A  1758 41.79                             104    0.1410 25.9  61 
 TABZ     IAML A  1758 42.79     14308.2                               53.9 229 
 TABZ    IP   0A  1758 42.79                              96    0.1410 53.9 229 
 TBZ     IP   0A  1758 43.39                              95    0.0310 58.3 255 
 BST     IP   0A  1758 46.08                              94   -0.0810 75.4 173 
 BST     ES   0A  1758 55.82                              94    0.0510 75.4 173 
 ORD     ES   0A  1759  0.60                              93   -0.1310 92.6 312 
 SRB     IP   0A  1758 49.74                              93   -0.1110 97.8 128 
 SRB     ES   0A  1759  2.23                              93    0.0110 97.8 128 
 MRD     IP   0A  1758 50.50                              93   -0.0510  102 292 
 MRD     ES   0A  1759  3.55                              93    0.1010  102 292 
 SHB     IP   0A  1758 50.70                              93   -0.0110  103 265 
 AZR     IP   0A  1758 51.23                              93    0.2010  105 223 
 GRMI    IP   0A  1758 51.43                              93    0.0210  107  63 
 HSH     IP   0A  1758 54.50                              92    0.0410  126 161 
 LRK     ES   0A  1759 13.90                              92    0.0710  138  77 
 NAX     ES   0A  1759 15.26                              92   -0.0510  143 309 
 SBZ     IP   0A  1758 59.30                              69   -0.0810  156 317 
 SBZ     ES   0A  1759 18.94                              69    0.0510  156 317 
 GLBA    IP   0A  1759  1.48                              69    0.1410  169  55 
 GLBA    ES   0A  1759 22.76                              69    0.4210  169  55 
 ASTR    IP   0A  1759  2.31                              69   -0.0410  176  83 
 BRDA    IP   0A  1759  7.55                              49   -0.2510  212   9 
 MAKU    IP   0A  1759  8.02                              49    0.1310  213 301 
 MAKU     IAML A  1759  8.02      1576.0                                213 301 
 SAAT     IAML A  1759  8.45      1543.5                                217  40 
 SAAT    IP   0A  1759  8.45                              49    0.0510  217  40 
 SAAT    ES   0A  1759 34.75                              49    0.0710  217  40 
 ZRD      IAML A  1759  9.21      1427.7                                225  20 
 ZRD     IP   0A  1759  9.21                              49   -0.1610  225  20 
 GANJ    ES   0A  1759 42.63                              49   -0.33 9  255 351 
 GNI     IP   0A  1759 14.37                              49    0.06 9  265 319 
 GNI      IAML A  1759 14.37       989.5                                265 319 
 GNI     ES   0A  1759 45.02                              49   -0.00 9  265 319 
                                                                                
 2012  811 1813  3.2 L  38.382  46.645  2.7  New 23 0.1 3.0LNew                1
 GAP= 44        0.31       0.4     0.4  0.9  0.2600E-01 -0.5266E-01 -0.5862E-01E
 Action:ARG 24-03-13 16:01 OP:OBSP STATUS:               ID:20120811181303     I
 STAT SP IPHASW D HRMM SECON CODA AMPLIT PERI AZIMU VELO AIN AR TRES W  DIS CAZ7
 TVRZ    IP   0A  1813  5.81                             101   -0.1010 13.7   9 
 TVRZ     IAML A  1813  5.81      7157.4                               13.7   9 
 HRS      IAML A  1813  9.59      2082.8                               35.4 101 
 HRS     IP   0A  1813  9.59                              60    0.0110 35.4 101 
 FTB     IP   0A  1813 11.26                              60   -0.0710 46.1 209 
 FTB     ES   0A  1813 17.30                              60   -0.0910 46.1 209 
 TBZ     IP   0A  1813 11.31                              60   -0.0410 46.2 249 
 TBZ     ES   0A  1813 17.40                              60   -0.0310 46.2 249 
 BST     IP   0A  1813 16.58                              60   -0.0910 78.6 164 
 BST      IAML A  1813 16.58       677.0                               78.6 164 
 ORD      IAML A  1813 17.38       634.6                               82.9 317 
 ORD     IP   0A  1813 17.38                              60   -0.0210 82.9 317 
 ORD     ES   0A  1813 28.02                              60    0.0110 82.9 317 
 MRD      IAML A  1813 18.54       555.5                               90.0 294 
 MRD     IP   0A  1813 18.54                              60   -0.0210 90.0 294 
 SHB     IP   0A  1813 18.61                              60    0.0010 90.3 263 
 SRB     IP   0A  1813 21.62                              60    0.0010  109 124 
 SRB     ES   0A  1813 35.43                              60    0.0410  109 124 
 GRMI    IP   0A  1813 23.23                              60   -0.0410  119  66 
 GRMI     IAML A  1813 23.23       374.0                                119  66 
 GRMI    ES   0A  1813 38.25                              60   -0.0410  119  66 
 NAX     IP   0A  1813 25.64                              60    0.0010  133 312 
 NAX     ES   0A  1813 42.48                              60    0.0510  133 312 
 SBZ     IP   0A  1813 28.00                              60    0.0410  147 320 
 LRK     ES   0A  1813 47.52                              60    0.0210  151  78 
 ASTR    IP   0A  1813 34.71                              54    0.0810  188  83 
 LKRN    ES   0A  1813 58.72                              54    0.2210  190  78 
 MAKU     IAML A  1813 36.83       140.7                                202 303 
 MAKU    IP   0A  1813 36.83                              54    0.1710  202 303 
 MAKU    ES   0A  1814  2.04                              54    0.3110  202 303 
 BRDA     IAML A  1813 38.48       127.3                                214  12 
 BRDA    IP   0A  1813 38.48                              54   -0.0610  214  12 
 SAAT    ES   0A  1814  7.57                              40    0.0110  225  43 
 ZRD     IP   0A  1813 40.47                              40   -0.0110  229  23 
 ZRD     ES   0A  1814  8.20                              40   -0.2010  229  23 
 GANJ    ES   0A  1814 13.38                              40   -0.21 9  253 354 
 GNI     ES   0A  1814 14.16                              40   -0.09 9  256 321 
 ZNJK    IP   0A  1813 44.70                              40    0.14 9  262 136 
 ZNJK    ES   0A  1814 15.53                              40   -0.01 9  262 136 
 VANB    IP   0A  1813 47.39                              40   -0.02 9  285 276 
                                                                                
 2012  811 1821 44.8 L  38.442  46.709 19.3  New 23 0.1 2.6LNew                1
 GAP= 41        0.41       0.6     0.6  0.7  0.1038E+00 -0.4100E-01 -0.1545E+00E
 Action:ARG 24-03-13 16:01 OP:OBSP STATUS:               ID:20120811182144     I
 STAT SP IPHASW D HRMM SECON CODA AMPLIT PERI AZIMU VELO AIN AR TRES W  DIS CAZ7
 TVRZ    ES   0A  1821 51.22                             157    0.2510 7.77 332 
 TAHR    IP   0A  1821 50.80                             121   -0.0710 30.3  80 
 HRS     IP   0A  1821 51.10                             119   -0.0410 32.1 115 
 HRS     ES   0A  1821 56.05                             119    0.1610 32.1 115 
 TBZ      IAML A  1821 54.25       478.5                               54.0 245 
 TBZ     IP   0A  1821 54.25                             108   -0.2110 54.0 245 
 TBZ     ES   0A  1822  1.56                             108   -0.1510 54.0 245 
 TABZ    ES   0A  1822  1.73                             108   -0.0410 54.3 218 
 FTB     IP   0A  1821 54.41                             107   -0.1510 54.7 210 
 ORD     ES   0A  1822  9.62                              69    0.1910 82.4 311 
 BST      IAML A  1821 59.06       253.1                               83.7 169 
 BST     IP   0A  1821 59.06                              69   -0.0210 83.7 169 
 BST     ES   0A  1822  9.99                              69    0.1910 83.7 169 
 MRD     IP   0A  1822  0.50                              69    0.0310 92.8 289 
 MRD      IAML A  1822  0.50       216.1                               92.8 289 
 MRD     ES   0A  1822 12.50                              69    0.2710 92.8 289 
 SHB     IP   0A  1822  0.86                              69   -0.2410 96.9 260 
 SHB      IAML A  1822  0.86       204.2                               96.9 260 
 SRB     IP   0A  1822  2.77                              69   -0.0410  108 129 
 SRB      IAML A  1822  2.77       168.5                                108 129 
 SRB     ES   0A  1822 16.47                              69    0.1410  108 129 
 GRMI    IP   0A  1822  3.15                              69   -0.0910  111  68 
 GRMI     IAML A  1822  3.15       158.9                                111  68 
 NAX     IP   0A  1822  6.67                              69    0.0110  133 308 
 NAX      IAML A  1822  6.67       120.4                                133 308 
 NAX     ES   0A  1822 23.30                              69    0.2410  133 308 
 LRK     ES   0A  1822 26.09                              69    0.1510  144  81 
 SBZ     IP   0A  1822  8.59                              69   -0.0310  146 317 
 GLBA     IAML A  1822 12.34        75.9                                171  58 
 GLBA    IP   0A  1822 12.34                              69   -0.1310  171  58 
 LKRN    IP   0A  1822 14.22                              69   -0.0510  183  80 
 MAKU     IAML A  1822 17.03        55.7                                203 301 
 MAKU    IP   0A  1822 17.03                              49    0.0510  203 301 
 MAKU    ES   0A  1822 41.23                              49    0.1210  203 301 
 BRDA    IP   0A  1822 17.20                              49   -0.1810  206  11 
 BRDA     IAML A  1822 17.20        53.1                                206  11 
 SAAT     IAML A  1822 18.56        48.1                                216  43 
 SAAT    IP   0A  1822 18.56                              49   -0.0610  216  43 
 SAAT    ES   0A  1822 43.90                              49   -0.0910  216  43 
 GANJ     IAML A  1822 22.20        36.6                                247 352 
 GANJ    IP   0A  1822 22.20                              49   -0.2110  247 352 
 GNI     IP   0A  1822 23.31                              49   -0.04 9  255 319 
 GNI     ES   0A  1822 52.10                              49   -0.16 9  255 319 
 ZNJK     IAML A  1822 24.49        32.1                                263 138 
 ZNJK    IP   0A  1822 24.49                              49    0.11 9  263 138 
 ZNJK    ES   0A  1822 54.15                              49    0.07 9  263 138 
                                                                                
