 2012  811 1223 15.4 L  38.419  46.800  1.9  New 23 0.2 6.5LNew                1
 GAP= 44        0.47       0.6     0.6  1.4  0.9664E-01  0.4299E-01  0.1688E+00E
 Action:ARG 24-03-13 16:01 OP:OBSP STATUS:               ID:20120811122315     I
 STAT SP IPHASW D HRMM SECON CODA AMPLIT PERI AZIMU VELO AIN AR TRES W  DIS CAZ7
 TVRZ    IP   0A  1223 18.32                              97    0.0210 14.9 309 
 TVRZ    ES   0A  1223 20.52                              97    0.0910 14.9 309 
 HRS      IAML A  1223 19.89      10.8e6                               23.9 118 
 HRS     IP   0A  1223 19.89                              60   -0.0710 23.9 118 
 FTB     ES   0A  1223 33.28                              60    0.4010 57.1 219 
 TBZ     IP   0A  1223 26.02                              60    0.0710 60.4 250 
 TBZ     ES   0A  1223 33.99                              60    0.1510 60.4 250 
 BST     IP   0A  1223 29.01                              60   -0.1910 80.1 174 
 BST     ES   0A  1223 39.22                              60   -0.2910 80.1 174 
 ORD      IAML A  1223 30.65      17.5e5                               90.0 309 
 ORD     IP   0A  1223 30.65                              60   -0.1810 90.0 309 
 ORD     ES   0A  1223 42.08                              60   -0.2910 90.0 309 
 SRB     IP   0A  1223 32.53                              60   -0.0010  100 131 
 SRB      IAML A  1223 32.53      15.3e5                                100 131 
 SRB     ES   0A  1223 45.38                              60    0.0310  100 131 
 MRD     IP   0A  1223 32.59                              60   -0.0610  101 289 
 SHB      IAML A  1223 33.17      14.0e5                                104 262 
 SHB     IP   0A  1223 33.17                              60   -0.0110  104 262 
 SHB     ES   0A  1223 46.49                              60    0.0110  104 262 
 GRMI    IP   0A  1223 33.29                              60    0.0610  105  65 
 GRMI     IAML A  1223 33.29      14.2e5                                105  65 
 GRMI    ES   0A  1223 46.71                              60    0.1410  105  65 
 HSH     IP   0A  1223 37.41                              60   -0.0310  130 162 
 HSH      IAML A  1223 37.41      99.8e4                                130 162 
 HSH     ES   0A  1223 53.91                              60   -0.0310  130 162 
 LRK     IP   0A  1223 38.43                              60   -0.0510  137  79 
 NAX     IP   0A  1223 39.06                              60   -0.1510  141 307 
 NAX      IAML A  1223 39.06      85.7e4                                141 307 
 NAX     ES   0A  1223 56.81                              60   -0.2210  141 307 
 GLBA    IP   0A  1223 43.43                              60    0.1410  166  56 
 ASTR    ES   0A  1224  6.51                              60   -0.1510  174  84 
 BRDA    IP   0A  1223 49.73                              54   -0.0910  207   9 
 BRDA     IAML A  1223 49.73      42.2e4                                207   9 
 MAKU    ES   0A  1224 16.93                              54    0.3310  211 300 
 SAAT     IAML A  1223 50.92      40.2e4                                213  41 
 SAAT    IP   0A  1223 50.92                              54    0.2510  213  41 
 ZRD     IP   0A  1223 51.70                              40   -0.0010  220  20 
 GANJ    IP   0A  1223 55.49                              40    0.02 9  251 351 
 ZNJK    IP   0A  1223 56.32                              40    0.21 9  256 139 
 ZNJK     IAML A  1223 56.32      27.3e4                                256 139 
 GNI     ES   0A  1224 28.03                              40    0.15 9  262 318 
 VANB    IP   0A  1224  1.36                              40    0.02 8  298 275 
 VANB    ES   0A  1224 35.44                              40   -0.32 8  298 275 
                                                                                
 2012  811 1228 46.4 L  38.431  46.784 21.8  New 25 0.1 3.5LNew                1
 GAP= 51        0.26       0.4     0.4  0.6 -0.2405E-01  0.2555E-01 -0.5961E-01E
 Action:ARG 24-03-13 16:01 OP:OBSP STATUS:               ID:20120811122846     I
 STAT SP IPHASW D HRMM SECON CODA AMPLIT PERI AZIMU VELO AIN AR TRES W  DIS CAZ7
 TVRZ    ES   0A  1228 53.99                             146    0.1610 13.0 309 
 TAHR    ES   0A  1228 55.90                             126   -0.0310 24.2  74 
 HRS      IAML A  1228 51.97      8704.6                               25.8 119 
 HRS     IP   0A  1228 51.97                             124   -0.0610 25.8 119 
 HRS     ES   0A  1228 56.37                             124    0.0910 25.8 119 
 FTB     IP   0A  1228 56.48                              98   -0.0910 57.3 217 
 FTB      IAML A  1228 56.48      3349.0                               57.3 217 
 FTB     ES   0A  1229  4.26                              98    0.0410 57.3 217 
 TABZ    IP   0A  1228 56.55                              98   -0.0810 57.7 224 
 TBZ     IP   0A  1228 56.92                              97    0.0110 59.6 249 
 BST     IP   0A  1229  0.21                              93   -0.0710 81.6 174 
 BST     ES   0A  1229 10.80                              93    0.0810 81.6 174 
 ORD     IP   0A  1229  1.18                              93   -0.1010 88.1 309 
 ORD      IAML A  1229  1.18      1892.1                               88.1 309 
 MRD     IP   0A  1229  2.98                              92   -0.0210 99.4 289 
 SRB     IP   0A  1229  3.32                              92   -0.1310  102 131 
 SHB     IP   0A  1229  3.65                              92    0.0610  103 261 
 GRMI    IP   0A  1229  3.84                              92   -0.0710  105  66 
 GRMI     IAML A  1229  3.84      1387.2                                105  66 
 GRMI    ES   0A  1229 17.15                              92    0.0710  105  66 
 AZR     IP   0A  1229  4.43                              92   -0.0810  109 220 
 AZR     ES   0A  1229 18.18                              92    0.0610  109 220 
 LRK     IP   0A  1229  8.81                              91   -0.0610  138  80 
 LRK      IAML A  1229  8.81       891.8                                138  80 
 NAX     ES   0A  1229 26.18                              91    0.0410  139 307 
 SBZ      IAML A  1229 10.85       781.5                                151 315 
 SBZ     IP   0A  1229 10.85                              91   -0.1210  151 315 
 GLBA    IP   0A  1229 13.16                              91   -0.0810  166  57 
 GLBA     IAML A  1229 13.16       644.9                                166  57 
 GLBA    ES   0A  1229 33.46                              91    0.0510  166  57 
 ASTR     IAML A  1229 14.62       576.8                                176  85 
 ASTR    IP   0A  1229 14.62                              91   -0.0810  176  85 
 LKRN    ES   0A  1229 36.27                              91    0.0710  177  79 
 BRDA     IAML A  1229 18.67       432.3                                206   9 
 BRDA    IP   0A  1229 18.67                              54   -0.0310  206   9 
 BRDA    ES   0A  1229 42.89                              54   -0.0610  206   9 
 MAKU    IP   0A  1229 19.17                              54    0.1110  209 300 
 MAKU     IAML A  1229 19.17       422.1                                209 300 
 SAAT    ES   0A  1229 44.49                              54    0.1210  213  41 
 ZNJK    ES   0A  1229 54.17                              54    0.09 9  258 139 
 GNI      IAML A  1229 25.37       266.0                                260 318 
 GNI     IP   0A  1229 25.37                              54    0.06 9  260 318 
 GNI     ES   0A  1229 54.49                              54   -0.04 9  260 318 
 VANB    IP   0A  1229 29.98                              54    0.11 8  297 275 
                                                                                
 2012  811 1249 15.8 L  38.383  46.693 12.9  New 22 0.1 4.6LNew                1
 GAP= 46        0.33       0.5     0.5  0.7  0.8560E-02 -0.1447E-01 -0.5522E-01E
 Action:ARG 24-03-13 16:01 OP:OBSP STATUS:               ID:20120811124915     I
 STAT SP IPHASW D HRMM SECON CODA AMPLIT PERI AZIMU VELO AIN AR TRES W  DIS CAZ7
 TVRZ    ES   0A  1249 21.49                             131    0.0310 13.6 351 
 HRS     IP   0A  1249 21.44                             109   -0.1510 31.3 103 
 HRS     ES   0A  1249 25.89                             109   -0.0410 31.3 103 
 TAHR    ES   0A  1249 26.52                             108    0.0110 33.4  69 
 TABZ    ES   0A  1249 30.66                             102    0.0110 48.3 222 
 FTB     ES   0A  1249 30.68                             102    0.0410 48.3 213 
 TBZ      IAML A  1249 24.45     50892.1                               50.2 251 
 TBZ     IP   0A  1249 24.45                             101   -0.1510 50.2 251 
 BST     IP   0A  1249 29.02                              97   -0.0210 77.6 167 
 ORD     ES   0A  1249 41.56                              96    0.2310 85.8 315 
 MRD     IP   0A  1249 31.66                              96   -0.0410 93.9 293 
 MRD      IAML A  1249 31.66     21312.7                               93.9 293 
 SHB     IP   0A  1249 31.74                              96   -0.0710 94.6 264 
 SHB     ES   0A  1249 43.92                              96    0.1010 94.6 264 
 SRB      IAML A  1249 33.51     17354.5                                105 126 
 SRB     IP   0A  1249 33.51                              95   -0.0510  105 126 
 SRB     ES   0A  1249 47.02                              95    0.1510  105 126 
 HSH     ES   0A  1249 53.94                              69    0.1210  130 157 
 LRK     IP   0A  1249 39.99                              69   -0.1110  147  78 
 GLBA    IP   0A  1249 44.54                              69   -0.0510  176  57 
 GLBA     IAML A  1249 44.54      7350.0                                176  57 
 GLBA    ES   0A  1250  6.32                              69    0.1410  176  57 
 ASTR    IP   0A  1249 45.73                              69   -0.1410  184  83 
 MAKU    ES   0A  1250 13.91                              49    0.0910  205 302 
 BRDA     IAML A  1249 49.86      5090.9                                213  11 
 BRDA    IP   0A  1249 49.86                              49   -0.0610  213  11 
 SAAT    IP   0A  1249 51.13                              49    0.0810  222  42 
 ZRD     ES   0A  1250 18.57                              49   -0.0210  227  22 
 ZNJK    ES   0A  1250 25.61                              49    0.14 9  259 137 
 GNI     IP   0A  1249 55.57                              49    0.01 9  259 320 
 VANB    ES   0A  1250 31.71                              49   -0.28 9  289 276 
                                                                                
 2012  811 1314  5.4 L  38.373  46.668  1.9  New 23 0.1 4.4LNew                1
 GAP= 55        0.41       0.5     0.6  1.4  0.3840E-01 -0.3582E-01 -0.7247E-01E
 Action:ARG 24-03-13 16:01 OP:OBSP STATUS:               ID:20120811131405     I
 STAT SP IPHASW D HRMM SECON CODA AMPLIT PERI AZIMU VELO AIN AR TRES W  DIS CAZ7
 HRS     IP   0A  1314 11.35                              60   -0.1310 33.2 100 
 TAHR    ES   0A  1314 16.54                              60   -0.2310 35.8  69 
 TABZ    ES   0A  1314 19.66                              60   -0.0610 46.1 221 
 TBZ     IP   0A  1314 13.84                              60   -0.0510 47.9 252 
 TBZ     ES   0A  1314 20.09                              60   -0.1410 47.9 252 
 BST      IAML A  1314 18.69     17264.0                               77.0 165 
 BST     IP   0A  1314 18.69                              60    0.0010 77.0 165 
 BST     ES   0A  1314 28.58                              60   -0.0510 77.0 165 
 MRD     ES   0A  1314 32.94                              60   -0.0910 92.3 294 
 SHB     IP   0A  1314 21.18                              60   -0.0210 92.3 264 
 MRD     IP   0A  1314 21.18                              60   -0.0210 92.3 294 
 SRB     IP   0A  1314 23.43                              60   -0.0810  106 125 
 SRB     ES   0A  1314 36.88                              60   -0.1810  106 125 
 GRMI    IP   0A  1314 25.24                              60   -0.0510  117  65 
 HSH     ES   0A  1314 43.80                              60    0.0510  130 156 
 NAX     IP   0A  1314 28.26                              60   -0.0110  135 311 
 SBZ      IAML A  1314 30.59      6296.7                                149 320 
 LRK      IAML A  1314 30.48      6309.2                                149  78 
 LRK     IP   0A  1314 30.48                              60   -0.0210  149  78 
 SBZ     IP   0A  1314 30.59                              60    0.0210  149 320 
 GLBA     IAML A  1314 35.30      4568.9                                178  57 
 GLBA    IP   0A  1314 35.30                              60   -0.0210  178  57 
 ASTR    IP   0A  1314 36.67                              54    0.0610  186  83 
 ASTR     IAML A  1314 36.67      4162.6                                186  83 
 ASTR    ES   0A  1315  0.05                              54    0.0610  186  83 
 MAKU     IAML A  1314 39.47      3489.7                                204 303 
 MAKU    IP   0A  1314 39.47                              54    0.1710  204 303 
 MAKU    ES   0A  1315  4.95                              54    0.2610  204 303 
 BRDA    ES   0A  1315  7.34                              54   -0.1710  214  12 
 SAAT    IP   0A  1314 42.45                              40    0.2310  224  42 
 SAAT    ES   0A  1315  9.97                              40    0.1610  224  42 
 ZRD     IP   0A  1314 42.89                              40    0.0910  229  22 
 GANJ    IP   0A  1314 45.92                              40    0.02 9  254 353 
 GANJ    ES   0A  1315 15.97                              40   -0.28 9  254 353 
 GNI     IP   0A  1314 46.54                              40    0.15 9  258 320 
 GNI      IAML A  1314 46.54      2129.6                                258 320 
 ZNJK    IP   0A  1314 46.92                              40    0.32 9  260 136 
 ZNJK     IAML A  1314 46.92      2062.0                                260 136 
 ZNJK    ES   0A  1315 17.70                              40    0.23 9  260 136 
 VANB    ES   0A  1315 23.19                              40   -0.20 9  287 276 
                                                                                
 2012  811 1323 15.2 L  38.493  46.731  8.7  New 24 0.1 3.7LNew                1
 GAP= 53        0.40       0.6     0.6  0.9  0.5353E-01 -0.1336E+00 -0.1691E+00E
 Action:ARG 24-03-13 16:01 OP:OBSP STATUS:               ID:20120811132314     I
 STAT SP IPHASW D HRMM SECON CODA AMPLIT PERI AZIMU VELO AIN AR TRES W  DIS CAZ7
 TVRZ    ES   0A  1323 18.58                             145    0.2210 5.66 282 
 TAHR    IP   0A  1323 19.97                             102   -0.2410 27.9  91 
 TAHR    ES   0A  1323 23.77                             102   -0.2310 27.9  91 
 HRS     IP   0A  1323 20.96                             100   -0.1410 33.4 126 
 TBZ     ES   0A  1323 32.58                              95   -0.1010 58.3 241 
 FTB     IP   0A  1323 25.46                              95   -0.0710 60.6 209 
 FTB     ES   0A  1323 33.37                              95    0.0510 60.6 209 
 ORD     ES   0A  1323 38.99                              94    0.0210 80.3 307 
 BST     IP   0A  1323 30.22                              93    0.0110 89.0 171 
 MRD     IP   0A  1323 30.81                              93   -0.0410 92.9 286 
 MRD     ES   0A  1323 42.74                              93    0.1310 92.9 286 
 SHB     IP   0A  1323 31.84                              93   -0.1610100.0 257 
 SHB      IAML A  1323 31.84      2469.3                              100.0 257 
 GRMI    IP   0A  1323 33.15                              93   -0.0210  107  71 
 SRB     IP   0A  1323 33.58                              93   -0.1210  110 132 
 NAX     IP   0A  1323 37.09                              92   -0.0610  131 306 
 NAX      IAML A  1323 37.09      1558.6                                131 306 
 HSH      IAML A  1323 38.60      1400.0                                140 160 
 HSH     IP   0A  1323 38.60                              92    0.0310  140 160 
 HSH     ES   0A  1323 56.38                              92    0.2410  140 160 
 SBZ      IAML A  1323 39.03      1338.5                                143 315 
 SBZ     IP   0A  1323 39.03                              92   -0.0710  143 315 
 GLBA    IP   0A  1323 42.82                              69    0.0710  166  60 
 GLBA    ES   0A  1324  3.75                              69    0.3010  166  60 
 ASTR     IAML A  1323 44.76       870.2                                180  87 
 LKRN    IP   0A  1323 44.87                              69    0.0410  180  82 
 LKRN     IAML A  1323 44.87       867.1                                180  82 
 ASTR    IP   0A  1323 44.76                              69   -0.0410  180  87 
 ASTR    ES   0A  1324  7.16                              69    0.1310  180  87 
 BRDA     IAML A  1323 47.82       707.3                                200  11 
 BRDA    IP   0A  1323 47.82                              69   -0.1210  200  11 
 MAKU    IP   0A  1323 48.23                              69    0.0610  202 299 
 MAKU    ES   0A  1324 13.20                              69    0.2710  202 299 
 SAAT    ES   0A  1324 15.23                              49    0.0610  211  43 
 ZRD     ES   0A  1324 15.87                              49   -0.1310  215  22 
 GNI     IP   0A  1323 54.48                              49   -0.01 9  252 318 
 ZNJK    IP   0A  1323 56.37                              49    0.11 9  266 139 
 ZNJK    ES   0A  1324 27.16                              49    0.07 9  266 139 
 VANB    IP   0A  1323 59.39                              49   -0.04 9  292 273 
 VANB     IAML A  1323 59.39       321.5                                292 273 
 VANB    ES   0A  1324 32.36                              49   -0.28 9  292 273 
                                                                                
