 2012  811 2358 13.7 L  38.461  46.713 10.6  New 22 0.2 3.4LNew                1
 GAP= 51        0.45       0.7     0.7  1.0  0.1350E+00 -0.4164E-01 -0.3033E+00E
 Action:ARG 24-03-13 16:01 OP:OBSP STATUS:               ID:20120811235813     I
 STAT SP IPHASW D HRMM SECON CODA AMPLIT PERI AZIMU VELO AIN AR TRES W  DIS CAZ7
 TVRZ    ES   0A  2358 17.60                             148    0.1210 6.21 321 
 TAHR    ES   0A  2358 22.98                             106   -0.2210 29.6  84 
 HRS     IP   0A  2358 19.49                             104   -0.1510 32.8 119 
 HRS      IAML A  2358 19.49      5313.6                               32.8 119 
 HRS     ES   0A  2358 24.06                             104   -0.0210 32.8 119 
 TBZ      IAML A  2358 23.23      2885.5                               55.2 243 
 TBZ     IP   0A  2358 23.23                              98   -0.0410 55.2 243 
 TBZ     ES   0A  2358 30.60                              98    0.1710 55.2 243 
 TABZ    IP   0A  2358 23.35                              98   -0.0710 56.1 217 
 TABZ     IAML A  2358 23.35      2792.0                               56.1 217 
 BST     ES   0A  2358 39.19                              95    0.0410 85.7 170 
 MRD     IP   0A  2358 29.26                              94   -0.1010 92.4 288 
 SHB      IAML A  2358 30.10      1269.6                               97.6 259 
 SHB     IP   0A  2358 30.10                              94   -0.1110 97.6 259 
 SRB     IP   0A  2358 31.97                              94   -0.1310  109 130 
 SRB      IAML A  2358 31.97      1032.5                                109 130 
 SRB     ES   0A  2358 45.89                              94    0.0210  109 130 
 GRMI    IP   0A  2358 32.13                              94   -0.0810  110  69 
 NAX     ES   0A  2358 52.68                              93    0.1910  132 307 
 HSH     ES   0A  2358 54.02                              93    0.1110  137 159 
 LRK     ES   0A  2358 55.73                              69    0.1310  143  81 
 SBZ     IP   0A  2358 37.84                              69   -0.0310  145 316 
 GLBA    IP   0A  2358 41.73                              69    0.0210  170  59 
 LKRN    IP   0A  2358 43.55                              69   -0.0710  182  81 
 MAKU    IP   0A  2358 46.67                              69   -0.0210  202 300 
 MAKU    ES   0A  2359 11.57                              69    0.1610  202 300 
 SAAT    IP   0A  2358 48.44                              49    0.1610  214  43 
 SAAT    ES   0A  2359 14.53                              49    0.3510  214  43 
 GANJ    ES   0A  2359 20.42                              49   -0.3510  245 352 
 GNI     ES   0A  2359 22.46                              49   -0.09 9  253 318 
 ZNJK    IP   0A  2358 54.66                              49    0.24 9  264 138 
 VANB    ES   0A  2359 30.23                              49   -0.32 9  290 274 
                                                                                
 2012  812 0010 52.9 L  38.394  46.706  4.9  New 22 0.1 2.5LNew                1
 GAP= 45        0.38       0.5     0.6  1.1  0.4690E-01 -0.1849E-01 -0.2263E+00E
 Action:ARG 24-03-13 16:01 OP:OBSP STATUS:               ID:20120812001052     I
 STAT SP IPHASW D HRMM SECON CODA AMPLIT PERI AZIMU VELO AIN AR TRES W  DIS CAZ7
 TVRZ    ES   0A   010 57.17                              98   -0.0210 12.6 345 
 HRS     IP   0A   010 58.19                              92   -0.1010 30.6 106 
 HRS     ES   0A   011  2.31                              92   -0.0410 30.6 106 
 TAHR     IAML A   010 58.49       707.0                               32.0  70 
 TAHR    IP   0A   010 58.49                              92   -0.0210 32.0  70 
 TAHR    ES   0A   011  2.83                              92    0.0810 32.0  70 
 TABZ    IP   0A   011  1.54                              91    0.0610 50.0 222 
 FTB     IP   0A   011  1.50                              91    0.0310 50.0 213 
 TBZ     IP   0A   011  1.82                              91    0.0610 51.7 250 
 TBZ      IAML A   011  1.82       394.1                               51.7 250 
 TBZ     ES   0A   011  8.66                              91    0.2410 51.7 250 
 BST     ES   0A   011 16.17                              91    0.0010 78.6 168 
 ORD     IP   0A   011  7.27                              91   -0.0810 85.7 314 
 ORD      IAML A   011  7.27       195.1                               85.7 314 
 MRD      IAML A   011  8.69       168.4                               94.4 292 
 MRD     IP   0A   011  8.69                              91   -0.0910 94.4 292 
 SHB     IP   0A   011  8.95                              91   -0.0610 95.8 263 
 SRB      IAML A   011 10.38       137.9                                105 127 
 SRB     IP   0A   011 10.38                              91   -0.1610  105 127 
 SRB     ES   0A   011 23.64                              91   -0.1410  105 127 
 HSH     IP   0A   011 14.65                              90   -0.0710  130 158 
 HSH      IAML A   011 14.65        97.4                                130 158 
 HSH     ES   0A   011 31.11                              90    0.0110  130 158 
 LRK      IAML A   011 17.13        81.6                                145  79 
 LRK     IP   0A   011 17.13                              90   -0.0010  145  79 
 ASTR     IAML A   011 23.23        53.6                                183  84 
 ASTR    IP   0A   011 23.23                              69    0.0110  183  84 
 ASTR    ES   0A   011 46.13                              69    0.1510  183  84 
 LKRN    IP   0A   011 23.46                              69    0.0510  184  78 
 LKRN     IAML A   011 23.46        53.0                                184  78 
 MAKU     IAML A   011 26.75        43.5                                205 302 
 MAKU    IP   0A   011 26.75                              69    0.0810  205 302 
 MAKU    ES   0A   011 52.27                              69    0.2510  205 302 
 BRDA    ES   0A   011 53.61                              69   -0.0410  211  11 
 SAAT    IP   0A   011 28.95                              49    0.1810  220  42 
 SAAT     IAML A   011 28.95        37.3                                220  42 
 SAAT    ES   0A   011 55.92                              49    0.2210  220  42 
 GANJ    IP   0A   011 32.58                              49   -0.12 9  252 353 
 GANJ    ES   0A   012  2.23                              49   -0.34 9  252 353 
 GNI     IP   0A   011 33.48                              49    0.02 9  258 320 
 ZNJK    ES   0A   012  4.20                              49    0.11 9  259 137 
 VANB    IP   0A   011 37.32                              49   -0.07 9  290 275 
 VANB    ES   0A   012 10.41                              49   -0.37 9  290 275 
                                                                                
 2012  812 0015 23.0 L  38.435  46.769 17.2  New 23 0.1 3.2LNew                1
 GAP= 43        0.27       0.4     0.4  0.6  0.8719E-03 -0.1631E-01 -0.1026E+00E
 Action:ARG 24-03-13 16:01 OP:OBSP STATUS:               ID:20120812001522     I
 STAT SP IPHASW D HRMM SECON CODA AMPLIT PERI AZIMU VELO AIN AR TRES W  DIS CAZ7
 TVRZ    IP   0A   015 26.68                             145    0.1010 11.7 311 
 TVRZ     IAML A   015 26.68     10870.7                               11.7 311 
 TAHR    ES   0A   015 32.18                             122    0.0410 25.3  76 
 HRS      IAML A   015 28.48      3354.9                               27.1 118 
 HRS     IP   0A   015 28.48                             120   -0.0110 27.1 118 
 FTB     IP   0A   015 32.98                             105   -0.0710 56.8 215 
 TABZ    ES   0A   015 40.67                             105    0.0510 57.1 223 
 TBZ     IP   0A   015 33.23                             104   -0.0810 58.5 248 
 TBZ      IAML A   015 33.23      1314.3                               58.5 248 
 TBZ     ES   0A   015 41.05                             104    0.0310 58.5 248 
 BST     ES   0A   015 47.79                             100    0.1210 82.1 173 
 ORD     IP   0A   015 37.82                              99   -0.0610 86.9 309 
 MRD      IAML A   015 39.52       631.6                               98.0 289 
 MRD     IP   0A   015 39.52                              69   -0.1110 98.0 289 
 MRD     ES   0A   015 52.05                              69   -0.0310 98.0 289 
 SHB      IAML A   015 40.19       589.3                                102 261 
 SHB     IP   0A   015 40.19                              69   -0.0510  102 261 
 SHB     ES   0A   015 53.23                              69    0.0910  102 261 
 SRB     IP   0A   015 40.34                              69   -0.1510  104 131 
 SRB      IAML A   015 40.34       560.9                                104 131 
 SRB     ES   0A   015 53.50                              69   -0.0710  104 131 
 GRMI    IP   0A   015 40.86                              69   -0.0510  106  67 
 GRMI     IAML A   015 40.86       546.7                                106  67 
 AZR      IAML A   015 41.20       526.0                                109 220 
 AZR     IP   0A   015 41.20                              69   -0.0710  109 220 
 NAX     IP   0A   015 45.65                              69   -0.0910  138 307 
 LRK      IAML A   015 45.84       351.7                                139  80 
 LRK     IP   0A   015 45.84                              69   -0.0610  139  80 
 SBZ     ES   0A   016  6.13                              69    0.0610  150 316 
 GLBA    IP   0A   015 50.18                              69   -0.0410  167  57 
 GLBA    ES   0A   016 10.72                              69    0.1110  167  57 
 MAKU    IP   0A   015 56.14                              49    0.0910  208 300 
 MAKU    ES   0A   016 20.95                              49    0.1410  208 300 
 SAAT    IP   0A   015 56.82                              49    0.0910  213  42 
 SAAT    ES   0A   016 22.12                              49    0.1210  213  42 
 ZRD     ES   0A   016 23.29                              49   -0.0210  219  21 
 GANJ    ES   0A   016 29.39                              49   -0.21 9  248 351 
 ZNJK    IP   0A   016  2.44                              49    0.09 9  259 139 
 ZNJK    ES   0A   016 31.86                              49    0.02 9  259 139 
 VANB    IP   0A   016  6.88                              49    0.03 8  295 274 
                                                                                
 2012  812 0034 16.7 L  38.430  46.771 19.2  New 19 0.2 3.8LNew                1
 GAP= 68        0.44       0.7     0.7  0.8 -0.2324E-01  0.1279E-01 -0.1009E+00E
 Action:ARG 24-03-13 16:01 OP:OBSP STATUS:               ID:20120812003416     I
 STAT SP IPHASW D HRMM SECON CODA AMPLIT PERI AZIMU VELO AIN AR TRES W  DIS CAZ7
 TVRZ    ES   0A   034 23.70                             147    0.2610 12.2 313 
 TAHR    ES   0A   034 26.08                             126   -0.0210 25.3  75 
 HRS     IP   0A   034 22.15                             124   -0.1010 26.7 118 
 HRS     ES   0A   034 26.53                             124    0.1010 26.7 118 
 FTB     ES   0A   034 34.27                             107    0.0210 56.5 216 
 TABZ     IAML A   034 26.62      6998.1                               56.8 223 
 TABZ    IP   0A   034 26.62                             107   -0.1410 56.8 223 
 TBZ     IP   0A   034 26.82                             106   -0.2110 58.4 249 
 TBZ      IAML A   034 26.82      6713.7                               58.4 249 
 TBZ     ES   0A   034 34.70                             106   -0.0910 58.4 249 
 BST     ES   0A   034 41.12                              69    0.0410 81.5 173 
 ORD     ES   0A   034 42.95                              69    0.3010 87.4 310 
 MRD     IP   0A   034 33.19                              69   -0.0110 98.3 289 
 SHB     IP   0A   034 33.52                              69   -0.2410  102 261 
 SHB     ES   0A   034 46.44                              69   -0.1410  102 261 
 SRB     IP   0A   034 33.91                              69   -0.0110  103 130 
 SRB     ES   0A   034 47.13                              69    0.2710  103 130 
 GRMI    IP   0A   034 34.26                              69   -0.1810  106  66 
 GRMI    ES   0A   034 47.72                              69   -0.0510  106  66 
 AZR     ES   0A   034 48.34                              69    0.0710  108 220 
 HSH     IP   0A   034 38.39                              69    0.0010  132 161 
 ASTR    ES   0A   035  6.65                              69   -0.0110  177  85 
 MAKU     IAML A   034 49.60       837.9                                208 300 
 MAKU    IP   0A   034 49.60                              49    0.0810  208 300 
 MAKU    ES   0A   035 14.37                              49    0.2210  208 300 
 SAAT    IP   0A   034 50.13                              49   -0.0510  214  41 
 ZRD     ES   0A   035 16.45                              49   -0.2110  220  21 
 ZNJK    IP   0A   034 55.85                              49    0.15 9  258 139 
 ZNJK     IAML A   034 55.85       528.7                                258 139 
                                                                                
 2012  812 0041 26.6 L  38.485  46.739 19.3  New 23 0.2 2.7LNew                1
 GAP= 39        0.50       0.7     0.8  1.1 -0.3391E-01  0.3482E-01 -0.3005E+00E
 Action:ARG 24-03-13 16:01 OP:OBSP STATUS:               ID:20120812004126     I
 STAT SP IPHASW D HRMM SECON CODA AMPLIT PERI AZIMU VELO AIN AR TRES W  DIS CAZ7
 TAHR    ES   0A   041 36.42                             124   -0.0910 27.2  89 
 HRS      IAML A   041 32.90      1181.2                               32.3 125 
 HRS     IP   0A   041 32.90                             119   -0.0910 32.3 125 
 TBZ      IAML A   041 36.98       521.5                               58.5 242 
 TBZ     IP   0A   041 36.98                             106   -0.0010 58.5 242 
 TBZ     ES   0A   041 44.98                             106    0.2210 58.5 242 
 FTB     IP   0A   041 37.23                             106   -0.0110 60.1 210 
 FTB     ES   0A   041 45.43                             106    0.2210 60.1 210 
 ORD     IP   0A   041 40.36                              69   -0.1710 81.3 307 
 ORD     ES   0A   041 50.90                              69   -0.0610 81.3 307 
 BST      IAML A   041 41.32       297.4                               88.0 171 
 BST     IP   0A   041 41.32                              69   -0.2410 88.0 171 
 BST     ES   0A   041 52.58                              69   -0.1810 88.0 171 
 MRD     IP   0A   041 42.37                              69   -0.0710 93.8 286 
 MRD      IAML A   041 42.37       260.9                               93.8 286 
 SHB     IP   0A   041 43.40                              69   -0.0510  100 257 
 SHB     ES   0A   041 56.23                              69    0.1510  100 257 
 GRMI    IP   0A   041 44.49                              69    0.0610  107  70 
 SRB     IP   0A   041 44.70                              69   -0.1110  109 132 
 AZR      IAML A   041 45.17       204.1                                111 217 
 AZR     IP   0A   041 45.17                              69    0.0310  111 217 
 AZR     ES   0A   041 59.32                              69    0.2810  111 217 
 HSH     ES   0A   042  6.38                              69   -0.0410  139 160 
 LRK     IP   0A   041 49.51                              69   -0.1110  141  82 
 LRK      IAML A   041 49.51       138.5                                141  82 
 SBZ     IP   0A   041 50.03                              69   -0.1510  144 315 
 SBZ      IAML A   041 50.03       129.8                                144 315 
 GLBA    ES   0A   042 14.29                              69    0.5110  166  59 
 ASTR     IAML A   041 55.32        89.6                                179  87 
 ASTR    IP   0A   041 55.32                              69   -0.2110  179  87 
 BRDA    IP   0A   041 58.41                              49   -0.1410  201  11 
 MAKU    IP   0A   041 58.89                              49    0.1210  203 299 
 SAAT    IP   0A   041 59.94                              49    0.1610  211  43 
 SAAT    ES   0A   042 24.96                              49    0.3110  211  43 
 GANJ    IP   0A   042  3.58                              49   -0.1010  243 352 
 GANJ    ES   0A   042 31.26                              49   -0.2210  243 352 
 GNI      IAML A   042  5.02        43.7                                253 318 
 GNI     IP   0A   042  5.02                              49    0.09 9  253 318 
 GNI     ES   0A   042 33.75                              49    0.09 9  253 318 
 ZNJK    IP   0A   042  6.48                              49    0.05 9  265 139 
 ZNJK    ES   0A   042 36.27                              49   -0.02 9  265 139 
 VANB    ES   0A   042 41.90                              49   -0.33 9  292 273 
                                                                                
