 2012  811 2029 18.6 L  38.392  46.847  1.8  New 25 0.1 2.6LNew                1
 GAP= 47        0.33       0.4     0.4  1.0 -0.2914E-02  0.9497E-01 -0.1399E+00E
 Action:ARG 24-03-13 16:01 OP:OBSP STATUS:               ID:20120811202918     I
 STAT SP IPHASW D HRMM SECON CODA AMPLIT PERI AZIMU VELO AIN AR TRES W  DIS CAZ7
 HRS     IP   0A  2029 22.11                              95   -0.0710 18.9 116 
 HRS      IAML A  2029 22.11      1948.4                               18.9 116 
 HRS     ES   0A  2029 24.75                              95   -0.1410 18.9 116 
 TAHR     IAML A  2029 22.52      1582.5                               20.9  58 
 TAHR    IP   0A  2029 22.52                              95   -0.0310 20.9  58 
 FTB     IP   0A  2029 28.63                              60    0.0110 57.5 224 
 TABZ    IP   0A  2029 28.83                              60    0.0010 58.8 231 
 TABZ    ES   0A  2029 36.51                              60   -0.0110 58.8 231 
 TBZ     IP   0A  2029 29.59                              60    0.0010 63.4 254 
 TBZ      IAML A  2029 29.59       362.0                               63.4 254 
 BST     IP   0A  2029 31.66                              60   -0.1310 76.8 177 
 ORD      IAML A  2029 34.74       199.6                               95.1 309 
 ORD     IP   0A  2029 34.74                              60   -0.0710 95.1 309 
 SRB     IP   0A  2029 34.77                              60   -0.0610 95.3 131 
 SRB     ES   0A  2029 46.90                              60   -0.1310 95.3 131 
 MRD     IP   0A  2029 36.61                              60    0.0210  106 290 
 MRD      IAML A  2029 36.61       169.6                                106 290 
 MRD     ES   0A  2029 50.12                              60    0.0110  106 290 
 SHB     IP   0A  2029 36.95                              60    0.0210  108 264 
 AZR     ES   0A  2029 51.18                              60    0.0210  110 224 
 HSH     IP   0A  2029 39.90                              60    0.0010  126 163 
 HSH     ES   0A  2029 55.88                              60   -0.0210  126 163 
 LRK      IAML A  2029 41.15       121.9                                133  77 
 LRK     IP   0A  2029 41.15                              60    0.0910  133  77 
 LRK     ES   0A  2029 58.06                              60    0.1310  133  77 
 NAX     ES   0A  2030  1.57                              60   -0.0810  146 307 
 SBZ     IP   0A  2029 45.16                              60   -0.0310  158 315 
 GLBA    IP   0A  2029 46.14                              60   -0.0110  164  54 
 GLBA     IAML A  2029 46.14        83.7                                164  54 
 LKRN    ES   0A  2030  9.32                              60    0.1910  172  78 
 BRDA    ES   0A  2030 19.24                              54   -0.1610  210   8 
 SAAT    IP   0A  2029 53.89                              54    0.1310  213  39 
 SAAT     IAML A  2029 53.89        50.6                                213  39 
 SAAT    ES   0A  2030 20.32                              54    0.1610  213  39 
 MAKU    IP   0A  2029 54.43                              54    0.1210  216 300 
 MAKU    ES   0A  2030 21.22                              54    0.1010  216 300 
 ZRD     ES   0A  2030 22.14                              40   -0.2410  222  19 
 ZNJK    IP   0A  2029 58.85                              40    0.21 9  251 139 
 GANJ    ES   0A  2030 29.23                              40   -0.22 9  254 350 
 GNI      IAML A  2030  0.69        30.6                                267 318 
 GNI     IP   0A  2030  0.69                              40    0.09 9  267 318 
 VANB    IP   0A  2030  5.17                              40    0.15 8  303 275 
 VANB     IAML A  2030  5.17        22.8                                303 275 
                                                                                
 2012  811 2037 27.6 L  38.461  46.799 20.2  New 23 0.1 2.3LNew                1
 GAP= 76        0.26       0.5     0.4  0.6 -0.4687E-01  0.2754E-01 -0.1099E+00E
 Action:ARG 24-03-13 16:01 OP:OBSP STATUS:               ID:20120811203727     I
 STAT SP IPHASW D HRMM SECON CODA AMPLIT PERI AZIMU VELO AIN AR TRES W  DIS CAZ7
 TVRZ    IP   0A  2037 31.63                             145   -0.0310 12.4 293 
 TVRZ    ES   0A  2037 34.81                             145    0.1410 12.4 293 
 TAHR    ES   0A  2037 36.42                             126   -0.1110 22.2  81 
 HRS     IP   0A  2037 33.23                             120   -0.0410 26.5 127 
 HRS      IAML A  2037 33.23       541.1                               26.5 127 
 HRS     ES   0A  2037 37.60                             120    0.1110 26.5 127 
 FTB      IAML A  2037 38.26       200.4                               60.7 216 
 FTB     IP   0A  2037 38.26                              91   -0.0910 60.7 216 
 TABZ    IP   0A  2037 38.30                              91   -0.0910 60.9 223 
 TABZ    ES   0A  2037 46.48                              91    0.0210 60.9 223 
 TBZ     IP   0A  2037 38.49                              91   -0.0710 62.0 246 
 TBZ      IAML A  2037 38.49       197.1                               62.0 246 
 TBZ     ES   0A  2037 46.80                              91    0.0610 62.0 246 
 ORD      IAML A  2037 42.34       120.5                               87.2 307 
 ORD     IP   0A  2037 42.34                              90   -0.0710 87.2 307 
 MRD     IP   0A  2037 44.26                              90   -0.0610 99.6 287 
 MRD      IAML A  2037 44.26        98.4                               99.6 287 
 GRMI    IP   0A  2037 44.78                              90   -0.0310  103  68 
 SRB     IP   0A  2037 44.85                              90   -0.0710  103 133 
 GRMI    ES   0A  2037 57.82                              90    0.1310  103  68 
 SHB      IAML A  2037 45.08        90.5                                105 260 
 SHB     IP   0A  2037 45.08                              90   -0.0710  105 260 
 SHB     ES   0A  2037 58.34                              90    0.0610  105 260 
 AZR     ES   0A  2038  0.39                              90    0.0910  113 220 
 LRK      IAML A  2037 49.80        57.2                                136  81 
 LRK     IP   0A  2037 49.80                              90   -0.0810  136  81 
 SBZ     IP   0A  2037 51.96                              90   -0.0810  150 314 
 SBZ     ES   0A  2038 10.39                              90    0.0510  150 314 
 GLBA    ES   0A  2038 14.01                              90    0.0910  163  57 
 ASTR     IAML A  2037 55.61        36.8                                174  86 
 ASTR    IP   0A  2037 55.61                              90   -0.1310  174  86 
 BRDA    IP   0A  2037 59.69                              54   -0.0210  203   9 
 BRDA     IAML A  2037 59.69        27.9                                203   9 
 BRDA    ES   0A  2038 23.72                              54   -0.0410  203   9 
 MAKU     IAML A  2038  0.53        26.7                                209 299 
 SAAT    IP   0A  2038  0.60                              54    0.0710  209  42 
 MAKU    IP   0A  2038  0.53                              54    0.0910  209 299 
 SAAT    ES   0A  2038 25.30                              54    0.1010  209  42 
 ZRD     ES   0A  2038 26.49                              54   -0.0810  216  20 
 GNI      IAML A  2038  6.62        16.9                                258 317 
 GNI     IP   0A  2038  6.62                              54    0.06 9  258 317 
 GNI     ES   0A  2038 35.72                              54   -0.02 9  258 317 
 ZNJK     IAML A  2038  6.83        16.4                                259 139 
 ZNJK    IP   0A  2038  6.83                              54    0.14 9  259 139 
 VANB    IP   0A  2038 11.40                              54   -0.03 8  298 274 
                                                                                
 2012  811 2045 47.1 L  38.418  46.692 14.2  New 20 0.2 2.9LNew                1
 GAP= 52        0.57       1.0     0.8  1.6  0.1557E+00 -0.2794E+00 -0.1029E+01E
 Action:ARG 24-03-13 16:01 OP:OBSP STATUS:               ID:20120811204546     I
 STAT SP IPHASW D HRMM SECON CODA AMPLIT PERI AZIMU VELO AIN AR TRES W  DIS CAZ7
 TAHR    IP   0A  2045 52.88                             111   -0.2410 32.3  76 
 TAHR     IAML A  2045 52.88      1746.7                               32.3  76 
 HRS     IP   0A  2045 52.98                             111   -0.1810 32.5 110 
 HRS     ES   0A  2045 57.76                             111    0.0710 32.5 110 
 TABZ     IAML A  2045 56.00      1000.1                               51.3 219 
 TABZ    IP   0A  2045 56.00                             103   -0.1210 51.3 219 
 TABZ    ES   0A  2046  3.06                             103    0.1910 51.3 219 
 FTB      IAML A  2045 56.03       989.7                               51.6 210 
 TBZ     IP   0A  2045 55.93                             103   -0.2310 51.6 247 
 FTB     IP   0A  2045 56.03                             103   -0.1410 51.6 210 
 FTB     ES   0A  2046  3.11                             103    0.1410 51.6 210 
 TBZ     ES   0A  2046  2.93                             103   -0.0310 51.6 247 
 BST     IP   0A  2046  0.88                              98   -0.1210 81.5 168 
 BST      IAML A  2046  0.88       517.9                               81.5 168 
 BST     ES   0A  2046 11.59                              98    0.1610 81.5 168 
 ORD     IP   0A  2046  1.28                              98    0.0210 83.0 313 
 ORD      IAML A  2046  1.28       506.9                               83.0 313 
 ORD     ES   0A  2046 12.29                              98    0.4210 83.0 313 
 MRD     IP   0A  2046  2.69                              97   -0.0810 92.3 291 
 MRD     ES   0A  2046 14.76                              97    0.2410 92.3 291 
 SHB     IP   0A  2046  2.92                              97   -0.2910 95.0 261 
 SHB     ES   0A  2046 15.16                              97   -0.1310 95.0 261 
 SRB     IP   0A  2046  5.36                              96    0.0810  108 127 
 SRB     ES   0A  2046 19.42                              96    0.5210  108 127 
 GRMI     IAML A  2046  6.10       310.0                                113  67 
 GRMI    IP   0A  2046  6.10                              95   -0.1010  113  67 
 HSH      IAML A  2046  9.25       238.5                                133 158 
 HSH     IP   0A  2046  9.25                              69   -0.0610  133 158 
 SBZ     ES   0A  2046 29.84                              69    0.2610  147 318 
 LKRN    IP   0A  2046 17.00                              69   -0.1910  185  79 
 LKRN    ES   0A  2046 39.80                              69    0.0610  185  79 
 MAKU    IP   0A  2046 19.81                              49   -0.0410  203 301 
 MAKU    ES   0A  2046 44.58                              49    0.1810  203 301 
 BRDA    IP   0A  2046 20.35                              49   -0.2510  209  11 
 BRDA     IAML A  2046 20.35       104.1                                209  11 
 BRDA    ES   0A  2046 45.49                              49   -0.2210  209  11 
 SAAT    IP   0A  2046 21.95                              49    0.1010  219  43 
 SAAT     IAML A  2046 21.95        94.3                                219  43 
 SAAT    ES   0A  2046 48.24                              49    0.3410  219  43 
 ZRD     IP   0A  2046 22.26                              49   -0.1310  224  22 
 GNI     IP   0A  2046 26.28                              49   -0.05 9  256 319 
 VANB     IAML A  2046 30.18        51.8                                289 275 
 VANB    IP   0A  2046 30.18                              49   -0.26 9  289 275 
                                                                                
 2012  811 2113 21.5 L  38.441  46.663 11.8  New 25 0.1 2.4LNew                1
 GAP= 48        0.41       0.6     0.6  0.8  0.8841E-01 -0.3898E-01 -0.6030E-01E
 Action:ARG 24-03-13 16:01 OP:OBSP STATUS:               ID:20120811211321     I
 STAT SP IPHASW D HRMM SECON CODA AMPLIT PERI AZIMU VELO AIN AR TRES W  DIS CAZ7
 TVRZ    IP   0A  2113 23.87                             147   -0.0410 7.06   3 
 TVRZ    ES   0A  2113 25.88                             147    0.1810 7.06   3 
 TAHR    ES   0A  2113 32.39                             105    0.0110 34.3  81 
 HRS     IP   0A  2113 27.71                             105   -0.2610 35.8 112 
 HRS     ES   0A  2113 32.59                             105   -0.2010 35.8 112 
 TBZ     IP   0A  2113 30.22                             100   -0.0910 50.3 243 
 TABZ    IP   0A  2113 30.54                             100   -0.0010 51.8 215 
 ORD     IP   0A  2113 34.95                              96   -0.1110 79.5 313 
 ORD     ES   0A  2113 45.27                              96    0.0610 79.5 313 
 BST     IP   0A  2113 35.75                              96   -0.1210 84.4 166 
 BST      IAML A  2113 35.75       159.3                               84.4 166 
 MRD     IP   0A  2113 36.57                              95   -0.0610 89.1 290 
 MRD      IAML A  2113 36.57       140.8                               89.1 290 
 SHB     IP   0A  2113 37.19                              95   -0.0710 92.9 259 
 AZR     ES   0A  2113 52.46                              95    0.3610  104 215 
 SRB      IAML A  2113 40.14       104.0                                111 128 
 SRB     IP   0A  2113 40.14                              94   -0.1010  111 128 
 SRB     ES   0A  2113 54.34                              94    0.0710  111 128 
 GRMI    ES   0A  2113 55.54                              94    0.2510  115  69 
 NAX      IAML A  2113 43.29        77.4                                130 309 
 NAX     IP   0A  2113 43.29                              94   -0.0710  130 309 
 NAX     ES   0A  2113 59.85                              94    0.1210  130 309 
 HSH     IP   0A  2113 44.31                              69   -0.0710  137 157 
 HSH     ES   0A  2114  1.65                              69    0.1310  137 157 
 SBZ     IP   0A  2113 45.35                              69   -0.0610  143 318 
 LRK     ES   0A  2114  4.65                              69    0.1210  148  81 
 ASTR    ES   0A  2114 14.75                              69   -0.0310  186  85 
 LKRN    IP   0A  2113 52.00                              69   -0.0710  187  80 
 MAKU    IP   0A  2113 53.96                              69   -0.0710  200 301 
 MAKU     IAML A  2113 53.96        35.8                                200 301 
 MAKU    ES   0A  2114 18.52                              69    0.1210  200 301 
 BRDA    IP   0A  2113 54.88                              49   -0.1710  207  12 
 SAAT    IP   0A  2113 56.64                              49    0.1110  219  43 
 SAAT    ES   0A  2114 23.01                              49    0.2410  219  43 
 GANJ    ES   0A  2114 28.47                              49   -0.2510  247 353 
 GNI     IP   0A  2114  0.64                              49    0.05 9  252 319 
 GNI      IAML A  2114  0.64        22.0                                252 319 
 ZNJK    IP   0A  2114  2.34                              49    0.08 9  266 137 
 VANB    IP   0A  2114  4.75                              49   -0.05 9  286 274 
                                                                                
 2012  811 2118 35.3 L  38.436  46.734 19.6  New 23 0.1 2.6LNew                1
 GAP= 48        0.22       0.4     0.3  0.5  0.9080E-02  0.4929E-02 -0.1037E+00E
 Action:ARG 24-03-13 16:01 OP:OBSP STATUS:               ID:20120811211835     I
 STAT SP IPHASW D HRMM SECON CODA AMPLIT PERI AZIMU VELO AIN AR TRES W  DIS CAZ7
 HRS     IP   0A  2118 41.35                             121    0.0010 29.9 116 
 HRS     ES   0A  2118 46.04                             121    0.1610 29.9 116 
 TABZ    IP   0A  2118 45.02                             108   -0.1210 55.1 220 
 TBZ      IAML A  2118 45.15       454.7                               55.7 247 
 TBZ     IP   0A  2118 45.15                             107   -0.0910 55.7 247 
 TBZ     ES   0A  2118 52.70                             107    0.0110 55.7 247 
 BST     IP   0A  2118 49.34                              69   -0.0610 82.7 170 
 BST      IAML A  2118 49.34       248.2                               82.7 170 
 BST     ES   0A  2119  0.02                              69    0.0410 82.7 170 
 ORD     IP   0A  2118 49.62                              69   -0.0610 84.4 311 
 MRD      IAML A  2118 51.26       212.6                               95.0 289 
 MRD     IP   0A  2118 51.26                              69   -0.0410 95.0 289 
 MRD     ES   0A  2119  3.37                              69    0.0610 95.0 289 
 SHB      IAML A  2118 51.90       198.4                               98.9 260 
 SHB     IP   0A  2118 51.90                              69    0.0010 98.9 260 
 SHB     ES   0A  2119  4.49                              69    0.1510 98.9 260 
 SRB      IAML A  2118 52.90       169.3                                106 129 
 SRB     IP   0A  2118 52.90                              69   -0.0810  106 129 
 SRB     ES   0A  2119  6.25                              69    0.0110  106 129 
 AZR     ES   0A  2119  6.43                              69   -0.0310  107 218 
 GRMI     IAML A  2118 53.47       163.6                                109  67 
 GRMI    IP   0A  2118 53.47                              69    0.0010  109  67 
 HSH     IP   0A  2118 57.20                              69   -0.0610  134 159 
 NAX     ES   0A  2119 14.17                              69    0.0710  135 308 
 LRK     IP   0A  2118 58.49                              69   -0.0010  142  80 
 LRK      IAML A  2118 58.49       105.9                                142  80 
 SBZ     IP   0A  2118 59.38                              69   -0.0310  148 317 
 GLBA    IP   0A  2119  2.72                              69   -0.0210  170  58 
 LKRN    IP   0A  2119  4.45                              69   -0.0110  181  80 
 MAKU    IP   0A  2119  7.78                              49    0.0610  205 300 
 MAKU     IAML A  2119  7.78        55.4                                205 300 
 MAKU    ES   0A  2119 32.08                              49    0.0410  205 300 
 BRDA    IP   0A  2119  7.90                              49    0.0110  206  11 
 BRDA    ES   0A  2119 32.29                              49   -0.0410  206  11 
 SAAT    ES   0A  2119 34.31                              49    0.0710  215  42 
 ZRD      IAML A  2119  9.62        47.1                                220  22 
 ZRD     IP   0A  2119  9.62                              49    0.0110  220  22 
 ZRD     ES   0A  2119 35.29                              49   -0.0510  220  22 
 GANJ    ES   0A  2119 41.25                              49   -0.04 9  248 352 
 GNI     IP   0A  2119 14.11                              49    0.05 9  256 319 
 GNI     ES   0A  2119 43.05                              49   -0.08 9  256 319 
 ZNJK    IP   0A  2119 14.69                              49    0.07 9  261 138 
                                                                                
