 2012  811 2121 14.3 L  38.451  46.795 18.9  New 23 0.1 2.7LNew                1
 GAP= 46        0.29       0.6     0.4  0.6  0.2001E-01 -0.3667E-01 -0.1430E+00E
 Action:ARG 24-03-13 16:01 OP:OBSP STATUS:               ID:20120811212114     I
 STAT SP IPHASW D HRMM SECON CODA AMPLIT PERI AZIMU VELO AIN AR TRES W  DIS CAZ7
 TVRZ    ES   0A  2121 21.12                             145    0.1210 12.5 298 
 HRS     IP   0A  2121 19.66                             124   -0.0810 26.2 124 
 HRS     ES   0A  2121 23.91                             124    0.0710 26.2 124 
 TABZ    IP   0A  2121 24.77                             105   -0.0710 59.9 223 
 TBZ      IAML A  2121 24.97       487.0                               61.2 247 
 TBZ     IP   0A  2121 24.97                             105   -0.0810 61.2 247 
 TBZ     ES   0A  2121 33.20                             105    0.0610 61.2 247 
 BST     IP   0A  2121 28.43                              69   -0.1410 83.7 174 
 BST      IAML A  2121 28.43       322.1                               83.7 174 
 ORD     ES   0A  2121 40.33                              69    0.0110 87.5 307 
 MRD      IAML A  2121 30.93       237.4                               99.5 287 
 MRD     IP   0A  2121 30.93                              69   -0.0710 99.5 287 
 MRD     ES   0A  2121 43.63                              69    0.0810 99.5 287 
 SRB      IAML A  2121 31.47       234.4                                103 132 
 SRB     IP   0A  2121 31.47                              69   -0.0810  103 132 
 SRB     ES   0A  2121 44.58                              69    0.0810  103 132 
 GRMI    IP   0A  2121 31.52                              69   -0.1110  104  67 
 GRMI    ES   0A  2121 44.65                              69    0.0110  104  67 
 SHB     IP   0A  2121 31.73                              69   -0.0210  104 260 
 SHB     ES   0A  2121 45.02                              69    0.1610  104 260 
 AZR     IP   0A  2121 32.81                              69   -0.0210  111 220 
 AZR      IAML A  2121 32.81       203.9                                111 220 
 HSH     IP   0A  2121 36.20                              69   -0.0510  134 162 
 LRK     ES   0A  2121 53.50                              69    0.0610  136  81 
 NAX     IP   0A  2121 36.88                              69   -0.1010  139 306 
 NAX      IAML A  2121 36.88       138.9                                139 306 
 LKRN    IP   0A  2121 42.54                              69   -0.0810  175  80 
 LKRN     IAML A  2121 42.54        93.3                                175  80 
 ASTR    IP   0A  2121 42.43                              69   -0.0810  175  85 
 ASTR    ES   0A  2122  3.75                              69    0.0610  175  85 
 BRDA    ES   0A  2122 10.70                              49   -0.1610  204   9 
 MAKU     IAML A  2121 47.29        65.1                                209 299 
 MAKU    IP   0A  2121 47.29                              49    0.0610  209 299 
 SAAT     IAML A  2121 47.53        64.7                                210  41 
 SAAT    IP   0A  2121 47.53                              49    0.1010  210  41 
 SAAT    ES   0A  2122 12.47                              49    0.1810  210  41 
 ZRD     IP   0A  2121 48.16                              49   -0.0610  217  20 
 ZRD      IAML A  2121 48.16        60.5                                217  20 
 GANJ    IP   0A  2121 51.92                              49   -0.0210  247 351 
 GANJ     IAML A  2121 51.92        45.8                                247 351 
 ZNJK     IAML A  2121 53.62        42.4                                259 139 
 ZNJK    IP   0A  2121 53.62                              49    0.23 9  259 139 
 VANB    IP   0A  2121 58.23                              49    0.07 8  297 274 
 VANB    ES   0A  2122 30.98                              49   -0.09 8  297 274 
                                                                                
 2012  811 2133 51.0 L  38.452  46.864 19.2  New 23 0.1 3.2LNew                1
 GAP= 62        0.27       0.4     0.4  0.5 -0.6977E-02 -0.2024E-01 -0.5580E-01E
 Action:ARG 24-03-13 16:01 OP:OBSP STATUS:               ID:20120811213350     I
 STAT SP IPHASW D HRMM SECON CODA AMPLIT PERI AZIMU VELO AIN AR TRES W  DIS CAZ7
 TAHR    IP   0A  2133 55.25                             138   -0.0410 16.8  76 
 TVRZ     IAML A  2133 55.40      6067.6                               18.0 289 
 TVRZ    IP   0A  2133 55.40                             135   -0.0310 18.0 289 
 TVRZ    ES   0A  2133 58.92                             135    0.1410 18.0 289 
 HRS      IAML A  2133 55.81      4642.3                               21.5 134 
 HRS     IP   0A  2133 55.81                             130   -0.0310 21.5 134 
 HRS     ES   0A  2133 59.64                             130    0.1310 21.5 134 
 FTB     ES   0A  2134 10.42                             105   -0.0510 63.5 221 
 TABZ    IP   0A  2134  2.11                             105   -0.1310 64.3 227 
 TABZ    ES   0A  2134 10.66                             105   -0.0410 64.3 227 
 TBZ      IAML A  2134  2.57      1130.9                               66.9 249 
 TBZ     IP   0A  2134  2.57                             104   -0.0810 66.9 249 
 TBZ     ES   0A  2134 11.48                             104    0.0510 66.9 249 
 BST     IP   0A  2134  5.13                              69   -0.0610 83.4 178 
 BST     ES   0A  2134 15.95                              69    0.0810 83.4 178 
 ORD     IP   0A  2134  6.44                              69   -0.1110 92.3 305 
 GRMI    IP   0A  2134  7.34                              69   -0.0810 98.0  66 
 SRB      IAML A  2134  7.44       614.9                               98.7 135 
 SRB     IP   0A  2134  7.44                              69   -0.1010 98.7 135 
 SRB     ES   0A  2134 20.00                              69    0.0110 98.7 135 
 MRD     IP   0A  2134  8.51                              69   -0.0410  105 286 
 MRD     ES   0A  2134 21.87                              69    0.1210  105 286 
 SHB     IP   0A  2134  9.34                              69    0.0110  110 261 
 SHB     ES   0A  2134 23.31                              69    0.1910  110 261 
 AZR     IP   0A  2134 10.03                              69   -0.0910  116 222 
 LRK     IP   0A  2134 12.36                              69   -0.0310  130  80 
 LRK     ES   0A  2134 28.60                              69    0.1210  130  80 
 HSH      IAML A  2134 12.65       390.0                                132 164 
 HSH     IP   0A  2134 12.65                              69   -0.0110  132 164 
 GLBA    ES   0A  2134 36.16                              69   -0.0110  159  56 
 ASTR    IP   0A  2134 18.20                              69   -0.0410  168  85 
 LKRN    ES   0A  2134 39.03                              69    0.1110  169  80 
 BRDA    IP   0A  2134 23.08                              49   -0.0510  203   8 
 MAKU    ES   0A  2134 49.73                              49    0.0410  214 299 
 ZRD     IP   0A  2134 24.53                              49   -0.0710  215  19 
 ZRD      IAML A  2134 24.53       153.9                                215  19 
 ZNJK    IP   0A  2134 29.67                              49    0.11 9  255 140 
 VANB    IP   0A  2134 35.63                              49    0.08 8  303 274 
 VANB     IAML A  2134 35.63        73.3                                303 274 
 VANB    ES   0A  2135  8.89                              49   -0.10 8  303 274 
                                                                                
 2012  811 2204 32.6 L  38.420  46.706 13.7  New 22 0.1 3.7LNew                1
 GAP= 50        0.41       0.6     0.7  0.7  0.5910E-01  0.6238E-01 -0.7117E-01E
 Action:ARG 24-03-13 16:01 OP:OBSP STATUS:               ID:20120811220432     I
 STAT SP IPHASW D HRMM SECON CODA AMPLIT PERI AZIMU VELO AIN AR TRES W  DIS CAZ7
 TVRZ    IP   0A  22 4 35.42                             142   -0.0910 9.95 340 
 TVRZ     IAML A  22 4 35.42     44304.4                               9.95 340 
 TVRZ    ES   0A  22 4 37.83                             142    0.1410 9.95 340 
 TAHR    ES   0A  22 4 42.80                             111    0.0710 31.1  75 
 HRS     IP   0A  22 4 38.30                             111   -0.1410 31.4 111 
 HRS     ES   0A  22 4 42.87                             111    0.0410 31.4 111 
 TABZ    ES   0A  22 4 48.68                             102    0.1010 52.2 220 
 FTB     IP   0A  22 4 41.61                             102   -0.1510 52.4 212 
 FTB      IAML A  22 4 41.61      6212.2                               52.4 212 
 TBZ     IP   0A  22 4 41.70                             102   -0.1310 52.8 247 
 BST      IAML A  22 4 46.29      3298.8                               81.3 169 
 BST     IP   0A  22 4 46.29                              97   -0.1710 81.3 169 
 BST     ES   0A  22 4 56.86                              97    0.0010 81.3 169 
 ORD     IP   0A  22 4 46.98                              97    0.1210 83.8 313 
 MRD     IP   0A  22 4 48.48                              96    0.0510 93.4 291 
 SHB      IAML A  22 4 48.74      2586.7                               96.2 261 
 SHB     IP   0A  22 4 48.74                              96   -0.1510 96.2 261 
 SHB     ES   0A  22 5  1.14                              96    0.0210 96.2 261 
 AZR     IP   0A  22 4 50.11                              96   -0.0410  104 218 
 AZR      IAML A  22 4 50.11      2298.1                                104 218 
 AZR     ES   0A  22 5  3.54                              96    0.2310  104 218 
 SRB     IP   0A  22 4 50.53                              96   -0.0810  107 128 
 SRB      IAML A  22 4 50.53      2158.1                                107 128 
 GRMI    IP   0A  22 4 51.46                              95   -0.0210  112  67 
 HSH      IAML A  22 4 54.66      1518.0                                133 158 
 HSH     IP   0A  22 4 54.66                              69   -0.1210  133 158 
 HSH     ES   0A  22 5 11.50                              69    0.0910  133 158 
 SBZ     IP   0A  22 4 56.98                              69   -0.0210  148 318 
 SBZ      IAML A  22 4 56.98      1269.2                                148 318 
 SBZ     ES   0A  22 5 15.57                              69    0.2610  148 318 
 GLBA    IP   0A  22 5  0.74                              69   -0.0910  173  58 
 MAKU     IAML A  22 5  5.53       695.1                                204 301 
 MAKU    IP   0A  22 5  5.53                              49    0.0310  204 301 
 MAKU    ES   0A  22 5 30.39                              49    0.2010  204 301 
 SAAT    IP   0A  22 5  7.42                              49    0.1510  218  42 
 GANJ    ES   0A  22 5 39.71                              49   -0.29 9  249 353 
 GNI      IAML A  22 5 11.96       428.3                                256 319 
 GNI     IP   0A  22 5 11.96                              49    0.00 9  256 319 
 GNI     ES   0A  22 5 41.48                              49   -0.00 9  256 319 
 ZNJK    IP   0A  22 5 12.74                              49    0.16 9  261 137 
 ZNJK     IAML A  22 5 12.74       408.9                                261 137 
 ZNJK    ES   0A  22 5 42.83                              49    0.26 9  261 137 
 VANB    IP   0A  22 5 15.96                              49   -0.17 9  290 275 
 VANB     IAML A  22 5 15.96       324.1                                290 275 
 VANB    ES   0A  22 5 48.40                              49   -0.38 9  290 275 
                                                                                
 2012  811 2212 47.1 L  38.418  46.757 17.5  New 23 0.2 3.3LNew                1
 GAP= 44        0.45       0.7     0.7  0.9 -0.5775E-01  0.3794E-01 -0.2792E+00E
 Action:ARG 24-03-13 16:01 OP:OBSP STATUS:               ID:20120811221246     I
 STAT SP IPHASW D HRMM SECON CODA AMPLIT PERI AZIMU VELO AIN AR TRES W  DIS CAZ7
 TVRZ    IP   0A  2212 50.79                             144    0.0310 12.3 321 
 TVRZ     IAML A  2212 50.79     13830.4                               12.3 321 
 TAHR    ES   0A  2212 56.77                             121    0.1210 26.9  73 
 HRS     IP   0A  2212 52.48                             121   -0.1510 27.3 114 
 HRS     ES   0A  2212 56.82                             121    0.0710 27.3 114 
 FTB     IP   0A  2212 56.76                             105   -0.0510 54.7 216 
 FTB      IAML A  2212 56.76      2302.8                               54.7 216 
 FTB     ES   0A  2213  4.31                             105    0.2410 54.7 216 
 TABZ    IP   0A  2212 56.84                             105   -0.0210 55.0 223 
 TBZ     IP   0A  2212 57.06                             105   -0.0910 56.8 249 
 TBZ     ES   0A  2213  4.83                             105    0.1710 56.8 249 
 BST     IP   0A  2213  0.72                             100   -0.2210 80.4 172 
 MRD     IP   0A  2213  3.60                              69   -0.0510 97.6 290 
 MRD     ES   0A  2213 16.28                              69    0.2410 97.6 290 
 SHB     IP   0A  2213  3.89                              69   -0.2210  101 262 
 SHB     ES   0A  2213 16.78                              69   -0.0610  101 262 
 SRB     IP   0A  2213  4.47                              69   -0.0410  103 129 
 AZR     IP   0A  2213  4.94                              69   -0.0810  107 220 
 AZR      IAML A  2213  4.94       872.1                                107 220 
 GRMI     IAML A  2213  5.23       842.8                                108  66 
 GRMI    IP   0A  2213  5.23                              69   -0.0310  108  66 
 HSH      IAML A  2213  8.70       620.0                                131 160 
 HSH     IP   0A  2213  8.70                              69   -0.1310  131 160 
 HSH     ES   0A  2213 25.19                              69    0.0910  131 160 
 LRK     IP   0A  2213 10.02                              69   -0.1810  140  79 
 GLBA    ES   0A  2213 35.62                              69    0.4310  169  57 
 LKRN    IP   0A  2213 15.99                              69   -0.1710  179  79 
 LKRN    ES   0A  2213 37.95                              69    0.0110  179  79 
 MAKU     IAML A  2213 20.18       264.7                                208 301 
 BRDA    IP   0A  2213 19.99                              49   -0.1510  208  10 
 BRDA    ES   0A  2213 44.75                              49   -0.1410  208  10 
 MAKU    IP   0A  2213 20.18                              49    0.0710  208 301 
 MAKU    ES   0A  2213 45.09                              49    0.2410  208 301 
 SAAT    IP   0A  2213 21.19                              49    0.1410  215  41 
 SAAT     IAML A  2213 21.19       245.6                                215  41 
 ZRD     ES   0A  2213 47.83                              49    0.0210  222  21 
 GANJ    ES   0A  2213 53.76                              49   -0.24 9  250 352 
 ZNJK     IAML A  2213 26.43       167.9                                258 138 
 ZNJK    IP   0A  2213 26.43                              49    0.10 9  258 138 
 ZNJK    ES   0A  2213 55.91                              49    0.18 9  258 138 
 VANB    IP   0A  2213 30.64                              49   -0.16 8  294 275 
 VANB     IAML A  2213 30.64       123.6                                294 275 
                                                                                
 2012  811 2340 53.0 L  38.474  46.802 15.3  New 24 0.1 2.2LNew                1
 GAP= 43        0.36       0.7     0.5  0.8 -0.5025E-01  0.8835E-01 -0.3913E+00E
 Action:ARG 24-03-13 16:01 OP:OBSP STATUS:               ID:20120811234052     I
 STAT SP IPHASW D HRMM SECON CODA AMPLIT PERI AZIMU VELO AIN AR TRES W  DIS CAZ7
 TAHR    IP   0A  2340 57.32                             123   -0.2010 21.8  85 
 TAHR    ES   0A  2341  0.79                             123   -0.1410 21.8  85 
 HRS      IAML A  2340 58.22       420.1                               27.2 130 
 HRS     IP   0A  2340 58.22                             117   -0.0710 27.2 130 
 HRS     ES   0A  2341  2.37                             117    0.0910 27.2 130 
 FTB     IP   0A  2341  3.69                             101   -0.0610 62.1 215 
 TBZ     IP   0A  2341  3.82                             101   -0.0610 62.9 245 
 TBZ     ES   0A  2341 12.15                             101    0.0910 62.9 245 
 BST     ES   0A  2341 18.81                              98    0.1310 86.2 175 
 ORD      IAML A  2341  7.74        96.6                               86.4 306 
 ORD     IP   0A  2341  7.74                              98    0.0410 86.4 306 
 MRD      IAML A  2341  9.83        78.4                               99.4 286 
 MRD     IP   0A  2341  9.83                              97    0.0110 99.4 286 
 MRD     ES   0A  2341 22.69                              97    0.2410 99.4 286 
 GRMI    IP   0A  2341 10.30                              97    0.0510  102  68 
 GRMI    ES   0A  2341 23.50                              97    0.2910  102  68 
 SRB     IP   0A  2341 10.58                              97   -0.0510  104 133 
 SHB     IP   0A  2341 10.71                              97   -0.1010  106 259 
 SHB      IAML A  2341 10.71        71.6                                106 259 
 SHB     ES   0A  2341 24.21                              97    0.0110  106 259 
 AZR     IP   0A  2341 12.02                              69   -0.0910  114 219 
 AZR      IAML A  2341 12.02        63.0                                114 219 
 LRK     IP   0A  2341 15.35                              69   -0.0610  135  82 
 NAX     IP   0A  2341 15.69                              69   -0.0510  138 305 
 SBZ      IAML A  2341 17.43        39.8                                149 314 
 SBZ     IP   0A  2341 17.43                              69   -0.0810  149 314 
 ASTR    IP   0A  2341 21.18                              69   -0.1210  174  86 
 LKRN    IP   0A  2341 21.32                              69   -0.0510  174  81 
 BRDA    ES   0A  2341 49.58                              49   -0.0910  201   9 
 SAAT    ES   0A  2341 51.40                              49    0.2310  208  42 
 MAKU    ES   0A  2341 51.37                              49    0.2010  208 299 
 ZRD      IAML A  2341 26.99        19.7                                214  21 
 ZRD     IP   0A  2341 26.99                              49    0.0010  214  21 
 ZRD     ES   0A  2341 52.50                              49    0.0010  214  21 
 GANJ    IP   0A  2341 30.69                              49   -0.0410  245 350 
 GANJ    ES   0A  2341 58.91                              49   -0.1410  245 350 
 GNI     IP   0A  2341 32.33                              49    0.04 9  257 317 
 GNI     ES   0A  2342  1.75                              49   -0.03 9  257 317 
 ZNJK    IP   0A  2341 32.85                              49    0.18 9  260 140 
 ZNJK     IAML A  2341 32.85        13.0                                260 140 
 VANB    ES   0A  2342 10.29                              49   -0.26 8  298 274 
                                                                                
