 2012  811 1600 50.5 L  38.412  46.798 15.6  New 24 0.1 4.0LNew                1
 GAP= 45        0.29       0.5     0.4  0.7 -0.4010E-02 -0.1848E-01 -0.1616E+00E
 Action:ARG 24-03-13 16:01 OP:OBSP STATUS:               ID:20120811160050     I
 STAT SP IPHASW D HRMM SECON CODA AMPLIT PERI AZIMU VELO AIN AR TRES W  DIS CAZ7
 TAHR    ES   0A  16 0 59.05                             121    0.0410 23.7  69 
 HRS     IP   0A  16 0 55.27                             121   -0.1110 23.8 116 
 HRS     ES   0A  16 0 59.07                             121    0.0610 23.8 116 
 FTB     ES   0A  16 1  7.83                             103    0.0410 56.3 219 
 TABZ    ES   0A  16 1  8.05                             103    0.0610 57.0 226 
 TBZ     IP   0A  16 1  0.86                             102   -0.1110 59.9 251 
 TBZ      IAML A  16 1  0.86     10428.8                               59.9 251 
 TBZ     ES   0A  16 1  8.85                             102    0.0410 59.9 251 
 BST      IAML A  16 1  4.01      6755.9                               79.3 174 
 BST     IP   0A  16 1  4.01                              99   -0.1010 79.3 174 
 BST     ES   0A  16 1 14.37                              99    0.0710 79.3 174 
 ORD     IP   0A  16 1  5.89                              98   -0.0210 90.4 310 
 ORD     ES   0A  16 1 17.66                              98    0.2210 90.4 310 
 SRB     IP   0A  16 1  7.41                              97   -0.0710  100 130 
 SRB      IAML A  16 1  7.41      4697.7                                100 130 
 SRB     ES   0A  16 1 20.32                              97    0.1210  100 130 
 MRD     IP   0A  16 1  7.60                              97   -0.0710  101 290 
 MRD     ES   0A  16 1 20.64                              97    0.1210  101 290 
 SHB     IP   0A  16 1  7.95                              97   -0.1810  104 262 
 GRMI    IP   0A  16 1  8.26                              69   -0.0510  105  65 
 AZR     ES   0A  16 1 22.53                              69    0.0210  108 221 
 LRK      IAML A  16 1 13.11      2821.5                                137  79 
 LRK     IP   0A  16 1 13.11                              69   -0.0810  137  79 
 NAX     IP   0A  16 1 13.76                              69   -0.0910  141 307 
 SBZ      IAML A  16 1 15.64      2385.0                                154 316 
 SBZ     IP   0A  16 1 15.64                              69   -0.1110  154 316 
 GLBA     IAML A  16 1 17.63      2008.9                                166  56 
 GLBA    IP   0A  16 1 17.63                              69   -0.0710  166  56 
 GLBA    ES   0A  16 1 38.20                              69    0.1110  166  56 
 ASTR     IAML A  16 1 18.86      1830.8                                175  84 
 ASTR    IP   0A  16 1 18.86                              69   -0.1210  175  84 
 BRDA    IP   0A  16 1 23.69                              49   -0.0510  208   9 
 MAKU    IP   0A  16 1 24.21                              49    0.0810  211 300 
 SAAT    IP   0A  16 1 24.50                              49    0.0810  214  41 
 SAAT    ES   0A  16 1 50.01                              49    0.1710  214  41 
 ZRD     IP   0A  16 1 25.29                              49   -0.0310  221  20 
 ZRD     ES   0A  16 1 51.38                              49   -0.0410  221  20 
 GANJ    IP   0A  16 1 29.04                              49   -0.04 9  251 351 
 ZNJK    IP   0A  16 1 29.70                              49    0.13 9  255 139 
 GNI     ES   0A  16 2  0.32                              49   -0.00 9  262 318 
                                                                                
 2012  811 1615  4.3 L  38.433  46.672 16.5  New 24 0.1 2.7LNew                1
 GAP= 49        0.38       0.5     0.6  0.7  0.1899E-01 -0.4281E-01 -0.1012E+00E
 Action:ARG 24-03-13 16:01 OP:OBSP STATUS:               ID:20120811161504     I
 STAT SP IPHASW D HRMM SECON CODA AMPLIT PERI AZIMU VELO AIN AR TRES W  DIS CAZ7
 TVRZ    ES   0A  1615 10.00                             154    0.2110 7.87 357 
 TAHR    IP   0A  1615 10.66                             114   -0.0310 33.7  79 
 HRS     IP   0A  1615 10.69                             113   -0.1610 34.8 111 
 HRS     ES   0A  1615 15.71                             113   -0.0410 34.8 111 
 TBZ     IP   0A  1615 13.28                             106   -0.0510 50.7 244 
 TBZ     ES   0A  1615 20.24                             106    0.1610 50.7 244 
 TABZ     IAML A  1615 13.50       631.8                               51.5 216 
 TABZ    IP   0A  1615 13.50                             105    0.0410 51.5 216 
 ORD     IP   0A  1615 18.07                             100   -0.0710 80.6 313 
 BST      IAML A  1615 18.46       322.6                               83.5 167 
 BST     IP   0A  1615 18.46                              99   -0.1410 83.5 167 
 BST     ES   0A  1615 29.31                              99    0.0010 83.5 167 
 MRD     IP   0A  1615 19.62                              99   -0.0510 90.0 290 
 SHB     IP   0A  1615 20.12                              98   -0.1210 93.5 260 
 SHB      IAML A  1615 20.12       265.4                               93.5 260 
 SHB     ES   0A  1615 32.22                              98    0.0510 93.5 260 
 AZR     ES   0A  1615 35.09                              69    0.2310  103 216 
 SRB      IAML A  1615 22.71       209.8                                110 128 
 SRB     IP   0A  1615 22.71                              69   -0.1010  110 128 
 NAX     IP   0A  1615 25.92                              69   -0.1410  131 309 
 NAX      IAML A  1615 25.92       152.9                                131 309 
 HSH     IP   0A  1615 26.57                              69   -0.1610  136 157 
 HSH     ES   0A  1615 43.51                              69   -0.0310  136 157 
 SBZ     IP   0A  1615 27.97                              69   -0.1210  144 318 
 LRK     IP   0A  1615 28.46                              69   -0.0610  147  80 
 GLBA    IP   0A  1615 32.88                              69    0.2110  174  58 
 GLBA     IAML A  1615 32.88        93.4                                174  58 
 LKRN    IP   0A  1615 34.42                              69   -0.0710  186  80 
 LKRN     IAML A  1615 34.42        82.9                                186  80 
 LKRN    ES   0A  1615 57.24                              69    0.1310  186  80 
 MAKU    ES   0A  1616  0.91                              49    0.2410  201 301 
 BRDA     IAML A  1615 37.35        65.9                                208  12 
 BRDA    IP   0A  1615 37.35                              49   -0.0610  208  12 
 BRDA    ES   0A  1616  2.16                              49   -0.0610  208  12 
 SAAT    IP   0A  1615 39.05                              49    0.2410  219  43 
 ZRD     IP   0A  1615 39.27                              49    0.0210  223  23 
 ZRD     ES   0A  1616  5.51                              49    0.0710  223  23 
 GANJ    ES   0A  1616 10.65                              49   -0.15 9  248 353 
 ZNJK     IAML A  1615 44.51        40.2                                264 137 
 ZNJK    IP   0A  1615 44.51                              49    0.11 9  264 137 
 ZNJK    ES   0A  1616 14.57                              49    0.12 9  264 137 
 VANB    ES   0A  1616 19.03                              49   -0.27 9  287 275 
                                                                                
 2012  811 1621 53.0 L  38.414  46.646 19.4  New 17 0.1 4.1LNew                1
 GAP= 63        0.32       0.7     0.5  0.8 -0.1439E-02  0.6383E-01 -0.2878E+00E
 Action:ARG 24-03-13 16:01 OP:OBSP STATUS:               ID:20120811162152     I
 STAT SP IPHASW D HRMM SECON CODA AMPLIT PERI AZIMU VELO AIN AR TRES W  DIS CAZ7
 HRS     IP   0A  1621 59.91                             116   -0.0910 36.2 107 
 HRS      IAML A  1621 59.91     25768.5                               36.2 107 
 HRS     ES   0A  1622  5.24                             116    0.0310 36.2 107 
 TAHR    ES   0A  1622  5.27                             116    0.0310 36.4  77 
 TBZ     IP   0A  1622  1.67                             110   -0.0610 47.7 245 
 TBZ     ES   0A  1622  8.32                             110    0.0810 47.7 245 
 TABZ    ES   0A  1622  8.39                             110   -0.0710 48.5 215 
 ORD     ES   0A  1622 17.13                              69   -0.0110 80.4 315 
 BST     IP   0A  1622  6.95                              69   -0.1110 82.0 165 
 MRD     IP   0A  1622  8.08                              69   -0.0010 88.7 292 
 MRD      IAML A  1622  8.08      7078.8                               88.7 292 
 SHB     IP   0A  1622  8.40                              69   -0.0310 90.9 261 
 SHB     ES   0A  1622 20.11                              69    0.1510 90.9 261 
 SRB     IP   0A  1622 11.40                              69   -0.0510  111 126 
 SRB     ES   0A  1622 25.36                              69    0.1110  111 126 
 GRMI    IP   0A  1622 12.44                              69   -0.0210  117  68 
 GRMI    ES   0A  1622 27.17                              69    0.1610  117  68 
 SBZ     ES   0A  1622 34.34                              69   -0.0110  145 319 
 LKRN    ES   0A  1622 46.14                              69   -0.1010  189  79 
 MAKU    IP   0A  1622 24.91                              49    0.0910  200 302 
 MAKU    ES   0A  1622 48.83                              49    0.1810  200 302 
 ZRD     ES   0A  1622 54.08                              49   -0.1410  226  23 
 GNI     IP   0A  1622 31.47                              49    0.04 9  253 320 
 GNI     ES   0A  1623  0.18                              49   -0.03 9  253 320 
 ZNJK    IP   0A  1622 32.92                              49    0.11 9  264 136 
 ZNJK     IAML A  1622 32.92      1010.2                                264 136 
 VANB    ES   0A  1623  6.73                              49   -0.29 9  285 275 
                                                                                
 2012  811 1634 32.7 L  38.447  46.653 15.6  New 25 0.1 3.3LNew                1
 GAP= 48        0.37       0.6     0.6  0.7  0.7569E-01 -0.5474E-01 -0.1649E+00E
 Action:ARG 24-03-13 16:01 OP:OBSP STATUS:               ID:20120811163432     I
 STAT SP IPHASW D HRMM SECON CODA AMPLIT PERI AZIMU VELO AIN AR TRES W  DIS CAZ7
 TVRZ    ES   0A  1634 37.74                             157   -0.0310 6.47  12 
 HRS      IAML A  1634 39.33      4020.9                               36.9 113 
 HRS     IP   0A  1634 39.33                             110   -0.1910 36.9 113 
 HRS     ES   0A  1634 44.52                             110   -0.0910 36.9 113 
 TBZ     IP   0A  1634 41.51                             105   -0.0510 49.9 242 
 TBZ     ES   0A  1634 48.34                             105    0.1510 49.9 242 
 TABZ    IP   0A  1634 41.87                             104   -0.0110 51.8 214 
 ORD     ES   0A  1634 56.42                              99    0.2010 78.4 313 
 BST      IAML A  1634 47.21      1248.1                               85.3 166 
 BST     IP   0A  1634 47.21                              98   -0.0810 85.3 166 
 BST     ES   0A  1634 58.31                              98    0.1110 85.3 166 
 MRD     IP   0A  1634 47.74                              98    0.0210 88.0 290 
 SHB     IP   0A  1634 48.43                              98    0.0310 92.2 259 
 AZR     IP   0A  1634 50.27                              97    0.0110  104 215 
 SRB     IP   0A  1634 51.45                              69   -0.1610  112 128 
 GRMI    IP   0A  1634 52.15                              69    0.0810  115  69 
 NAX     ES   0A  1635 10.31                              69    0.0510  129 309 
 HSH     IP   0A  1634 55.40                              69   -0.1110  138 157 
 HSH      IAML A  1634 55.40       580.7                                138 157 
 SBZ     IP   0A  1634 56.11                              69   -0.1010  142 318 
 SBZ     ES   0A  1635 13.89                              69    0.0710  142 318 
 LRK     ES   0A  1635 15.76                              69    0.2210  149  81 
 GLBA    ES   0A  1635 22.96                              69    0.3610  175  59 
 ASTR    IP   0A  1635  2.95                              69   -0.1110  187  85 
 LKRN    IP   0A  1635  3.14                              69   -0.0210  188  80 
 LKRN     IAML A  1635  3.14       327.8                                188  80 
 MAKU     IAML A  1635  4.70       286.3                                198 301 
 MAKU    IP   0A  1635  4.70                              49   -0.0610  198 301 
 MAKU    ES   0A  1635 28.87                              49    0.0910  198 301 
 BRDA    IP   0A  1635  5.64                              49   -0.1410  207  13 
 BRDA     IAML A  1635  5.64       265.6                                207  13 
 BRDA    ES   0A  1635 30.40                              49   -0.1610  207  13 
 SAAT    IP   0A  1635  7.41                              49    0.0910  219  44 
 SAAT     IAML A  1635  7.41       237.6                                219  44 
 ZRD      IAML A  1635  7.58       230.3                                222  23 
 ZRD     IP   0A  1635  7.58                              49   -0.0910  222  23 
 GANJ    IP   0A  1635 10.52                              49   -0.0910  246 353 
 GANJ    ES   0A  1635 38.83                              49   -0.1910  246 353 
 ZNJK    IP   0A  1635 13.32                              49    0.14 9  267 137 
 ZNJK     IAML A  1635 13.32       158.0                                267 137 
 ZNJK    ES   0A  1635 43.67                              49    0.15 9  267 137 
 VANB    ES   0A  1635 47.43                              49   -0.08 9  285 274 
                                                                                
 2012  811 1737 58.6 L  38.398  46.870 22.0  New 24 0.2 2.1LNew                1
 GAP= 50        0.47       0.8     0.7  1.0  0.5424E-01  0.1810E+00 -0.1248E+00E
 Action:ARG 24-03-13 16:01 OP:OBSP STATUS:               ID:20120811173758     I
 STAT SP IPHASW D HRMM SECON CODA AMPLIT PERI AZIMU VELO AIN AR TRES W  DIS CAZ7
 HRS     IP   0A  1738  3.36                             137    0.0210 17.4 120 
 HRS     ES   0A  1738  7.16                             137    0.2810 17.4 120 
 TAHR     IAML A  1738  3.38       586.6                               18.8  57 
 TAHR    IP   0A  1738  3.38                             135   -0.1110 18.8  57 
 TAHR    ES   0A  1738  7.18                             135    0.0410 18.8  57 
 FTB     IP   0A  1738  8.96                              97   -0.2010 59.3 225 
 TBZ      IAML A  1738  9.93       110.1                               65.5 254 
 TBZ     IP   0A  1738  9.93                              96   -0.1610 65.5 254 
 TBZ     ES   0A  1738 18.65                              96   -0.0410 65.5 254 
 BST     IP   0A  1738 11.81                              94   -0.0910 77.3 179 
 BST     ES   0A  1738 21.94                              94    0.0810 77.3 179 
 SRB     IP   0A  1738 14.61                              92    0.1210 94.2 132 
 SRB      IAML A  1738 14.61        65.7                               94.2 132 
 ORD     IP   0A  1738 14.81                              92   -0.0010 96.3 308 
 MRD     IP   0A  1738 16.49                              92   -0.0610  108 289 
 MRD     ES   0A  1738 30.13                              92    0.1510  108 289 
 SHB     IP   0A  1738 16.79                              92   -0.1310  110 264 
 SHB     ES   0A  1738 30.66                              92    0.0210  110 264 
 AZR     IP   0A  1738 16.93                              92   -0.2010  111 225 
 AZR      IAML A  1738 16.93        50.0                                111 225 
 HSH     IP   0A  1738 19.45                              91    0.0710  126 164 
 LRK     IP   0A  1738 20.00                              91   -0.1410  131  78 
 NAX      IAML A  1738 22.62        32.0                                147 306 
 NAX     IP   0A  1738 22.62                              91   -0.0110  147 306 
 NAX     ES   0A  1738 40.87                              91    0.2510  147 306 
 SBZ     ES   0A  1738 44.11                              91    0.2810  159 315 
 GLBA    IP   0A  1738 24.79                              91   -0.1110  162  54 
 GLBA     IAML A  1738 24.79        27.3                                162  54 
 ASTR    ES   0A  1738 46.27                              91   -0.0710  169  83 
 LKRN     IAML A  1738 25.97        24.9                                170  78 
 LKRN    IP   0A  1738 25.97                              91   -0.1410  170  78 
 LKRN    ES   0A  1738 46.72                              91    0.0110  170  78 
 BRDA    IP   0A  1738 31.03                              54   -0.2510  209   7 
 SAAT    IP   0A  1738 31.57                              54    0.0410  211  39 
 MAKU    ES   0A  1738 57.84                              54    0.1910  218 300 
 ZRD     IP   0A  1738 32.56                              54   -0.1510  220  18 
 ZNJK    ES   0A  1739  5.14                              54    0.47 9  250 140 
 GNI     ES   0A  1739  8.60                              54    0.14 9  268 317 
 VANB    IP   0A  1738 43.04                              54   -0.05 8  304 275 
 VANB     IAML A  1738 43.04         7.2                                304 275 
 VANB    ES   0A  1739 16.14                              54   -0.29 8  304 275 
                                                                                
