 2012  811 1912  4.9 L  38.429  46.793 20.4  New 22 0.1 2.9LNew                1
 GAP= 43        0.37       0.5     0.5  0.9  0.2095E-02 -0.6543E-01 -0.6946E-01E
 Action:ARG 24-03-13 16:01 OP:OBSP STATUS:               ID:20120811191204     I
 STAT SP IPHASW D HRMM SECON CODA AMPLIT PERI AZIMU VELO AIN AR TRES W  DIS CAZ7
 TVRZ    IP   0A  1912  9.00                             142   -0.0410 13.7 307 
 TVRZ    ES   0A  1912 12.31                             142    0.1510 13.7 307 
 HRS     IP   0A  1912 10.34                             122    0.0110 25.0 120 
 HRS     ES   0A  1912 14.65                             122    0.2310 25.0 120 
 FTB      IAML A  1912 15.00       811.9                               57.6 218 
 FTB     IP   0A  1912 15.00                              92   -0.1210 57.6 218 
 TABZ     IAML A  1912 15.06       803.2                               58.1 225 
 TABZ    IP   0A  1912 15.06                              92   -0.1410 58.1 225 
 TABZ    ES   0A  1912 22.90                              92   -0.0310 58.1 225 
 TBZ     IP   0A  1912 15.39                              91   -0.1410 60.2 249 
 TBZ     ES   0A  1912 23.48                              91   -0.0310 60.2 249 
 BST     IP   0A  1912 18.58                              91   -0.1710 81.3 174 
 BST     ES   0A  1912 29.07                              91   -0.0810 81.3 174 
 ORD     ES   0A  1912 31.31                              90    0.1110 88.9 309 
 MRD     IP   0A  1912 21.62                              90   -0.0310  100 289 
 MRD      IAML A  1912 21.62       376.9                                100 289 
 MRD     ES   0A  1912 34.39                              90    0.1610  100 289 
 SRB     IP   0A  1912 21.91                              90    0.0510  102 131 
 SRB      IAML A  1912 21.91       370.2                                102 131 
 SRB     ES   0A  1912 34.88                              90    0.2910  102 131 
 SHB     IP   0A  1912 22.19                              90   -0.0310  104 261 
 SHB     ES   0A  1912 35.38                              90    0.1510  104 261 
 GRMI    IP   0A  1912 22.18                              90   -0.1610  105  66 
 GRMI    ES   0A  1912 35.37                              90   -0.0610  105  66 
 AZR     IP   0A  1912 23.00                              90   -0.0910  110 221 
 AZR     ES   0A  1912 36.80                              90    0.0710  110 221 
 LRK     IP   0A  1912 27.13                              90   -0.1610  137  80 
 NAX      IAML A  1912 27.68       220.7                                140 307 
 NAX     IP   0A  1912 27.68                              90   -0.0510  140 307 
 SBZ      IAML A  1912 29.55       191.3                                152 315 
 SBZ     IP   0A  1912 29.55                              90   -0.0510  152 315 
 ASTR    ES   0A  1912 54.19                              90   -0.0910  175  85 
 LKRN    IP   0A  1912 33.10                              90   -0.1610  176  79 
 BRDA    IP   0A  1912 37.27                              54   -0.1010  206   9 
 SAAT    IP   0A  1912 38.21                              54    0.0810  212  41 
 SAAT    ES   0A  1913  3.21                              54    0.1510  212  41 
 GANJ    IP   0A  1912 42.70                              54    0.00 9  249 351 
 GANJ     IAML A  1912 42.70        72.8                                249 351 
 ZNJK    ES   0A  1913 12.92                              54    0.23 9  257 139 
 GNI     IP   0A  1912 44.13                              54    0.07 9  260 318 
                                                                                
 2012  811 1929 29.5 L  38.439  46.795 26.5  New 23 0.1 2.7LNew                1
 GAP= 43        0.26       0.4     0.4  0.6  0.1359E-01 -0.6415E-01 -0.4257E-01E
 Action:ARG 24-03-13 16:01 OP:OBSP STATUS:               ID:20120811192929     I
 STAT SP IPHASW D HRMM SECON CODA AMPLIT PERI AZIMU VELO AIN AR TRES W  DIS CAZ7
 TVRZ    IP   0A  1929 34.44                             151    0.0210 13.3 303 
 TVRZ     IAML A  1929 34.44      3087.0                               13.3 303 
 TVRZ    ES   0A  1929 38.30                             151    0.1910 13.3 303 
 TAHR    IP   0A  1929 35.23                             135   -0.0910 23.0  76 
 HRS     IP   0A  1929 35.58                             132   -0.0010 25.4 122 
 HRS     ES   0A  1929 40.29                             132    0.1510 25.4 122 
 FTB      IAML A  1929 39.99       412.7                               58.5 217 
 FTB     IP   0A  1929 39.99                             107   -0.0810 58.5 217 
 TABZ    IP   0A  1929 40.06                             106   -0.0710 58.9 224 
 TABZ    ES   0A  1929 48.14                             106    0.0510 58.9 224 
 TBZ     IP   0A  1929 40.38                             106   -0.0210 60.8 248 
 BST     IP   0A  1929 43.54                              99   -0.0810 82.3 174 
 BST     ES   0A  1929 54.23                              99    0.0310 82.3 174 
 ORD      IAML A  1929 44.45       237.1                               88.4 308 
 ORD     IP   0A  1929 44.45                              98   -0.1010 88.4 308 
 ORD     ES   0A  1929 55.82                              98   -0.0010 88.4 308 
 MRD     IP   0A  1929 46.22                              97   -0.1010  100 288 
 MRD      IAML A  1929 46.22       195.5                                100 288 
 SRB     ES   0A  1929 59.41                              96   -0.0710  102 132 
 SHB     IP   0A  1929 46.95                              96   -0.0110  104 261 
 GRMI    IP   0A  1929 46.84                              96   -0.1010  104  66 
 GRMI    ES   0A  1929 59.99                              96   -0.0110  104  66 
 SHB     ES   0A  1930  0.19                              96    0.1410  104 261 
 AZR     ES   0A  1930  1.71                              96    0.0110  110 220 
 HSH      IAML A  1929 51.19       118.9                                132 162 
 HSH     IP   0A  1929 51.19                              94   -0.0710  132 162 
 NAX     IP   0A  1929 52.22                              94   -0.1010  139 306 
 NAX     ES   0A  1930  9.42                              94   -0.0110  139 306 
 SBZ     IP   0A  1929 54.07                              94   -0.1010  151 315 
 SBZ      IAML A  1929 54.07        98.2                                151 315 
 GLBA    ES   0A  1930 16.25                              93   -0.0210  165  57 
 LKRN    IP   0A  1929 57.62                              54   -0.0110  175  80 
 LKRN    ES   0A  1930 18.76                              54    0.0410  175  80 
 ASTR     IAML A  1929 57.48        73.2                                175  85 
 LKRN     IAML A  1929 57.62        72.7                                175  80 
 ASTR    IP   0A  1929 57.48                              54   -0.0510  175  85 
 BRDA    ES   0A  1930 25.24                              54    0.0910  205   9 
 ZRD     IP   0A  1930  3.01                              54    0.1010  218  20 
 GANJ    IP   0A  1930  6.75                              54    0.11 9  248 351 
 ZNJK    IP   0A  1930  7.93                              54    0.15 9  258 139 
 ZNJK    ES   0A  1930 36.55                              54    0.06 9  258 139 
                                                                                
 2012  811 1930 45.4 L  38.443  46.927 22.8  New 21 0.1 2.8LNew                1
 GAP= 62        0.31       0.5     0.5  0.7 -0.4093E-01 -0.2038E-01 -0.5122E-01E
 Action:ARG 24-03-13 16:01 OP:OBSP STATUS:               ID:20120811193045     I
 STAT SP IPHASW D HRMM SECON CODA AMPLIT PERI AZIMU VELO AIN AR TRES W  DIS CAZ7
 TAHR    ES   0A  1930 53.11                             150    0.1510 12.0  64 
 HRS      IAML A  1930 50.06      2762.2                               17.1 144 
 HRS     IP   0A  1930 50.06                             139   -0.1210 17.1 144 
 HRS     ES   0A  1930 53.78                             139    0.0210 17.1 144 
 TVRZ     IAML A  1930 50.78      1541.1                               23.6 287 
 TVRZ    IP   0A  1930 50.78                             129   -0.1110 23.6 287 
 TVRZ    ES   0A  1930 55.04                             129    0.0310 23.6 287 
 FTB      IAML A  1930 56.96       437.4                               66.5 225 
 FTB     IP   0A  1930 56.96                              97   -0.0610 66.5 225 
 FTB     ES   0A  1931  5.85                              97    0.1110 66.5 225 
 TABZ    IP   0A  1930 57.16                              97   -0.0710 67.8 231 
 TBZ     IP   0A  1930 57.75                              96   -0.0810 71.8 251 
 TBZ     ES   0A  1931  7.24                              96    0.0910 71.8 251 
 BST      IAML A  1930 59.28       327.9                               82.4 182 
 BST     IP   0A  1930 59.28                              94   -0.1810 82.4 182 
 BST     ES   0A  1931  9.91                              94   -0.1010 82.4 182 
 GRMI    IP   0A  1931  1.15                              93    0.0110 93.4  64 
 ORD     IP   0A  1931  1.61                              93   -0.1410 97.4 304 
 MRD     IP   0A  1931  3.75                              93   -0.0610  111 286 
 MRD     ES   0A  1931 17.74                              93    0.1110  111 286 
 SHB      IAML A  1931  4.49       188.0                                116 262 
 SHB     IP   0A  1931  4.49                              92   -0.0610  116 262 
 SHB     ES   0A  1931 19.02                              92    0.1010  116 262 
 AZR     IP   0A  1931  4.95                              92   -0.0510  119 225 
 AZR     ES   0A  1931 19.83                              92    0.1310  119 225 
 LRK     IP   0A  1931  5.93                              92   -0.0710  125  79 
 NAX     ES   0A  1931 27.71                              92   -0.0110  149 304 
 GLBA    IP   0A  1931 10.59                              91   -0.0010  155  55 
 GLBA    ES   0A  1931 29.70                              91    0.2110  155  55 
 LKRN     IAML A  1931 11.89       106.0                                164  79 
 LKRN    IP   0A  1931 11.89                              91   -0.0810  164  79 
 SAAT    IP   0A  1931 17.43                              54    0.0910  204  39 
 SAAT     IAML A  1931 17.43        69.2                                204  39 
 ZRD      IAML A  1931 18.53        62.3                                214  18 
 ZRD     IP   0A  1931 18.53                              54   -0.0810  214  18 
 ZRD     ES   0A  1931 43.38                              54   -0.1410  214  18 
 ZNJK    IP   0A  1931 23.27                              54    0.13 9  251 141 
 ZNJK    ES   0A  1931 51.58                              54    0.13 9  251 141 
 GNI     IP   0A  1931 25.27                              54    0.07 9  267 316 
 GNI      IAML A  1931 25.27        38.3                                267 316 
 VANB    IP   0A  1931 30.45                              54    0.11 8  309 274 
                                                                                
 2012  811 1940 17.4 L  38.444  46.804 20.8  New 23 0.2 2.6LNew                1
 GAP= 46        0.46       0.7     0.7  1.1  0.8034E-02  0.1607E+00 -0.2764E+00E
 Action:ARG 24-03-13 16:01 OP:OBSP STATUS:               ID:20120811194017     I
 STAT SP IPHASW D HRMM SECON CODA AMPLIT PERI AZIMU VELO AIN AR TRES W  DIS CAZ7
 TVRZ    ES   0A  1940 24.82                             143    0.0810 13.6 300 
 TAHR     IAML A  1940 22.32      1482.7                               22.2  77 
 TAHR    IP   0A  1940 22.32                             127   -0.2110 22.2  77 
 TAHR    ES   0A  1940 26.24                             127   -0.1410 22.2  77 
 HRS      IAML A  1940 22.94      1223.5                               25.0 124 
 HRS     IP   0A  1940 22.94                             123    0.0510 25.0 124 
 HRS     ES   0A  1940 27.32                             123    0.3110 25.0 124 
 TABZ    IP   0A  1940 27.79                              93   -0.2010 59.9 224 
 TABZ    ES   0A  1940 35.80                              93   -0.1310 59.9 224 
 TBZ     IP   0A  1940 28.10                              93   -0.1710 61.7 248 
 TBZ     ES   0A  1940 36.34                              93   -0.0810 61.7 248 
 BST     IP   0A  1940 31.38                              91   -0.1210 82.8 175 
 BST     ES   0A  1940 42.09                              91    0.0210 82.8 175 
 ORD     IP   0A  1940 32.41                              91    0.0110 88.6 308 
 MRD     IP   0A  1940 34.20                              91   -0.0310  101 288 
 MRD     ES   0A  1940 47.02                              91    0.1710  101 288 
 SRB     IP   0A  1940 34.60                              91    0.1610  102 132 
 SRB      IAML A  1940 34.60       184.5                                102 132 
 SRB     ES   0A  1940 47.72                              91    0.5010  102 132 
 SHB      IAML A  1940 34.86       174.8                                105 261 
 SHB     IP   0A  1940 34.86                              91   -0.0610  105 261 
 SHB     ES   0A  1940 48.17                              91    0.1110  105 261 
 AZR     IP   0A  1940 35.73                              91   -0.1510  111 221 
 AZR      IAML A  1940 35.73       158.7                                111 221 
 HSH     IP   0A  1940 39.16                              91   -0.0010  133 162 
 LRK     IP   0A  1940 39.49                              90   -0.1410  136  80 
 LRK      IAML A  1940 39.49       117.3                                136  80 
 NAX     ES   0A  1940 57.59                              90    0.2610  140 306 
 GLBA    IP   0A  1940 43.88                              90   -0.0810  164  57 
 ASTR     IAML A  1940 45.29        75.4                                174  85 
 ASTR    IP   0A  1940 45.29                              90   -0.1810  174  85 
 LKRN    IP   0A  1940 45.46                              90   -0.1310  175  80 
 LKRN     IAML A  1940 45.46        74.8                                175  80 
 BRDA    IP   0A  1940 49.58                              54   -0.0610  205   9 
 MAKU    ES   0A  1941 15.21                              54    0.2310  210 299 
 ZRD     IP   0A  1940 51.22                              54   -0.0110  217  20 
 ZRD     ES   0A  1941 16.60                              54    0.0010  217  20 
 GANJ    ES   0A  1941 23.19                              54   -0.01 9  248 351 
 GNI      IAML A  1940 56.62        33.0                                260 317 
 GNI     IP   0A  1940 56.62                              54    0.15 9  260 317 
 VANB     IAML A  1941  1.22        23.8                                298 274 
 VANB    IP   0A  1941  1.22                              54    0.01 8  298 274 
 VANB    ES   0A  1941 33.87                              54   -0.19 8  298 274 
                                                                                
 2012  811 2010 30.4 L  38.421  46.772 14.8  New 22 0.2 3.4LNew                1
 GAP= 51        0.48       0.9     0.7  1.3  0.1296E+00 -0.1673E+00 -0.7851E+00E
 Action:ARG 24-03-13 16:01 OP:OBSP STATUS:               ID:20120811201029     I
 STAT SP IPHASW D HRMM SECON CODA AMPLIT PERI AZIMU VELO AIN AR TRES W  DIS CAZ7
 HRS     IP   0A  2010 35.35                             117   -0.1410 26.2 116 
 HRS     ES   0A  2010 39.43                             117    0.0810 26.2 116 
 TABZ     IAML A  2010 40.05      2811.7                               56.1 224 
 TABZ    IP   0A  2010 40.05                             102   -0.1210 56.1 224 
 TABZ    ES   0A  2010 47.67                             102    0.1510 56.1 224 
 TBZ     IP   0A  2010 40.27                             102   -0.2310 58.2 249 
 BST     ES   0A  2010 54.63                              98    0.1810 80.6 173 
 ORD     IP   0A  2010 45.34                              98   -0.0010 88.0 310 
 ORD      IAML A  2010 45.34      1475.2                               88.0 310 
 ORD     ES   0A  2010 56.92                              98    0.3410 88.0 310 
 MRD     IP   0A  2010 47.04                              97   -0.0510 98.7 289 
 MRD      IAML A  2010 47.04      1242.6                               98.7 289 
 SHB     IP   0A  2010 47.36                              96   -0.2510  102 262 
 SHB     ES   0A  2011  0.46                              96   -0.0910  102 262 
 SRB     IP   0A  2010 47.82                              96    0.1410  102 130 
 GRMI    IP   0A  2010 48.25                              96   -0.1410  107  66 
 GRMI     IAML A  2010 48.25      1073.3                                107  66 
 HSH      IAML A  2010 52.23       775.0                                131 161 
 HSH     IP   0A  2010 52.23                              69    0.0410  131 161 
 NAX     IP   0A  2010 53.33                              69   -0.0410  139 307 
 NAX      IAML A  2010 53.33       710.8                                139 307 
 NAX     ES   0A  2011 10.90                              69    0.2710  139 307 
 SBZ      IAML A  2010 55.21       610.8                                151 316 
 SBZ     IP   0A  2010 55.21                              69   -0.0810  151 316 
 SBZ     ES   0A  2011 14.19                              69    0.2110  151 316 
 GLBA    ES   0A  2011 18.33                              69   -0.0210  168  57 
 ASTR     IAML A  2010 58.99       453.1                                177  84 
 ASTR    IP   0A  2010 58.99                              69   -0.1910  177  84 
 LKRN    IP   0A  2010 59.18                              69   -0.1610  178  79 
 LKRN    ES   0A  2011 21.14                              69    0.0610  178  79 
 MAKU    IP   0A  2011  3.82                              49    0.0710  209 300 
 MAKU     IAML A  2011  3.82       333.1                                209 300 
 SAAT    IP   0A  2011  4.50                              49    0.0710  214  41 
 SAAT    ES   0A  2011 30.26                              49    0.2810  214  41 
 ZRD     ES   0A  2011 31.31                              49   -0.0610  221  21 
 GANJ    ES   0A  2011 37.33                              49   -0.37 9  250 351 
 ZNJK    IP   0A  2011 10.01                              49    0.24 9  258 138 
 GNI     IP   0A  2011 10.04                              49   -0.02 9  260 318 
 GNI     ES   0A  2011 39.83                              49   -0.00 9  260 318 
 VANB    ES   0A  2011 47.32                              49   -0.25 8  296 275 
                                                                                
